{"type":"Feature","geometry":{"type":"Point","coordinates":[47.78,13.02,430]},"properties":{"stationId":"LOWS","rawText":"LOWS 101350Z 32007KT 300V360 9999 FEW024 SCT040 BKN055 22/17 Q1020 NOSIG","observationTime":"2019-08-10T13:50:00Z","temp":22,"dewpoint":17,"windDirection":320,"windSpeed":12.964,"visibility":6.21,"altim":30.11811,"flightCategory":"VFR","metarType":"METAR","geometry_esri":{"x":47.78,"y":13.02,"z":430}}}