{"type":"Feature","geometry":{"type":"Point","coordinates":[47.42,19.27,185]},"properties":{"stationId":"LHBP","rawText":"LHBP 040730Z 09009KT CAVOK 11/M01 Q1010 NOSIG","observationTime":"2019-04-04T07:30:00Z","temp":11,"dewpoint":-1,"windDirection":90,"windSpeed":16.668,"visibility":6.21,"altim":29.822834,"flightCategory":"VFR","metarType":"METAR","geometry_esri":{"x":47.42,"y":19.27,"z":185}}}