{"type":"Feature","geometry":{"type":"Point","coordinates":[47.42,19.27,185]},"properties":{"stationId":"LHBP","rawText":"LHBP 230830Z 35011KT CAVOK 27/16 Q1019 NOSIG","observationTime":"2019-07-23T08:30:00Z","temp":27,"dewpoint":16,"windDirection":350,"windSpeed":20.372,"visibility":6.21,"altim":30.088583,"flightCategory":"VFR","metarType":"METAR","geometry_esri":{"x":47.42,"y":19.27,"z":185}}}