{"type":"Feature","geometry":{"type":"Point","coordinates":[47.42,19.27,185]},"properties":{"stationId":"LHBP","rawText":"LHBP 182330Z 32006KT CAVOK 06/M02 Q1020 NOSIG","observationTime":"2019-03-18T23:30:00Z","temp":6,"dewpoint":-2,"windDirection":320,"windSpeed":11.112,"visibility":6.21,"altim":30.11811,"flightCategory":"VFR","metarType":"METAR","geometry_esri":{"x":47.42,"y":19.27,"z":185}}}