{"type":"Feature","geometry":{"type":"Point","coordinates":[47.42,19.27,185]},"properties":{"stationId":"LHBP","rawText":"LHBP 121330Z 30012KT 260V330 CAVOK 09/M04 Q1020 NOSIG","observationTime":"2019-03-12T13:30:00Z","temp":9,"dewpoint":-4,"windDirection":300,"windSpeed":22.224,"visibility":6.21,"altim":30.11811,"flightCategory":"VFR","metarType":"METAR","geometry_esri":{"x":47.42,"y":19.27,"z":185}}}