{"type":"Feature","geometry":{"type":"Point","coordinates":[47.78,13.02,430]},"properties":{"stationId":"LOWS","rawText":"LOWS 211250Z 35006KT 320V030 9999 FEW040 SCT300 25/15 Q1017 NOSIG","observationTime":"2019-06-21T12:50:00Z","temp":25,"dewpoint":15,"windDirection":350,"windSpeed":11.112,"visibility":6.21,"altim":30.029528,"flightCategory":"VFR","metarType":"METAR","geometry_esri":{"x":47.78,"y":13.02,"z":430}}}