{"type":"Feature","geometry":{"type":"Point","coordinates":[47.42,19.27,185]},"properties":{"stationId":"LHBP","rawText":"LHBP 192230Z 07006KT CAVOK 10/07 Q1019 NOSIG","observationTime":"2019-11-19T22:30:00Z","temp":10,"dewpoint":7,"windDirection":70,"windSpeed":11.112,"visibility":6.21,"altim":30.088583,"flightCategory":"VFR","metarType":"METAR","geometry_esri":{"x":47.42,"y":19.27,"z":185}}}