{"type":"Feature","geometry":{"type":"Point","coordinates":[47.78,13.02,430]},"properties":{"stationId":"LOWS","rawText":"LOWS 122150Z VRB02KT 9999 SCT038 BKN060 01/M04 Q1036 NOSIG","observationTime":"2019-02-12T21:50:00Z","temp":1,"dewpoint":-4,"windDirection":0,"windSpeed":3.704,"visibility":6.21,"altim":30.590551,"flightCategory":"VFR","metarType":"METAR","geometry_esri":{"x":47.78,"y":13.02,"z":430}}}