{"type":"Feature","geometry":{"type":"Point","coordinates":[47.78,13.02,430]},"properties":{"stationId":"LOWS","rawText":"LOWS 120550Z 17003KT 4500 -RA BR FEW006 SCT016 BKN024 03/03 Q1010 TEMPO RA","observationTime":"2019-11-12T05:50:00Z","temp":3,"dewpoint":3,"windDirection":170,"windSpeed":5.556,"visibility":2.8,"altim":29.822834,"flightCategory":"IFR","metarType":"METAR","geometry_esri":{"x":47.78,"y":13.02,"z":430}}}