{"type":"Feature","geometry":{"type":"Point","coordinates":[47.78,13.02,430]},"properties":{"stationId":"LOWS","rawText":"LOWS 231750Z 02005KT CAVOK 30/15 Q1020 NOSIG","observationTime":"2019-07-23T17:50:00Z","temp":30,"dewpoint":15,"windDirection":20,"windSpeed":9.26,"visibility":6.21,"altim":30.11811,"flightCategory":"VFR","metarType":"METAR","geometry_esri":{"x":47.78,"y":13.02,"z":430}}}