{"type":"Feature","geometry":{"type":"Point","coordinates":[47.42,19.27,185]},"properties":{"stationId":"LHBP","rawText":"LHBP 230430Z 00000KT 5000 MIFG BR NSC M09/M10 Q1033 NOSIG","observationTime":"2020-01-23T04:30:00Z","temp":-9,"dewpoint":-10,"windDirection":0,"windSpeed":0,"visibility":3.11,"altim":30.501968,"flightCategory":"MVFR","metarType":"METAR","geometry_esri":{"x":47.42,"y":19.27,"z":185}}}