{"type":"Feature","geometry":{"type":"Point","coordinates":[47.78,13.02,430]},"properties":{"stationId":"LOWS","rawText":"LOWS 061450Z 26003KT 9999 -RA FEW044 SCT050 BKN060 11/07 Q1014 NOSIG","observationTime":"2019-10-06T14:50:00Z","temp":11,"dewpoint":7,"windDirection":260,"windSpeed":5.556,"visibility":6.21,"altim":29.940945,"flightCategory":"VFR","metarType":"METAR","geometry_esri":{"x":47.78,"y":13.02,"z":430}}}