{"type":"Feature","geometry":{"type":"Point","coordinates":[47.78,13.02,430]},"properties":{"stationId":"LOWS","rawText":"LOWS 291250Z VRB02KT 8000 4000N FEW005 BKN012 BKN050 00/M01 Q1033 TEMPO 5000","observationTime":"2018-12-29T12:50:00Z","temp":0,"dewpoint":-1,"windDirection":0,"windSpeed":3.704,"visibility":4.97,"altim":30.501968,"flightCategory":"MVFR","metarType":"METAR","geometry_esri":{"x":47.78,"y":13.02,"z":430}}}