{"type":"Feature","geometry":{"type":"Point","coordinates":[47.42,19.27,185]},"properties":{"stationId":"LHBP","rawText":"LHBP 181430Z 21008KT 170V240 CAVOK 14/06 Q1015 NOSIG","observationTime":"2019-11-18T14:30:00Z","temp":14,"dewpoint":6,"windDirection":210,"windSpeed":14.816,"visibility":6.21,"altim":29.970472,"flightCategory":"VFR","metarType":"METAR","geometry_esri":{"x":47.42,"y":19.27,"z":185}}}