{"type":"Feature","geometry":{"type":"Point","coordinates":[47.78,13.02,430]},"properties":{"stationId":"LOWS","rawText":"LOWS 120350Z AUTO 16006KT 8000 -RA FEW022 BKN026 03/02 Q1010","observationTime":"2019-11-12T03:50:00Z","temp":3,"dewpoint":2,"windDirection":160,"windSpeed":11.112,"visibility":4.97,"altim":29.822834,"flightCategory":"MVFR","metarType":"METAR","geometry_esri":{"x":47.78,"y":13.02,"z":430}}}