{"type":"Feature","geometry":{"type":"Point","coordinates":[47.42,19.27,185]},"properties":{"stationId":"LHBP","rawText":"LHBP 270230Z 00000KT CAVOK 07/06 Q1017 NOSIG","observationTime":"2019-09-27T02:30:00Z","temp":7,"dewpoint":6,"windDirection":0,"windSpeed":0,"visibility":6.21,"altim":30.029528,"flightCategory":"VFR","metarType":"METAR","geometry_esri":{"x":47.42,"y":19.27,"z":185}}}