{"type":"Feature","geometry":{"type":"Point","coordinates":[47.42,19.27,185]},"properties":{"stationId":"LHBP","rawText":"LHBP 271530Z 09010KT 7000 NSC M00/M01 Q1001 NOSIG","observationTime":"2019-01-27T15:30:00Z","temp":0,"dewpoint":-1,"windDirection":90,"windSpeed":18.52,"visibility":4.35,"altim":29.557087,"flightCategory":"MVFR","metarType":"METAR","geometry_esri":{"x":47.42,"y":19.27,"z":185}}}