{"type":"Feature","geometry":{"type":"Point","coordinates":[47.42,19.27,185]},"properties":{"stationId":"LHBP","rawText":"LHBP 201030Z 03003KT 340V070 1800 BR FEW005 BKN053 02/01 Q1043 NOSIG","observationTime":"2020-01-20T10:30:00Z","temp":2,"dewpoint":1,"windDirection":30,"windSpeed":5.556,"visibility":1.12,"altim":30.797245,"flightCategory":"IFR","metarType":"METAR","geometry_esri":{"x":47.42,"y":19.27,"z":185}}}