{"type":"Feature","geometry":{"type":"Point","coordinates":[47.42,19.27,185]},"properties":{"stationId":"LHBP","rawText":"LHBP 200730Z 32002KT 1300 R13R/1600D R13L/1600N BR BKN055 M00/M01 Q1042 NOSIG","observationTime":"2020-01-20T07:30:00Z","temp":0,"dewpoint":-1,"windDirection":320,"windSpeed":3.704,"visibility":0.81,"altim":30.767717,"flightCategory":"LIFR","metarType":"SPECI","geometry_esri":{"x":47.42,"y":19.27,"z":185}}}