{"type":"Feature","geometry":{"type":"Point","coordinates":[47.42,19.27,185]},"properties":{"stationId":"LHBP","rawText":"LHBP 121130Z 32015KT CAVOK 11/M01 Q1014 NOSIG","observationTime":"2020-05-12T11:30:00Z","temp":11,"dewpoint":-1,"windDirection":320,"windSpeed":27.78,"visibility":6.21,"altim":29.940945,"flightCategory":"VFR","metarType":"METAR","geometry_esri":{"x":47.42,"y":19.27,"z":185}}}