{"type":"Feature","geometry":{"type":"Point","coordinates":[47.42,19.27,185]},"properties":{"stationId":"LHBP","rawText":"LHBP 220330Z 33004KT CAVOK 01/M05 Q1022 NOSIG","observationTime":"2020-04-22T03:30:00Z","temp":1,"dewpoint":-5,"windDirection":330,"windSpeed":7.408,"visibility":6.21,"altim":30.177166,"flightCategory":"VFR","metarType":"METAR","geometry_esri":{"x":47.42,"y":19.27,"z":185}}}