{"type":"Feature","geometry":{"type":"Point","coordinates":[47.42,19.27,185]},"properties":{"stationId":"LHBP","rawText":"LHBP 090530Z 11006KT CAVOK 06/05 Q1016 NOSIG","observationTime":"2019-10-09T05:30:00Z","temp":6,"dewpoint":5,"windDirection":110,"windSpeed":11.112,"visibility":6.21,"altim":30,"flightCategory":"VFR","metarType":"METAR","geometry_esri":{"x":47.42,"y":19.27,"z":185}}}