{"type":"Feature","geometry":{"type":"Point","coordinates":[47.42,19.27,185]},"properties":{"stationId":"LHBP","rawText":"LHBP 221030Z 24006KT 210V270 1300 R31L/1600U R31R/1800D BR OVC002 M02/M03 Q1031 BECMG 1700 BR","observationTime":"2020-01-22T10:30:00Z","temp":-2,"dewpoint":-3,"windDirection":240,"windSpeed":11.112,"visibility":0.81,"altim":30.442913,"flightCategory":"LIFR","metarType":"SPECI","geometry_esri":{"x":47.42,"y":19.27,"z":185}}}