{"type":"Feature","geometry":{"type":"Point","coordinates":[47.42,19.27,185]},"properties":{"stationId":"LHBP","rawText":"LHBP 011030Z 29014KT 9999 FEW047 BKN070 11/06 Q1010 NOSIG","observationTime":"2019-03-01T10:30:00Z","temp":11,"dewpoint":6,"windDirection":290,"windSpeed":25.928,"visibility":6.21,"altim":29.822834,"flightCategory":"VFR","metarType":"METAR","geometry_esri":{"x":47.42,"y":19.27,"z":185}}}