{"type":"Feature","geometry":{"type":"Point","coordinates":[47.78,13.02,430]},"properties":{"stationId":"LOWS","rawText":"LOWS 072350Z AUTO 13004KT 9999 FEW001 M00/M02 Q1031","observationTime":"2020-01-07T23:50:00Z","temp":0,"dewpoint":-2,"windDirection":130,"windSpeed":7.408,"visibility":6.21,"altim":30.442913,"flightCategory":"VFR","metarType":"METAR","geometry_esri":{"x":47.78,"y":13.02,"z":430}}}