{"type":"Feature","geometry":{"type":"Point","coordinates":[47.78,13.02,430]},"properties":{"stationId":"LOWS","rawText":"LOWS 070850Z 34005KT 310V010 4500 -RA SCT003 BKN006 07/06 Q1018 TEMPO 2500 RA BKN005 BECMG 7000 BKN014","observationTime":"2019-10-07T08:50:00Z","temp":7,"dewpoint":6,"windDirection":340,"windSpeed":9.26,"visibility":2.8,"altim":30.059055,"flightCategory":"IFR","metarType":"METAR","geometry_esri":{"x":47.78,"y":13.02,"z":430}}}