{"type":"Feature","geometry":{"type":"Point","coordinates":[47.78,13.02,430]},"properties":{"stationId":"LOWS","rawText":"LOWS 181850Z 34012KT 320V020 9999 SHRA FEW050 FEW060CB BKN075 14/11 Q1017 BECMG NSW","observationTime":"2020-04-18T18:50:00Z","temp":14,"dewpoint":11,"windDirection":340,"windSpeed":22.224,"visibility":6.21,"altim":30.029528,"flightCategory":"VFR","metarType":"METAR","geometry_esri":{"x":47.78,"y":13.02,"z":430}}}