{"type":"Feature","geometry":{"type":"Point","coordinates":[47.42,19.27,185]},"properties":{"stationId":"LHBP","rawText":"LHBP 152330Z 07007KT CAVOK 07/M04 Q1022 NOSIG","observationTime":"2019-04-15T23:30:00Z","temp":7,"dewpoint":-4,"windDirection":70,"windSpeed":12.964,"visibility":6.21,"altim":30.177166,"flightCategory":"VFR","metarType":"METAR","geometry_esri":{"x":47.42,"y":19.27,"z":185}}}