{"type":"Feature","geometry":{"type":"Point","coordinates":[47.42,19.27,185]},"properties":{"stationId":"LHBP","rawText":"LHBP 040130Z 23005KT 0700 R31L/0900U R31R/1100D FZFG VV002 M02/M03 Q1024 NOSIG","observationTime":"2020-01-04T01:30:00Z","temp":-2,"dewpoint":-3,"windDirection":230,"windSpeed":9.26,"visibility":0.43,"altim":30.236221,"flightCategory":"LIFR","metarType":"SPECI","geometry_esri":{"x":47.42,"y":19.27,"z":185}}}