{"type":"Feature","geometry":{"type":"Point","coordinates":[47.78,13.02,430]},"properties":{"stationId":"LOWS","rawText":"LOWS 101550Z 02006KT 9000 -RA FEW018 BKN028 BKN040 11/06 Q1009 NOSIG","observationTime":"2019-04-10T15:50:00Z","temp":11,"dewpoint":6,"windDirection":20,"windSpeed":11.112,"visibility":5.59,"altim":29.793306,"flightCategory":"MVFR","metarType":"METAR","geometry_esri":{"x":47.78,"y":13.02,"z":430}}}