{"type":"Feature","geometry":{"type":"Point","coordinates":[47.42,19.27,185]},"properties":{"stationId":"LHBP","rawText":"LHBP 291930Z 01009KT 5000 -SHRA BR SCT008 FEW028CB BKN040 16/16 Q1013 TEMPO 4000 SHRA","observationTime":"2019-05-29T19:30:00Z","temp":16,"dewpoint":16,"windDirection":10,"windSpeed":16.668,"visibility":3.11,"altim":29.911417,"flightCategory":"MVFR","metarType":"SPECI","geometry_esri":{"x":47.42,"y":19.27,"z":185}}}