{"type":"Feature","geometry":{"type":"Point","coordinates":[47.78,13.02,430]},"properties":{"stationId":"LOWS","rawText":"LOWS 040450Z 34003KT 4000 -SN FEW004 SCT007 BKN018 M01/M02 Q1028 R15/29//95 TEMPO 5000","observationTime":"2019-02-04T04:50:00Z","temp":-1,"dewpoint":-2,"windDirection":340,"windSpeed":5.556,"visibility":2.49,"altim":30.35433,"flightCategory":"IFR","metarType":"METAR","geometry_esri":{"x":47.78,"y":13.02,"z":430}}}