{"type":"Feature","geometry":{"type":"Point","coordinates":[47.42,19.27,185]},"properties":{"stationId":"LHBP","rawText":"LHBP 061530Z 17007KT 140V210 9999 FEW038 BKN070 23/17 Q1012 NOSIG","observationTime":"2019-06-06T15:30:00Z","temp":23,"dewpoint":17,"windDirection":170,"windSpeed":12.964,"visibility":6.21,"altim":29.88189,"flightCategory":"VFR","metarType":"METAR","geometry_esri":{"x":47.42,"y":19.27,"z":185}}}