{"type":"Feature","geometry":{"type":"Point","coordinates":[47.78,13.02,430]},"properties":{"stationId":"LOWS","rawText":"LOWS 251250Z 02010KT 340V050 9999 FEW070 33/15 Q1016 NOSIG","observationTime":"2019-07-25T12:50:00Z","temp":33,"dewpoint":15,"windDirection":20,"windSpeed":18.52,"visibility":6.21,"altim":30,"flightCategory":"VFR","metarType":"METAR","geometry_esri":{"x":47.78,"y":13.02,"z":430}}}