{"type":"Feature","geometry":{"type":"Point","coordinates":[47.78,13.02,430]},"properties":{"stationId":"LOWS","rawText":"LOWS 281250Z VRB02KT 9999 FEW065 06/M01 Q1027 NOSIG","observationTime":"2018-12-28T12:50:00Z","temp":6,"dewpoint":-1,"windDirection":0,"windSpeed":3.704,"visibility":6.21,"altim":30.324802,"flightCategory":"VFR","metarType":"METAR","geometry_esri":{"x":47.78,"y":13.02,"z":430}}}