{"type":"Feature","geometry":{"type":"Point","coordinates":[47.78,13.02,430]},"properties":{"stationId":"LOWS","rawText":"LOWS 230350Z AUTO 27008KT 230V310 9999 FEW026 SCT036 BKN048 06/02 Q1002","observationTime":"2019-12-23T03:50:00Z","temp":6,"dewpoint":2,"windDirection":270,"windSpeed":14.816,"visibility":6.21,"altim":29.586615,"flightCategory":"VFR","metarType":"METAR","geometry_esri":{"x":47.78,"y":13.02,"z":430}}}