{"type":"Feature","geometry":{"type":"Point","coordinates":[47.42,19.27,185]},"properties":{"stationId":"LHBP","rawText":"LHBP 192030Z VRB02KT 2200 BR SCT006 OVC048 M01/M01 Q1035 NOSIG","observationTime":"2020-01-19T20:30:00Z","temp":-1,"dewpoint":-1,"windDirection":0,"windSpeed":3.704,"visibility":1.37,"altim":30.561024,"flightCategory":"IFR","metarType":"METAR","geometry_esri":{"x":47.42,"y":19.27,"z":185}}}