{"type":"Feature","geometry":{"type":"Point","coordinates":[47.78,13.02,430]},"properties":{"stationId":"LOWS","rawText":"LOWS 081450Z 16006KT 9999 FEW015 SCT042 BKN050 16/13 Q1018 NOSIG","observationTime":"2019-07-08T14:50:00Z","temp":16,"dewpoint":13,"windDirection":160,"windSpeed":11.112,"visibility":6.21,"altim":30.059055,"flightCategory":"VFR","metarType":"METAR","geometry_esri":{"x":47.78,"y":13.02,"z":430}}}