{"type":"Feature","geometry":{"type":"Point","coordinates":[47.42,19.27,185]},"properties":{"stationId":"LHBP","rawText":"LHBP 180630Z 03005KT 340V060 CAVOK 08/06 Q1020 NOSIG","observationTime":"2019-12-18T06:30:00Z","temp":8,"dewpoint":6,"windDirection":30,"windSpeed":9.26,"visibility":6.21,"altim":30.11811,"flightCategory":"VFR","metarType":"METAR","geometry_esri":{"x":47.42,"y":19.27,"z":185}}}