{"type":"Feature","geometry":{"type":"Point","coordinates":[47.42,19.27,185]},"properties":{"stationId":"LHBP","rawText":"LHBP 040730Z 24006KT 210V270 1500 BR OVC002 M02/M02 Q1023 BECMG 2500","observationTime":"2020-01-04T07:30:00Z","temp":-2,"dewpoint":-2,"windDirection":240,"windSpeed":11.112,"visibility":0.93,"altim":30.206694,"flightCategory":"LIFR","metarType":"SPECI","geometry_esri":{"x":47.42,"y":19.27,"z":185}}}