{"type":"Feature","geometry":{"type":"Point","coordinates":[47.42,19.27,185]},"properties":{"stationId":"LHBP","rawText":"LHBP 230730Z VRB02KT 2000 -SN BR FEW015 OVC025 M03/M03 Q1003 R88/590293 NOSIG","observationTime":"2019-01-23T07:30:00Z","temp":-3,"dewpoint":-3,"windDirection":0,"windSpeed":3.704,"visibility":1.24,"altim":29.616142,"flightCategory":"IFR","metarType":"METAR","geometry_esri":{"x":47.42,"y":19.27,"z":185}}}