{"type":"Feature","geometry":{"type":"Point","coordinates":[47.42,19.27,185]},"properties":{"stationId":"LHBP","rawText":"LHBP 090930Z 35004KT 290V100 CAVOK 20/07 Q1005 NOSIG","observationTime":"2019-04-09T09:30:00Z","temp":20,"dewpoint":7,"windDirection":350,"windSpeed":7.408,"visibility":6.21,"altim":29.675198,"flightCategory":"VFR","metarType":"METAR","geometry_esri":{"x":47.42,"y":19.27,"z":185}}}