{"type":"Feature","geometry":{"type":"Point","coordinates":[47.42,19.27,185]},"properties":{"stationId":"LHBP","rawText":"LHBP 131030Z 08008KT 050V110 9999 FEW020 BKN044 10/05 Q1016 NOSIG","observationTime":"2020-05-13T10:30:00Z","temp":10,"dewpoint":5,"windDirection":80,"windSpeed":14.816,"visibility":6.21,"altim":30,"flightCategory":"VFR","metarType":"METAR","geometry_esri":{"x":47.42,"y":19.27,"z":185}}}