{"type":"Feature","geometry":{"type":"Point","coordinates":[47.42,19.27,185]},"properties":{"stationId":"LHBP","rawText":"LHBP 181737Z VRB01KT 1800 R31R/0300N FZBCFG NSC M07/M07 Q1029 BECMG 0500 FZFG","observationTime":"2018-12-18T17:37:00Z","temp":-7,"dewpoint":-7,"windDirection":0,"windSpeed":1.852,"visibility":1.12,"altim":30.383858,"flightCategory":"IFR","metarType":"SPECI","geometry_esri":{"x":47.42,"y":19.27,"z":185}}}