{"type":"Feature","geometry":{"type":"Point","coordinates":[47.42,19.27,185]},"properties":{"stationId":"LHBP","rawText":"LHBP 301530Z 28022G34KT CAVOK 23/07 Q1008 NOSIG","observationTime":"2019-09-30T15:30:00Z","temp":23,"dewpoint":7,"windDirection":280,"windSpeed":40.744,"visibility":6.21,"altim":29.763779,"flightCategory":"VFR","metarType":"METAR","geometry_esri":{"x":47.42,"y":19.27,"z":185}}}