{"type":"Feature","geometry":{"type":"Point","coordinates":[47.42,19.27,185]},"properties":{"stationId":"LHBP","rawText":"LHBP 191430Z 08007KT CAVOK 12/08 Q1020 NOSIG","observationTime":"2019-11-19T14:30:00Z","temp":12,"dewpoint":8,"windDirection":80,"windSpeed":12.964,"visibility":6.21,"altim":30.11811,"flightCategory":"VFR","metarType":"METAR","geometry_esri":{"x":47.42,"y":19.27,"z":185}}}