{"type":"Feature","geometry":{"type":"Point","coordinates":[47.47,21.62,112]},"properties":{"stationId":"LHDC","rawText":"LHDC 051147Z AUTO 13007KT 070V190 2300 +TSRA BKN038CB 21/17 Q1012","observationTime":"2019-06-05T11:47:00Z","temp":21,"dewpoint":17,"windDirection":130,"windSpeed":12.964,"visibility":1.43,"altim":29.88189,"flightCategory":"IFR","metarType":"SPECI","geometry_esri":{"x":47.47,"y":21.62,"z":112}}}