{"type":"Feature","geometry":{"type":"Point","coordinates":[47.42,19.27,185]},"properties":{"stationId":"LHBP","rawText":"LHBP 231430Z 32015KT CAVOK 30/15 Q1017 NOSIG","observationTime":"2019-07-23T14:30:00Z","temp":30,"dewpoint":15,"windDirection":320,"windSpeed":27.78,"visibility":6.21,"altim":30.029528,"flightCategory":"VFR","metarType":"METAR","geometry_esri":{"x":47.42,"y":19.27,"z":185}}}