{"type":"Feature","geometry":{"type":"Point","coordinates":[47.78,13.02,430]},"properties":{"stationId":"LOWS","rawText":"LOWS 300250Z AUTO 16007KT 9999 FEW090 BKN100 18/17 Q1023","observationTime":"2019-08-30T02:50:00Z","temp":18,"dewpoint":17,"windDirection":160,"windSpeed":12.964,"visibility":6.21,"altim":30.206694,"flightCategory":"VFR","metarType":"METAR","geometry_esri":{"x":47.78,"y":13.02,"z":430}}}