{"type":"Feature","geometry":{"type":"Point","coordinates":[47.78,13.02,430]},"properties":{"stationId":"LOWS","rawText":"LOWS 070650Z 30009KT 8000 -RASN FEW007 BKN014 BKN018 02/01 Q1029 R15/29//95 TEMPO SCT014 BKN018","observationTime":"2019-01-07T06:50:00Z","temp":2,"dewpoint":1,"windDirection":300,"windSpeed":16.668,"visibility":4.97,"altim":30.383858,"flightCategory":"MVFR","metarType":"METAR","geometry_esri":{"x":47.78,"y":13.02,"z":430}}}