{"type":"Feature","geometry":{"type":"Point","coordinates":[47.42,19.27,185]},"properties":{"stationId":"LHBP","rawText":"LHBP 252030Z 14007KT CAVOK 16/10 Q1016 NOSIG","observationTime":"2019-04-25T20:30:00Z","temp":16,"dewpoint":10,"windDirection":140,"windSpeed":12.964,"visibility":6.21,"altim":30,"flightCategory":"VFR","metarType":"METAR","geometry_esri":{"x":47.42,"y":19.27,"z":185}}}