{"type":"Feature","geometry":{"type":"Point","coordinates":[47.42,19.27,185]},"properties":{"stationId":"LHBP","rawText":"LHBP 172230Z VRB01KT CAVOK 02/M01 Q1028 NOSIG","observationTime":"2020-03-17T22:30:00Z","temp":2,"dewpoint":-1,"windDirection":0,"windSpeed":1.852,"visibility":6.21,"altim":30.35433,"flightCategory":"VFR","metarType":"METAR","geometry_esri":{"x":47.42,"y":19.27,"z":185}}}