{"type":"Feature","geometry":{"type":"Point","coordinates":[47.42,19.27,185]},"properties":{"stationId":"LHBP","rawText":"LHBP 212330Z 23008KT 200V260 9999 BKN037 15/15 Q1008 NOSIG","observationTime":"2019-05-21T23:30:00Z","temp":15,"dewpoint":15,"windDirection":230,"windSpeed":14.816,"visibility":6.21,"altim":29.763779,"flightCategory":"VFR","metarType":"METAR","geometry_esri":{"x":47.42,"y":19.27,"z":185}}}