{"type":"Feature","geometry":{"type":"Point","coordinates":[47.42,19.27,185]},"properties":{"stationId":"LHBP","rawText":"LHBP 301130Z VRB02KT 2800 BR BKN004 01/01 Q1003 R88/29//95 BECMG 3500 BR","observationTime":"2019-01-30T11:30:00Z","temp":1,"dewpoint":1,"windDirection":0,"windSpeed":3.704,"visibility":1.74,"altim":29.616142,"flightCategory":"LIFR","metarType":"SPECI","geometry_esri":{"x":47.42,"y":19.27,"z":185}}}