{"type":"Feature","geometry":{"type":"Point","coordinates":[47.78,13.02,430]},"properties":{"stationId":"LOWS","rawText":"LOWS 241550Z 31008KT 270V350 9999 FEW060 22/06 Q1013 NOSIG","observationTime":"2019-05-24T15:50:00Z","temp":22,"dewpoint":6,"windDirection":310,"windSpeed":14.816,"visibility":6.21,"altim":29.911417,"flightCategory":"VFR","metarType":"METAR","geometry_esri":{"x":47.78,"y":13.02,"z":430}}}