{"type":"Feature","geometry":{"type":"Point","coordinates":[47.78,13.02,430]},"properties":{"stationId":"LOWS","rawText":"LOWS 270850Z 34004KT 290V020 9999 FEW070 30/18 Q1022 NOSIG","observationTime":"2019-06-27T08:50:00Z","temp":30,"dewpoint":18,"windDirection":340,"windSpeed":7.408,"visibility":6.21,"altim":30.177166,"flightCategory":"VFR","metarType":"METAR","geometry_esri":{"x":47.78,"y":13.02,"z":430}}}