{"type":"Feature","geometry":{"type":"Point","coordinates":[47.78,13.02,430]},"properties":{"stationId":"LOWS","rawText":"LOWS 290150Z AUTO 18006KT 9999 FEW015 SCT030 BKN044 02/M02 Q1006","observationTime":"2020-01-29T01:50:00Z","temp":2,"dewpoint":-2,"windDirection":180,"windSpeed":11.112,"visibility":6.21,"altim":29.704725,"flightCategory":"VFR","metarType":"METAR","geometry_esri":{"x":47.78,"y":13.02,"z":430}}}