{"type":"Feature","geometry":{"type":"Point","coordinates":[47.42,19.27,185]},"properties":{"stationId":"LHBP","rawText":"LHBP 231430Z 09008KT 3000 BR OVC006 M02/M02 Q1001 R88/650295 BECMG 2000 BR OVC004","observationTime":"2019-01-23T14:30:00Z","temp":-2,"dewpoint":-2,"windDirection":90,"windSpeed":14.816,"visibility":1.86,"altim":29.557087,"flightCategory":"IFR","metarType":"METAR","geometry_esri":{"x":47.42,"y":19.27,"z":185}}}