{"type":"Feature","geometry":{"type":"Point","coordinates":[47.78,13.02,430]},"properties":{"stationId":"LOWS","rawText":"LOWS 031450Z 29008KT 260V320 9999 FEW040 BKN060 11/03 Q1018 NOSIG","observationTime":"2019-10-03T14:50:00Z","temp":11,"dewpoint":3,"windDirection":290,"windSpeed":14.816,"visibility":6.21,"altim":30.059055,"flightCategory":"VFR","metarType":"METAR","geometry_esri":{"x":47.78,"y":13.02,"z":430}}}