{"type":"Feature","geometry":{"type":"Point","coordinates":[47.42,19.27,185]},"properties":{"stationId":"LHBP","rawText":"LHBP 080830Z VRB02KT 2500 BR BKN002 BKN070 02/01 Q1019 TEMPO 1000 BCFG BR BKN001","observationTime":"2019-12-08T08:30:00Z","temp":2,"dewpoint":1,"windDirection":0,"windSpeed":3.704,"visibility":1.55,"altim":30.088583,"flightCategory":"LIFR","metarType":"SPECI","geometry_esri":{"x":47.42,"y":19.27,"z":185}}}