{"type":"Feature","geometry":{"type":"Point","coordinates":[47.42,19.27,185]},"properties":{"stationId":"LHBP","rawText":"LHBP 110630Z VRB03KT CAVOK 15/13 Q1014 NOSIG","observationTime":"2019-05-11T06:30:00Z","temp":15,"dewpoint":13,"windDirection":0,"windSpeed":5.556,"visibility":6.21,"altim":29.940945,"flightCategory":"VFR","metarType":"METAR","geometry_esri":{"x":47.42,"y":19.27,"z":185}}}