{"type":"Feature","geometry":{"type":"Point","coordinates":[47.78,13.02,430]},"properties":{"stationId":"LOWS","rawText":"LOWS 101750Z 32014KT 9999 FEW036 FEW060CB SCT110 BKN300 24/17 Q1010 NOSIG","observationTime":"2019-06-10T17:50:00Z","temp":24,"dewpoint":17,"windDirection":320,"windSpeed":25.928,"visibility":6.21,"altim":29.822834,"flightCategory":"VFR","metarType":"METAR","geometry_esri":{"x":47.78,"y":13.02,"z":430}}}