{"type":"Feature","geometry":{"type":"Point","coordinates":[47.42,19.27,185]},"properties":{"stationId":"LHBP","rawText":"LHBP 030930Z 12004KT 2300 -SG BR OVC002 M03/M03 Q1030 BECMG 3000 BR","observationTime":"2020-01-03T09:30:00Z","temp":-3,"dewpoint":-3,"windDirection":120,"windSpeed":7.408,"visibility":1.43,"altim":30.413385,"flightCategory":"LIFR","metarType":"SPECI","geometry_esri":{"x":47.42,"y":19.27,"z":185}}}