{"type":"Feature","geometry":{"type":"Point","coordinates":[47.78,13.02,430]},"properties":{"stationId":"LOWS","rawText":"LOWS 050650Z 33016KT 300V010 4500 -SHSN FEW004 SCT013 BKN018 01/M01 Q1023 TEMPO SHSN BKN012 BECMG 9999 NSW","observationTime":"2020-02-05T06:50:00Z","temp":1,"dewpoint":-1,"windDirection":330,"windSpeed":29.632,"visibility":2.8,"altim":30.206694,"flightCategory":"IFR","metarType":"METAR","geometry_esri":{"x":47.78,"y":13.02,"z":430}}}