{"type":"Feature","geometry":{"type":"Point","coordinates":[47.78,13.02,430]},"properties":{"stationId":"LOWS","rawText":"LOWS 310150Z AUTO 16011KT 9999 FEW036 SCT040 BKN042 06/03 Q1011","observationTime":"2020-01-31T01:50:00Z","temp":6,"dewpoint":3,"windDirection":160,"windSpeed":20.372,"visibility":6.21,"altim":29.852362,"flightCategory":"VFR","metarType":"METAR","geometry_esri":{"x":47.78,"y":13.02,"z":430}}}