{"type":"Feature","geometry":{"type":"Point","coordinates":[47.42,19.27,185]},"properties":{"stationId":"LHBP","rawText":"LHBP 071630Z 00000KT CAVOK M02/M06 Q1029 NOSIG","observationTime":"2020-01-07T16:30:00Z","temp":-2,"dewpoint":-6,"windDirection":0,"windSpeed":0,"visibility":6.21,"altim":30.383858,"flightCategory":"VFR","metarType":"METAR","geometry_esri":{"x":47.42,"y":19.27,"z":185}}}