{"type":"Feature","geometry":{"type":"Point","coordinates":[47.78,13.02,430]},"properties":{"stationId":"LOWS","rawText":"LOWS 272050Z AUTO 30003KT 240V340 6000 -SHRA FEW005 SCT008 BKN015 14/13 Q1008","observationTime":"2019-05-27T20:50:00Z","temp":14,"dewpoint":13,"windDirection":300,"windSpeed":5.556,"visibility":3.73,"altim":29.763779,"flightCategory":"MVFR","metarType":"METAR","geometry_esri":{"x":47.78,"y":13.02,"z":430}}}