{"type":"Feature","geometry":{"type":"Point","coordinates":[47.78,13.02,430]},"properties":{"stationId":"LOWS","rawText":"LOWS 100850Z 18006KT 150V210 9999 SCT048 03/00 Q1021 NOSIG","observationTime":"2020-01-10T08:50:00Z","temp":3,"dewpoint":0,"windDirection":180,"windSpeed":11.112,"visibility":6.21,"altim":30.147638,"flightCategory":"VFR","metarType":"METAR","geometry_esri":{"x":47.78,"y":13.02,"z":430}}}