{"type":"Feature","geometry":{"type":"Point","coordinates":[47.42,19.27,185]},"properties":{"stationId":"LHBP","rawText":"LHBP 230630Z 10017KT CAVOK 11/06 Q1016 NOSIG","observationTime":"2019-04-23T06:30:00Z","temp":11,"dewpoint":6,"windDirection":100,"windSpeed":31.484,"visibility":6.21,"altim":30,"flightCategory":"VFR","metarType":"METAR","geometry_esri":{"x":47.42,"y":19.27,"z":185}}}