{"type":"Feature","geometry":{"type":"Point","coordinates":[47.78,13.02,430]},"properties":{"stationId":"LOWS","rawText":"LOWS 152050Z 25004KT 220V290 9999 FEW060 BKN085 18/12 Q1018 NOSIG","observationTime":"2019-08-15T20:50:00Z","temp":18,"dewpoint":12,"windDirection":250,"windSpeed":7.408,"visibility":6.21,"altim":30.059055,"flightCategory":"VFR","metarType":"METAR","geometry_esri":{"x":47.78,"y":13.02,"z":430}}}