{"type":"Feature","geometry":{"type":"Point","coordinates":[47.42,19.27,185]},"properties":{"stationId":"LHBP","rawText":"LHBP 290430Z 16004KT 120V180 0500 R31L/0550N R31R/0600N FG VV002 05/05 Q1005 NOSIG","observationTime":"2019-11-29T04:30:00Z","temp":5,"dewpoint":5,"windDirection":160,"windSpeed":7.408,"visibility":0.31,"altim":29.675198,"flightCategory":"LIFR","metarType":"SPECI","geometry_esri":{"x":47.42,"y":19.27,"z":185}}}