{"type":"Feature","geometry":{"type":"Point","coordinates":[47.42,19.27,185]},"properties":{"stationId":"LHBP","rawText":"LHBP 180030Z 09006KT 2000 BR BKN002 OVC005 M02/M03 Q1027 NOSIG","observationTime":"2020-01-18T00:30:00Z","temp":-2,"dewpoint":-3,"windDirection":90,"windSpeed":11.112,"visibility":1.24,"altim":30.324802,"flightCategory":"LIFR","metarType":"METAR","geometry_esri":{"x":47.42,"y":19.27,"z":185}}}