{"type":"Feature","geometry":{"type":"Point","coordinates":[47.47,21.62,112]},"properties":{"stationId":"LHDC","rawText":"LHDC 051839Z AUTO 21005KT 1700 R04/1200U BR NCD 20/15 Q1013","observationTime":"2019-08-05T18:39:00Z","temp":20,"dewpoint":15,"windDirection":210,"windSpeed":9.26,"visibility":1.06,"altim":29.911417,"flightCategory":"IFR","metarType":"SPECI","geometry_esri":{"x":47.47,"y":21.62,"z":112}}}