{"type":"Feature","geometry":{"type":"Point","coordinates":[47.42,19.27,185]},"properties":{"stationId":"LHBP","rawText":"LHBP 061230Z 32010KT 9999 -RA SCT007 BKN024 OVC037 08/08 Q1010 NOSIG","observationTime":"2019-05-06T12:30:00Z","temp":8,"dewpoint":8,"windDirection":320,"windSpeed":18.52,"visibility":6.21,"altim":29.822834,"flightCategory":"MVFR","metarType":"METAR","geometry_esri":{"x":47.42,"y":19.27,"z":185}}}