{"type":"Feature","geometry":{"type":"Point","coordinates":[47.78,13.02,430]},"properties":{"stationId":"LOWS","rawText":"LOWS 040350Z AUTO 15011KT 9999 FEW080 SCT090 BKN100 07/03 Q0999","observationTime":"2020-02-04T03:50:00Z","temp":7,"dewpoint":3,"windDirection":150,"windSpeed":20.372,"visibility":6.21,"altim":29.498032,"flightCategory":"VFR","metarType":"METAR","geometry_esri":{"x":47.78,"y":13.02,"z":430}}}