{"type":"Feature","geometry":{"type":"Point","coordinates":[47.42,19.27,185]},"properties":{"stationId":"LHBP","rawText":"LHBP 222030Z 25009KT 9999 SCT032 BKN052 07/05 Q1015 NOSIG","observationTime":"2018-12-22T20:30:00Z","temp":7,"dewpoint":5,"windDirection":250,"windSpeed":16.668,"visibility":6.21,"altim":29.970472,"flightCategory":"VFR","metarType":"METAR","geometry_esri":{"x":47.42,"y":19.27,"z":185}}}