{"type":"Feature","geometry":{"type":"Point","coordinates":[47.78,13.02,430]},"properties":{"stationId":"LOWS","rawText":"LOWS 020050Z AUTO 17007KT 9999 FEW250 14/11 Q1022","observationTime":"2019-06-02T00:50:00Z","temp":14,"dewpoint":11,"windDirection":170,"windSpeed":12.964,"visibility":6.21,"altim":30.177166,"flightCategory":"VFR","metarType":"METAR","geometry_esri":{"x":47.78,"y":13.02,"z":430}}}