{"type":"Feature","geometry":{"type":"Point","coordinates":[47.42,19.27,185]},"properties":{"stationId":"LHBP","rawText":"LHBP 100230Z VRB01KT CAVOK 18/17 Q1019 NOSIG","observationTime":"2019-06-10T02:30:00Z","temp":18,"dewpoint":17,"windDirection":0,"windSpeed":1.852,"visibility":6.21,"altim":30.088583,"flightCategory":"VFR","metarType":"METAR","geometry_esri":{"x":47.42,"y":19.27,"z":185}}}