{"type":"Feature","geometry":{"type":"Point","coordinates":[47.78,13.02,430]},"properties":{"stationId":"LOWS","rawText":"LOWS 282350Z AUTO 28003KT 2600 BR SCT001 BKN002 08/08 Q1018","observationTime":"2019-10-28T23:50:00Z","temp":8,"dewpoint":8,"windDirection":280,"windSpeed":5.556,"visibility":1.62,"altim":30.059055,"flightCategory":"LIFR","metarType":"METAR","geometry_esri":{"x":47.78,"y":13.02,"z":430}}}