{"type":"Feature","geometry":{"type":"Point","coordinates":[47.78,13.02,430]},"properties":{"stationId":"LOWS","rawText":"LOWS 051450Z 36005KT 320V080 5000 -RASN FEW005 SCT013 BKN019 02/M00 Q1023 R15/29//95 TEMPO 2500 SNRA BKN013","observationTime":"2019-01-05T14:50:00Z","temp":2,"dewpoint":0,"windDirection":360,"windSpeed":9.26,"visibility":3.11,"altim":30.206694,"flightCategory":"MVFR","metarType":"SPECI","geometry_esri":{"x":47.78,"y":13.02,"z":430}}}