{"type":"Feature","geometry":{"type":"Point","coordinates":[47.42,19.27,185]},"properties":{"stationId":"LHBP","rawText":"LHBP 231130Z 01011KT 320V050 CAVOK 02/M13 Q1041 NOSIG","observationTime":"2019-02-23T11:30:00Z","temp":2,"dewpoint":-13,"windDirection":10,"windSpeed":20.372,"visibility":6.21,"altim":30.73819,"flightCategory":"VFR","metarType":"METAR","geometry_esri":{"x":47.42,"y":19.27,"z":185}}}