{"type":"Feature","geometry":{"type":"Point","coordinates":[47.78,13.02,430]},"properties":{"stationId":"LOWS","rawText":"LOWS 060250Z AUTO 30005KT 0500 R15/0600N R33/0600N FZFG FEW001 BKN002 M03/M03 Q1022","observationTime":"2019-12-06T02:50:00Z","temp":-3,"dewpoint":-3,"windDirection":300,"windSpeed":9.26,"visibility":0.31,"altim":30.177166,"flightCategory":"LIFR","metarType":"SPECI","geometry_esri":{"x":47.78,"y":13.02,"z":430}}}