{"type":"Feature","geometry":{"type":"Point","coordinates":[47.78,13.02,430]},"properties":{"stationId":"LOWS","rawText":"LOWS 270150Z AUTO 22003KT 170V250 9999 NSC 01/M03 Q1013","observationTime":"2020-03-27T01:50:00Z","temp":1,"dewpoint":-3,"windDirection":220,"windSpeed":5.556,"visibility":6.21,"altim":29.911417,"flightCategory":"VFR","metarType":"METAR","geometry_esri":{"x":47.78,"y":13.02,"z":430}}}