{"type":"Feature","geometry":{"type":"Point","coordinates":[47.42,19.27,185]},"properties":{"stationId":"LHBP","rawText":"LHBP 151730Z 09004KT 050V110 CAVOK 14/M04 Q1019 NOSIG","observationTime":"2019-04-15T17:30:00Z","temp":14,"dewpoint":-4,"windDirection":90,"windSpeed":7.408,"visibility":6.21,"altim":30.088583,"flightCategory":"VFR","metarType":"METAR","geometry_esri":{"x":47.42,"y":19.27,"z":185}}}