{"type":"Feature","geometry":{"type":"Point","coordinates":[47.42,19.27,185]},"properties":{"stationId":"LHBP","rawText":"LHBP 191230Z 08006KT 1500 FZBCFG BR BKN002 SCT200 M06/M07 Q1028 NOSIG","observationTime":"2018-12-19T12:30:00Z","temp":-6,"dewpoint":-7,"windDirection":80,"windSpeed":11.112,"visibility":0.93,"altim":30.35433,"flightCategory":"LIFR","metarType":"METAR","geometry_esri":{"x":47.42,"y":19.27,"z":185}}}