{"type":"Feature","geometry":{"type":"Point","coordinates":[47.42,19.27,185]},"properties":{"stationId":"LHBP","rawText":"LHBP 031930Z 35009KT 9999 SCT025 09/05 Q1003 NOSIG","observationTime":"2020-03-03T19:30:00Z","temp":9,"dewpoint":5,"windDirection":350,"windSpeed":16.668,"visibility":6.21,"altim":29.616142,"flightCategory":"VFR","metarType":"METAR","geometry_esri":{"x":47.42,"y":19.27,"z":185}}}