{"type":"Feature","geometry":{"type":"Point","coordinates":[47.78,13.02,430]},"properties":{"stationId":"LOWS","rawText":"LOWS 030050Z AUTO 23003KT 200V280 9999 RA FEW019 SCT032 BKN040 09/07 Q1010","observationTime":"2019-05-03T00:50:00Z","temp":9,"dewpoint":7,"windDirection":230,"windSpeed":5.556,"visibility":6.21,"altim":29.822834,"flightCategory":"VFR","metarType":"METAR","geometry_esri":{"x":47.78,"y":13.02,"z":430}}}