{"type":"Feature","geometry":{"type":"Point","coordinates":[47.42,19.27,185]},"properties":{"stationId":"LHBP","rawText":"LHBP 051130Z 13007KT 7000 OVC006 M02/M03 Q1030 NOSIG","observationTime":"2019-12-05T11:30:00Z","temp":-2,"dewpoint":-3,"windDirection":130,"windSpeed":12.964,"visibility":4.35,"altim":30.413385,"flightCategory":"IFR","metarType":"METAR","geometry_esri":{"x":47.42,"y":19.27,"z":185}}}