{"type":"Feature","geometry":{"type":"Point","coordinates":[47.42,19.27,185]},"properties":{"stationId":"LHBP","rawText":"LHBP 010930Z 29008KT 260V330 9999 FEW028 26/18 Q1014 NOSIG","observationTime":"2019-08-01T09:30:00Z","temp":26,"dewpoint":18,"windDirection":290,"windSpeed":14.816,"visibility":6.21,"altim":29.940945,"flightCategory":"VFR","metarType":"METAR","geometry_esri":{"x":47.42,"y":19.27,"z":185}}}