{"type":"Feature","geometry":{"type":"Point","coordinates":[47.42,19.27,185]},"properties":{"stationId":"LHBP","rawText":"LHBP 122330Z 10007KT 3600 -RA BR OVC003 03/03 Q1001 NOSIG","observationTime":"2019-12-12T23:30:00Z","temp":3,"dewpoint":3,"windDirection":100,"windSpeed":12.964,"visibility":2.24,"altim":29.557087,"flightCategory":"LIFR","metarType":"METAR","geometry_esri":{"x":47.42,"y":19.27,"z":185}}}