{"type":"Feature","geometry":{"type":"Point","coordinates":[47.78,13.02,430]},"properties":{"stationId":"LOWS","rawText":"LOWS 160050Z AUTO 14010KT 9999 NCD 06/M05 Q1017","observationTime":"2020-03-16T00:50:00Z","temp":6,"dewpoint":-5,"windDirection":140,"windSpeed":18.52,"visibility":6.21,"altim":30.029528,"flightCategory":"VFR","metarType":"METAR","geometry_esri":{"x":47.78,"y":13.02,"z":430}}}