{"type":"Feature","geometry":{"type":"Point","coordinates":[47.42,19.27,185]},"properties":{"stationId":"LHBP","rawText":"LHBP 180030Z 35005KT CAVOK 17/17 Q1017 NOSIG","observationTime":"2019-06-18T00:30:00Z","temp":17,"dewpoint":17,"windDirection":350,"windSpeed":9.26,"visibility":6.21,"altim":30.029528,"flightCategory":"VFR","metarType":"METAR","geometry_esri":{"x":47.42,"y":19.27,"z":185}}}