{"type":"Feature","geometry":{"type":"Point","coordinates":[47.42,19.27,185]},"properties":{"stationId":"LHBP","rawText":"LHBP 201330Z VRB03KT 3800 BR OVC007 M05/M05 Q1024 R88/550195 NOSIG","observationTime":"2018-12-20T13:30:00Z","temp":-5,"dewpoint":-5,"windDirection":0,"windSpeed":5.556,"visibility":2.36,"altim":30.236221,"flightCategory":"IFR","metarType":"METAR","geometry_esri":{"x":47.42,"y":19.27,"z":185}}}