{"type":"Feature","geometry":{"type":"Point","coordinates":[47.42,19.27,185]},"properties":{"stationId":"LHBP","rawText":"LHBP 141230Z 30013KT 9999 FEW025 SCT060 BKN200 20/15 Q1014 NOSIG","observationTime":"2019-08-14T12:30:00Z","temp":20,"dewpoint":15,"windDirection":300,"windSpeed":24.076,"visibility":6.21,"altim":29.940945,"flightCategory":"VFR","metarType":"METAR","geometry_esri":{"x":47.42,"y":19.27,"z":185}}}