{"type":"Feature","geometry":{"type":"Point","coordinates":[47.78,13.02,430]},"properties":{"stationId":"LOWS","rawText":"LOWS 051350Z 32005KT CAVOK 04/00 Q1021 NOSIG","observationTime":"2019-12-05T13:50:00Z","temp":4,"dewpoint":0,"windDirection":320,"windSpeed":9.26,"visibility":6.21,"altim":30.147638,"flightCategory":"VFR","metarType":"METAR","geometry_esri":{"x":47.78,"y":13.02,"z":430}}}