{"type":"Feature","geometry":{"type":"Point","coordinates":[47.78,13.02,430]},"properties":{"stationId":"LOWS","rawText":"LOWS 011950Z 16004KT 9999 FEW060 SCT120 BKN250 14/11 Q1006 NOSIG","observationTime":"2019-10-01T19:50:00Z","temp":14,"dewpoint":11,"windDirection":160,"windSpeed":7.408,"visibility":6.21,"altim":29.704725,"flightCategory":"VFR","metarType":"METAR","geometry_esri":{"x":47.78,"y":13.02,"z":430}}}