{"type":"Feature","geometry":{"type":"Point","coordinates":[47.78,13.02,430]},"properties":{"stationId":"LOWS","rawText":"LOWS 132150Z 16006KT 120V200 9999 FEW046 BKN050 02/M00 Q0993 R15/29//95 NOSIG","observationTime":"2019-12-13T21:50:00Z","temp":2,"dewpoint":0,"windDirection":160,"windSpeed":11.112,"visibility":6.21,"altim":29.320866,"flightCategory":"VFR","metarType":"SPECI","geometry_esri":{"x":47.78,"y":13.02,"z":430}}}