{"type":"Feature","geometry":{"type":"Point","coordinates":[47.42,19.27,185]},"properties":{"stationId":"LHBP","rawText":"LHBP 290230Z 02002KT CAVOK 00/M01 Q1010 NOSIG","observationTime":"2020-03-29T02:30:00Z","temp":0,"dewpoint":-1,"windDirection":20,"windSpeed":3.704,"visibility":6.21,"altim":29.822834,"flightCategory":"VFR","metarType":"METAR","geometry_esri":{"x":47.42,"y":19.27,"z":185}}}