{"type":"Feature","geometry":{"type":"Point","coordinates":[47.42,19.27,185]},"properties":{"stationId":"LHBP","rawText":"LHBP 231530Z 05005KT 2000 BR OVC003 M02/M02 Q1001 R88/650295 BECMG 1400 BR","observationTime":"2019-01-23T15:30:00Z","temp":-2,"dewpoint":-2,"windDirection":50,"windSpeed":9.26,"visibility":1.24,"altim":29.557087,"flightCategory":"LIFR","metarType":"METAR","geometry_esri":{"x":47.42,"y":19.27,"z":185}}}