{"type":"Feature","geometry":{"type":"Point","coordinates":[47.78,13.02,430]},"properties":{"stationId":"LOWS","rawText":"LOWS 160650Z 15012KT CAVOK 04/M02 Q1012 NOSIG","observationTime":"2019-12-16T06:50:00Z","temp":4,"dewpoint":-2,"windDirection":150,"windSpeed":22.224,"visibility":6.21,"altim":29.88189,"flightCategory":"VFR","metarType":"METAR","geometry_esri":{"x":47.78,"y":13.02,"z":430}}}