{"type":"Feature","geometry":{"type":"Point","coordinates":[47.78,13.02,430]},"properties":{"stationId":"LOWS","rawText":"LOWS 070150Z AUTO 12004KT 070V200 9999 -RA //////CB FEW032 SCT070 BKN090 18/16 Q1012","observationTime":"2019-07-07T01:50:00Z","temp":18,"dewpoint":16,"windDirection":120,"windSpeed":7.408,"visibility":6.21,"altim":29.88189,"flightCategory":"VFR","metarType":"METAR","geometry_esri":{"x":47.78,"y":13.02,"z":430}}}