{"type":"Feature","geometry":{"type":"Point","coordinates":[47.42,19.27,185]},"properties":{"stationId":"LHBP","rawText":"LHBP 060930Z 13007KT 1800 -FZDZ BR OVC003 M01/M01 Q1025 NOSIG","observationTime":"2019-12-06T09:30:00Z","temp":-1,"dewpoint":-1,"windDirection":130,"windSpeed":12.964,"visibility":1.12,"altim":30.265747,"flightCategory":"LIFR","metarType":"METAR","geometry_esri":{"x":47.42,"y":19.27,"z":185}}}