{"type":"Feature","geometry":{"type":"Point","coordinates":[47.42,19.27,185]},"properties":{"stationId":"LHBP","rawText":"LHBP 051630Z 17007KT CAVOK 08/M03 Q1007 NOSIG","observationTime":"2020-03-05T16:30:00Z","temp":8,"dewpoint":-3,"windDirection":170,"windSpeed":12.964,"visibility":6.21,"altim":29.734253,"flightCategory":"VFR","metarType":"METAR","geometry_esri":{"x":47.42,"y":19.27,"z":185}}}