{"type":"Feature","geometry":{"type":"Point","coordinates":[47.42,19.27,185]},"properties":{"stationId":"LHBP","rawText":"LHBP 231730Z 31016KT 9999 FEW025 SCT110 14/12 Q1013 NOSIG","observationTime":"2019-05-23T17:30:00Z","temp":14,"dewpoint":12,"windDirection":310,"windSpeed":29.632,"visibility":6.21,"altim":29.911417,"flightCategory":"VFR","metarType":"METAR","geometry_esri":{"x":47.42,"y":19.27,"z":185}}}