{"type":"Feature","geometry":{"type":"Point","coordinates":[47.42,19.27,185]},"properties":{"stationId":"LHBP","rawText":"LHBP 250930Z VRB02KT 2800 BR OVC004 M02/M02 Q1025 TEMPO 3000 BR OVC005","observationTime":"2020-01-25T09:30:00Z","temp":-2,"dewpoint":-2,"windDirection":0,"windSpeed":3.704,"visibility":1.74,"altim":30.265747,"flightCategory":"LIFR","metarType":"METAR","geometry_esri":{"x":47.42,"y":19.27,"z":185}}}