{"type":"Feature","geometry":{"type":"Point","coordinates":[47.42,19.27,185]},"properties":{"stationId":"LHBP","rawText":"LHBP 240530Z VRB01KT 5000 -RA BR OVC004 05/04 Q1004 NOSIG","observationTime":"2018-12-24T05:30:00Z","temp":5,"dewpoint":4,"windDirection":0,"windSpeed":1.852,"visibility":3.11,"altim":29.64567,"flightCategory":"LIFR","metarType":"METAR","geometry_esri":{"x":47.42,"y":19.27,"z":185}}}