{"type":"Feature","geometry":{"type":"Point","coordinates":[47.42,19.27,185]},"properties":{"stationId":"LHBP","rawText":"LHBP 231030Z 04009KT 9999 OVC034 15/07 Q1015 NOSIG","observationTime":"2019-09-23T10:30:00Z","temp":15,"dewpoint":7,"windDirection":40,"windSpeed":16.668,"visibility":6.21,"altim":29.970472,"flightCategory":"VFR","metarType":"METAR","geometry_esri":{"x":47.42,"y":19.27,"z":185}}}