{"type":"Feature","geometry":{"type":"Point","coordinates":[47.42,19.27,185]},"properties":{"stationId":"LHBP","rawText":"LHBP 251330Z 33009KT 9999 SCT018 BKN041 08/05 Q1011 NOSIG","observationTime":"2019-12-25T13:30:00Z","temp":8,"dewpoint":5,"windDirection":330,"windSpeed":16.668,"visibility":6.21,"altim":29.852362,"flightCategory":"VFR","metarType":"METAR","geometry_esri":{"x":47.42,"y":19.27,"z":185}}}