{"type":"Feature","geometry":{"type":"Point","coordinates":[47.42,19.27,185]},"properties":{"stationId":"LHBP","rawText":"LHBP 081830Z 33008KT CAVOK 14/08 Q1004 NOSIG","observationTime":"2019-04-08T18:30:00Z","temp":14,"dewpoint":8,"windDirection":330,"windSpeed":14.816,"visibility":6.21,"altim":29.64567,"flightCategory":"VFR","metarType":"METAR","geometry_esri":{"x":47.42,"y":19.27,"z":185}}}