{"type":"Feature","geometry":{"type":"Point","coordinates":[47.78,13.02,430]},"properties":{"stationId":"LOWS","rawText":"LOWS 161250Z 35005KT 280V050 CAVOK 21/02 Q1017 NOSIG","observationTime":"2020-04-16T12:50:00Z","temp":21,"dewpoint":2,"windDirection":350,"windSpeed":9.26,"visibility":6.21,"altim":30.029528,"flightCategory":"VFR","metarType":"METAR","geometry_esri":{"x":47.78,"y":13.02,"z":430}}}