{"type":"Feature","geometry":{"type":"Point","coordinates":[47.78,13.02,430]},"properties":{"stationId":"LOWS","rawText":"LOWS 052050Z 16007KT 9999 FEW060 BKN100 BKN160 05/04 Q1000 NOSIG","observationTime":"2019-11-05T20:50:00Z","temp":5,"dewpoint":4,"windDirection":160,"windSpeed":12.964,"visibility":6.21,"altim":29.52756,"flightCategory":"VFR","metarType":"METAR","geometry_esri":{"x":47.78,"y":13.02,"z":430}}}