{"type":"Feature","geometry":{"type":"Point","coordinates":[47.42,19.27,185]},"properties":{"stationId":"LHBP","rawText":"LHBP 220630Z 32004KT 290V350 CAVOK 20/16 Q1024 NOSIG","observationTime":"2019-08-22T06:30:00Z","temp":20,"dewpoint":16,"windDirection":320,"windSpeed":7.408,"visibility":6.21,"altim":30.236221,"flightCategory":"VFR","metarType":"METAR","geometry_esri":{"x":47.42,"y":19.27,"z":185}}}