{"type":"Feature","geometry":{"type":"Point","coordinates":[47.42,19.27,185]},"properties":{"stationId":"LHBP","rawText":"LHBP 171330Z 31017KT CAVOK 25/01 Q1012 NOSIG","observationTime":"2020-04-17T13:30:00Z","temp":25,"dewpoint":1,"windDirection":310,"windSpeed":31.484,"visibility":6.21,"altim":29.88189,"flightCategory":"VFR","metarType":"METAR","geometry_esri":{"x":47.42,"y":19.27,"z":185}}}