{"type":"Feature","geometry":{"type":"Point","coordinates":[47.42,19.27,185]},"properties":{"stationId":"LHBP","rawText":"LHBP 252130Z 10004KT CAVOK 15/10 Q1016 NOSIG","observationTime":"2019-04-25T21:30:00Z","temp":15,"dewpoint":10,"windDirection":100,"windSpeed":7.408,"visibility":6.21,"altim":30,"flightCategory":"VFR","metarType":"METAR","geometry_esri":{"x":47.42,"y":19.27,"z":185}}}