{"type":"Feature","geometry":{"type":"Point","coordinates":[47.78,13.02,430]},"properties":{"stationId":"LOWS","rawText":"LOWS 190750Z 29003KT 260V340 9999 FEW050 SCT300 09/06 Q1027 NOSIG","observationTime":"2019-09-19T07:50:00Z","temp":9,"dewpoint":6,"windDirection":290,"windSpeed":5.556,"visibility":6.21,"altim":30.324802,"flightCategory":"VFR","metarType":"METAR","geometry_esri":{"x":47.78,"y":13.02,"z":430}}}