{"type":"Feature","geometry":{"type":"Point","coordinates":[47.47,21.62,112]},"properties":{"stationId":"LHDC","rawText":"LHDC 150343Z AUTO 07003KT 5000 BR NCD 09/08 Q1018","observationTime":"2019-10-15T03:43:00Z","temp":9,"dewpoint":8,"windDirection":70,"windSpeed":5.556,"visibility":3.11,"altim":30.059055,"flightCategory":"MVFR","metarType":"SPECI","geometry_esri":{"x":47.47,"y":21.62,"z":112}}}