{"type":"Feature","geometry":{"type":"Point","coordinates":[47.78,13.02,430]},"properties":{"stationId":"LOWS","rawText":"LOWS 050250Z AUTO 35004KT 9999 FEW007 BKN011 11/10 Q1015","observationTime":"2020-05-05T02:50:00Z","temp":11,"dewpoint":10,"windDirection":350,"windSpeed":7.408,"visibility":6.21,"altim":29.970472,"flightCategory":"MVFR","metarType":"METAR","geometry_esri":{"x":47.78,"y":13.02,"z":430}}}