{"type":"Feature","geometry":{"type":"Point","coordinates":[47.78,13.02,430]},"properties":{"stationId":"LOWS","rawText":"LOWS 181650Z 01004KT 330V040 9999 FEW070 31/11 Q1011 NOSIG","observationTime":"2019-08-18T16:50:00Z","temp":31,"dewpoint":11,"windDirection":10,"windSpeed":7.408,"visibility":6.21,"altim":29.852362,"flightCategory":"VFR","metarType":"METAR","geometry_esri":{"x":47.78,"y":13.02,"z":430}}}