{"type":"Feature","geometry":{"type":"Point","coordinates":[47.42,19.27,185]},"properties":{"stationId":"LHBP","rawText":"LHBP 211930Z VRB02KT CAVOK 11/04 Q1017 NOSIG","observationTime":"2019-04-21T19:30:00Z","temp":11,"dewpoint":4,"windDirection":0,"windSpeed":3.704,"visibility":6.21,"altim":30.029528,"flightCategory":"VFR","metarType":"METAR","geometry_esri":{"x":47.42,"y":19.27,"z":185}}}