{"type":"Feature","geometry":{"type":"Point","coordinates":[47.42,19.27,185]},"properties":{"stationId":"LHBP","rawText":"LHBP 061730Z 12004KT CAVOK 07/06 Q1007 NOSIG","observationTime":"2019-11-06T17:30:00Z","temp":7,"dewpoint":6,"windDirection":120,"windSpeed":7.408,"visibility":6.21,"altim":29.734253,"flightCategory":"VFR","metarType":"METAR","geometry_esri":{"x":47.42,"y":19.27,"z":185}}}