{"type":"Feature","geometry":{"type":"Point","coordinates":[47.42,19.27,185]},"properties":{"stationId":"LHBP","rawText":"LHBP 171430Z 11005KT 1000 R13R/1600N R13L/1600U BCFG BR OVC002 M02/M02 Q1028 NOSIG","observationTime":"2020-01-17T14:30:00Z","temp":-2,"dewpoint":-2,"windDirection":110,"windSpeed":9.26,"visibility":0.62,"altim":30.35433,"flightCategory":"LIFR","metarType":"METAR","geometry_esri":{"x":47.42,"y":19.27,"z":185}}}