{"type":"Feature","geometry":{"type":"Point","coordinates":[47.42,19.27,185]},"properties":{"stationId":"LHBP","rawText":"LHBP 072330Z 35003KT 320V050 8000 NSC M06/M07 Q1031 NOSIG","observationTime":"2020-01-07T23:30:00Z","temp":-6,"dewpoint":-7,"windDirection":350,"windSpeed":5.556,"visibility":4.97,"altim":30.442913,"flightCategory":"MVFR","metarType":"METAR","geometry_esri":{"x":47.42,"y":19.27,"z":185}}}