{"type":"Feature","geometry":{"type":"Point","coordinates":[47.78,13.02,430]},"properties":{"stationId":"LOWS","rawText":"LOWS 121750Z 03003KT 9999 FEW070 20/03 Q1013 NOSIG","observationTime":"2020-04-12T17:50:00Z","temp":20,"dewpoint":3,"windDirection":30,"windSpeed":5.556,"visibility":6.21,"altim":29.911417,"flightCategory":"VFR","metarType":"METAR","geometry_esri":{"x":47.78,"y":13.02,"z":430}}}