{"type":"Feature","geometry":{"type":"Point","coordinates":[47.78,13.02,430]},"properties":{"stationId":"LOWS","rawText":"LOWS 131650Z 16009KT 110V200 9999 VCTS FEW035 FEW060CB BKN070 13/07 Q1012 TEMPO 30015G25KT TSRA","observationTime":"2020-04-13T16:50:00Z","temp":13,"dewpoint":7,"windDirection":160,"windSpeed":16.668,"visibility":6.21,"altim":29.88189,"flightCategory":"VFR","metarType":"METAR","geometry_esri":{"x":47.78,"y":13.02,"z":430}}}