{"type":"Feature","geometry":{"type":"Point","coordinates":[47.78,13.02,430]},"properties":{"stationId":"LOWS","rawText":"LOWS 080850Z VRB02KT 6000 -RADZ FEW006 SCT020 BKN028 08/07 Q1010 NOSIG","observationTime":"2019-04-08T08:50:00Z","temp":8,"dewpoint":7,"windDirection":0,"windSpeed":3.704,"visibility":3.73,"altim":29.822834,"flightCategory":"MVFR","metarType":"METAR","geometry_esri":{"x":47.78,"y":13.02,"z":430}}}