{"type":"Feature","geometry":{"type":"Point","coordinates":[47.42,19.27,185]},"properties":{"stationId":"LHBP","rawText":"LHBP 131430Z 12008KT 5000 BR NSC 04/03 Q0992 NOSIG","observationTime":"2019-12-13T14:30:00Z","temp":4,"dewpoint":3,"windDirection":120,"windSpeed":14.816,"visibility":3.11,"altim":29.291338,"flightCategory":"MVFR","metarType":"METAR","geometry_esri":{"x":47.42,"y":19.27,"z":185}}}