{"type":"Feature","geometry":{"type":"Point","coordinates":[47.78,13.02,430]},"properties":{"stationId":"LOWS","rawText":"LOWS 270450Z 16006KT CAVOK M02/M04 Q1029 NOSIG","observationTime":"2018-12-27T04:50:00Z","temp":-2,"dewpoint":-4,"windDirection":160,"windSpeed":11.112,"visibility":6.21,"altim":30.383858,"flightCategory":"VFR","metarType":"METAR","geometry_esri":{"x":47.78,"y":13.02,"z":430}}}