{"type":"Feature","geometry":{"type":"Point","coordinates":[47.42,19.27,185]},"properties":{"stationId":"LHBP","rawText":"LHBP 272030Z 13009KT CAVOK 01/M03 Q1003 NOSIG","observationTime":"2020-02-27T20:30:00Z","temp":1,"dewpoint":-3,"windDirection":130,"windSpeed":16.668,"visibility":6.21,"altim":29.616142,"flightCategory":"VFR","metarType":"METAR","geometry_esri":{"x":47.42,"y":19.27,"z":185}}}