{"type":"Feature","geometry":{"type":"Point","coordinates":[47.78,13.02,430]},"properties":{"stationId":"LOWS","rawText":"LOWS 042350Z AUTO 36005KT 320V030 9999 FEW048 BKN060 07/M01 Q1009","observationTime":"2019-03-04T23:50:00Z","temp":7,"dewpoint":-1,"windDirection":360,"windSpeed":9.26,"visibility":6.21,"altim":29.793306,"flightCategory":"VFR","metarType":"METAR","geometry_esri":{"x":47.78,"y":13.02,"z":430}}}