{"type":"Feature","geometry":{"type":"Point","coordinates":[47.47,21.62,112]},"properties":{"stationId":"LHDC","rawText":"LHDC 221243Z AUTO VRB02KT 5000 HZ NCD 25/13 Q1023","observationTime":"2019-10-22T12:43:00Z","temp":25,"dewpoint":13,"windDirection":0,"windSpeed":3.704,"visibility":3.11,"altim":30.206694,"flightCategory":"MVFR","metarType":"SPECI","geometry_esri":{"x":47.47,"y":21.62,"z":112}}}