{"type":"Feature","geometry":{"type":"Point","coordinates":[47.42,19.27,185]},"properties":{"stationId":"LHBP","rawText":"LHBP 020730Z 32007KT 290V350 CAVOK 28/18 Q1014 NOSIG","observationTime":"2019-07-02T07:30:00Z","temp":28,"dewpoint":18,"windDirection":320,"windSpeed":12.964,"visibility":6.21,"altim":29.940945,"flightCategory":"VFR","metarType":"METAR","geometry_esri":{"x":47.42,"y":19.27,"z":185}}}