{"type":"Feature","geometry":{"type":"Point","coordinates":[47.78,13.02,430]},"properties":{"stationId":"LOWS","rawText":"LOWS 260450Z VRB01KT 7000 FEW002 BKN004 04/03 Q1012 TEMPO BKN005","observationTime":"2019-11-26T04:50:00Z","temp":4,"dewpoint":3,"windDirection":0,"windSpeed":1.852,"visibility":4.35,"altim":29.88189,"flightCategory":"LIFR","metarType":"METAR","geometry_esri":{"x":47.78,"y":13.02,"z":430}}}