{"type":"Feature","geometry":{"type":"Point","coordinates":[47.42,19.27,185]},"properties":{"stationId":"LHBP","rawText":"LHBP 261430Z 07012KT 040V100 CAVOK 14/M02 Q1022 NOSIG","observationTime":"2020-03-26T14:30:00Z","temp":14,"dewpoint":-2,"windDirection":70,"windSpeed":22.224,"visibility":6.21,"altim":30.177166,"flightCategory":"VFR","metarType":"METAR","geometry_esri":{"x":47.42,"y":19.27,"z":185}}}