{"type":"Feature","geometry":{"type":"Point","coordinates":[47.78,13.02,430]},"properties":{"stationId":"LOWS","rawText":"LOWS 281950Z 17004KT CAVOK 07/01 Q1015 NOSIG","observationTime":"2020-03-28T19:50:00Z","temp":7,"dewpoint":1,"windDirection":170,"windSpeed":7.408,"visibility":6.21,"altim":29.970472,"flightCategory":"VFR","metarType":"METAR","geometry_esri":{"x":47.78,"y":13.02,"z":430}}}