{"type":"Feature","geometry":{"type":"Point","coordinates":[47.78,13.02,430]},"properties":{"stationId":"LOWS","rawText":"LOWS 181250Z VRB04KT 9999 FEW060 24/07 Q1014 NOSIG","observationTime":"2020-04-18T12:50:00Z","temp":24,"dewpoint":7,"windDirection":0,"windSpeed":7.408,"visibility":6.21,"altim":29.940945,"flightCategory":"VFR","metarType":"METAR","geometry_esri":{"x":47.78,"y":13.02,"z":430}}}