{"type":"Feature","geometry":{"type":"Point","coordinates":[47.42,19.27,185]},"properties":{"stationId":"LHBP","rawText":"LHBP 201830Z 13008KT CAVOK 07/05 Q1005 NOSIG","observationTime":"2019-12-20T18:30:00Z","temp":7,"dewpoint":5,"windDirection":130,"windSpeed":14.816,"visibility":6.21,"altim":29.675198,"flightCategory":"VFR","metarType":"METAR","geometry_esri":{"x":47.42,"y":19.27,"z":185}}}