{"type":"Feature","geometry":{"type":"Point","coordinates":[47.78,13.02,430]},"properties":{"stationId":"LOWS","rawText":"LOWS 020850Z 22003KT 120V280 9999 -RA FEW015 SCT030 BKN060 13/11 Q1008 RERA NOSIG","observationTime":"2019-10-02T08:50:00Z","temp":13,"dewpoint":11,"windDirection":220,"windSpeed":5.556,"visibility":6.21,"altim":29.763779,"flightCategory":"VFR","metarType":"METAR","geometry_esri":{"x":47.78,"y":13.02,"z":430}}}