{"type":"Feature","geometry":{"type":"Point","coordinates":[47.42,19.27,185]},"properties":{"stationId":"LHBP","rawText":"LHBP 131047Z 23005KT 170V260 9999 -TSRA SCT025CB BKN030 20/14 Q1010 TEMPO VRB15G25KT 2000 TSRA BKN009 BKN020CB","observationTime":"2019-07-13T10:47:00Z","temp":20,"dewpoint":14,"windDirection":230,"windSpeed":9.26,"visibility":6.21,"altim":29.822834,"flightCategory":"MVFR","metarType":"SPECI","geometry_esri":{"x":47.42,"y":19.27,"z":185}}}