{"type":"Feature","geometry":{"type":"Point","coordinates":[47.42,19.27,185]},"properties":{"stationId":"LHBP","rawText":"LHBP 270130Z 13005KT 4000 BR FEW033 05/05 Q1011 NOSIG","observationTime":"2019-11-27T01:30:00Z","temp":5,"dewpoint":5,"windDirection":130,"windSpeed":9.26,"visibility":2.49,"altim":29.852362,"flightCategory":"IFR","metarType":"METAR","geometry_esri":{"x":47.42,"y":19.27,"z":185}}}