{"type":"Feature","geometry":{"type":"Point","coordinates":[47.78,13.02,430]},"properties":{"stationId":"LOWS","rawText":"LOWS 060350Z 14003KT 9999 FEW006 BKN035 12/11 Q1023 TEMPO 4000 BR","observationTime":"2019-09-06T03:50:00Z","temp":12,"dewpoint":11,"windDirection":140,"windSpeed":5.556,"visibility":6.21,"altim":30.206694,"flightCategory":"VFR","metarType":"METAR","geometry_esri":{"x":47.78,"y":13.02,"z":430}}}