{"type":"Feature","geometry":{"type":"Point","coordinates":[47.42,19.27,185]},"properties":{"stationId":"LHBP","rawText":"LHBP 022130Z 30011KT CAVOK 18/15 Q1017 NOSIG","observationTime":"2019-09-02T21:30:00Z","temp":18,"dewpoint":15,"windDirection":300,"windSpeed":20.372,"visibility":6.21,"altim":30.029528,"flightCategory":"VFR","metarType":"METAR","geometry_esri":{"x":47.42,"y":19.27,"z":185}}}