{"type":"Feature","geometry":{"type":"Point","coordinates":[47.42,19.27,185]},"properties":{"stationId":"LHBP","rawText":"LHBP 071730Z 32015KT CAVOK 18/M02 Q1018 NOSIG","observationTime":"2020-05-07T17:30:00Z","temp":18,"dewpoint":-2,"windDirection":320,"windSpeed":27.78,"visibility":6.21,"altim":30.059055,"flightCategory":"VFR","metarType":"METAR","geometry_esri":{"x":47.42,"y":19.27,"z":185}}}