{"type":"Feature","geometry":{"type":"Point","coordinates":[47.78,13.02,430]},"properties":{"stationId":"LOWS","rawText":"LOWS 100450Z 17004KT 140V210 9999 FEW060 03/02 Q1019 NOSIG","observationTime":"2020-03-10T04:50:00Z","temp":3,"dewpoint":2,"windDirection":170,"windSpeed":7.408,"visibility":6.21,"altim":30.088583,"flightCategory":"VFR","metarType":"METAR","geometry_esri":{"x":47.78,"y":13.02,"z":430}}}