{"type":"Feature","geometry":{"type":"Point","coordinates":[47.78,13.02,430]},"properties":{"stationId":"LOWS","rawText":"LOWS 071050Z 13006KT 090V160 9999 FEW007 SCT045 BKN085 18/16 Q1014 TEMPO SHRA","observationTime":"2019-07-07T10:50:00Z","temp":18,"dewpoint":16,"windDirection":130,"windSpeed":11.112,"visibility":6.21,"altim":29.940945,"flightCategory":"VFR","metarType":"METAR","geometry_esri":{"x":47.78,"y":13.02,"z":430}}}