{"type":"Feature","geometry":{"type":"Point","coordinates":[47.78,13.02,430]},"properties":{"stationId":"LOWS","rawText":"LOWS 112150Z AUTO 15004KT 110V180 9999 FEW070 BKN090 13/12 Q1028","observationTime":"2019-09-11T21:50:00Z","temp":13,"dewpoint":12,"windDirection":150,"windSpeed":7.408,"visibility":6.21,"altim":30.35433,"flightCategory":"VFR","metarType":"METAR","geometry_esri":{"x":47.78,"y":13.02,"z":430}}}