{"type":"Feature","geometry":{"type":"Point","coordinates":[47.78,13.02,430]},"properties":{"stationId":"LOWS","rawText":"LOWS 300650Z 28007KT 230V350 9999 -RA FEW012 SCT022 BKN030 04/00 Q1027 R15/2///95 TEMPO 4000 RASN","observationTime":"2018-12-30T06:50:00Z","temp":4,"dewpoint":0,"windDirection":280,"windSpeed":12.964,"visibility":6.21,"altim":30.324802,"flightCategory":"MVFR","metarType":"METAR","geometry_esri":{"x":47.78,"y":13.02,"z":430}}}