{"type":"Feature","geometry":{"type":"Point","coordinates":[47.78,13.02,430]},"properties":{"stationId":"LOWS","rawText":"LOWS 190150Z AUTO 17007KT 9999 FEW060 SCT080 BKN090 13/10 Q1014","observationTime":"2020-04-19T01:50:00Z","temp":13,"dewpoint":10,"windDirection":170,"windSpeed":12.964,"visibility":6.21,"altim":29.940945,"flightCategory":"VFR","metarType":"METAR","geometry_esri":{"x":47.78,"y":13.02,"z":430}}}