{"type":"Feature","geometry":{"type":"Point","coordinates":[47.47,21.62,112]},"properties":{"stationId":"LHDC","rawText":"LHDC 070435Z AUTO 04004KT 2000 BR SCT004 06/06 Q1008","observationTime":"2019-04-07T04:35:00Z","temp":6,"dewpoint":6,"windDirection":40,"windSpeed":7.408,"visibility":1.24,"altim":29.763779,"flightCategory":"IFR","metarType":"SPECI","geometry_esri":{"x":47.47,"y":21.62,"z":112}}}