{"type":"Feature","geometry":{"type":"Point","coordinates":[47.78,13.02,430]},"properties":{"stationId":"LOWS","rawText":"LOWS 281450Z 28003KT 230V350 9999 FEW050 BKN060 12/M01 Q1031 NOSIG","observationTime":"2019-03-28T14:50:00Z","temp":12,"dewpoint":-1,"windDirection":280,"windSpeed":5.556,"visibility":6.21,"altim":30.442913,"flightCategory":"VFR","metarType":"METAR","geometry_esri":{"x":47.78,"y":13.02,"z":430}}}