{"type":"Feature","geometry":{"type":"Point","coordinates":[47.47,21.62,112]},"properties":{"stationId":"LHDC","rawText":"LHDC 100635Z AUTO 00000KT 5000 BR OVC005 11/11 Q1008","observationTime":"2019-05-10T06:35:00Z","temp":11,"dewpoint":11,"windDirection":0,"windSpeed":0,"visibility":3.11,"altim":29.763779,"flightCategory":"IFR","metarType":"SPECI","geometry_esri":{"x":47.47,"y":21.62,"z":112}}}