{"type":"Feature","geometry":{"type":"Point","coordinates":[47.42,19.27,185]},"properties":{"stationId":"LHBP","rawText":"LHBP 300330Z 36003KT 7000 NSC M08/M10 Q1037 NOSIG","observationTime":"2019-12-30T03:30:00Z","temp":-8,"dewpoint":-10,"windDirection":360,"windSpeed":5.556,"visibility":4.35,"altim":30.620079,"flightCategory":"MVFR","metarType":"METAR","geometry_esri":{"x":47.42,"y":19.27,"z":185}}}