{"type":"Feature","geometry":{"type":"Point","coordinates":[47.78,13.02,430]},"properties":{"stationId":"LOWS","rawText":"LOWS 051250Z VRB09G19KT 9999 SCT080 BKN140 11/M03 Q1011 TEMPO 29015G30KT","observationTime":"2019-03-05T12:50:00Z","temp":11,"dewpoint":-3,"windDirection":0,"windSpeed":16.668,"visibility":6.21,"altim":29.852362,"flightCategory":"VFR","metarType":"METAR","geometry_esri":{"x":47.78,"y":13.02,"z":430}}}