{"type":"Feature","geometry":{"type":"Point","coordinates":[47.42,19.27,185]},"properties":{"stationId":"LHBP","rawText":"LHBP 240130Z 07002KT 1000 R31L/P2000N R31R/P2000N BCFG BR FEW002 M06/M07 Q1031 TEMPO 0300 FZFG VV001","observationTime":"2020-01-24T01:30:00Z","temp":-6,"dewpoint":-7,"windDirection":70,"windSpeed":3.704,"visibility":0.62,"altim":30.442913,"flightCategory":"LIFR","metarType":"SPECI","geometry_esri":{"x":47.42,"y":19.27,"z":185}}}