{"type":"Feature","geometry":{"type":"Point","coordinates":[47.78,13.02,430]},"properties":{"stationId":"LOWS","rawText":"LOWS 030250Z AUTO 31009KT 9999 FEW026 BKN036 M02/M06 Q1032","observationTime":"2019-01-03T02:50:00Z","temp":-2,"dewpoint":-6,"windDirection":310,"windSpeed":16.668,"visibility":6.21,"altim":30.47244,"flightCategory":"VFR","metarType":"METAR","geometry_esri":{"x":47.78,"y":13.02,"z":430}}}