{"type":"Feature","geometry":{"type":"Point","coordinates":[47.42,19.27,185]},"properties":{"stationId":"LHBP","rawText":"LHBP 181330Z 32016KT 9999 FEW049 11/M00 Q1023 NOSIG","observationTime":"2020-02-18T13:30:00Z","temp":11,"dewpoint":0,"windDirection":320,"windSpeed":29.632,"visibility":6.21,"altim":30.206694,"flightCategory":"VFR","metarType":"METAR","geometry_esri":{"x":47.42,"y":19.27,"z":185}}}