{"type":"Feature","geometry":{"type":"Point","coordinates":[47.78,13.02,430]},"properties":{"stationId":"LOWS","rawText":"LOWS 110350Z AUTO 17004KT 130V200 0750 R15/0650N R33/0900U FZFG BKN001 M01/M01 Q1015","observationTime":"2019-11-11T03:50:00Z","temp":-1,"dewpoint":-1,"windDirection":170,"windSpeed":7.408,"visibility":0.47,"altim":29.970472,"flightCategory":"LIFR","metarType":"METAR","geometry_esri":{"x":47.78,"y":13.02,"z":430}}}