{"type":"Feature","geometry":{"type":"Point","coordinates":[47.78,13.02,430]},"properties":{"stationId":"LOWS","rawText":"LOWS 061050Z 02006KT 330V070 9999 FEW035 13/05 Q1003 NOSIG","observationTime":"2019-04-06T10:50:00Z","temp":13,"dewpoint":5,"windDirection":20,"windSpeed":11.112,"visibility":6.21,"altim":29.616142,"flightCategory":"VFR","metarType":"METAR","geometry_esri":{"x":47.78,"y":13.02,"z":430}}}