{"type":"Feature","geometry":{"type":"Point","coordinates":[47.78,13.02,430]},"properties":{"stationId":"LOWS","rawText":"LOWS 281050Z 32003KT 250V350 9999 FEW007 SCT020 BKN035 15/12 Q1006 NOSIG","observationTime":"2019-05-28T10:50:00Z","temp":15,"dewpoint":12,"windDirection":320,"windSpeed":5.556,"visibility":6.21,"altim":29.704725,"flightCategory":"VFR","metarType":"METAR","geometry_esri":{"x":47.78,"y":13.02,"z":430}}}