{"type":"Feature","geometry":{"type":"Point","coordinates":[47.78,13.02,430]},"properties":{"stationId":"LOWS","rawText":"LOWS 130350Z AUTO 27009KT 220V320 9999 -RA FEW010 SCT014 BKN022 03/00 Q1012","observationTime":"2019-01-13T03:50:00Z","temp":3,"dewpoint":0,"windDirection":270,"windSpeed":16.668,"visibility":6.21,"altim":29.88189,"flightCategory":"MVFR","metarType":"METAR","geometry_esri":{"x":47.78,"y":13.02,"z":430}}}