{"type":"Feature","geometry":{"type":"Point","coordinates":[47.78,13.02,430]},"properties":{"stationId":"LOWS","rawText":"LOWS 220050Z AUTO 15005KT 120V180 9999 -SHRA FEW020 SCT034 BKN040 06/04 Q1014","observationTime":"2018-12-22T00:50:00Z","temp":6,"dewpoint":4,"windDirection":150,"windSpeed":9.26,"visibility":6.21,"altim":29.940945,"flightCategory":"VFR","metarType":"METAR","geometry_esri":{"x":47.78,"y":13.02,"z":430}}}