{"type":"Feature","geometry":{"type":"Point","coordinates":[47.42,19.27,185]},"properties":{"stationId":"LHBP","rawText":"LHBP 031430Z 15003KT 120V210 9999 VCSH FEW030 SCT060 BKN087 11/10 Q1000 NOSIG","observationTime":"2020-03-03T14:30:00Z","temp":11,"dewpoint":10,"windDirection":150,"windSpeed":5.556,"visibility":6.21,"altim":29.52756,"flightCategory":"VFR","metarType":"METAR","geometry_esri":{"x":47.42,"y":19.27,"z":185}}}