{"type":"Feature","geometry":{"type":"Point","coordinates":[47.78,13.02,430]},"properties":{"stationId":"LOWS","rawText":"LOWS 122350Z AUTO 18003KT 4100 -SN FEW001 SCT004 BKN018 00/00 Q1005","observationTime":"2019-11-12T23:50:00Z","temp":0,"dewpoint":0,"windDirection":180,"windSpeed":5.556,"visibility":2.55,"altim":29.675198,"flightCategory":"IFR","metarType":"METAR","geometry_esri":{"x":47.78,"y":13.02,"z":430}}}