{"type":"Feature","geometry":{"type":"Point","coordinates":[47.42,19.27,185]},"properties":{"stationId":"LHBP","rawText":"LHBP 122330Z VRB03KT 9999 BKN035 01/01 Q1010 R88/29//95 NOSIG","observationTime":"2019-01-12T23:30:00Z","temp":1,"dewpoint":1,"windDirection":0,"windSpeed":5.556,"visibility":6.21,"altim":29.822834,"flightCategory":"VFR","metarType":"SPECI","geometry_esri":{"x":47.42,"y":19.27,"z":185}}}