{"type":"Feature","geometry":{"type":"Point","coordinates":[47.78,13.02,430]},"properties":{"stationId":"LOWS","rawText":"LOWS 240150Z AUTO 22011KT 200V260 9999 FEW038 SCT042 BKN050 10/07 Q1010","observationTime":"2018-12-24T01:50:00Z","temp":10,"dewpoint":7,"windDirection":220,"windSpeed":20.372,"visibility":6.21,"altim":29.822834,"flightCategory":"VFR","metarType":"METAR","geometry_esri":{"x":47.78,"y":13.02,"z":430}}}