{"type":"Feature","geometry":{"type":"Point","coordinates":[47.78,13.02,430]},"properties":{"stationId":"LOWS","rawText":"LOWS 200850Z VRB03KT 9999 FEW035 SCT065 06/M01 Q1033 NOSIG","observationTime":"2019-03-20T08:50:00Z","temp":6,"dewpoint":-1,"windDirection":0,"windSpeed":5.556,"visibility":6.21,"altim":30.501968,"flightCategory":"VFR","metarType":"METAR","geometry_esri":{"x":47.78,"y":13.02,"z":430}}}