{"type":"Feature","geometry":{"type":"Point","coordinates":[47.42,19.27,185]},"properties":{"stationId":"LHBP","rawText":"LHBP 060830Z 30010KT CAVOK 02/M04 Q1027 NOSIG","observationTime":"2020-02-06T08:30:00Z","temp":2,"dewpoint":-4,"windDirection":300,"windSpeed":18.52,"visibility":6.21,"altim":30.324802,"flightCategory":"VFR","metarType":"METAR","geometry_esri":{"x":47.42,"y":19.27,"z":185}}}