{"type":"Feature","geometry":{"type":"Point","coordinates":[47.42,19.27,185]},"properties":{"stationId":"LHBP","rawText":"LHBP 012230Z 04005KT 010V080 CAVOK 09/M06 Q1021 NOSIG","observationTime":"2019-04-01T22:30:00Z","temp":9,"dewpoint":-6,"windDirection":40,"windSpeed":9.26,"visibility":6.21,"altim":30.147638,"flightCategory":"VFR","metarType":"METAR","geometry_esri":{"x":47.42,"y":19.27,"z":185}}}