{"type":"Feature","geometry":{"type":"Point","coordinates":[47.42,19.27,185]},"properties":{"stationId":"LHBP","rawText":"LHBP 290530Z 34006KT CAVOK 03/M00 Q1033 NOSIG","observationTime":"2019-03-29T05:30:00Z","temp":3,"dewpoint":0,"windDirection":340,"windSpeed":11.112,"visibility":6.21,"altim":30.501968,"flightCategory":"VFR","metarType":"METAR","geometry_esri":{"x":47.42,"y":19.27,"z":185}}}