{"type":"Feature","geometry":{"type":"Point","coordinates":[47.42,19.27,185]},"properties":{"stationId":"LHBP","rawText":"LHBP 190530Z 01002KT 1800 -SG BR OVC005 M01/M01 Q1026 NOSIG","observationTime":"2020-01-19T05:30:00Z","temp":-1,"dewpoint":-1,"windDirection":10,"windSpeed":3.704,"visibility":1.12,"altim":30.295275,"flightCategory":"IFR","metarType":"METAR","geometry_esri":{"x":47.42,"y":19.27,"z":185}}}