{"type":"Feature","geometry":{"type":"Point","coordinates":[47.42,19.27,185]},"properties":{"stationId":"LHBP","rawText":"LHBP 270830Z 31010KT CAVOK 03/01 Q1021 NOSIG","observationTime":"2019-12-27T08:30:00Z","temp":3,"dewpoint":1,"windDirection":310,"windSpeed":18.52,"visibility":6.21,"altim":30.147638,"flightCategory":"VFR","metarType":"METAR","geometry_esri":{"x":47.42,"y":19.27,"z":185}}}