{"type":"Feature","geometry":{"type":"Point","coordinates":[47.42,19.27,185]},"properties":{"stationId":"LHBP","rawText":"LHBP 302330Z 18003KT 160V220 9000 NSC M03/M04 Q1033 NOSIG","observationTime":"2019-12-30T23:30:00Z","temp":-3,"dewpoint":-4,"windDirection":180,"windSpeed":5.556,"visibility":5.59,"altim":30.501968,"flightCategory":"VFR","metarType":"METAR","geometry_esri":{"x":47.42,"y":19.27,"z":185}}}