{"type":"Feature","geometry":{"type":"Point","coordinates":[47.78,13.02,430]},"properties":{"stationId":"LOWS","rawText":"LOWS 090650Z 25010KT 210V290 9999 FEW040 SCT050 BKN060 07/02 Q1008 NOSIG","observationTime":"2019-12-09T06:50:00Z","temp":7,"dewpoint":2,"windDirection":250,"windSpeed":18.52,"visibility":6.21,"altim":29.763779,"flightCategory":"VFR","metarType":"METAR","geometry_esri":{"x":47.78,"y":13.02,"z":430}}}