{"type":"Feature","geometry":{"type":"Point","coordinates":[47.42,19.27,185]},"properties":{"stationId":"LHBP","rawText":"LHBP 140543Z VRB03KT 9999 MIFG NSC M03/M03 Q1033 NOSIG","observationTime":"2019-02-14T05:43:00Z","temp":-3,"dewpoint":-3,"windDirection":0,"windSpeed":5.556,"visibility":6.21,"altim":30.501968,"flightCategory":"VFR","metarType":"SPECI","geometry_esri":{"x":47.42,"y":19.27,"z":185}}}