{"type":"Feature","geometry":{"type":"Point","coordinates":[47.47,21.62,112]},"properties":{"stationId":"LHDC","rawText":"LHDC 281753Z AUTO 18007KT 150V210 6000 SHRA BKN039 05/05 Q1004","observationTime":"2020-01-28T17:53:00Z","temp":5,"dewpoint":5,"windDirection":180,"windSpeed":12.964,"visibility":3.73,"altim":29.64567,"flightCategory":"MVFR","metarType":"SPECI","geometry_esri":{"x":47.47,"y":21.62,"z":112}}}