{"type":"Feature","geometry":{"type":"Point","coordinates":[47.78,13.02,430]},"properties":{"stationId":"LOWS","rawText":"LOWS 090350Z AUTO 29010KT 240V320 9999 -RASN FEW006 SCT013 BKN024 02/M01 Q1007","observationTime":"2019-01-09T03:50:00Z","temp":2,"dewpoint":-1,"windDirection":290,"windSpeed":18.52,"visibility":6.21,"altim":29.734253,"flightCategory":"MVFR","metarType":"METAR","geometry_esri":{"x":47.78,"y":13.02,"z":430}}}