{"type":"Feature","geometry":{"type":"Point","coordinates":[47.78,13.02,430]},"properties":{"stationId":"LOWS","rawText":"LOWS 110950Z VRB01KT 8000 FEW004 BKN300 02/00 Q1013 NOSIG","observationTime":"2019-11-11T09:50:00Z","temp":2,"dewpoint":0,"windDirection":0,"windSpeed":1.852,"visibility":4.97,"altim":29.911417,"flightCategory":"MVFR","metarType":"METAR","geometry_esri":{"x":47.78,"y":13.02,"z":430}}}