{"type":"Feature","geometry":{"type":"Point","coordinates":[47.42,19.27,185]},"properties":{"stationId":"LHBP","rawText":"LHBP 282330Z 26007KT CAVOK 10/01 Q1009 NOSIG","observationTime":"2019-02-28T23:30:00Z","temp":10,"dewpoint":1,"windDirection":260,"windSpeed":12.964,"visibility":6.21,"altim":29.793306,"flightCategory":"VFR","metarType":"METAR","geometry_esri":{"x":47.42,"y":19.27,"z":185}}}