{"type":"Feature","geometry":{"type":"Point","coordinates":[47.42,19.27,185]},"properties":{"stationId":"LHBP","rawText":"LHBP 270730Z 33010KT CAVOK 06/01 Q1026 NOSIG","observationTime":"2019-02-27T07:30:00Z","temp":6,"dewpoint":1,"windDirection":330,"windSpeed":18.52,"visibility":6.21,"altim":30.295275,"flightCategory":"VFR","metarType":"METAR","geometry_esri":{"x":47.42,"y":19.27,"z":185}}}