{"type":"Feature","geometry":{"type":"Point","coordinates":[47.78,13.02,430]},"properties":{"stationId":"LOWS","rawText":"LOWS 152250Z AUTO 16007KT 130V200 9999 NSC 02/M04 Q1027","observationTime":"2020-01-15T22:50:00Z","temp":2,"dewpoint":-4,"windDirection":160,"windSpeed":12.964,"visibility":6.21,"altim":30.324802,"flightCategory":"VFR","metarType":"METAR","geometry_esri":{"x":47.78,"y":13.02,"z":430}}}