{"type":"Feature","geometry":{"type":"Point","coordinates":[47.42,19.27,185]},"properties":{"stationId":"LHBP","rawText":"LHBP 071330Z 01005KT 290V090 CAVOK 13/00 Q1018 NOSIG","observationTime":"2019-10-07T13:30:00Z","temp":13,"dewpoint":0,"windDirection":10,"windSpeed":9.26,"visibility":6.21,"altim":30.059055,"flightCategory":"VFR","metarType":"METAR","geometry_esri":{"x":47.42,"y":19.27,"z":185}}}