{"type":"Feature","geometry":{"type":"Point","coordinates":[47.78,13.02,430]},"properties":{"stationId":"LOWS","rawText":"LOWS 031250Z 16006KT 110V190 9999 FEW075 BKN300 14/02 Q1015 NOSIG","observationTime":"2019-03-03T12:50:00Z","temp":14,"dewpoint":2,"windDirection":160,"windSpeed":11.112,"visibility":6.21,"altim":29.970472,"flightCategory":"VFR","metarType":"METAR","geometry_esri":{"x":47.78,"y":13.02,"z":430}}}