{"type":"Feature","geometry":{"type":"Point","coordinates":[47.78,13.02,430]},"properties":{"stationId":"LOWS","rawText":"LOWS 250450Z 30009KT 260V320 9999 FEW060 SCT080 15/03 Q1009 NOSIG","observationTime":"2020-04-25T04:50:00Z","temp":15,"dewpoint":3,"windDirection":300,"windSpeed":16.668,"visibility":6.21,"altim":29.793306,"flightCategory":"VFR","metarType":"METAR","geometry_esri":{"x":47.78,"y":13.02,"z":430}}}