{"type":"Feature","geometry":{"type":"Point","coordinates":[47.78,13.02,430]},"properties":{"stationId":"LOWS","rawText":"LOWS 012050Z 14008KT 9999 SCT080 BKN140 08/06 Q1008 NOSIG","observationTime":"2019-11-01T20:50:00Z","temp":8,"dewpoint":6,"windDirection":140,"windSpeed":14.816,"visibility":6.21,"altim":29.763779,"flightCategory":"VFR","metarType":"METAR","geometry_esri":{"x":47.78,"y":13.02,"z":430}}}