{"type":"Feature","geometry":{"type":"Point","coordinates":[47.42,19.27,185]},"properties":{"stationId":"LHBP","rawText":"LHBP 202330Z AUTO VRB02KT 9999 NCD 05/02 Q1016 NOSIG","observationTime":"2020-03-20T23:30:00Z","temp":5,"dewpoint":2,"windDirection":0,"windSpeed":3.704,"visibility":6.21,"altim":30,"flightCategory":"VFR","metarType":"METAR","geometry_esri":{"x":47.42,"y":19.27,"z":185}}}