{"type":"Feature","geometry":{"type":"Point","coordinates":[47.42,19.27,185]},"properties":{"stationId":"LHBP","rawText":"LHBP 191453Z 36010KT 330V040 9999 2000SE +TSRA BKN043CB 24/19 Q1012 TEMPO VRB20G30KT 0500 +TSRA BKN004 BKN030CB","observationTime":"2019-06-19T14:53:00Z","temp":24,"dewpoint":19,"windDirection":360,"windSpeed":18.52,"visibility":6.21,"altim":29.88189,"flightCategory":"VFR","metarType":"SPECI","geometry_esri":{"x":47.42,"y":19.27,"z":185}}}