{"type":"Feature","geometry":{"type":"Point","coordinates":[47.78,13.02,430]},"properties":{"stationId":"LOWS","rawText":"LOWS 200750Z 14009KT 9999 FEW028 SCT035 BKN045 02/M01 Q1019 R15/19//95 NOSIG","observationTime":"2018-12-20T07:50:00Z","temp":2,"dewpoint":-1,"windDirection":140,"windSpeed":16.668,"visibility":6.21,"altim":30.088583,"flightCategory":"VFR","metarType":"METAR","geometry_esri":{"x":47.78,"y":13.02,"z":430}}}