{"type":"Feature","geometry":{"type":"Point","coordinates":[47.78,13.02,430]},"properties":{"stationId":"LOWS","rawText":"LOWS 200950Z 31007KT 270V340 9999 FEW025 SCT090 BKN120 21/17 Q1020 TEMPO SHRA","observationTime":"2019-08-20T09:50:00Z","temp":21,"dewpoint":17,"windDirection":310,"windSpeed":12.964,"visibility":6.21,"altim":30.11811,"flightCategory":"VFR","metarType":"METAR","geometry_esri":{"x":47.78,"y":13.02,"z":430}}}