{"type":"Feature","geometry":{"type":"Point","coordinates":[47.42,19.27,185]},"properties":{"stationId":"LHBP","rawText":"LHBP 120730Z 17009KT 140V200 9999 FEW030 27/19 Q1015 NOSIG","observationTime":"2019-06-12T07:30:00Z","temp":27,"dewpoint":19,"windDirection":170,"windSpeed":16.668,"visibility":6.21,"altim":29.970472,"flightCategory":"VFR","metarType":"METAR","geometry_esri":{"x":47.42,"y":19.27,"z":185}}}