{"type":"Feature","geometry":{"type":"Point","coordinates":[47.42,19.27,185]},"properties":{"stationId":"LHBP","rawText":"LHBP 061330Z 30016KT CAVOK 04/M04 Q1024 NOSIG","observationTime":"2020-02-06T13:30:00Z","temp":4,"dewpoint":-4,"windDirection":300,"windSpeed":29.632,"visibility":6.21,"altim":30.236221,"flightCategory":"VFR","metarType":"METAR","geometry_esri":{"x":47.42,"y":19.27,"z":185}}}