{"type":"Feature","geometry":{"type":"Point","coordinates":[47.78,13.02,430]},"properties":{"stationId":"LOWS","rawText":"LOWS 150850Z 32007KT 7000 -RA FEW004 SCT009 BKN013 07/07 Q1013 TEMPO RA","observationTime":"2020-05-15T08:50:00Z","temp":7,"dewpoint":7,"windDirection":320,"windSpeed":12.964,"visibility":4.35,"altim":29.911417,"flightCategory":"MVFR","metarType":"METAR","geometry_esri":{"x":47.78,"y":13.02,"z":430}}}