{"type":"Feature","geometry":{"type":"Point","coordinates":[47.42,19.27,185]},"properties":{"stationId":"LHBP","rawText":"LHBP 290430Z VRB02KT CAVOK 11/11 Q1018 NOSIG","observationTime":"2019-09-29T04:30:00Z","temp":11,"dewpoint":11,"windDirection":0,"windSpeed":3.704,"visibility":6.21,"altim":30.059055,"flightCategory":"VFR","metarType":"METAR","geometry_esri":{"x":47.42,"y":19.27,"z":185}}}