{"type":"Feature","geometry":{"type":"Point","coordinates":[47.78,13.02,430]},"properties":{"stationId":"LOWS","rawText":"LOWS 251350Z 35006KT 300V030 9999 FEW060 SCT300 32/18 Q1022 NOSIG","observationTime":"2019-06-25T13:50:00Z","temp":32,"dewpoint":18,"windDirection":350,"windSpeed":11.112,"visibility":6.21,"altim":30.177166,"flightCategory":"VFR","metarType":"METAR","geometry_esri":{"x":47.78,"y":13.02,"z":430}}}