{"type":"Feature","geometry":{"type":"Point","coordinates":[47.42,19.27,185]},"properties":{"stationId":"LHBP","rawText":"LHBP 132330Z 10006KT 0900 R31L/P2000N R31R/P2000N -SG -FZDZ FZFG OVC002 M03/M04 Q1026 NOSIG","observationTime":"2020-01-13T23:30:00Z","temp":-3,"dewpoint":-4,"windDirection":100,"windSpeed":11.112,"visibility":0.56,"altim":30.295275,"flightCategory":"LIFR","metarType":"METAR","geometry_esri":{"x":47.42,"y":19.27,"z":185}}}