{"type":"Feature","geometry":{"type":"Point","coordinates":[47.78,13.02,430]},"properties":{"stationId":"LOWS","rawText":"LOWS 252250Z AUTO 29008KT 9999 -SHRA FEW016 BKN026 03/02 Q1024","observationTime":"2019-12-25T22:50:00Z","temp":3,"dewpoint":2,"windDirection":290,"windSpeed":14.816,"visibility":6.21,"altim":30.236221,"flightCategory":"MVFR","metarType":"METAR","geometry_esri":{"x":47.78,"y":13.02,"z":430}}}