{"type":"Feature","geometry":{"type":"Point","coordinates":[47.42,19.27,185]},"properties":{"stationId":"LHBP","rawText":"LHBP 222330Z 32004KT 5000 BR BKN012 M05/M05 Q1006 NOSIG","observationTime":"2019-01-22T23:30:00Z","temp":-5,"dewpoint":-5,"windDirection":320,"windSpeed":7.408,"visibility":3.11,"altim":29.704725,"flightCategory":"MVFR","metarType":"METAR","geometry_esri":{"x":47.42,"y":19.27,"z":185}}}