{"type":"Feature","geometry":{"type":"Point","coordinates":[47.78,13.02,430]},"properties":{"stationId":"LOWS","rawText":"LOWS 210350Z AUTO VRB01KT 4600 R15/P1500U R33/P1500D BR BKN001 M05/M05 Q1041","observationTime":"2020-01-21T03:50:00Z","temp":-5,"dewpoint":-5,"windDirection":0,"windSpeed":1.852,"visibility":2.86,"altim":30.73819,"flightCategory":"LIFR","metarType":"METAR","geometry_esri":{"x":47.78,"y":13.02,"z":430}}}