{"type":"Feature","geometry":{"type":"Point","coordinates":[47.42,19.27,185]},"properties":{"stationId":"LHBP","rawText":"LHBP 181630Z 20004KT 170V250 CAVOK 24/17 Q1012 NOSIG","observationTime":"2019-07-18T16:30:00Z","temp":24,"dewpoint":17,"windDirection":200,"windSpeed":7.408,"visibility":6.21,"altim":29.88189,"flightCategory":"VFR","metarType":"METAR","geometry_esri":{"x":47.42,"y":19.27,"z":185}}}