{"type":"Feature","geometry":{"type":"Point","coordinates":[47.42,19.27,185]},"properties":{"stationId":"LHBP","rawText":"LHBP 141930Z 15005KT CAVOK 04/00 Q1006 NOSIG","observationTime":"2019-03-14T19:30:00Z","temp":4,"dewpoint":0,"windDirection":150,"windSpeed":9.26,"visibility":6.21,"altim":29.704725,"flightCategory":"VFR","metarType":"METAR","geometry_esri":{"x":47.42,"y":19.27,"z":185}}}