{"type":"Feature","geometry":{"type":"Point","coordinates":[47.78,13.02,430]},"properties":{"stationId":"LOWS","rawText":"LOWS 090320Z AUTO 17007KT 9999 NSC M01/M03 Q1026","observationTime":"2020-02-09T03:20:00Z","temp":-1,"dewpoint":-3,"windDirection":170,"windSpeed":12.964,"visibility":6.21,"altim":30.295275,"flightCategory":"VFR","metarType":"METAR","geometry_esri":{"x":47.78,"y":13.02,"z":430}}}