{"type":"Feature","geometry":{"type":"Point","coordinates":[47.42,19.27,185]},"properties":{"stationId":"LHBP","rawText":"LHBP 020430Z 23008KT CAVOK 08/06 Q1011 NOSIG","observationTime":"2020-02-02T04:30:00Z","temp":8,"dewpoint":6,"windDirection":230,"windSpeed":14.816,"visibility":6.21,"altim":29.852362,"flightCategory":"VFR","metarType":"METAR","geometry_esri":{"x":47.42,"y":19.27,"z":185}}}