{"type":"Feature","geometry":{"type":"Point","coordinates":[47.42,19.27,185]},"properties":{"stationId":"LHBP","rawText":"LHBP 171230Z 29014KT 9999 SCT044 23/13 Q1014 NOSIG","observationTime":"2019-09-17T12:30:00Z","temp":23,"dewpoint":13,"windDirection":290,"windSpeed":25.928,"visibility":6.21,"altim":29.940945,"flightCategory":"VFR","metarType":"METAR","geometry_esri":{"x":47.42,"y":19.27,"z":185}}}