{"type":"Feature","geometry":{"type":"Point","coordinates":[47.78,13.02,430]},"properties":{"stationId":"LOWS","rawText":"LOWS 200250Z AUTO VRB02KT 9999 FEW250 03/02 Q1028","observationTime":"2019-09-20T02:50:00Z","temp":3,"dewpoint":2,"windDirection":0,"windSpeed":3.704,"visibility":6.21,"altim":30.35433,"flightCategory":"VFR","metarType":"METAR","geometry_esri":{"x":47.78,"y":13.02,"z":430}}}