{"type":"Feature","geometry":{"type":"Point","coordinates":[47.42,19.27,185]},"properties":{"stationId":"LHBP","rawText":"LHBP 022130Z 28008KT CAVOK 05/02 Q1017 NOSIG","observationTime":"2019-03-02T21:30:00Z","temp":5,"dewpoint":2,"windDirection":280,"windSpeed":14.816,"visibility":6.21,"altim":30.029528,"flightCategory":"VFR","metarType":"METAR","geometry_esri":{"x":47.42,"y":19.27,"z":185}}}