{"type":"Feature","geometry":{"type":"Point","coordinates":[47.42,19.27,185]},"properties":{"stationId":"LHBP","rawText":"LHBP 030330Z VRB01KT 8000 NSC 18/18 Q1009 NOSIG","observationTime":"2019-08-03T03:30:00Z","temp":18,"dewpoint":18,"windDirection":0,"windSpeed":1.852,"visibility":4.97,"altim":29.793306,"flightCategory":"MVFR","metarType":"METAR","geometry_esri":{"x":47.42,"y":19.27,"z":185}}}