{"type":"Feature","geometry":{"type":"Point","coordinates":[47.42,19.27,185]},"properties":{"stationId":"LHBP","rawText":"LHBP 151730Z 07002KT 7000 NSC 03/02 Q1015 BECMG 3000 BR","observationTime":"2019-12-15T17:30:00Z","temp":3,"dewpoint":2,"windDirection":70,"windSpeed":3.704,"visibility":4.35,"altim":29.970472,"flightCategory":"MVFR","metarType":"SPECI","geometry_esri":{"x":47.42,"y":19.27,"z":185}}}