{"type":"Feature","geometry":{"type":"Point","coordinates":[47.78,13.02,430]},"properties":{"stationId":"LOWS","rawText":"LOWS 170850Z VRB02KT CAVOK 19/06 Q1017 BECMG 34007KT","observationTime":"2020-04-17T08:50:00Z","temp":19,"dewpoint":6,"windDirection":0,"windSpeed":3.704,"visibility":6.21,"altim":30.029528,"flightCategory":"VFR","metarType":"METAR","geometry_esri":{"x":47.78,"y":13.02,"z":430}}}