{"type":"Feature","geometry":{"type":"Point","coordinates":[47.78,13.02,430]},"properties":{"stationId":"LOWS","rawText":"LOWS 210250Z AUTO 21013KT 180V240 9999 -SHRA FEW030 BKN038 10/07 Q1004","observationTime":"2019-05-21T02:50:00Z","temp":10,"dewpoint":7,"windDirection":210,"windSpeed":24.076,"visibility":6.21,"altim":29.64567,"flightCategory":"VFR","metarType":"METAR","geometry_esri":{"x":47.78,"y":13.02,"z":430}}}