{"type":"Feature","geometry":{"type":"Point","coordinates":[47.47,21.62,112]},"properties":{"stationId":"LHDC","rawText":"LHDC 251738Z AUTO VRB03KT 3500 BR NCD M02/M02 Q1025","observationTime":"2020-01-25T17:38:00Z","temp":-2,"dewpoint":-2,"windDirection":0,"windSpeed":5.556,"visibility":2.17,"altim":30.265747,"flightCategory":"IFR","metarType":"SPECI","geometry_esri":{"x":47.47,"y":21.62,"z":112}}}