{"type":"Feature","geometry":{"type":"Point","coordinates":[47.47,21.62,112]},"properties":{"stationId":"LHDC","rawText":"LHDC 282037Z AUTO 21005KT 170V290 9999 BKN100 //////CB 17/10 Q1007","observationTime":"2020-04-28T20:37:00Z","temp":17,"dewpoint":10,"windDirection":210,"windSpeed":9.26,"visibility":6.21,"altim":29.734253,"flightCategory":"VFR","metarType":"SPECI","geometry_esri":{"x":47.47,"y":21.62,"z":112}}}