{"type":"Feature","geometry":{"type":"Point","coordinates":[47.78,13.02,430]},"properties":{"stationId":"LOWS","rawText":"LOWS 111550Z 04006KT 9999 FEW035 BKN055 09/02 Q1016 NOSIG","observationTime":"2019-04-11T15:50:00Z","temp":9,"dewpoint":2,"windDirection":40,"windSpeed":11.112,"visibility":6.21,"altim":30,"flightCategory":"VFR","metarType":"METAR","geometry_esri":{"x":47.78,"y":13.02,"z":430}}}