{"type":"Feature","geometry":{"type":"Point","coordinates":[47.42,19.27,185]},"properties":{"stationId":"LHBP","rawText":"LHBP 270330Z 30009KT CAVOK 05/M03 Q1024 NOSIG","observationTime":"2019-03-27T03:30:00Z","temp":5,"dewpoint":-3,"windDirection":300,"windSpeed":16.668,"visibility":6.21,"altim":30.236221,"flightCategory":"VFR","metarType":"METAR","geometry_esri":{"x":47.42,"y":19.27,"z":185}}}