{"type":"Feature","geometry":{"type":"Point","coordinates":[47.78,13.02,430]},"properties":{"stationId":"LOWS","rawText":"LOWS 031950Z 26003KT 9999 FEW070 20/12 Q1015 NOSIG","observationTime":"2019-06-03T19:50:00Z","temp":20,"dewpoint":12,"windDirection":260,"windSpeed":5.556,"visibility":6.21,"altim":29.970472,"flightCategory":"VFR","metarType":"METAR","geometry_esri":{"x":47.78,"y":13.02,"z":430}}}