{"type":"Feature","geometry":{"type":"Point","coordinates":[47.78,13.02,430]},"properties":{"stationId":"LOWS","rawText":"LOWS 022050Z 12003KT 9999 FEW100 BKN130 16/02 Q1007 NOSIG","observationTime":"2019-04-02T20:50:00Z","temp":16,"dewpoint":2,"windDirection":120,"windSpeed":5.556,"visibility":6.21,"altim":29.734253,"flightCategory":"VFR","metarType":"METAR","geometry_esri":{"x":47.78,"y":13.02,"z":430}}}