{"type":"Feature","geometry":{"type":"Point","coordinates":[47.78,13.02,430]},"properties":{"stationId":"LOWS","rawText":"LOWS 040950Z 29010KT 9999 FEW010 SCT025 BKN035 M01/M04 Q1034 R15/29//95 BECMG 4000 -SN BR","observationTime":"2019-01-04T09:50:00Z","temp":-1,"dewpoint":-4,"windDirection":290,"windSpeed":18.52,"visibility":6.21,"altim":30.531496,"flightCategory":"VFR","metarType":"METAR","geometry_esri":{"x":47.78,"y":13.02,"z":430}}}