{"type":"Feature","geometry":{"type":"Point","coordinates":[47.78,13.02,430]},"properties":{"stationId":"LOWS","rawText":"LOWS 112250Z AUTO 14008KT 5000 -SN FEW014 SCT018 BKN028 M03/M05 Q1021","observationTime":"2019-01-11T22:50:00Z","temp":-3,"dewpoint":-5,"windDirection":140,"windSpeed":14.816,"visibility":3.11,"altim":30.147638,"flightCategory":"MVFR","metarType":"METAR","geometry_esri":{"x":47.78,"y":13.02,"z":430}}}