{"type":"Feature","geometry":{"type":"Point","coordinates":[47.42,19.27,185]},"properties":{"stationId":"LHBP","rawText":"LHBP 211930Z 24003KT 4800 BR BKN009 M00/M01 Q1040 NOSIG","observationTime":"2020-01-21T19:30:00Z","temp":0,"dewpoint":-1,"windDirection":240,"windSpeed":5.556,"visibility":2.98,"altim":30.708662,"flightCategory":"IFR","metarType":"METAR","geometry_esri":{"x":47.42,"y":19.27,"z":185}}}