{"type":"Feature","geometry":{"type":"Point","coordinates":[47.78,13.02,430]},"properties":{"stationId":"LOWS","rawText":"LOWS 302250Z AUTO 21013G23KT 170V230 9999 -RA FEW020 BKN050 05/00 Q1013","observationTime":"2020-01-30T22:50:00Z","temp":5,"dewpoint":0,"windDirection":210,"windSpeed":24.076,"visibility":6.21,"altim":29.911417,"flightCategory":"VFR","metarType":"METAR","geometry_esri":{"x":47.78,"y":13.02,"z":430}}}