{"type":"Feature","geometry":{"type":"Point","coordinates":[47.42,19.27,185]},"properties":{"stationId":"LHBP","rawText":"LHBP 050130Z VRB02KT 3000 BR BKN002 07/07 Q1003 TEMPO 1500 BR OVC001","observationTime":"2019-11-05T01:30:00Z","temp":7,"dewpoint":7,"windDirection":0,"windSpeed":3.704,"visibility":1.86,"altim":29.616142,"flightCategory":"LIFR","metarType":"METAR","geometry_esri":{"x":47.42,"y":19.27,"z":185}}}