{"type":"Feature","geometry":{"type":"Point","coordinates":[47.42,19.27,185]},"properties":{"stationId":"LHBP","rawText":"LHBP 052230Z 32009KT CAVOK M01/M08 Q1025 NOSIG","observationTime":"2020-02-05T22:30:00Z","temp":-1,"dewpoint":-8,"windDirection":320,"windSpeed":16.668,"visibility":6.21,"altim":30.265747,"flightCategory":"VFR","metarType":"METAR","geometry_esri":{"x":47.42,"y":19.27,"z":185}}}