{"type":"Feature","geometry":{"type":"Point","coordinates":[47.42,19.27,185]},"properties":{"stationId":"LHBP","rawText":"LHBP 021030Z 29022KT 9999 FEW026 SCT036 BKN200 04/M01 Q1013 NOSIG","observationTime":"2019-01-02T10:30:00Z","temp":4,"dewpoint":-1,"windDirection":290,"windSpeed":40.744,"visibility":6.21,"altim":29.911417,"flightCategory":"VFR","metarType":"METAR","geometry_esri":{"x":47.42,"y":19.27,"z":185}}}