{"type":"Feature","geometry":{"type":"Point","coordinates":[47.42,19.27,185]},"properties":{"stationId":"LHBP","rawText":"LHBP 110730Z 26010KT 230V290 CAVOK 06/03 Q1003 BECMG 30020G35KT","observationTime":"2020-02-11T07:30:00Z","temp":6,"dewpoint":3,"windDirection":260,"windSpeed":18.52,"visibility":6.21,"altim":29.616142,"flightCategory":"VFR","metarType":"SPECI","geometry_esri":{"x":47.42,"y":19.27,"z":185}}}