{"type":"Feature","geometry":{"type":"Point","coordinates":[47.78,13.02,430]},"properties":{"stationId":"LOWS","rawText":"LOWS 231550Z 04007KT 010V070 9999 FEW030 BKN090 23/15 Q1019 NOSIG","observationTime":"2019-06-23T15:50:00Z","temp":23,"dewpoint":15,"windDirection":40,"windSpeed":12.964,"visibility":6.21,"altim":30.088583,"flightCategory":"VFR","metarType":"METAR","geometry_esri":{"x":47.78,"y":13.02,"z":430}}}