{"type":"Feature","geometry":{"type":"Point","coordinates":[47.47,21.62,112]},"properties":{"stationId":"LHDC","rawText":"LHDC 111348Z AUTO 02004KT 300V100 CAVOK 27/13 Q1022","observationTime":"2019-09-11T13:48:00Z","temp":27,"dewpoint":13,"windDirection":20,"windSpeed":7.408,"visibility":6.21,"altim":30.177166,"flightCategory":"VFR","metarType":"SPECI","geometry_esri":{"x":47.47,"y":21.62,"z":112}}}