{"type":"Feature","geometry":{"type":"Point","coordinates":[47.47,21.62,112]},"properties":{"stationId":"LHDC","rawText":"LHDC 281445Z AUTO 11006KT 070V140 5000 SHRA ///CB BKN095 18/17 Q1006","observationTime":"2019-05-28T14:45:00Z","temp":18,"dewpoint":17,"windDirection":110,"windSpeed":11.112,"visibility":3.11,"altim":29.704725,"flightCategory":"MVFR","metarType":"SPECI","geometry_esri":{"x":47.47,"y":21.62,"z":112}}}