{"type":"Feature","geometry":{"type":"Point","coordinates":[47.78,13.02,430]},"properties":{"stationId":"LOWS","rawText":"LOWS 242250Z AUTO 23003KT 9999 NSC 19/16 Q1021","observationTime":"2019-06-24T22:50:00Z","temp":19,"dewpoint":16,"windDirection":230,"windSpeed":5.556,"visibility":6.21,"altim":30.147638,"flightCategory":"VFR","metarType":"METAR","geometry_esri":{"x":47.78,"y":13.02,"z":430}}}