{"type":"Feature","geometry":{"type":"Point","coordinates":[47.78,13.02,430]},"properties":{"stationId":"LOWS","rawText":"LOWS 111550Z 28009KT 230V310 9999 FEW050 BKN060 16/06 Q1018 NOSIG","observationTime":"2020-03-11T15:50:00Z","temp":16,"dewpoint":6,"windDirection":280,"windSpeed":16.668,"visibility":6.21,"altim":30.059055,"flightCategory":"VFR","metarType":"METAR","geometry_esri":{"x":47.78,"y":13.02,"z":430}}}