{"type":"Feature","geometry":{"type":"Point","coordinates":[46.25,20.1,84]},"properties":{"stationId":"LHUD","rawText":"LHUD 171445Z 33004KT 3600 BR OVC007 M03/M03 Q1024","observationTime":"2018-12-17T14:45:00Z","temp":-3,"dewpoint":-3,"windDirection":330,"windSpeed":7.408,"visibility":2.24,"altim":30.236221,"flightCategory":"IFR","metarType":"METAR","geometry_esri":{"x":46.25,"y":20.1,"z":84}}}