{"type":"Feature","geometry":{"type":"Point","coordinates":[47.42,19.27,185]},"properties":{"stationId":"LHBP","rawText":"LHBP 220430Z 35004KT 260V020 CAVOK 01/M04 Q1022 NOSIG","observationTime":"2020-04-22T04:30:00Z","temp":1,"dewpoint":-4,"windDirection":350,"windSpeed":7.408,"visibility":6.21,"altim":30.177166,"flightCategory":"VFR","metarType":"METAR","geometry_esri":{"x":47.42,"y":19.27,"z":185}}}