{"type":"Feature","geometry":{"type":"Point","coordinates":[47.78,13.02,430]},"properties":{"stationId":"LOWS","rawText":"LOWS 180450Z 17007KT 9999 VCFG FEW070 06/05 Q1030 NOSIG","observationTime":"2020-03-18T04:50:00Z","temp":6,"dewpoint":5,"windDirection":170,"windSpeed":12.964,"visibility":6.21,"altim":30.413385,"flightCategory":"VFR","metarType":"METAR","geometry_esri":{"x":47.78,"y":13.02,"z":430}}}