{"type":"Feature","geometry":{"type":"Point","coordinates":[47.42,19.27,185]},"properties":{"stationId":"LHBP","rawText":"LHBP 150130Z 23007KT CAVOK 06/00 Q1004 NOSIG","observationTime":"2019-03-15T01:30:00Z","temp":6,"dewpoint":0,"windDirection":230,"windSpeed":12.964,"visibility":6.21,"altim":29.64567,"flightCategory":"VFR","metarType":"METAR","geometry_esri":{"x":47.42,"y":19.27,"z":185}}}