{"type":"Feature","geometry":{"type":"Point","coordinates":[47.42,19.27,185]},"properties":{"stationId":"LHBP","rawText":"LHBP 050730Z 12004KT 080V170 CAVOK 20/11 Q1016 NOSIG","observationTime":"2019-09-05T07:30:00Z","temp":20,"dewpoint":11,"windDirection":120,"windSpeed":7.408,"visibility":6.21,"altim":30,"flightCategory":"VFR","metarType":"METAR","geometry_esri":{"x":47.42,"y":19.27,"z":185}}}