{"type":"Feature","geometry":{"type":"Point","coordinates":[47.42,19.27,185]},"properties":{"stationId":"LHBP","rawText":"LHBP 012130Z VRB02KT CAVOK 23/20 Q1014 NOSIG","observationTime":"2019-07-01T21:30:00Z","temp":23,"dewpoint":20,"windDirection":0,"windSpeed":3.704,"visibility":6.21,"altim":29.940945,"flightCategory":"VFR","metarType":"METAR","geometry_esri":{"x":47.42,"y":19.27,"z":185}}}