{"type":"Feature","geometry":{"type":"Point","coordinates":[47.78,13.02,430]},"properties":{"stationId":"LOWS","rawText":"LOWS 111450Z 28009KT 250V310 6000 -SNRA FEW007 SCT012 BKN022 02/M00 Q1019 NOSIG","observationTime":"2019-02-11T14:50:00Z","temp":2,"dewpoint":0,"windDirection":280,"windSpeed":16.668,"visibility":3.73,"altim":30.088583,"flightCategory":"MVFR","metarType":"METAR","geometry_esri":{"x":47.78,"y":13.02,"z":430}}}