{"type":"Feature","geometry":{"type":"Point","coordinates":[47.42,19.27,185]},"properties":{"stationId":"LHBP","rawText":"LHBP 130130Z VRB02KT 0450 R31L/0600N R31R/0750N -FZDZ FZFG VV002 M04/M05 Q1030 NOSIG","observationTime":"2020-01-13T01:30:00Z","temp":-4,"dewpoint":-5,"windDirection":0,"windSpeed":3.704,"visibility":0.28,"altim":30.413385,"flightCategory":"LIFR","metarType":"METAR","geometry_esri":{"x":47.42,"y":19.27,"z":185}}}