{"type":"Feature","geometry":{"type":"Point","coordinates":[47.42,19.27,185]},"properties":{"stationId":"LHBP","rawText":"LHBP 251530Z 20009KT CAVOK 08/M05 Q1032 NOSIG","observationTime":"2019-02-25T15:30:00Z","temp":8,"dewpoint":-5,"windDirection":200,"windSpeed":16.668,"visibility":6.21,"altim":30.47244,"flightCategory":"VFR","metarType":"METAR","geometry_esri":{"x":47.42,"y":19.27,"z":185}}}