{"type":"Feature","geometry":{"type":"Point","coordinates":[46.25,20.1,84]},"properties":{"stationId":"LHUD","rawText":"LHUD 232250Z 01005KT 1200 -FZDZ OVC001 M01/M01 Q1001","observationTime":"2019-01-23T22:50:00Z","temp":-1,"dewpoint":-1,"windDirection":10,"windSpeed":9.26,"visibility":0.75,"altim":29.557087,"flightCategory":"LIFR","metarType":"SPECI","geometry_esri":{"x":46.25,"y":20.1,"z":84}}}