{"type":"Feature","geometry":{"type":"Point","coordinates":[47.42,19.27,185]},"properties":{"stationId":"LHBP","rawText":"LHBP 062230Z 14007KT 0400 R13R/1300D R13L/1000D FZFG VV002 M00/M01 Q1020 TEMPO 0300 FZFG VV001","observationTime":"2019-12-06T22:30:00Z","temp":0,"dewpoint":-1,"windDirection":140,"windSpeed":12.964,"visibility":0.25,"altim":30.11811,"flightCategory":"LIFR","metarType":"SPECI","geometry_esri":{"x":47.42,"y":19.27,"z":185}}}