{"type":"Feature","geometry":{"type":"Point","coordinates":[47.78,13.02,430]},"properties":{"stationId":"LOWS","rawText":"LOWS 041250Z 25007KT 210V280 9999 FEW042 BKN050 06/M03 Q1013 NOSIG","observationTime":"2020-03-04T12:50:00Z","temp":6,"dewpoint":-3,"windDirection":250,"windSpeed":12.964,"visibility":6.21,"altim":29.911417,"flightCategory":"VFR","metarType":"METAR","geometry_esri":{"x":47.78,"y":13.02,"z":430}}}