{"type":"Feature","geometry":{"type":"Point","coordinates":[47.42,19.27,185]},"properties":{"stationId":"LHBP","rawText":"LHBP 110930Z 22017KT 190V250 CAVOK 24/07 Q1005 NOSIG","observationTime":"2020-05-11T09:30:00Z","temp":24,"dewpoint":7,"windDirection":220,"windSpeed":31.484,"visibility":6.21,"altim":29.675198,"flightCategory":"VFR","metarType":"METAR","geometry_esri":{"x":47.42,"y":19.27,"z":185}}}