{"type":"Feature","geometry":{"type":"Point","coordinates":[47.78,13.02,430]},"properties":{"stationId":"LOWS","rawText":"LOWS 030050Z AUTO 33009KT 9000 RA FEW009 BKN024 08/07 Q1015","observationTime":"2020-02-03T00:50:00Z","temp":8,"dewpoint":7,"windDirection":330,"windSpeed":16.668,"visibility":5.59,"altim":29.970472,"flightCategory":"MVFR","metarType":"METAR","geometry_esri":{"x":47.78,"y":13.02,"z":430}}}