{"type":"Feature","geometry":{"type":"Point","coordinates":[47.42,19.27,185]},"properties":{"stationId":"LHBP","rawText":"LHBP 081930Z 11004KT 8000 BKN004 OVC009 10/10 Q1008 NOSIG","observationTime":"2019-11-08T19:30:00Z","temp":10,"dewpoint":10,"windDirection":110,"windSpeed":7.408,"visibility":4.97,"altim":29.763779,"flightCategory":"LIFR","metarType":"METAR","geometry_esri":{"x":47.42,"y":19.27,"z":185}}}