{"type":"Feature","geometry":{"type":"Point","coordinates":[47.78,13.02,430]},"properties":{"stationId":"LOWS","rawText":"LOWS 200550Z 14012KT 9999 FEW120 14/01 Q1000 NOSIG","observationTime":"2019-12-20T05:50:00Z","temp":14,"dewpoint":1,"windDirection":140,"windSpeed":22.224,"visibility":6.21,"altim":29.52756,"flightCategory":"VFR","metarType":"METAR","geometry_esri":{"x":47.78,"y":13.02,"z":430}}}