{"type":"Feature","geometry":{"type":"Point","coordinates":[47.78,13.02,430]},"properties":{"stationId":"LOWS","rawText":"LOWS 131350Z 28010KT 220V320 9999 SCT050 BKN140 09/M03 Q1012 BECMG 22010KT","observationTime":"2019-03-13T13:50:00Z","temp":9,"dewpoint":-3,"windDirection":280,"windSpeed":18.52,"visibility":6.21,"altim":29.88189,"flightCategory":"VFR","metarType":"METAR","geometry_esri":{"x":47.78,"y":13.02,"z":430}}}