{"type":"Feature","geometry":{"type":"Point","coordinates":[47.42,19.27,185]},"properties":{"stationId":"LHBP","rawText":"LHBP 171430Z 30005KT 270V330 CAVOK 17/M01 Q1027 NOSIG","observationTime":"2020-03-17T14:30:00Z","temp":17,"dewpoint":-1,"windDirection":300,"windSpeed":9.26,"visibility":6.21,"altim":30.324802,"flightCategory":"VFR","metarType":"METAR","geometry_esri":{"x":47.42,"y":19.27,"z":185}}}