{"type":"Feature","geometry":{"type":"Point","coordinates":[47.78,13.02,430]},"properties":{"stationId":"LOWS","rawText":"LOWS 160750Z VRB02KT 0350 R15/0450N R33/0450N FG VV002 02/02 Q1008 TEMPO 0800","observationTime":"2019-11-16T07:50:00Z","temp":2,"dewpoint":2,"windDirection":0,"windSpeed":3.704,"visibility":0.22,"altim":29.763779,"flightCategory":"LIFR","metarType":"METAR","geometry_esri":{"x":47.78,"y":13.02,"z":430}}}