{"type":"Feature","geometry":{"type":"Point","coordinates":[47.78,13.02,430]},"properties":{"stationId":"LOWS","rawText":"LOWS 222250Z AUTO 28009KT 220V310 9999 FEW040 SCT050 BKN060 09/05 Q1021","observationTime":"2018-12-22T22:50:00Z","temp":9,"dewpoint":5,"windDirection":280,"windSpeed":16.668,"visibility":6.21,"altim":30.147638,"flightCategory":"VFR","metarType":"METAR","geometry_esri":{"x":47.78,"y":13.02,"z":430}}}