{"type":"Feature","geometry":{"type":"Point","coordinates":[47.78,13.02,430]},"properties":{"stationId":"LOWS","rawText":"LOWS 120850Z 16003KT 9999 -RADZ FEW004 SCT028 BKN050 04/03 Q1010 NOSIG","observationTime":"2019-11-12T08:50:00Z","temp":4,"dewpoint":3,"windDirection":160,"windSpeed":5.556,"visibility":6.21,"altim":29.822834,"flightCategory":"VFR","metarType":"METAR","geometry_esri":{"x":47.78,"y":13.02,"z":430}}}