{"type":"Feature","geometry":{"type":"Point","coordinates":[47.42,19.27,185]},"properties":{"stationId":"LHBP","rawText":"LHBP 131730Z 31007KT CAVOK 21/15 Q1027 NOSIG","observationTime":"2019-09-13T17:30:00Z","temp":21,"dewpoint":15,"windDirection":310,"windSpeed":12.964,"visibility":6.21,"altim":30.324802,"flightCategory":"VFR","metarType":"METAR","geometry_esri":{"x":47.42,"y":19.27,"z":185}}}