{"type":"Feature","geometry":{"type":"Point","coordinates":[47.42,19.27,185]},"properties":{"stationId":"LHBP","rawText":"LHBP 281830Z 33006KT 3500 BR BKN029 01/01 Q0998 R88/29//95 BECMG 5000 BR","observationTime":"2019-01-28T18:30:00Z","temp":1,"dewpoint":1,"windDirection":330,"windSpeed":11.112,"visibility":2.17,"altim":29.468504,"flightCategory":"IFR","metarType":"METAR","geometry_esri":{"x":47.42,"y":19.27,"z":185}}}