{"type":"Feature","geometry":{"type":"Point","coordinates":[47.42,19.27,185]},"properties":{"stationId":"LHBP","rawText":"LHBP 020930Z VRB02KT 5000 BR NSC 00/M02 Q1032 BECMG 6000 NSW","observationTime":"2020-01-02T09:30:00Z","temp":0,"dewpoint":-2,"windDirection":0,"windSpeed":3.704,"visibility":3.11,"altim":30.47244,"flightCategory":"MVFR","metarType":"SPECI","geometry_esri":{"x":47.42,"y":19.27,"z":185}}}