{"type":"Feature","geometry":{"type":"Point","coordinates":[47.78,13.02,430]},"properties":{"stationId":"LOWS","rawText":"LOWS 140550Z 03004KT 340V070 8000 -RA FEW003 BKN007 08/07 Q1013 TEMPO 3000 RA BECMG BKN012","observationTime":"2020-05-14T05:50:00Z","temp":8,"dewpoint":7,"windDirection":30,"windSpeed":7.408,"visibility":4.97,"altim":29.911417,"flightCategory":"IFR","metarType":"METAR","geometry_esri":{"x":47.78,"y":13.02,"z":430}}}