{"type":"Feature","geometry":{"type":"Point","coordinates":[47.47,21.62,112]},"properties":{"stationId":"LHDC","rawText":"LHDC 171715Z 30004KT 6000 OVC011 M01/M03 Q1024 NOSIG","observationTime":"2018-12-17T17:15:00Z","temp":-1,"dewpoint":-3,"windDirection":300,"windSpeed":7.408,"visibility":3.73,"altim":30.236221,"flightCategory":"MVFR","metarType":"METAR","geometry_esri":{"x":47.47,"y":21.62,"z":112}}}