{"type":"Feature","geometry":{"type":"Point","coordinates":[47.42,19.27,185]},"properties":{"stationId":"LHBP","rawText":"LHBP 122130Z 11007KT CAVOK 13/10 Q1004 NOSIG","observationTime":"2019-11-12T21:30:00Z","temp":13,"dewpoint":10,"windDirection":110,"windSpeed":12.964,"visibility":6.21,"altim":29.64567,"flightCategory":"VFR","metarType":"METAR","geometry_esri":{"x":47.42,"y":19.27,"z":185}}}