{"type":"Feature","geometry":{"type":"Point","coordinates":[47.42,19.27,185]},"properties":{"stationId":"LHBP","rawText":"LHBP 071430Z 22004KT CAVOK 03/M05 Q1028 NOSIG","observationTime":"2020-01-07T14:30:00Z","temp":3,"dewpoint":-5,"windDirection":220,"windSpeed":7.408,"visibility":6.21,"altim":30.35433,"flightCategory":"VFR","metarType":"METAR","geometry_esri":{"x":47.42,"y":19.27,"z":185}}}