{"type":"Feature","geometry":{"type":"Point","coordinates":[47.42,19.27,185]},"properties":{"stationId":"LHBP","rawText":"LHBP 060530Z VRB03KT 9999 FEW010 SCT016 BKN085 08/08 Q1008 NOSIG","observationTime":"2019-04-06T05:30:00Z","temp":8,"dewpoint":8,"windDirection":0,"windSpeed":5.556,"visibility":6.21,"altim":29.763779,"flightCategory":"VFR","metarType":"METAR","geometry_esri":{"x":47.42,"y":19.27,"z":185}}}