{"type":"Feature","geometry":{"type":"Point","coordinates":[47.78,13.02,430]},"properties":{"stationId":"LOWS","rawText":"LOWS 222250Z AUTO 21003KT 170V300 7000 FEW005 BKN006 M02/M03 Q1035","observationTime":"2020-01-22T22:50:00Z","temp":-2,"dewpoint":-3,"windDirection":210,"windSpeed":5.556,"visibility":4.35,"altim":30.561024,"flightCategory":"IFR","metarType":"METAR","geometry_esri":{"x":47.78,"y":13.02,"z":430}}}