{"type":"Feature","geometry":{"type":"Point","coordinates":[47.78,13.02,430]},"properties":{"stationId":"LOWS","rawText":"LOWS 111450Z 07006KT 030V100 9999 FEW032 BKN050 09/01 Q1016 NOSIG","observationTime":"2019-04-11T14:50:00Z","temp":9,"dewpoint":1,"windDirection":70,"windSpeed":11.112,"visibility":6.21,"altim":30,"flightCategory":"VFR","metarType":"METAR","geometry_esri":{"x":47.78,"y":13.02,"z":430}}}