{"type":"Feature","geometry":{"type":"Point","coordinates":[47.42,19.27,185]},"properties":{"stationId":"LHBP","rawText":"LHBP 042330Z 11006KT 4000 BR BKN006 M02/M02 Q1031 NOSIG","observationTime":"2019-12-04T23:30:00Z","temp":-2,"dewpoint":-2,"windDirection":110,"windSpeed":11.112,"visibility":2.49,"altim":30.442913,"flightCategory":"IFR","metarType":"METAR","geometry_esri":{"x":47.42,"y":19.27,"z":185}}}