{"type":"Feature","geometry":{"type":"Point","coordinates":[47.42,19.27,185]},"properties":{"stationId":"LHBP","rawText":"LHBP 070930Z 09007KT 050V140 9999 FEW043 SCT110 10/01 Q1018 NOSIG","observationTime":"2019-10-07T09:30:00Z","temp":10,"dewpoint":1,"windDirection":90,"windSpeed":12.964,"visibility":6.21,"altim":30.059055,"flightCategory":"VFR","metarType":"METAR","geometry_esri":{"x":47.42,"y":19.27,"z":185}}}