{"type":"Feature","geometry":{"type":"Point","coordinates":[47.78,13.02,430]},"properties":{"stationId":"LOWS","rawText":"LOWS 221850Z 32002KT 8000 FEW012 BKN013 M03/M05 Q1004 NOSIG","observationTime":"2019-01-22T18:50:00Z","temp":-3,"dewpoint":-5,"windDirection":320,"windSpeed":3.704,"visibility":4.97,"altim":29.64567,"flightCategory":"MVFR","metarType":"METAR","geometry_esri":{"x":47.78,"y":13.02,"z":430}}}