{"type":"Feature","geometry":{"type":"Point","coordinates":[47.78,13.02,430]},"properties":{"stationId":"LOWS","rawText":"LOWS 020550Z 15009KT CAVOK 16/11 Q1021 NOSIG","observationTime":"2019-06-02T05:50:00Z","temp":16,"dewpoint":11,"windDirection":150,"windSpeed":16.668,"visibility":6.21,"altim":30.147638,"flightCategory":"VFR","metarType":"METAR","geometry_esri":{"x":47.78,"y":13.02,"z":430}}}