{"type":"Feature","geometry":{"type":"Point","coordinates":[47.42,19.27,185]},"properties":{"stationId":"LHBP","rawText":"LHBP 302130Z 21003KT CAVOK M02/M03 Q1034 NOSIG","observationTime":"2019-12-30T21:30:00Z","temp":-2,"dewpoint":-3,"windDirection":210,"windSpeed":5.556,"visibility":6.21,"altim":30.531496,"flightCategory":"VFR","metarType":"METAR","geometry_esri":{"x":47.42,"y":19.27,"z":185}}}