{"type":"Feature","geometry":{"type":"Point","coordinates":[47.42,19.27,185]},"properties":{"stationId":"LHBP","rawText":"LHBP 161130Z 36004KT 320V050 2100 BR OVC004 M00/M01 Q1031 TEMPO 3000 BR OVC006","observationTime":"2020-01-16T11:30:00Z","temp":0,"dewpoint":-1,"windDirection":360,"windSpeed":7.408,"visibility":1.3,"altim":30.442913,"flightCategory":"LIFR","metarType":"SPECI","geometry_esri":{"x":47.42,"y":19.27,"z":185}}}