{"type":"Feature","geometry":{"type":"Point","coordinates":[47.78,13.02,430]},"properties":{"stationId":"LOWS","rawText":"LOWS 021950Z 31006KT 7000 FEW012 BKN027 BKN040 03/02 Q1000 R15/29//95 NOSIG","observationTime":"2019-02-02T19:50:00Z","temp":3,"dewpoint":2,"windDirection":310,"windSpeed":11.112,"visibility":4.35,"altim":29.52756,"flightCategory":"MVFR","metarType":"METAR","geometry_esri":{"x":47.78,"y":13.02,"z":430}}}