{"type":"Feature","geometry":{"type":"Point","coordinates":[47.47,21.62,112]},"properties":{"stationId":"LHDC","rawText":"LHDC 250347Z AUTO 19003KT 150V230 0900 R04/1300D -FZRA FZFG VV002 M04/M04 Q1024","observationTime":"2020-01-25T03:47:00Z","temp":-4,"dewpoint":-4,"windDirection":190,"windSpeed":5.556,"visibility":0.56,"altim":30.236221,"flightCategory":"LIFR","metarType":"SPECI","geometry_esri":{"x":47.47,"y":21.62,"z":112}}}