{"type":"Feature","geometry":{"type":"Point","coordinates":[47.42,19.27,185]},"properties":{"stationId":"LHBP","rawText":"LHBP 291030Z 28012KT 9999 FEW025 04/02 Q1007 R88/710194 NOSIG","observationTime":"2019-01-29T10:30:00Z","temp":4,"dewpoint":2,"windDirection":280,"windSpeed":22.224,"visibility":6.21,"altim":29.734253,"flightCategory":"VFR","metarType":"SPECI","geometry_esri":{"x":47.42,"y":19.27,"z":185}}}