{"type":"Feature","geometry":{"type":"Point","coordinates":[45.98,18.23,305]},"properties":{"stationId":"LHPP","rawText":"LHPP 171645Z 24002KT 2000 BR OVC020 M04/M05 Q1025","observationTime":"2018-12-17T16:45:00Z","temp":-4,"dewpoint":-5,"windDirection":240,"windSpeed":3.704,"visibility":1.24,"altim":30.265747,"flightCategory":"IFR","metarType":"METAR","geometry_esri":{"x":45.98,"y":18.23,"z":305}}}