{"type":"Feature","geometry":{"type":"Point","coordinates":[47.78,13.02,430]},"properties":{"stationId":"LOWS","rawText":"LOWS 071950Z 29004KT 240V320 9999 FEW017 BKN024 BKN055 02/00 Q1029 R15/29//95 NOSIG","observationTime":"2019-01-07T19:50:00Z","temp":2,"dewpoint":0,"windDirection":290,"windSpeed":7.408,"visibility":6.21,"altim":30.383858,"flightCategory":"MVFR","metarType":"METAR","geometry_esri":{"x":47.78,"y":13.02,"z":430}}}