{"type":"Feature","geometry":{"type":"Point","coordinates":[47.78,13.02,430]},"properties":{"stationId":"LOWS","rawText":"LOWS 041150Z 30004KT 250V320 3500 -SN BR FEW009 SCT012 BKN022 M01/M04 Q1033 R15/29//95 TEMPO 2500 SN BKN014","observationTime":"2019-01-04T11:50:00Z","temp":-1,"dewpoint":-4,"windDirection":300,"windSpeed":7.408,"visibility":2.17,"altim":30.501968,"flightCategory":"IFR","metarType":"METAR","geometry_esri":{"x":47.78,"y":13.02,"z":430}}}