{"type":"Feature","geometry":{"type":"Point","coordinates":[47.78,13.02,430]},"properties":{"stationId":"LOWS","rawText":"LOWS 252250Z AUTO 13005KT 090V170 8000 FEW003 BKN004 04/04 Q1012","observationTime":"2019-11-25T22:50:00Z","temp":4,"dewpoint":4,"windDirection":130,"windSpeed":9.26,"visibility":4.97,"altim":29.88189,"flightCategory":"LIFR","metarType":"METAR","geometry_esri":{"x":47.78,"y":13.02,"z":430}}}