{"type":"Feature","geometry":{"type":"Point","coordinates":[47.78,13.02,430]},"properties":{"stationId":"LOWS","rawText":"LOWS 061650Z 04010KT 9999 FEW044 SCT300 15/06 Q1002 NOSIG","observationTime":"2019-04-06T16:50:00Z","temp":15,"dewpoint":6,"windDirection":40,"windSpeed":18.52,"visibility":6.21,"altim":29.586615,"flightCategory":"VFR","metarType":"METAR","geometry_esri":{"x":47.78,"y":13.02,"z":430}}}