{"type":"Feature","geometry":{"type":"Point","coordinates":[47.78,13.02,430]},"properties":{"stationId":"LOWS","rawText":"LOWS 300550Z 31007KT 6000 -SN FEW003 SCT008 BKN020 M00/M00 Q1022 TEMPO 2500 BKN012","observationTime":"2020-03-30T05:50:00Z","temp":0,"dewpoint":0,"windDirection":310,"windSpeed":12.964,"visibility":3.73,"altim":30.177166,"flightCategory":"MVFR","metarType":"METAR","geometry_esri":{"x":47.78,"y":13.02,"z":430}}}