{"type":"Feature","geometry":{"type":"Point","coordinates":[47.42,19.27,185]},"properties":{"stationId":"LHBP","rawText":"LHBP 092130Z 00000KT 8000 NSC 13/13 Q1017 NOSIG","observationTime":"2019-09-09T21:30:00Z","temp":13,"dewpoint":13,"windDirection":0,"windSpeed":0,"visibility":4.97,"altim":30.029528,"flightCategory":"MVFR","metarType":"METAR","geometry_esri":{"x":47.42,"y":19.27,"z":185}}}