{"type":"Feature","geometry":{"type":"Point","coordinates":[47.42,19.27,185]},"properties":{"stationId":"LHBP","rawText":"LHBP 212130Z VRB02KT 7000 FEW024 M06/M06 Q1021 NOSIG","observationTime":"2019-01-21T21:30:00Z","temp":-6,"dewpoint":-6,"windDirection":0,"windSpeed":3.704,"visibility":4.35,"altim":30.147638,"flightCategory":"MVFR","metarType":"METAR","geometry_esri":{"x":47.42,"y":19.27,"z":185}}}