{"type":"Feature","geometry":{"type":"Point","coordinates":[47.42,19.27,185]},"properties":{"stationId":"LHBP","rawText":"LHBP 061630Z VRB02KT CAVOK M00/M05 Q1027 NOSIG","observationTime":"2019-02-06T16:30:00Z","temp":0,"dewpoint":-5,"windDirection":0,"windSpeed":3.704,"visibility":6.21,"altim":30.324802,"flightCategory":"VFR","metarType":"METAR","geometry_esri":{"x":47.42,"y":19.27,"z":185}}}