{"type":"Feature","geometry":{"type":"Point","coordinates":[47.78,13.02,430]},"properties":{"stationId":"LOWS","rawText":"LOWS 120750Z 28009KT 250V320 9999 FEW025 SCT030 BKN070 03/M02 Q1026 NOSIG","observationTime":"2019-03-12T07:50:00Z","temp":3,"dewpoint":-2,"windDirection":280,"windSpeed":16.668,"visibility":6.21,"altim":30.295275,"flightCategory":"VFR","metarType":"METAR","geometry_esri":{"x":47.78,"y":13.02,"z":430}}}