{"type":"Feature","geometry":{"type":"Point","coordinates":[47.78,13.02,430]},"properties":{"stationId":"LOWS","rawText":"LOWS 220650Z 29012KT 5000 -SHRA FEW006 SCT012 BKN018 07/05 Q1028 TEMPO 4000 SHRA","observationTime":"2019-02-22T06:50:00Z","temp":7,"dewpoint":5,"windDirection":290,"windSpeed":22.224,"visibility":3.11,"altim":30.35433,"flightCategory":"MVFR","metarType":"SPECI","geometry_esri":{"x":47.78,"y":13.02,"z":430}}}