{"type":"Feature","geometry":{"type":"Point","coordinates":[47.42,19.27,185]},"properties":{"stationId":"LHBP","rawText":"LHBP 101230Z 04004KT 340V090 4500 BR BKN008 00/M02 Q1022 BECMG 6000 NSW SCT009 SCT200","observationTime":"2020-01-10T12:30:00Z","temp":0,"dewpoint":-2,"windDirection":40,"windSpeed":7.408,"visibility":2.8,"altim":30.177166,"flightCategory":"IFR","metarType":"SPECI","geometry_esri":{"x":47.42,"y":19.27,"z":185}}}