{"type":"Feature","geometry":{"type":"Point","coordinates":[47.42,19.27,185]},"properties":{"stationId":"LHBP","rawText":"LHBP 180830Z VRB04KT CAVOK 25/16 Q1018 NOSIG","observationTime":"2019-06-18T08:30:00Z","temp":25,"dewpoint":16,"windDirection":0,"windSpeed":7.408,"visibility":6.21,"altim":30.059055,"flightCategory":"VFR","metarType":"METAR","geometry_esri":{"x":47.42,"y":19.27,"z":185}}}