{"type":"Feature","geometry":{"type":"Point","coordinates":[47.42,19.27,185]},"properties":{"stationId":"LHBP","rawText":"LHBP 172130Z 31004KT CAVOK 10/05 Q1024 NOSIG","observationTime":"2019-04-17T21:30:00Z","temp":10,"dewpoint":5,"windDirection":310,"windSpeed":7.408,"visibility":6.21,"altim":30.236221,"flightCategory":"VFR","metarType":"METAR","geometry_esri":{"x":47.42,"y":19.27,"z":185}}}