{"type":"Feature","geometry":{"type":"Point","coordinates":[47.78,13.02,430]},"properties":{"stationId":"LOWS","rawText":"LOWS 130150Z AUTO 15012KT 9999 FEW080 BKN090 13/05 Q1013","observationTime":"2020-04-13T01:50:00Z","temp":13,"dewpoint":5,"windDirection":150,"windSpeed":22.224,"visibility":6.21,"altim":29.911417,"flightCategory":"VFR","metarType":"METAR","geometry_esri":{"x":47.78,"y":13.02,"z":430}}}