{"type":"Feature","geometry":{"type":"Point","coordinates":[47.78,13.02,430]},"properties":{"stationId":"LOWS","rawText":"LOWS 112050Z 14009KT 4500 -SN FEW009 SCT013 BKN020 M04/M05 Q1022 R15/490195 TEMPO 2000 SN BKN012","observationTime":"2019-01-11T20:50:00Z","temp":-4,"dewpoint":-5,"windDirection":140,"windSpeed":16.668,"visibility":2.8,"altim":30.177166,"flightCategory":"IFR","metarType":"METAR","geometry_esri":{"x":47.78,"y":13.02,"z":430}}}