{"type":"Feature","geometry":{"type":"Point","coordinates":[47.42,19.27,185]},"properties":{"stationId":"LHBP","rawText":"LHBP 300730Z 01005KT 340V040 3000 DZ BR SCT004 OVC006 13/13 Q1019 BECMG 2500","observationTime":"2019-05-30T07:30:00Z","temp":13,"dewpoint":13,"windDirection":10,"windSpeed":9.26,"visibility":1.86,"altim":30.088583,"flightCategory":"IFR","metarType":"SPECI","geometry_esri":{"x":47.42,"y":19.27,"z":185}}}