{"type":"Feature","geometry":{"type":"Point","coordinates":[47.42,19.27,185]},"properties":{"stationId":"LHBP","rawText":"LHBP 041730Z 14009KT CAVOK 17/02 Q1005 NOSIG","observationTime":"2019-04-04T17:30:00Z","temp":17,"dewpoint":2,"windDirection":140,"windSpeed":16.668,"visibility":6.21,"altim":29.675198,"flightCategory":"VFR","metarType":"METAR","geometry_esri":{"x":47.42,"y":19.27,"z":185}}}