{"type":"Feature","geometry":{"type":"Point","coordinates":[47.42,19.27,185]},"properties":{"stationId":"LHBP","rawText":"LHBP 250130Z 23004KT 2500 BR OVC003 M02/M02 Q1024 NOSIG","observationTime":"2020-01-25T01:30:00Z","temp":-2,"dewpoint":-2,"windDirection":230,"windSpeed":7.408,"visibility":1.55,"altim":30.236221,"flightCategory":"LIFR","metarType":"METAR","geometry_esri":{"x":47.42,"y":19.27,"z":185}}}