{"type":"Feature","geometry":{"type":"Point","coordinates":[47.42,19.27,185]},"properties":{"stationId":"LHBP","rawText":"LHBP 031630Z 31014KT CAVOK M01/M06 Q1022 NOSIG","observationTime":"2019-01-03T16:30:00Z","temp":-1,"dewpoint":-6,"windDirection":310,"windSpeed":25.928,"visibility":6.21,"altim":30.177166,"flightCategory":"VFR","metarType":"METAR","geometry_esri":{"x":47.42,"y":19.27,"z":185}}}