{"type":"Feature","geometry":{"type":"Point","coordinates":[47.78,13.02,430]},"properties":{"stationId":"LOWS","rawText":"LOWS 232050Z 21012KT 9999 -RA FEW012 BKN035 08/06 Q1015 TEMPO 28012G22KT RA","observationTime":"2018-12-23T20:50:00Z","temp":8,"dewpoint":6,"windDirection":210,"windSpeed":22.224,"visibility":6.21,"altim":29.970472,"flightCategory":"VFR","metarType":"METAR","geometry_esri":{"x":47.78,"y":13.02,"z":430}}}