{"type":"Feature","geometry":{"type":"Point","coordinates":[47.78,13.02,430]},"properties":{"stationId":"LOWS","rawText":"LOWS 030850Z 15008KT 9999 FEW045 BKN300 09/02 Q1018 WS ALL RWY NOSIG","observationTime":"2019-03-03T08:50:00Z","temp":9,"dewpoint":2,"windDirection":150,"windSpeed":14.816,"visibility":6.21,"altim":30.059055,"flightCategory":"VFR","metarType":"METAR","geometry_esri":{"x":47.78,"y":13.02,"z":430}}}