{"type":"Feature","geometry":{"type":"Point","coordinates":[47.42,19.27,185]},"properties":{"stationId":"LHBP","rawText":"LHBP 090630Z VRB03KT 2300 BR BKN027 01/01 Q1020 BECMG 3000 NSC","observationTime":"2019-02-09T06:30:00Z","temp":1,"dewpoint":1,"windDirection":0,"windSpeed":5.556,"visibility":1.43,"altim":30.11811,"flightCategory":"IFR","metarType":"SPECI","geometry_esri":{"x":47.42,"y":19.27,"z":185}}}