{"type":"Feature","geometry":{"type":"Point","coordinates":[47.42,19.27,185]},"properties":{"stationId":"LHBP","rawText":"LHBP 121930Z 26005KT CAVOK 04/M02 Q1018 TEMPO 31020G30KT 4000 SHRASN SQ SCT025TCU BKN050","observationTime":"2020-02-12T19:30:00Z","temp":4,"dewpoint":-2,"windDirection":260,"windSpeed":9.26,"visibility":6.21,"altim":30.059055,"flightCategory":"VFR","metarType":"SPECI","geometry_esri":{"x":47.42,"y":19.27,"z":185}}}