{"type":"Feature","geometry":{"type":"Point","coordinates":[47.78,13.02,430]},"properties":{"stationId":"LOWS","rawText":"LOWS 010550Z 15011KT CAVOK 11/08 Q1012 NOSIG","observationTime":"2019-10-01T05:50:00Z","temp":11,"dewpoint":8,"windDirection":150,"windSpeed":20.372,"visibility":6.21,"altim":29.88189,"flightCategory":"VFR","metarType":"METAR","geometry_esri":{"x":47.78,"y":13.02,"z":430}}}