{"type":"Feature","geometry":{"type":"Point","coordinates":[47.78,13.02,430]},"properties":{"stationId":"LOWS","rawText":"LOWS 282050Z 28004KT 250V310 3000 -DZRA BR FEW002 OVC004 08/08 Q1019 TEMPO 2000","observationTime":"2019-10-28T20:50:00Z","temp":8,"dewpoint":8,"windDirection":280,"windSpeed":7.408,"visibility":1.86,"altim":30.088583,"flightCategory":"LIFR","metarType":"SPECI","geometry_esri":{"x":47.78,"y":13.02,"z":430}}}