{"type":"Feature","geometry":{"type":"Point","coordinates":[47.42,19.27,185]},"properties":{"stationId":"LHBP","rawText":"LHBP 271430Z 32006KT 7000 SCT006 BKN010 01/M00 Q1017 NOSIG","observationTime":"2020-01-27T14:30:00Z","temp":1,"dewpoint":0,"windDirection":320,"windSpeed":11.112,"visibility":4.35,"altim":30.029528,"flightCategory":"MVFR","metarType":"METAR","geometry_esri":{"x":47.42,"y":19.27,"z":185}}}