{"type":"Feature","geometry":{"type":"Point","coordinates":[47.78,13.02,430]},"properties":{"stationId":"LOWS","rawText":"LOWS 242250Z AUTO 21003KT 9999 SCT250 18/16 Q1020","observationTime":"2019-08-24T22:50:00Z","temp":18,"dewpoint":16,"windDirection":210,"windSpeed":5.556,"visibility":6.21,"altim":30.11811,"flightCategory":"VFR","metarType":"METAR","geometry_esri":{"x":47.78,"y":13.02,"z":430}}}