{"type":"Feature","geometry":{"type":"Point","coordinates":[47.78,13.02,430]},"properties":{"stationId":"LOWS","rawText":"LOWS 022350Z AUTO 13004KT 100V160 9999 //////CB FEW050 BKN060 17/15 Q1015","observationTime":"2019-08-02T23:50:00Z","temp":17,"dewpoint":15,"windDirection":130,"windSpeed":7.408,"visibility":6.21,"altim":29.970472,"flightCategory":"VFR","metarType":"METAR","geometry_esri":{"x":47.78,"y":13.02,"z":430}}}