{"type":"Feature","geometry":{"type":"Point","coordinates":[47.42,19.27,185]},"properties":{"stationId":"LHBP","rawText":"LHBP 072030Z 25007KT CAVOK 19/17 Q1008 NOSIG","observationTime":"2019-07-07T20:30:00Z","temp":19,"dewpoint":17,"windDirection":250,"windSpeed":12.964,"visibility":6.21,"altim":29.763779,"flightCategory":"VFR","metarType":"METAR","geometry_esri":{"x":47.42,"y":19.27,"z":185}}}