{"type":"Feature","geometry":{"type":"Point","coordinates":[47.42,19.27,185]},"properties":{"stationId":"LHBP","rawText":"LHBP 030630Z 21008KT 180V240 CAVOK 14/08 Q1006 NOSIG","observationTime":"2019-05-03T06:30:00Z","temp":14,"dewpoint":8,"windDirection":210,"windSpeed":14.816,"visibility":6.21,"altim":29.704725,"flightCategory":"VFR","metarType":"METAR","geometry_esri":{"x":47.42,"y":19.27,"z":185}}}