{"type":"Feature","geometry":{"type":"Point","coordinates":[47.42,19.27,185]},"properties":{"stationId":"LHBP","rawText":"LHBP 260930Z 28003KT 7000 OVC032 09/06 Q1013 NOSIG","observationTime":"2019-11-26T09:30:00Z","temp":9,"dewpoint":6,"windDirection":280,"windSpeed":5.556,"visibility":4.35,"altim":29.911417,"flightCategory":"MVFR","metarType":"METAR","geometry_esri":{"x":47.42,"y":19.27,"z":185}}}