{"type":"Feature","geometry":{"type":"Point","coordinates":[47.42,19.27,185]},"properties":{"stationId":"LHBP","rawText":"LHBP 290030Z 00000KT 0600 R31L/0650N R31R/0600N FG FEW003 BKN084 05/04 Q1004 NOSIG","observationTime":"2019-11-29T00:30:00Z","temp":5,"dewpoint":4,"windDirection":0,"windSpeed":0,"visibility":0.37,"altim":29.64567,"flightCategory":"LIFR","metarType":"SPECI","geometry_esri":{"x":47.42,"y":19.27,"z":185}}}