{"type":"Feature","geometry":{"type":"Point","coordinates":[47.78,13.02,430]},"properties":{"stationId":"LOWS","rawText":"LOWS 140950Z 13005KT 060V180 CAVOK 28/15 Q1017 NOSIG","observationTime":"2019-06-14T09:50:00Z","temp":28,"dewpoint":15,"windDirection":130,"windSpeed":9.26,"visibility":6.21,"altim":30.029528,"flightCategory":"VFR","metarType":"METAR","geometry_esri":{"x":47.78,"y":13.02,"z":430}}}