{"type":"Feature","geometry":{"type":"Point","coordinates":[47.78,13.02,430]},"properties":{"stationId":"LOWS","rawText":"LOWS 141750Z 21006KT CAVOK 07/M04 Q1006 R15/29//95 NOSIG","observationTime":"2019-12-14T17:50:00Z","temp":7,"dewpoint":-4,"windDirection":210,"windSpeed":11.112,"visibility":6.21,"altim":29.704725,"flightCategory":"VFR","metarType":"METAR","geometry_esri":{"x":47.78,"y":13.02,"z":430}}}