{"type":"Feature","geometry":{"type":"Point","coordinates":[47.42,19.27,185]},"properties":{"stationId":"LHBP","rawText":"LHBP 041030Z 07006KT 020V100 9999 FEW040TCU SCT045 24/16 Q1013 TEMPO FM1100 FEW040CB SCT045","observationTime":"2019-06-04T10:30:00Z","temp":24,"dewpoint":16,"windDirection":70,"windSpeed":11.112,"visibility":6.21,"altim":29.911417,"flightCategory":"VFR","metarType":"METAR","geometry_esri":{"x":47.42,"y":19.27,"z":185}}}