{"type":"Feature","geometry":{"type":"Point","coordinates":[47.42,19.27,185]},"properties":{"stationId":"LHBP","rawText":"LHBP 092230Z 32005KT CAVOK M01/M03 Q1015 NOSIG","observationTime":"2020-03-09T22:30:00Z","temp":-1,"dewpoint":-3,"windDirection":320,"windSpeed":9.26,"visibility":6.21,"altim":29.970472,"flightCategory":"VFR","metarType":"METAR","geometry_esri":{"x":47.42,"y":19.27,"z":185}}}