{"type":"Feature","geometry":{"type":"Point","coordinates":[47.78,13.02,430]},"properties":{"stationId":"LOWS","rawText":"LOWS 180450Z 15004KT 110V190 CAVOK 17/13 Q1017 NOSIG","observationTime":"2019-06-18T04:50:00Z","temp":17,"dewpoint":13,"windDirection":150,"windSpeed":7.408,"visibility":6.21,"altim":30.029528,"flightCategory":"VFR","metarType":"METAR","geometry_esri":{"x":47.78,"y":13.02,"z":430}}}