{"type":"Feature","geometry":{"type":"Point","coordinates":[47.78,13.02,430]},"properties":{"stationId":"LOWS","rawText":"LOWS 120650Z 31018G29KT 1400 R15/P1500U R33/P1500D -SHSN FEW006 SCT012 BKN023 M01/M02 Q1030 RESN TEMPO 5000 NSW","observationTime":"2019-02-12T06:50:00Z","temp":-1,"dewpoint":-2,"windDirection":310,"windSpeed":33.336,"visibility":0.87,"altim":30.413385,"flightCategory":"LIFR","metarType":"METAR","geometry_esri":{"x":47.78,"y":13.02,"z":430}}}