{"type":"Feature","geometry":{"type":"Point","coordinates":[47.42,19.27,185]},"properties":{"stationId":"LHBP","rawText":"LHBP 211330Z 07012KT 040V100 CAVOK 17/M01 Q1019 NOSIG","observationTime":"2020-04-21T13:30:00Z","temp":17,"dewpoint":-1,"windDirection":70,"windSpeed":22.224,"visibility":6.21,"altim":30.088583,"flightCategory":"VFR","metarType":"METAR","geometry_esri":{"x":47.42,"y":19.27,"z":185}}}