{"type":"Feature","geometry":{"type":"Point","coordinates":[47.42,19.27,185]},"properties":{"stationId":"LHBP","rawText":"LHBP 291230Z 02008KT 340V050 9999 FEW040 03/M06 Q1034 NOSIG","observationTime":"2019-12-29T12:30:00Z","temp":3,"dewpoint":-6,"windDirection":20,"windSpeed":14.816,"visibility":6.21,"altim":30.531496,"flightCategory":"VFR","metarType":"METAR","geometry_esri":{"x":47.42,"y":19.27,"z":185}}}