{"type":"Feature","geometry":{"type":"Point","coordinates":[47.42,19.27,185]},"properties":{"stationId":"LHBP","rawText":"LHBP 012330Z 08004KT 040V130 CAVOK 13/08 Q1008 NOSIG","observationTime":"2019-10-01T23:30:00Z","temp":13,"dewpoint":8,"windDirection":80,"windSpeed":7.408,"visibility":6.21,"altim":29.763779,"flightCategory":"VFR","metarType":"METAR","geometry_esri":{"x":47.42,"y":19.27,"z":185}}}