{"type":"Feature","geometry":{"type":"Point","coordinates":[47.42,19.27,185]},"properties":{"stationId":"LHBP","rawText":"LHBP 191530Z 05004KT 3200 BR SCT002 05/05 Q1024 TEMPO 2500 BR BKN002","observationTime":"2019-12-19T15:30:00Z","temp":5,"dewpoint":5,"windDirection":50,"windSpeed":7.408,"visibility":1.99,"altim":30.236221,"flightCategory":"IFR","metarType":"SPECI","geometry_esri":{"x":47.42,"y":19.27,"z":185}}}