{"type":"Feature","geometry":{"type":"Point","coordinates":[47.42,19.27,185]},"properties":{"stationId":"LHBP","rawText":"LHBP 030930Z 32022G33KT CAVOK 00/M08 Q1023 NOSIG","observationTime":"2019-01-03T09:30:00Z","temp":0,"dewpoint":-8,"windDirection":320,"windSpeed":40.744,"visibility":6.21,"altim":30.206694,"flightCategory":"VFR","metarType":"METAR","geometry_esri":{"x":47.42,"y":19.27,"z":185}}}