{"type":"Feature","geometry":{"type":"Point","coordinates":[47.42,19.27,185]},"properties":{"stationId":"LHBP","rawText":"LHBP 191930Z 00000KT 2200 BR FEW004 OVC045 M00/M01 Q1034 TEMPO BKN007 OVC050","observationTime":"2020-01-19T19:30:00Z","temp":0,"dewpoint":-1,"windDirection":0,"windSpeed":0,"visibility":1.37,"altim":30.531496,"flightCategory":"IFR","metarType":"SPECI","geometry_esri":{"x":47.42,"y":19.27,"z":185}}}