{"type":"Feature","geometry":{"type":"Point","coordinates":[47.42,19.27,185]},"properties":{"stationId":"LHBP","rawText":"LHBP 061230Z 13010KT 6000 -RA BKN006 OVC015 06/05 Q1001 NOSIG","observationTime":"2020-03-06T12:30:00Z","temp":6,"dewpoint":5,"windDirection":130,"windSpeed":18.52,"visibility":3.73,"altim":29.557087,"flightCategory":"IFR","metarType":"METAR","geometry_esri":{"x":47.42,"y":19.27,"z":185}}}