{"type":"Feature","geometry":{"type":"Point","coordinates":[47.78,13.02,430]},"properties":{"stationId":"LOWS","rawText":"LOWS 281850Z 36005KT CAVOK 26/10 Q1021 NOSIG","observationTime":"2019-06-28T18:50:00Z","temp":26,"dewpoint":10,"windDirection":360,"windSpeed":9.26,"visibility":6.21,"altim":30.147638,"flightCategory":"VFR","metarType":"METAR","geometry_esri":{"x":47.78,"y":13.02,"z":430}}}