{"type":"Feature","geometry":{"type":"Point","coordinates":[47.78,13.02,430]},"properties":{"stationId":"LOWS","rawText":"LOWS 031650Z 36004KT 300V100 9999 FEW060 29/06 Q1014 NOSIG","observationTime":"2019-06-03T16:50:00Z","temp":29,"dewpoint":6,"windDirection":360,"windSpeed":7.408,"visibility":6.21,"altim":29.940945,"flightCategory":"VFR","metarType":"METAR","geometry_esri":{"x":47.78,"y":13.02,"z":430}}}