{"type":"Feature","geometry":{"type":"Point","coordinates":[47.42,19.27,185]},"properties":{"stationId":"LHBP","rawText":"LHBP 230430Z 31012KT 9999 BKN013 OVC022 06/05 Q0988 NOSIG","observationTime":"2019-12-23T04:30:00Z","temp":6,"dewpoint":5,"windDirection":310,"windSpeed":22.224,"visibility":6.21,"altim":29.17323,"flightCategory":"MVFR","metarType":"METAR","geometry_esri":{"x":47.42,"y":19.27,"z":185}}}