{"type":"Feature","geometry":{"type":"Point","coordinates":[47.78,13.02,430]},"properties":{"stationId":"LOWS","rawText":"LOWS 251050Z 32003KT 260V030 9999 FEW060 09/00 Q1038 NOSIG","observationTime":"2019-02-25T10:50:00Z","temp":9,"dewpoint":0,"windDirection":320,"windSpeed":5.556,"visibility":6.21,"altim":30.649607,"flightCategory":"VFR","metarType":"METAR","geometry_esri":{"x":47.78,"y":13.02,"z":430}}}