{"type":"Feature","geometry":{"type":"Point","coordinates":[47.42,19.27,185]},"properties":{"stationId":"LHBP","rawText":"LHBP 032330Z AUTO 35007KT 330V030 9999 NCD 08/02 Q1016 NOSIG","observationTime":"2020-05-03T23:30:00Z","temp":8,"dewpoint":2,"windDirection":350,"windSpeed":12.964,"visibility":6.21,"altim":30,"flightCategory":"VFR","metarType":"METAR","geometry_esri":{"x":47.42,"y":19.27,"z":185}}}