{"type":"Feature","geometry":{"type":"Point","coordinates":[47.42,19.27,185]},"properties":{"stationId":"LHBP","rawText":"LHBP 061930Z 36004KT 340V040 9999 SCT041 08/08 Q1009 NOSIG","observationTime":"2019-04-06T19:30:00Z","temp":8,"dewpoint":8,"windDirection":360,"windSpeed":7.408,"visibility":6.21,"altim":29.793306,"flightCategory":"VFR","metarType":"METAR","geometry_esri":{"x":47.42,"y":19.27,"z":185}}}