{"type":"Feature","geometry":{"type":"Point","coordinates":[47.78,13.02,430]},"properties":{"stationId":"LOWS","rawText":"LOWS 011550Z 33008KT 310V010 9999 FEW050 BKN065 25/14 Q1016 NOSIG","observationTime":"2019-08-01T15:50:00Z","temp":25,"dewpoint":14,"windDirection":330,"windSpeed":14.816,"visibility":6.21,"altim":30,"flightCategory":"VFR","metarType":"METAR","geometry_esri":{"x":47.78,"y":13.02,"z":430}}}