{"type":"Feature","geometry":{"type":"Point","coordinates":[47.78,13.02,430]},"properties":{"stationId":"LOWS","rawText":"LOWS 150950Z 15014KT 9999 FEW110 BKN300 05/M02 Q1008 R15/19//95 NOSIG","observationTime":"2019-12-15T09:50:00Z","temp":5,"dewpoint":-2,"windDirection":150,"windSpeed":25.928,"visibility":6.21,"altim":29.763779,"flightCategory":"VFR","metarType":"METAR","geometry_esri":{"x":47.78,"y":13.02,"z":430}}}