{"type":"Feature","geometry":{"type":"Point","coordinates":[47.78,13.02,430]},"properties":{"stationId":"LOWS","rawText":"LOWS 091150Z 02005KT 280V080 9999 FEW040 BKN055 BKN300 16/07 Q1008 NOSIG","observationTime":"2019-04-09T11:50:00Z","temp":16,"dewpoint":7,"windDirection":20,"windSpeed":9.26,"visibility":6.21,"altim":29.763779,"flightCategory":"VFR","metarType":"METAR","geometry_esri":{"x":47.78,"y":13.02,"z":430}}}