{"type":"Feature","geometry":{"type":"Point","coordinates":[47.42,19.27,185]},"properties":{"stationId":"LHBP","rawText":"LHBP 061430Z 35012KT 9999 -RA SCT016 OVC024 07/07 Q1010 NOSIG","observationTime":"2019-05-06T14:30:00Z","temp":7,"dewpoint":7,"windDirection":350,"windSpeed":22.224,"visibility":6.21,"altim":29.822834,"flightCategory":"MVFR","metarType":"METAR","geometry_esri":{"x":47.42,"y":19.27,"z":185}}}