{"type":"Feature","geometry":{"type":"Point","coordinates":[47.42,19.27,185]},"properties":{"stationId":"LHBP","rawText":"LHBP 102230Z 22006KT CAVOK 05/M00 Q1006 NOSIG","observationTime":"2020-02-10T22:30:00Z","temp":5,"dewpoint":0,"windDirection":220,"windSpeed":11.112,"visibility":6.21,"altim":29.704725,"flightCategory":"VFR","metarType":"METAR","geometry_esri":{"x":47.42,"y":19.27,"z":185}}}