{"type":"Feature","geometry":{"type":"Point","coordinates":[47.42,19.27,185]},"properties":{"stationId":"LHBP","rawText":"LHBP 181130Z VRB03KT 3500 BR NSC M02/M02 Q1029 BECMG 5000","observationTime":"2018-12-18T11:30:00Z","temp":-2,"dewpoint":-2,"windDirection":0,"windSpeed":5.556,"visibility":2.17,"altim":30.383858,"flightCategory":"IFR","metarType":"METAR","geometry_esri":{"x":47.42,"y":19.27,"z":185}}}