{"type":"Feature","geometry":{"type":"Point","coordinates":[47.78,13.02,430]},"properties":{"stationId":"LOWS","rawText":"LOWS 241650Z VRB02KT 9999 FEW040 FEW045CB SCT050 BKN160 22/18 Q1020 BECMG NSW","observationTime":"2019-08-24T16:50:00Z","temp":22,"dewpoint":18,"windDirection":0,"windSpeed":3.704,"visibility":6.21,"altim":30.11811,"flightCategory":"VFR","metarType":"SPECI","geometry_esri":{"x":47.78,"y":13.02,"z":430}}}