{"type":"Feature","geometry":{"type":"Point","coordinates":[47.42,19.27,185]},"properties":{"stationId":"LHBP","rawText":"LHBP 070630Z 21005KT 170V250 9999 FEW020 SCT200 21/17 Q1015 NOSIG","observationTime":"2019-06-07T06:30:00Z","temp":21,"dewpoint":17,"windDirection":210,"windSpeed":9.26,"visibility":6.21,"altim":29.970472,"flightCategory":"VFR","metarType":"METAR","geometry_esri":{"x":47.42,"y":19.27,"z":185}}}