{"type":"Feature","geometry":{"type":"Point","coordinates":[47.42,19.27,185]},"properties":{"stationId":"LHBP","rawText":"LHBP 040930Z 05008KT 350V070 7000 -RA SCT008 OVC048 11/11 Q1007 BECMG SCT015 OVC050","observationTime":"2019-05-04T09:30:00Z","temp":11,"dewpoint":11,"windDirection":50,"windSpeed":14.816,"visibility":4.35,"altim":29.734253,"flightCategory":"MVFR","metarType":"SPECI","geometry_esri":{"x":47.42,"y":19.27,"z":185}}}