{"type":"Feature","geometry":{"type":"Point","coordinates":[47.78,13.02,430]},"properties":{"stationId":"LOWS","rawText":"LOWS 010950Z 13004KT 090V160 9999 -RA FEW015 SCT035 BKN055 07/04 Q1005 NOSIG","observationTime":"2020-03-01T09:50:00Z","temp":7,"dewpoint":4,"windDirection":130,"windSpeed":7.408,"visibility":6.21,"altim":29.675198,"flightCategory":"VFR","metarType":"METAR","geometry_esri":{"x":47.78,"y":13.02,"z":430}}}