{"type":"Feature","geometry":{"type":"Point","coordinates":[47.42,19.27,185]},"properties":{"stationId":"LHBP","rawText":"LHBP 020730Z 11007KT CAVOK 16/11 Q1006 NOSIG","observationTime":"2019-10-02T07:30:00Z","temp":16,"dewpoint":11,"windDirection":110,"windSpeed":12.964,"visibility":6.21,"altim":29.704725,"flightCategory":"VFR","metarType":"METAR","geometry_esri":{"x":47.42,"y":19.27,"z":185}}}