{"type":"Feature","geometry":{"type":"Point","coordinates":[47.78,13.02,430]},"properties":{"stationId":"LOWS","rawText":"LOWS 190850Z 15009KT 9999 FEW060 BKN080 05/M03 Q1020 NOSIG","observationTime":"2020-02-19T08:50:00Z","temp":5,"dewpoint":-3,"windDirection":150,"windSpeed":16.668,"visibility":6.21,"altim":30.11811,"flightCategory":"VFR","metarType":"METAR","geometry_esri":{"x":47.78,"y":13.02,"z":430}}}