{"type":"Feature","geometry":{"type":"Point","coordinates":[47.47,21.62,112]},"properties":{"stationId":"LHDC","rawText":"LHDC 291234Z 20006KT 6000 NSC 02/M01 Q1008","observationTime":"2019-01-29T12:34:00Z","temp":2,"dewpoint":-1,"windDirection":200,"windSpeed":11.112,"visibility":3.73,"altim":29.763779,"flightCategory":"MVFR","metarType":"SPECI","geometry_esri":{"x":47.47,"y":21.62,"z":112}}}