{"type":"Feature","geometry":{"type":"Point","coordinates":[47.42,19.27,185]},"properties":{"stationId":"LHBP","rawText":"LHBP 222130Z 33008KT CAVOK 21/13 Q1021 NOSIG","observationTime":"2019-07-22T21:30:00Z","temp":21,"dewpoint":13,"windDirection":330,"windSpeed":14.816,"visibility":6.21,"altim":30.147638,"flightCategory":"VFR","metarType":"METAR","geometry_esri":{"x":47.42,"y":19.27,"z":185}}}