{"type":"Feature","geometry":{"type":"Point","coordinates":[47.78,13.02,430]},"properties":{"stationId":"LOWS","rawText":"LOWS 132250Z AUTO 18006KT 9999 NSC 13/09 Q1018","observationTime":"2019-10-13T22:50:00Z","temp":13,"dewpoint":9,"windDirection":180,"windSpeed":11.112,"visibility":6.21,"altim":30.059055,"flightCategory":"VFR","metarType":"METAR","geometry_esri":{"x":47.78,"y":13.02,"z":430}}}