{"type":"Feature","geometry":{"type":"Point","coordinates":[47.42,19.27,185]},"properties":{"stationId":"LHBP","rawText":"LHBP 281830Z VRB03KT CAVOK 15/13 Q1018 NOSIG","observationTime":"2019-09-28T18:30:00Z","temp":15,"dewpoint":13,"windDirection":0,"windSpeed":5.556,"visibility":6.21,"altim":30.059055,"flightCategory":"VFR","metarType":"METAR","geometry_esri":{"x":47.42,"y":19.27,"z":185}}}