{"type":"Feature","geometry":{"type":"Point","coordinates":[47.78,13.02,430]},"properties":{"stationId":"LOWS","rawText":"LOWS 091550Z 36006KT 330V040 9999 VCTS FEW070 FEW080CB 25/09 Q1009 TEMPO TSRA BECMG NSW","observationTime":"2020-05-09T15:50:00Z","temp":25,"dewpoint":9,"windDirection":360,"windSpeed":11.112,"visibility":6.21,"altim":29.793306,"flightCategory":"VFR","metarType":"METAR","geometry_esri":{"x":47.78,"y":13.02,"z":430}}}