{"type":"Feature","geometry":{"type":"Point","coordinates":[47.47,21.62,112]},"properties":{"stationId":"LHDC","rawText":"LHDC 250550Z AUTO 06003KT 5000 BR NCD 01/00 Q1014","observationTime":"2019-11-25T05:50:00Z","temp":1,"dewpoint":0,"windDirection":60,"windSpeed":5.556,"visibility":3.11,"altim":29.940945,"flightCategory":"MVFR","metarType":"SPECI","geometry_esri":{"x":47.47,"y":21.62,"z":112}}}