{"type":"Feature","geometry":{"type":"Point","coordinates":[47.42,19.27,185]},"properties":{"stationId":"LHBP","rawText":"LHBP 080530Z 31010KT CAVOK 19/11 Q1013 NOSIG","observationTime":"2019-07-08T05:30:00Z","temp":19,"dewpoint":11,"windDirection":310,"windSpeed":18.52,"visibility":6.21,"altim":29.911417,"flightCategory":"VFR","metarType":"METAR","geometry_esri":{"x":47.42,"y":19.27,"z":185}}}