{"type":"Feature","geometry":{"type":"Point","coordinates":[47.42,19.27,185]},"properties":{"stationId":"LHBP","rawText":"LHBP 150930Z 08003KT 020V160 9999 BKN047 17/06 Q1010 TEMPO SCT040TCU BKN070","observationTime":"2020-05-15T09:30:00Z","temp":17,"dewpoint":6,"windDirection":80,"windSpeed":5.556,"visibility":6.21,"altim":29.822834,"flightCategory":"VFR","metarType":"SPECI","geometry_esri":{"x":47.42,"y":19.27,"z":185}}}