{"type":"Feature","geometry":{"type":"Point","coordinates":[47.42,19.27,185]},"properties":{"stationId":"LHBP","rawText":"LHBP 120830Z 32022KT 9999 FEW035 04/M04 Q1019 NOSIG","observationTime":"2019-02-12T08:30:00Z","temp":4,"dewpoint":-4,"windDirection":320,"windSpeed":40.744,"visibility":6.21,"altim":30.088583,"flightCategory":"VFR","metarType":"METAR","geometry_esri":{"x":47.42,"y":19.27,"z":185}}}