{"type":"Feature","geometry":{"type":"Point","coordinates":[47.78,13.02,430]},"properties":{"stationId":"LOWS","rawText":"LOWS 270850Z 15006KT 9999 FEW050 SCT160 BKN200 M00/M02 Q0998 R88/////// NOSIG","observationTime":"2019-01-27T08:50:00Z","temp":0,"dewpoint":-2,"windDirection":150,"windSpeed":11.112,"visibility":6.21,"altim":29.468504,"flightCategory":"VFR","metarType":"METAR","geometry_esri":{"x":47.78,"y":13.02,"z":430}}}