{"type":"Feature","geometry":{"type":"Point","coordinates":[47.42,19.27,185]},"properties":{"stationId":"LHBP","rawText":"LHBP 230330Z 32007KT CAVOK M06/M14 Q1039 NOSIG","observationTime":"2019-02-23T03:30:00Z","temp":-6,"dewpoint":-14,"windDirection":320,"windSpeed":12.964,"visibility":6.21,"altim":30.679134,"flightCategory":"VFR","metarType":"METAR","geometry_esri":{"x":47.42,"y":19.27,"z":185}}}