{"type":"Feature","geometry":{"type":"Point","coordinates":[47.42,19.27,185]},"properties":{"stationId":"LHBP","rawText":"LHBP 191030Z 13007KT 090V160 9999 FEW036TCU SCT042 29/20 Q1013 TEMPO FM1200 VRB20G30KT 4000 TSRA SCT030CB SCT040","observationTime":"2019-06-19T10:30:00Z","temp":29,"dewpoint":20,"windDirection":130,"windSpeed":12.964,"visibility":6.21,"altim":29.911417,"flightCategory":"VFR","metarType":"METAR","geometry_esri":{"x":47.42,"y":19.27,"z":185}}}