{"type":"Feature","geometry":{"type":"Point","coordinates":[47.78,13.02,430]},"properties":{"stationId":"LOWS","rawText":"LOWS 230050Z AUTO VRB01KT 3200 BR FEW001 BKN006 12/12 Q1021","observationTime":"2019-10-23T00:50:00Z","temp":12,"dewpoint":12,"windDirection":0,"windSpeed":1.852,"visibility":1.99,"altim":30.147638,"flightCategory":"IFR","metarType":"METAR","geometry_esri":{"x":47.78,"y":13.02,"z":430}}}