{"type":"Feature","geometry":{"type":"Point","coordinates":[47.78,13.02,430]},"properties":{"stationId":"LOWS","rawText":"LOWS 310150Z AUTO 20003KT 170V230 9999 FEW070 BKN100 M04/M05 Q1001","observationTime":"2019-01-31T01:50:00Z","temp":-4,"dewpoint":-5,"windDirection":200,"windSpeed":5.556,"visibility":6.21,"altim":29.557087,"flightCategory":"VFR","metarType":"METAR","geometry_esri":{"x":47.78,"y":13.02,"z":430}}}