{"type":"Feature","geometry":{"type":"Point","coordinates":[47.42,19.27,185]},"properties":{"stationId":"LHBP","rawText":"LHBP 271230Z 21007KT 170V240 9999 SCT046 BKN100 23/13 Q1016 NOSIG","observationTime":"2019-09-27T12:30:00Z","temp":23,"dewpoint":13,"windDirection":210,"windSpeed":12.964,"visibility":6.21,"altim":30,"flightCategory":"VFR","metarType":"METAR","geometry_esri":{"x":47.42,"y":19.27,"z":185}}}