{"type":"Feature","geometry":{"type":"Point","coordinates":[47.78,13.02,430]},"properties":{"stationId":"LOWS","rawText":"LOWS 221550Z 17004KT CAVOK 13/M03 Q1024 NOSIG","observationTime":"2020-02-22T15:50:00Z","temp":13,"dewpoint":-3,"windDirection":170,"windSpeed":7.408,"visibility":6.21,"altim":30.236221,"flightCategory":"VFR","metarType":"METAR","geometry_esri":{"x":47.78,"y":13.02,"z":430}}}