{"type":"Feature","geometry":{"type":"Point","coordinates":[47.78,13.02,430]},"properties":{"stationId":"LOWS","rawText":"LOWS 061950Z 16009KT CAVOK M02/M05 Q1030 R15/19//95 NOSIG","observationTime":"2020-02-06T19:50:00Z","temp":-2,"dewpoint":-5,"windDirection":160,"windSpeed":16.668,"visibility":6.21,"altim":30.413385,"flightCategory":"VFR","metarType":"METAR","geometry_esri":{"x":47.78,"y":13.02,"z":430}}}