{"type":"Feature","geometry":{"type":"Point","coordinates":[47.78,13.02,430]},"properties":{"stationId":"LOWS","rawText":"LOWS 170850Z 16020G31KT CAVOK 16/00 Q1010 NOSIG","observationTime":"2019-12-17T08:50:00Z","temp":16,"dewpoint":0,"windDirection":160,"windSpeed":37.04,"visibility":6.21,"altim":29.822834,"flightCategory":"VFR","metarType":"METAR","geometry_esri":{"x":47.78,"y":13.02,"z":430}}}