{"type":"Feature","geometry":{"type":"Point","coordinates":[47.78,13.02,430]},"properties":{"stationId":"LOWS","rawText":"LOWS 192250Z AUTO 13003KT 100V160 9999 FEW042 OVC070 02/M01 Q1031","observationTime":"2019-03-19T22:50:00Z","temp":2,"dewpoint":-1,"windDirection":130,"windSpeed":5.556,"visibility":6.21,"altim":30.442913,"flightCategory":"VFR","metarType":"METAR","geometry_esri":{"x":47.78,"y":13.02,"z":430}}}