{"type":"Feature","geometry":{"type":"Point","coordinates":[47.78,13.02,430]},"properties":{"stationId":"LOWS","rawText":"LOWS 180750Z 25003KT 210V300 CAVOK 17/06 Q1005 NOSIG","observationTime":"2019-05-18T07:50:00Z","temp":17,"dewpoint":6,"windDirection":250,"windSpeed":5.556,"visibility":6.21,"altim":29.675198,"flightCategory":"VFR","metarType":"METAR","geometry_esri":{"x":47.78,"y":13.02,"z":430}}}