{"type":"Feature","geometry":{"type":"Point","coordinates":[47.42,19.27,185]},"properties":{"stationId":"LHBP","rawText":"LHBP 090330Z VRB02KT CAVOK 11/09 Q1004 NOSIG","observationTime":"2019-04-09T03:30:00Z","temp":11,"dewpoint":9,"windDirection":0,"windSpeed":3.704,"visibility":6.21,"altim":29.64567,"flightCategory":"VFR","metarType":"METAR","geometry_esri":{"x":47.42,"y":19.27,"z":185}}}