{"type":"Feature","geometry":{"type":"Point","coordinates":[45.98,18.23,305]},"properties":{"stationId":"LHPP","rawText":"LHPP 291246Z 01006KT 9999 TS SCT016CB BKN083 18/16 Q1011","observationTime":"2019-05-29T12:46:00Z","temp":18,"dewpoint":16,"windDirection":10,"windSpeed":11.112,"visibility":6.21,"altim":29.852362,"flightCategory":"VFR","metarType":"SPECI","geometry_esri":{"x":45.98,"y":18.23,"z":305}}}