{"type":"Feature","geometry":{"type":"Point","coordinates":[47.42,19.27,185]},"properties":{"stationId":"LHBP","rawText":"LHBP 150330Z 15004KT 6000 NSC M00/M00 Q1012 NOSIG","observationTime":"2019-12-15T03:30:00Z","temp":0,"dewpoint":0,"windDirection":150,"windSpeed":7.408,"visibility":3.73,"altim":29.88189,"flightCategory":"MVFR","metarType":"METAR","geometry_esri":{"x":47.42,"y":19.27,"z":185}}}