{"type":"Feature","geometry":{"type":"Point","coordinates":[47.78,13.02,430]},"properties":{"stationId":"LOWS","rawText":"LOWS 081650Z 14006KT 110V170 9999 FEW044 BKN050 16/14 Q1017 NOSIG","observationTime":"2019-07-08T16:50:00Z","temp":16,"dewpoint":14,"windDirection":140,"windSpeed":11.112,"visibility":6.21,"altim":30.029528,"flightCategory":"VFR","metarType":"METAR","geometry_esri":{"x":47.78,"y":13.02,"z":430}}}