{"type":"Feature","geometry":{"type":"Point","coordinates":[47.42,19.27,185]},"properties":{"stationId":"LHBP","rawText":"LHBP 062130Z 14005KT 0800 R13R/2000U R13L/1900D FZFG OVC002 M00/M01 Q1021 NOSIG","observationTime":"2019-12-06T21:30:00Z","temp":0,"dewpoint":-1,"windDirection":140,"windSpeed":9.26,"visibility":0.5,"altim":30.147638,"flightCategory":"LIFR","metarType":"METAR","geometry_esri":{"x":47.42,"y":19.27,"z":185}}}