{"type":"Feature","geometry":{"type":"Point","coordinates":[47.78,13.02,430]},"properties":{"stationId":"LOWS","rawText":"LOWS 281450Z 32007KT 6000 -RA FEW004 BKN007 BKN010 09/08 Q1020 NOSIG","observationTime":"2019-10-28T14:50:00Z","temp":9,"dewpoint":8,"windDirection":320,"windSpeed":12.964,"visibility":3.73,"altim":30.11811,"flightCategory":"IFR","metarType":"METAR","geometry_esri":{"x":47.78,"y":13.02,"z":430}}}