{"type":"Feature","geometry":{"type":"Point","coordinates":[47.42,19.27,185]},"properties":{"stationId":"LHBP","rawText":"LHBP 310930Z 33006KT 290V070 CAVOK 07/00 Q1027 NOSIG","observationTime":"2019-10-31T09:30:00Z","temp":7,"dewpoint":0,"windDirection":330,"windSpeed":11.112,"visibility":6.21,"altim":30.324802,"flightCategory":"VFR","metarType":"METAR","geometry_esri":{"x":47.42,"y":19.27,"z":185}}}