{"type":"Feature","geometry":{"type":"Point","coordinates":[47.42,19.27,185]},"properties":{"stationId":"LHBP","rawText":"LHBP 141930Z 13005KT 0600 R13R/1500D R13L/1700N -SG FZFG VV002 M02/M02 Q1028 BECMG 0900","observationTime":"2020-01-14T19:30:00Z","temp":-2,"dewpoint":-2,"windDirection":130,"windSpeed":9.26,"visibility":0.37,"altim":30.35433,"flightCategory":"LIFR","metarType":"SPECI","geometry_esri":{"x":47.42,"y":19.27,"z":185}}}