{"type":"Feature","geometry":{"type":"Point","coordinates":[47.78,13.02,430]},"properties":{"stationId":"LOWS","rawText":"LOWS 191250Z 24003KT 210V290 9999 FEW010 SCT018 BKN032 02/M01 Q1033 R15/290195 TEMPO 4000 -SHSN","observationTime":"2020-01-19T12:50:00Z","temp":2,"dewpoint":-1,"windDirection":240,"windSpeed":5.556,"visibility":6.21,"altim":30.501968,"flightCategory":"VFR","metarType":"METAR","geometry_esri":{"x":47.78,"y":13.02,"z":430}}}