{"type":"Feature","geometry":{"type":"Point","coordinates":[47.42,19.27,185]},"properties":{"stationId":"LHBP","rawText":"LHBP 051830Z 27006KT CAVOK 08/M03 Q1012 NOSIG","observationTime":"2019-03-05T18:30:00Z","temp":8,"dewpoint":-3,"windDirection":270,"windSpeed":11.112,"visibility":6.21,"altim":29.88189,"flightCategory":"VFR","metarType":"METAR","geometry_esri":{"x":47.42,"y":19.27,"z":185}}}