{"type":"Feature","geometry":{"type":"Point","coordinates":[47.78,13.02,430]},"properties":{"stationId":"LOWS","rawText":"LOWS 040250Z AUTO 32008KT 9999 -SHSN FEW012 BKN060 M02/M04 Q1033","observationTime":"2019-01-04T02:50:00Z","temp":-2,"dewpoint":-4,"windDirection":320,"windSpeed":14.816,"visibility":6.21,"altim":30.501968,"flightCategory":"VFR","metarType":"METAR","geometry_esri":{"x":47.78,"y":13.02,"z":430}}}