{"type":"Feature","geometry":{"type":"Point","coordinates":[47.42,19.27,185]},"properties":{"stationId":"LHBP","rawText":"LHBP 231930Z VRB02KT 2500 BR OVC003 M02/M02 Q1002 R88/29//95 TEMPO 4000 BR OVC005","observationTime":"2019-01-23T19:30:00Z","temp":-2,"dewpoint":-2,"windDirection":0,"windSpeed":3.704,"visibility":1.55,"altim":29.586615,"flightCategory":"LIFR","metarType":"METAR","geometry_esri":{"x":47.42,"y":19.27,"z":185}}}