{"type":"Feature","geometry":{"type":"Point","coordinates":[47.78,13.02,430]},"properties":{"stationId":"LOWS","rawText":"LOWS 272250Z AUTO 35003KT 5000 -SHRA BR FEW002 SCT005 BKN020 13/13 Q1008","observationTime":"2019-05-27T22:50:00Z","temp":13,"dewpoint":13,"windDirection":350,"windSpeed":5.556,"visibility":3.11,"altim":29.763779,"flightCategory":"MVFR","metarType":"METAR","geometry_esri":{"x":47.78,"y":13.02,"z":430}}}