{"type":"Feature","geometry":{"type":"Point","coordinates":[47.78,13.02,430]},"properties":{"stationId":"LOWS","rawText":"LOWS 270250Z AUTO 17005KT 9999 FEW034 BKN210 M01/M02 Q1002","observationTime":"2019-01-27T02:50:00Z","temp":-1,"dewpoint":-2,"windDirection":170,"windSpeed":9.26,"visibility":6.21,"altim":29.586615,"flightCategory":"VFR","metarType":"METAR","geometry_esri":{"x":47.78,"y":13.02,"z":430}}}