{"type":"Feature","geometry":{"type":"Point","coordinates":[47.42,19.27,185]},"properties":{"stationId":"LHBP","rawText":"LHBP 131230Z 17007KT 9000 BKN007 04/02 Q0993 NOSIG","observationTime":"2019-12-13T12:30:00Z","temp":4,"dewpoint":2,"windDirection":170,"windSpeed":12.964,"visibility":5.59,"altim":29.320866,"flightCategory":"IFR","metarType":"METAR","geometry_esri":{"x":47.42,"y":19.27,"z":185}}}