{"type":"Feature","geometry":{"type":"Point","coordinates":[47.78,13.02,430]},"properties":{"stationId":"LOWS","rawText":"LOWS 281350Z 29013KT 250V330 CAVOK 19/M02 Q1015 NOSIG","observationTime":"2019-02-28T13:50:00Z","temp":19,"dewpoint":-2,"windDirection":290,"windSpeed":24.076,"visibility":6.21,"altim":29.970472,"flightCategory":"VFR","metarType":"METAR","geometry_esri":{"x":47.78,"y":13.02,"z":430}}}