{"type":"Feature","geometry":{"type":"Point","coordinates":[47.47,21.62,112]},"properties":{"stationId":"LHDC","rawText":"LHDC 161432Z AUTO 07007KT 040V100 9999 FEW034CB SCT170 32/19 Q1011","observationTime":"2019-06-16T14:32:00Z","temp":32,"dewpoint":19,"windDirection":70,"windSpeed":12.964,"visibility":6.21,"altim":29.852362,"flightCategory":"VFR","metarType":"SPECI","geometry_esri":{"x":47.47,"y":21.62,"z":112}}}