{"type":"Feature","geometry":{"type":"Point","coordinates":[47.42,19.27,185]},"properties":{"stationId":"LHBP","rawText":"LHBP 062030Z 30011KT CAVOK 03/M02 Q1023 NOSIG","observationTime":"2020-02-06T20:30:00Z","temp":3,"dewpoint":-2,"windDirection":300,"windSpeed":20.372,"visibility":6.21,"altim":30.206694,"flightCategory":"VFR","metarType":"METAR","geometry_esri":{"x":47.42,"y":19.27,"z":185}}}