{"type":"Feature","geometry":{"type":"Point","coordinates":[47.42,19.27,185]},"properties":{"stationId":"LHBP","rawText":"LHBP 241230Z 10006KT 080V140 CAVOK 23/10 Q1016 NOSIG","observationTime":"2019-10-24T12:30:00Z","temp":23,"dewpoint":10,"windDirection":100,"windSpeed":11.112,"visibility":6.21,"altim":30,"flightCategory":"VFR","metarType":"METAR","geometry_esri":{"x":47.42,"y":19.27,"z":185}}}