{"type":"Feature","geometry":{"type":"Point","coordinates":[47.42,19.27,185]},"properties":{"stationId":"LHBP","rawText":"LHBP 282030Z VRB02KT CAVOK 13/12 Q1018 NOSIG","observationTime":"2019-09-28T20:30:00Z","temp":13,"dewpoint":12,"windDirection":0,"windSpeed":3.704,"visibility":6.21,"altim":30.059055,"flightCategory":"VFR","metarType":"METAR","geometry_esri":{"x":47.42,"y":19.27,"z":185}}}