{"type":"Feature","geometry":{"type":"Point","coordinates":[47.42,19.27,185]},"properties":{"stationId":"LHBP","rawText":"LHBP 050330Z VRB03KT CAVOK 15/15 Q1010 NOSIG","observationTime":"2019-06-05T03:30:00Z","temp":15,"dewpoint":15,"windDirection":0,"windSpeed":5.556,"visibility":6.21,"altim":29.822834,"flightCategory":"VFR","metarType":"METAR","geometry_esri":{"x":47.42,"y":19.27,"z":185}}}