{"type":"Feature","geometry":{"type":"Point","coordinates":[47.42,19.27,185]},"properties":{"stationId":"LHBP","rawText":"LHBP 100730Z 03008KT 350V080 CAVOK 16/08 Q1007 NOSIG","observationTime":"2019-04-10T07:30:00Z","temp":16,"dewpoint":8,"windDirection":30,"windSpeed":14.816,"visibility":6.21,"altim":29.734253,"flightCategory":"VFR","metarType":"METAR","geometry_esri":{"x":47.42,"y":19.27,"z":185}}}