{"type":"Feature","geometry":{"type":"Point","coordinates":[47.78,13.02,430]},"properties":{"stationId":"LOWS","rawText":"LOWS 210050Z AUTO 02003KT 8000 -SHSN FEW011 BKN044 M02/M05 Q1018","observationTime":"2019-01-21T00:50:00Z","temp":-2,"dewpoint":-5,"windDirection":20,"windSpeed":5.556,"visibility":4.97,"altim":30.059055,"flightCategory":"MVFR","metarType":"METAR","geometry_esri":{"x":47.78,"y":13.02,"z":430}}}