{"type":"Feature","geometry":{"type":"Point","coordinates":[47.42,19.27,185]},"properties":{"stationId":"LHBP","rawText":"LHBP 151630Z 08004KT 010V150 CAVOK 15/M04 Q1019 NOSIG","observationTime":"2019-04-15T16:30:00Z","temp":15,"dewpoint":-4,"windDirection":80,"windSpeed":7.408,"visibility":6.21,"altim":30.088583,"flightCategory":"VFR","metarType":"METAR","geometry_esri":{"x":47.42,"y":19.27,"z":185}}}