{"type":"Feature","geometry":{"type":"Point","coordinates":[47.78,13.02,430]},"properties":{"stationId":"LOWS","rawText":"LOWS 141750Z 34003KT 320V030 9999 FEW050 SCT065 BKN110 08/M03 Q1022 NOSIG","observationTime":"2020-03-14T17:50:00Z","temp":8,"dewpoint":-3,"windDirection":340,"windSpeed":5.556,"visibility":6.21,"altim":30.177166,"flightCategory":"VFR","metarType":"METAR","geometry_esri":{"x":47.78,"y":13.02,"z":430}}}