{"type":"Feature","geometry":{"type":"Point","coordinates":[47.42,19.27,185]},"properties":{"stationId":"LHBP","rawText":"LHBP 261030Z 15007KT 090V190 9999 FEW032 31/22 Q1024 NOSIG","observationTime":"2019-06-26T10:30:00Z","temp":31,"dewpoint":22,"windDirection":150,"windSpeed":12.964,"visibility":6.21,"altim":30.236221,"flightCategory":"VFR","metarType":"METAR","geometry_esri":{"x":47.42,"y":19.27,"z":185}}}