{"type":"Feature","geometry":{"type":"Point","coordinates":[47.42,19.27,185]},"properties":{"stationId":"LHBP","rawText":"LHBP 121130Z 10007KT 060V120 2300 -DZRA BR BKN004 OVC015 02/02 Q1008 TEMPO 3000 BKN005","observationTime":"2019-12-12T11:30:00Z","temp":2,"dewpoint":2,"windDirection":100,"windSpeed":12.964,"visibility":1.43,"altim":29.763779,"flightCategory":"LIFR","metarType":"SPECI","geometry_esri":{"x":47.42,"y":19.27,"z":185}}}