{"type":"Feature","geometry":{"type":"Point","coordinates":[47.42,19.27,185]},"properties":{"stationId":"LHBP","rawText":"LHBP 091434Z 31004KT 9999 -SHRA FEW050CB BKN055 21/07 Q1004 TEMPO -TSRA","observationTime":"2019-04-09T14:34:00Z","temp":21,"dewpoint":7,"windDirection":310,"windSpeed":7.408,"visibility":6.21,"altim":29.64567,"flightCategory":"VFR","metarType":"SPECI","geometry_esri":{"x":47.42,"y":19.27,"z":185}}}