{"type":"Feature","geometry":{"type":"Point","coordinates":[47.42,19.27,185]},"properties":{"stationId":"LHBP","rawText":"LHBP 310930Z 21008KT CAVOK M00/M03 Q1028 NOSIG","observationTime":"2019-12-31T09:30:00Z","temp":0,"dewpoint":-3,"windDirection":210,"windSpeed":14.816,"visibility":6.21,"altim":30.35433,"flightCategory":"VFR","metarType":"METAR","geometry_esri":{"x":47.42,"y":19.27,"z":185}}}