{"type":"Feature","geometry":{"type":"Point","coordinates":[47.42,19.27,185]},"properties":{"stationId":"LHBP","rawText":"LHBP 230130Z 32004KT 3500 BR OVC014 M04/M04 Q1005 NOSIG","observationTime":"2019-01-23T01:30:00Z","temp":-4,"dewpoint":-4,"windDirection":320,"windSpeed":7.408,"visibility":2.17,"altim":29.675198,"flightCategory":"IFR","metarType":"METAR","geometry_esri":{"x":47.42,"y":19.27,"z":185}}}