{"type":"Feature","geometry":{"type":"Point","coordinates":[47.78,13.02,430]},"properties":{"stationId":"LOWS","rawText":"LOWS 111550Z 31007KT 270V340 9999 FEW060 BKN080 20/10 Q1015 NOSIG","observationTime":"2019-07-11T15:50:00Z","temp":20,"dewpoint":10,"windDirection":310,"windSpeed":12.964,"visibility":6.21,"altim":29.970472,"flightCategory":"VFR","metarType":"METAR","geometry_esri":{"x":47.78,"y":13.02,"z":430}}}