{"type":"Feature","geometry":{"type":"Point","coordinates":[47.42,19.27,185]},"properties":{"stationId":"LHBP","rawText":"LHBP 201030Z 02007KT 330V100 CAVOK 14/M04 Q1021 NOSIG","observationTime":"2020-04-20T10:30:00Z","temp":14,"dewpoint":-4,"windDirection":20,"windSpeed":12.964,"visibility":6.21,"altim":30.147638,"flightCategory":"VFR","metarType":"METAR","geometry_esri":{"x":47.42,"y":19.27,"z":185}}}