{"type":"Feature","geometry":{"type":"Point","coordinates":[47.42,19.27,185]},"properties":{"stationId":"LHBP","rawText":"LHBP 180830Z VRB03KT CAVOK 14/02 Q1030 NOSIG","observationTime":"2020-03-18T08:30:00Z","temp":14,"dewpoint":2,"windDirection":0,"windSpeed":5.556,"visibility":6.21,"altim":30.413385,"flightCategory":"VFR","metarType":"METAR","geometry_esri":{"x":47.42,"y":19.27,"z":185}}}