{"type":"Feature","geometry":{"type":"Point","coordinates":[47.42,19.27,185]},"properties":{"stationId":"LHBP","rawText":"LHBP 122330Z VRB01KT CAVOK 24/22 Q1011 NOSIG","observationTime":"2019-08-12T23:30:00Z","temp":24,"dewpoint":22,"windDirection":0,"windSpeed":1.852,"visibility":6.21,"altim":29.852362,"flightCategory":"VFR","metarType":"METAR","geometry_esri":{"x":47.42,"y":19.27,"z":185}}}