{"type":"Feature","geometry":{"type":"Point","coordinates":[47.42,19.27,185]},"properties":{"stationId":"LHBP","rawText":"LHBP 041130Z 34016KT 9999 FEW027 07/01 Q1008 NOSIG","observationTime":"2020-03-04T11:30:00Z","temp":7,"dewpoint":1,"windDirection":340,"windSpeed":29.632,"visibility":6.21,"altim":29.763779,"flightCategory":"VFR","metarType":"METAR","geometry_esri":{"x":47.42,"y":19.27,"z":185}}}