{"type":"Feature","geometry":{"type":"Point","coordinates":[47.78,13.02,430]},"properties":{"stationId":"LOWS","rawText":"LOWS 132250Z AUTO 27019G35KT 230V300 9999 -RA FEW013 BKN032 BKN070 06/03 Q0998","observationTime":"2019-01-13T22:50:00Z","temp":6,"dewpoint":3,"windDirection":270,"windSpeed":35.188,"visibility":6.21,"altim":29.468504,"flightCategory":"VFR","metarType":"METAR","geometry_esri":{"x":47.78,"y":13.02,"z":430}}}