{"type":"Feature","geometry":{"type":"Point","coordinates":[47.42,19.27,185]},"properties":{"stationId":"LHBP","rawText":"LHBP 301330Z 30011KT CAVOK 07/M06 Q1018 NOSIG","observationTime":"2020-03-30T13:30:00Z","temp":7,"dewpoint":-6,"windDirection":300,"windSpeed":20.372,"visibility":6.21,"altim":30.059055,"flightCategory":"VFR","metarType":"METAR","geometry_esri":{"x":47.42,"y":19.27,"z":185}}}