{"type":"Feature","geometry":{"type":"Point","coordinates":[47.78,13.02,430]},"properties":{"stationId":"LOWS","rawText":"LOWS 242150Z 17003KT 6000 FEW018 BKN045 M03/M05 Q1011","observationTime":"2019-01-24T21:50:00Z","temp":-3,"dewpoint":-5,"windDirection":170,"windSpeed":5.556,"visibility":3.73,"altim":29.852362,"flightCategory":"MVFR","metarType":"METAR","geometry_esri":{"x":47.78,"y":13.02,"z":430}}}