{"type":"Feature","geometry":{"type":"Point","coordinates":[47.78,13.02,430]},"properties":{"stationId":"LOWS","rawText":"LOWS 272350Z AUTO VRB01KT 9999 FEW050 BKN070 12/09 Q1020","observationTime":"2019-10-27T23:50:00Z","temp":12,"dewpoint":9,"windDirection":0,"windSpeed":1.852,"visibility":6.21,"altim":30.11811,"flightCategory":"VFR","metarType":"METAR","geometry_esri":{"x":47.78,"y":13.02,"z":430}}}