{"type":"Feature","geometry":{"type":"Point","coordinates":[47.42,19.27,185]},"properties":{"stationId":"LHBP","rawText":"LHBP 221730Z 35007KT CAVOK 01/M13 Q1030 NOSIG","observationTime":"2019-02-22T17:30:00Z","temp":1,"dewpoint":-13,"windDirection":350,"windSpeed":12.964,"visibility":6.21,"altim":30.413385,"flightCategory":"VFR","metarType":"METAR","geometry_esri":{"x":47.42,"y":19.27,"z":185}}}