{"type":"Feature","geometry":{"type":"Point","coordinates":[47.78,13.02,430]},"properties":{"stationId":"LOWS","rawText":"LOWS 190750Z VRB02KT 8000 FEW006 SCT018 BKN050 00/00 Q1031 R15/290195 NOSIG","observationTime":"2020-01-19T07:50:00Z","temp":0,"dewpoint":0,"windDirection":0,"windSpeed":3.704,"visibility":4.97,"altim":30.442913,"flightCategory":"MVFR","metarType":"METAR","geometry_esri":{"x":47.78,"y":13.02,"z":430}}}