{"type":"Feature","geometry":{"type":"Point","coordinates":[47.78,13.02,430]},"properties":{"stationId":"LOWS","rawText":"LOWS 161750Z 36004KT 330V070 9999 FEW028 BKN035 11/06 Q1012 NOSIG","observationTime":"2019-05-16T17:50:00Z","temp":11,"dewpoint":6,"windDirection":360,"windSpeed":7.408,"visibility":6.21,"altim":29.88189,"flightCategory":"VFR","metarType":"METAR","geometry_esri":{"x":47.78,"y":13.02,"z":430}}}