{"type":"Feature","geometry":{"type":"Point","coordinates":[47.78,13.02,430]},"properties":{"stationId":"LOWS","rawText":"LOWS 131950Z AUTO 32006KT 7000 -RA FEW005 SCT007 BKN018 09/09 Q1007","observationTime":"2020-05-13T19:50:00Z","temp":9,"dewpoint":9,"windDirection":320,"windSpeed":11.112,"visibility":4.35,"altim":29.734253,"flightCategory":"MVFR","metarType":"METAR","geometry_esri":{"x":47.78,"y":13.02,"z":430}}}