{"type":"Feature","geometry":{"type":"Point","coordinates":[47.42,19.27,185]},"properties":{"stationId":"LHBP","rawText":"LHBP 220030Z 00000KT CAVOK 11/10 Q1022 NOSIG","observationTime":"2019-10-22T00:30:00Z","temp":11,"dewpoint":10,"windDirection":0,"windSpeed":0,"visibility":6.21,"altim":30.177166,"flightCategory":"VFR","metarType":"METAR","geometry_esri":{"x":47.42,"y":19.27,"z":185}}}