{"type":"Feature","geometry":{"type":"Point","coordinates":[47.42,19.27,185]},"properties":{"stationId":"LHBP","rawText":"LHBP 201430Z 27005KT 220V340 CAVOK 21/M02 Q1025 NOSIG","observationTime":"2019-04-20T14:30:00Z","temp":21,"dewpoint":-2,"windDirection":270,"windSpeed":9.26,"visibility":6.21,"altim":30.265747,"flightCategory":"VFR","metarType":"METAR","geometry_esri":{"x":47.42,"y":19.27,"z":185}}}