{"type":"Feature","geometry":{"type":"Point","coordinates":[47.42,19.27,185]},"properties":{"stationId":"LHBP","rawText":"LHBP 122030Z 30015KT CAVOK 02/M03 Q1028 NOSIG","observationTime":"2019-02-12T20:30:00Z","temp":2,"dewpoint":-3,"windDirection":300,"windSpeed":27.78,"visibility":6.21,"altim":30.35433,"flightCategory":"VFR","metarType":"METAR","geometry_esri":{"x":47.42,"y":19.27,"z":185}}}