{"type":"Feature","geometry":{"type":"Point","coordinates":[47.42,19.27,185]},"properties":{"stationId":"LHBP","rawText":"LHBP 131830Z 32004KT 9999 FEW030 BKN047 05/05 Q1013 NOSIG","observationTime":"2019-03-13T18:30:00Z","temp":5,"dewpoint":5,"windDirection":320,"windSpeed":7.408,"visibility":6.21,"altim":29.911417,"flightCategory":"VFR","metarType":"METAR","geometry_esri":{"x":47.42,"y":19.27,"z":185}}}