{"type":"Feature","geometry":{"type":"Point","coordinates":[47.42,19.27,185]},"properties":{"stationId":"LHBP","rawText":"LHBP 082030Z VRB02KT 4500 BR NSC M06/M08 Q1031 NOSIG","observationTime":"2020-01-08T20:30:00Z","temp":-6,"dewpoint":-8,"windDirection":0,"windSpeed":3.704,"visibility":2.8,"altim":30.442913,"flightCategory":"IFR","metarType":"METAR","geometry_esri":{"x":47.42,"y":19.27,"z":185}}}