{"type":"Feature","geometry":{"type":"Point","coordinates":[47.78,13.02,430]},"properties":{"stationId":"LOWS","rawText":"LOWS 070450Z VRB01KT 0400 R15/0500N R33/0550N FZFG VV002 M07/M08 Q1018 NOSIG","observationTime":"2019-02-07T04:50:00Z","temp":-7,"dewpoint":-8,"windDirection":0,"windSpeed":1.852,"visibility":0.25,"altim":30.059055,"flightCategory":"LIFR","metarType":"METAR","geometry_esri":{"x":47.78,"y":13.02,"z":430}}}