{"type":"Feature","geometry":{"type":"Point","coordinates":[47.42,19.27,185]},"properties":{"stationId":"LHBP","rawText":"LHBP 181430Z 10008KT 060V160 CAVOK 20/03 Q1027 NOSIG","observationTime":"2019-04-18T14:30:00Z","temp":20,"dewpoint":3,"windDirection":100,"windSpeed":14.816,"visibility":6.21,"altim":30.324802,"flightCategory":"VFR","metarType":"METAR","geometry_esri":{"x":47.42,"y":19.27,"z":185}}}