{"type":"Feature","geometry":{"type":"Point","coordinates":[47.47,21.62,112]},"properties":{"stationId":"LHDC","rawText":"LHDC 281434Z AUTO 11006KT 030V180 6000 TSRA FEW026 BKN076 //////CB 21/20 Q1002 RESHRA","observationTime":"2019-07-28T14:34:00Z","temp":21,"dewpoint":20,"windDirection":110,"windSpeed":11.112,"visibility":3.73,"altim":29.586615,"flightCategory":"MVFR","metarType":"SPECI","geometry_esri":{"x":47.47,"y":21.62,"z":112}}}