{"type":"Feature","geometry":{"type":"Point","coordinates":[47.42,19.27,185]},"properties":{"stationId":"LHBP","rawText":"LHBP 131230Z 21009KT 180V240 9999 SCT033 BKN090 21/16 Q1009 NOSIG","observationTime":"2019-07-13T12:30:00Z","temp":21,"dewpoint":16,"windDirection":210,"windSpeed":16.668,"visibility":6.21,"altim":29.793306,"flightCategory":"VFR","metarType":"METAR","geometry_esri":{"x":47.42,"y":19.27,"z":185}}}