{"type":"Feature","geometry":{"type":"Point","coordinates":[47.78,13.02,430]},"properties":{"stationId":"LOWS","rawText":"LOWS 161150Z 34011KT 310V010 9999 FEW045 24/13 Q1016 NOSIG","observationTime":"2019-07-16T11:50:00Z","temp":24,"dewpoint":13,"windDirection":340,"windSpeed":20.372,"visibility":6.21,"altim":30,"flightCategory":"VFR","metarType":"METAR","geometry_esri":{"x":47.78,"y":13.02,"z":430}}}