{"type":"Feature","geometry":{"type":"Point","coordinates":[47.78,13.02,430]},"properties":{"stationId":"LOWS","rawText":"LOWS 241950Z 16007KT 9999 FEW050 BKN250 19/17 Q1020 NOSIG","observationTime":"2019-08-24T19:50:00Z","temp":19,"dewpoint":17,"windDirection":160,"windSpeed":12.964,"visibility":6.21,"altim":30.11811,"flightCategory":"VFR","metarType":"METAR","geometry_esri":{"x":47.78,"y":13.02,"z":430}}}