{"type":"Feature","geometry":{"type":"Point","coordinates":[47.42,19.27,185]},"properties":{"stationId":"LHBP","rawText":"LHBP 171730Z 05006KT 360V080 CAVOK 16/05 Q1022 NOSIG","observationTime":"2019-04-17T17:30:00Z","temp":16,"dewpoint":5,"windDirection":50,"windSpeed":11.112,"visibility":6.21,"altim":30.177166,"flightCategory":"VFR","metarType":"METAR","geometry_esri":{"x":47.42,"y":19.27,"z":185}}}