{"type":"Feature","geometry":{"type":"Point","coordinates":[47.78,13.02,430]},"properties":{"stationId":"LOWS","rawText":"LOWS 241050Z VRB04KT 9999 FEW060 SCT300 19/06 Q1015 NOSIG","observationTime":"2019-05-24T10:50:00Z","temp":19,"dewpoint":6,"windDirection":0,"windSpeed":7.408,"visibility":6.21,"altim":29.970472,"flightCategory":"VFR","metarType":"METAR","geometry_esri":{"x":47.78,"y":13.02,"z":430}}}