{"type":"Feature","geometry":{"type":"Point","coordinates":[47.42,19.27,185]},"properties":{"stationId":"LHBP","rawText":"LHBP 280730Z 33015KT CAVOK 01/M03 Q1027 NOSIG","observationTime":"2019-12-28T07:30:00Z","temp":1,"dewpoint":-3,"windDirection":330,"windSpeed":27.78,"visibility":6.21,"altim":30.324802,"flightCategory":"VFR","metarType":"METAR","geometry_esri":{"x":47.42,"y":19.27,"z":185}}}