{"type":"Feature","geometry":{"type":"Point","coordinates":[47.42,19.27,185]},"properties":{"stationId":"LHBP","rawText":"LHBP 231130Z 08007KT 8000 -SG OVC008 M02/M02 Q1001 R13L/590422 R13R/590330 NOSIG","observationTime":"2019-01-23T11:30:00Z","temp":-2,"dewpoint":-2,"windDirection":80,"windSpeed":12.964,"visibility":4.97,"altim":29.557087,"flightCategory":"IFR","metarType":"METAR","geometry_esri":{"x":47.42,"y":19.27,"z":185}}}