{"type":"Feature","geometry":{"type":"Point","coordinates":[47.42,19.27,185]},"properties":{"stationId":"LHBP","rawText":"LHBP 192344Z 22004KT 6000 SHRA BKN004 SCT045CB OVC070 14/14 Q1005 RETSRA NOSIG","observationTime":"2019-05-19T23:44:00Z","temp":14,"dewpoint":14,"windDirection":220,"windSpeed":7.408,"visibility":3.73,"altim":29.675198,"flightCategory":"LIFR","metarType":"SPECI","geometry_esri":{"x":47.42,"y":19.27,"z":185}}}