{"type":"Feature","geometry":{"type":"Point","coordinates":[47.42,19.27,185]},"properties":{"stationId":"LHBP","rawText":"LHBP 181830Z 13012KT 9999 VCTS FEW045CB FEW050 BKN220 24/19 Q1015 TEMPO -SHRA FEW045TCU BKN110","observationTime":"2019-06-18T18:30:00Z","temp":24,"dewpoint":19,"windDirection":130,"windSpeed":22.224,"visibility":6.21,"altim":29.970472,"flightCategory":"VFR","metarType":"SPECI","geometry_esri":{"x":47.42,"y":19.27,"z":185}}}