{"type":"Feature","geometry":{"type":"Point","coordinates":[47.42,19.27,185]},"properties":{"stationId":"LHBP","rawText":"LHBP 240730Z 10004KT 0100 R13R/0275N R13L/0275N FZFG VV001 M04/M04 Q1030 NOSIG","observationTime":"2020-01-24T07:30:00Z","temp":-4,"dewpoint":-4,"windDirection":100,"windSpeed":7.408,"visibility":0.06,"altim":30.413385,"flightCategory":"LIFR","metarType":"SPECI","geometry_esri":{"x":47.42,"y":19.27,"z":185}}}