{"type":"Feature","geometry":{"type":"Point","coordinates":[47.42,19.27,185]},"properties":{"stationId":"LHBP","rawText":"LHBP 170430Z 11007KT 9000 NSC 02/01 Q1022 NOSIG","observationTime":"2020-02-17T04:30:00Z","temp":2,"dewpoint":1,"windDirection":110,"windSpeed":12.964,"visibility":5.59,"altim":30.177166,"flightCategory":"VFR","metarType":"METAR","geometry_esri":{"x":47.42,"y":19.27,"z":185}}}