{"type":"Feature","geometry":{"type":"Point","coordinates":[47.47,21.62,112]},"properties":{"stationId":"LHDC","rawText":"LHDC 071935Z AUTO 09002KT 5000 BR NCD M04/M06 Q1031","observationTime":"2020-01-07T19:35:00Z","temp":-4,"dewpoint":-6,"windDirection":90,"windSpeed":3.704,"visibility":3.11,"altim":30.442913,"flightCategory":"MVFR","metarType":"SPECI","geometry_esri":{"x":47.47,"y":21.62,"z":112}}}