{"type":"Feature","geometry":{"type":"Point","coordinates":[47.42,19.27,185]},"properties":{"stationId":"LHBP","rawText":"LHBP 200230Z 36005KT 330V040 CAVOK 06/M04 Q1019 NOSIG","observationTime":"2020-04-20T02:30:00Z","temp":6,"dewpoint":-4,"windDirection":360,"windSpeed":9.26,"visibility":6.21,"altim":30.088583,"flightCategory":"VFR","metarType":"METAR","geometry_esri":{"x":47.42,"y":19.27,"z":185}}}