{"type":"Feature","geometry":{"type":"Point","coordinates":[47.42,19.27,185]},"properties":{"stationId":"LHBP","rawText":"LHBP 081530Z 32006KT CAVOK 19/09 Q1003 NOSIG","observationTime":"2019-04-08T15:30:00Z","temp":19,"dewpoint":9,"windDirection":320,"windSpeed":11.112,"visibility":6.21,"altim":29.616142,"flightCategory":"VFR","metarType":"METAR","geometry_esri":{"x":47.42,"y":19.27,"z":185}}}