{"type":"Feature","geometry":{"type":"Point","coordinates":[47.42,19.27,185]},"properties":{"stationId":"LHBP","rawText":"LHBP 121130Z 31011KT 280V350 9999 SCT047 09/M02 Q1021 NOSIG","observationTime":"2019-03-12T11:30:00Z","temp":9,"dewpoint":-2,"windDirection":310,"windSpeed":20.372,"visibility":6.21,"altim":30.147638,"flightCategory":"VFR","metarType":"METAR","geometry_esri":{"x":47.42,"y":19.27,"z":185}}}