{"type":"Feature","geometry":{"type":"Point","coordinates":[47.47,21.62,112]},"properties":{"stationId":"LHDC","rawText":"LHDC 250131Z AUTO 07002KT 5000 BR NCD 08/07 Q1017","observationTime":"2019-10-25T01:31:00Z","temp":8,"dewpoint":7,"windDirection":70,"windSpeed":3.704,"visibility":3.11,"altim":30.029528,"flightCategory":"MVFR","metarType":"SPECI","geometry_esri":{"x":47.47,"y":21.62,"z":112}}}