{"type":"Feature","geometry":{"type":"Point","coordinates":[47.42,19.27,185]},"properties":{"stationId":"LHBP","rawText":"LHBP 171700Z VRB01KT 1800 0800E R31R/1400D FZBCFG BR FEW002 BKN230 M08/M08 Q1025 R88/19//95 TEMPO 1000 FZBCFG BR","observationTime":"2018-12-17T17:00:00Z","temp":-8,"dewpoint":-8,"windDirection":0,"windSpeed":1.852,"visibility":1.12,"altim":30.265747,"flightCategory":"IFR","metarType":"METAR","geometry_esri":{"x":47.42,"y":19.27,"z":185}}}