{"type":"Feature","geometry":{"type":"Point","coordinates":[47.78,13.02,430]},"properties":{"stationId":"LOWS","rawText":"LOWS 070450Z VRB01KT CAVOK 02/01 Q1003 NOSIG","observationTime":"2019-04-07T04:50:00Z","temp":2,"dewpoint":1,"windDirection":0,"windSpeed":1.852,"visibility":6.21,"altim":29.616142,"flightCategory":"VFR","metarType":"METAR","geometry_esri":{"x":47.78,"y":13.02,"z":430}}}