{"type":"Feature","geometry":{"type":"Point","coordinates":[47.42,19.27,185]},"properties":{"stationId":"LHBP","rawText":"LHBP 272130Z 15007KT CAVOK 16/15 Q1016 NOSIG","observationTime":"2019-09-27T21:30:00Z","temp":16,"dewpoint":15,"windDirection":150,"windSpeed":12.964,"visibility":6.21,"altim":30,"flightCategory":"VFR","metarType":"METAR","geometry_esri":{"x":47.42,"y":19.27,"z":185}}}