{"type":"Feature","geometry":{"type":"Point","coordinates":[47.42,19.27,185]},"properties":{"stationId":"LHBP","rawText":"LHBP 292130Z VRB01KT 9999 SCT043 BKN070 M00/M00 Q1007 R88/19//95 TEMPO 4000 -SN","observationTime":"2019-01-29T21:30:00Z","temp":0,"dewpoint":0,"windDirection":0,"windSpeed":1.852,"visibility":6.21,"altim":29.734253,"flightCategory":"VFR","metarType":"METAR","geometry_esri":{"x":47.42,"y":19.27,"z":185}}}