{"type":"Feature","geometry":{"type":"Point","coordinates":[47.42,19.27,185]},"properties":{"stationId":"LHBP","rawText":"LHBP 131230Z 14020KT CAVOK 18/10 Q0998 NOSIG","observationTime":"2019-11-13T12:30:00Z","temp":18,"dewpoint":10,"windDirection":140,"windSpeed":37.04,"visibility":6.21,"altim":29.468504,"flightCategory":"VFR","metarType":"METAR","geometry_esri":{"x":47.42,"y":19.27,"z":185}}}