{"type":"Feature","geometry":{"type":"Point","coordinates":[47.42,19.27,185]},"properties":{"stationId":"LHBP","rawText":"LHBP 211730Z 29007KT CAVOK 18/00 Q1017 NOSIG","observationTime":"2019-04-21T17:30:00Z","temp":18,"dewpoint":0,"windDirection":290,"windSpeed":12.964,"visibility":6.21,"altim":30.029528,"flightCategory":"VFR","metarType":"METAR","geometry_esri":{"x":47.42,"y":19.27,"z":185}}}