{"type":"Feature","geometry":{"type":"Point","coordinates":[47.78,13.02,430]},"properties":{"stationId":"LOWS","rawText":"LOWS 281550Z 24006KT 9999 -RA FEW026 BKN065 20/18 Q1002 NOSIG","observationTime":"2019-07-28T15:50:00Z","temp":20,"dewpoint":18,"windDirection":240,"windSpeed":11.112,"visibility":6.21,"altim":29.586615,"flightCategory":"VFR","metarType":"METAR","geometry_esri":{"x":47.78,"y":13.02,"z":430}}}