{"type":"Feature","geometry":{"type":"Point","coordinates":[47.78,13.02,430]},"properties":{"stationId":"LOWS","rawText":"LOWS 051550Z 03010KT 360V070 CAVOK 18/01 Q1021 NOSIG","observationTime":"2020-04-05T15:50:00Z","temp":18,"dewpoint":1,"windDirection":30,"windSpeed":18.52,"visibility":6.21,"altim":30.147638,"flightCategory":"VFR","metarType":"METAR","geometry_esri":{"x":47.78,"y":13.02,"z":430}}}