{"type":"Feature","geometry":{"type":"Point","coordinates":[47.78,13.02,430]},"properties":{"stationId":"LOWS","rawText":"LOWS 092150Z AUTO 15002KT 9999 FEW090 SCT120 BKN170 09/06 Q1007","observationTime":"2019-04-09T21:50:00Z","temp":9,"dewpoint":6,"windDirection":150,"windSpeed":3.704,"visibility":6.21,"altim":29.734253,"flightCategory":"VFR","metarType":"METAR","geometry_esri":{"x":47.78,"y":13.02,"z":430}}}