{"type":"Feature","geometry":{"type":"Point","coordinates":[47.42,19.27,185]},"properties":{"stationId":"LHBP","rawText":"LHBP 162330Z VRB02KT 3000 BCFG BR SCT027 05/05 Q1013 TEMPO 1500 BCFG BR","observationTime":"2019-05-16T23:30:00Z","temp":5,"dewpoint":5,"windDirection":0,"windSpeed":3.704,"visibility":1.86,"altim":29.911417,"flightCategory":"IFR","metarType":"SPECI","geometry_esri":{"x":47.42,"y":19.27,"z":185}}}