{"type":"Feature","geometry":{"type":"Point","coordinates":[47.42,19.27,185]},"properties":{"stationId":"LHBP","rawText":"LHBP 031430Z 01004KT 9999 SCT028 BKN090 10/09 Q1006 TEMPO FM1500 4000 RA","observationTime":"2019-02-03T14:30:00Z","temp":10,"dewpoint":9,"windDirection":10,"windSpeed":7.408,"visibility":6.21,"altim":29.704725,"flightCategory":"VFR","metarType":"SPECI","geometry_esri":{"x":47.42,"y":19.27,"z":185}}}