{"type":"Feature","geometry":{"type":"Point","coordinates":[47.42,19.27,185]},"properties":{"stationId":"LHBP","rawText":"LHBP 100330Z 33006KT CAVOK M01/M03 Q1014 NOSIG","observationTime":"2020-03-10T03:30:00Z","temp":-1,"dewpoint":-3,"windDirection":330,"windSpeed":11.112,"visibility":6.21,"altim":29.940945,"flightCategory":"VFR","metarType":"METAR","geometry_esri":{"x":47.42,"y":19.27,"z":185}}}