{"type":"Feature","geometry":{"type":"Point","coordinates":[47.42,19.27,185]},"properties":{"stationId":"LHBP","rawText":"LHBP 201130Z 18011KT 150V230 9999 FEW044 24/12 Q1017 NOSIG","observationTime":"2019-10-20T11:30:00Z","temp":24,"dewpoint":12,"windDirection":180,"windSpeed":20.372,"visibility":6.21,"altim":30.029528,"flightCategory":"VFR","metarType":"METAR","geometry_esri":{"x":47.42,"y":19.27,"z":185}}}