{"type":"Feature","geometry":{"type":"Point","coordinates":[47.42,19.27,185]},"properties":{"stationId":"LHBP","rawText":"LHBP 161630Z 03004KT 2700 BR OVC004 M00/M00 Q1032 NOSIG","observationTime":"2020-01-16T16:30:00Z","temp":0,"dewpoint":0,"windDirection":30,"windSpeed":7.408,"visibility":1.68,"altim":30.47244,"flightCategory":"LIFR","metarType":"METAR","geometry_esri":{"x":47.42,"y":19.27,"z":185}}}