{"type":"Feature","geometry":{"type":"Point","coordinates":[47.42,19.27,185]},"properties":{"stationId":"LHBP","rawText":"LHBP 011430Z 28012KT 9999 FEW037 SCT080 13/05 Q1008 NOSIG","observationTime":"2019-03-01T14:30:00Z","temp":13,"dewpoint":5,"windDirection":280,"windSpeed":22.224,"visibility":6.21,"altim":29.763779,"flightCategory":"VFR","metarType":"METAR","geometry_esri":{"x":47.42,"y":19.27,"z":185}}}