{"type":"Feature","geometry":{"type":"Point","coordinates":[47.42,19.27,185]},"properties":{"stationId":"LHBP","rawText":"LHBP 180130Z 35004KT CAVOK 16/15 Q1017 NOSIG","observationTime":"2019-06-18T01:30:00Z","temp":16,"dewpoint":15,"windDirection":350,"windSpeed":7.408,"visibility":6.21,"altim":30.029528,"flightCategory":"VFR","metarType":"METAR","geometry_esri":{"x":47.42,"y":19.27,"z":185}}}