{"type":"Feature","geometry":{"type":"Point","coordinates":[47.42,19.27,185]},"properties":{"stationId":"LHBP","rawText":"LHBP 051130Z 12016KT CAVOK 18/03 Q1006 NOSIG","observationTime":"2019-04-05T11:30:00Z","temp":18,"dewpoint":3,"windDirection":120,"windSpeed":29.632,"visibility":6.21,"altim":29.704725,"flightCategory":"VFR","metarType":"METAR","geometry_esri":{"x":47.42,"y":19.27,"z":185}}}