{"type":"Feature","geometry":{"type":"Point","coordinates":[47.78,13.02,430]},"properties":{"stationId":"LOWS","rawText":"LOWS 041950Z 16007KT 9999 RA FEW018 SCT030 BKN050 09/08 Q1010 TEMPO 25010KT -RA","observationTime":"2019-10-04T19:50:00Z","temp":9,"dewpoint":8,"windDirection":160,"windSpeed":12.964,"visibility":6.21,"altim":29.822834,"flightCategory":"VFR","metarType":"METAR","geometry_esri":{"x":47.78,"y":13.02,"z":430}}}