{"type":"Feature","geometry":{"type":"Point","coordinates":[47.42,19.27,185]},"properties":{"stationId":"LHBP","rawText":"LHBP 281430Z VRB03KT 1200 R31L/1400N R31R/1300N +SN BR BKN003 OVC012 00/00 Q0997 R13L/590395 R13R/690395 BECMG 1800 SN","observationTime":"2019-01-28T14:30:00Z","temp":0,"dewpoint":0,"windDirection":0,"windSpeed":5.556,"visibility":0.75,"altim":29.438976,"flightCategory":"LIFR","metarType":"METAR","geometry_esri":{"x":47.42,"y":19.27,"z":185}}}