{"type":"Feature","geometry":{"type":"Point","coordinates":[47.42,19.27,185]},"properties":{"stationId":"LHBP","rawText":"LHBP 302130Z AUTO 13004KT 080V150 9999 BKN054/// BKN065/// OVC190/// 01/M07 Q1023 NOSIG","observationTime":"2020-03-30T21:30:00Z","temp":1,"dewpoint":-7,"windDirection":130,"windSpeed":7.408,"visibility":6.21,"altim":30.206694,"flightCategory":"VFR","metarType":"METAR","geometry_esri":{"x":47.42,"y":19.27,"z":185}}}