{"type":"Feature","geometry":{"type":"Point","coordinates":[47.42,19.27,185]},"properties":{"stationId":"LHBP","rawText":"LHBP 201630Z 11009KT CAVOK 07/05 Q1007 NOSIG","observationTime":"2019-12-20T16:30:00Z","temp":7,"dewpoint":5,"windDirection":110,"windSpeed":16.668,"visibility":6.21,"altim":29.734253,"flightCategory":"VFR","metarType":"METAR","geometry_esri":{"x":47.42,"y":19.27,"z":185}}}