{"type":"Feature","geometry":{"type":"Point","coordinates":[47.78,13.02,430]},"properties":{"stationId":"LOWS","rawText":"LOWS 191350Z 32004KT 280V350 9999 FEW100 BKN300 10/06 Q1013 NOSIG","observationTime":"2019-12-19T13:50:00Z","temp":10,"dewpoint":6,"windDirection":320,"windSpeed":7.408,"visibility":6.21,"altim":29.911417,"flightCategory":"VFR","metarType":"METAR","geometry_esri":{"x":47.78,"y":13.02,"z":430}}}