{"type":"Feature","geometry":{"type":"Point","coordinates":[47.78,13.02,430]},"properties":{"stationId":"LOWS","rawText":"LOWS 050150Z AUTO 32004KT 0250 R15/0375N R33/0400D FZFG FEW001 M08/M09 Q1027","observationTime":"2019-02-05T01:50:00Z","temp":-8,"dewpoint":-9,"windDirection":320,"windSpeed":7.408,"visibility":0.16,"altim":30.324802,"flightCategory":"LIFR","metarType":"METAR","geometry_esri":{"x":47.78,"y":13.02,"z":430}}}