{"type":"Feature","geometry":{"type":"Point","coordinates":[47.42,19.27,185]},"properties":{"stationId":"LHBP","rawText":"LHBP 042030Z 12004KT 4000 BR SCT007 OVC010 M02/M03 Q1032 NOSIG","observationTime":"2019-12-04T20:30:00Z","temp":-2,"dewpoint":-3,"windDirection":120,"windSpeed":7.408,"visibility":2.49,"altim":30.47244,"flightCategory":"IFR","metarType":"METAR","geometry_esri":{"x":47.42,"y":19.27,"z":185}}}