{"type":"Feature","geometry":{"type":"Point","coordinates":[47.78,13.02,430]},"properties":{"stationId":"LOWS","rawText":"LOWS 281650Z 30010KT 260V320 9999 FEW044 BKN090 05/M03 Q1005 TEMPO SHRA","observationTime":"2020-01-28T16:50:00Z","temp":5,"dewpoint":-3,"windDirection":300,"windSpeed":18.52,"visibility":6.21,"altim":29.675198,"flightCategory":"VFR","metarType":"METAR","geometry_esri":{"x":47.78,"y":13.02,"z":430}}}