{"type":"Feature","geometry":{"type":"Point","coordinates":[47.78,13.02,430]},"properties":{"stationId":"LOWS","rawText":"LOWS 070750Z 30007KT 7000 -RA FEW003 BKN005 06/05 Q1017 TEMPO 4500 RA BECMG BKN014","observationTime":"2019-10-07T07:50:00Z","temp":6,"dewpoint":5,"windDirection":300,"windSpeed":12.964,"visibility":4.35,"altim":30.029528,"flightCategory":"IFR","metarType":"METAR","geometry_esri":{"x":47.78,"y":13.02,"z":430}}}