{"type":"Feature","geometry":{"type":"Point","coordinates":[47.42,19.27,185]},"properties":{"stationId":"LHBP","rawText":"LHBP 181930Z 31002KT 1800 -FZDZ BR OVC006 M01/M01 Q1025 TEMPO 1400 BR OVC004","observationTime":"2020-01-18T19:30:00Z","temp":-1,"dewpoint":-1,"windDirection":310,"windSpeed":3.704,"visibility":1.12,"altim":30.265747,"flightCategory":"IFR","metarType":"METAR","geometry_esri":{"x":47.42,"y":19.27,"z":185}}}