{"type":"Feature","geometry":{"type":"Point","coordinates":[47.78,13.02,430]},"properties":{"stationId":"LOWS","rawText":"LOWS 251950Z 23004KT CAVOK 25/20 Q1023 NOSIG","observationTime":"2019-06-25T19:50:00Z","temp":25,"dewpoint":20,"windDirection":230,"windSpeed":7.408,"visibility":6.21,"altim":30.206694,"flightCategory":"VFR","metarType":"METAR","geometry_esri":{"x":47.78,"y":13.02,"z":430}}}