{"type":"Feature","geometry":{"type":"Point","coordinates":[47.42,19.27,185]},"properties":{"stationId":"LHBP","rawText":"LHBP 220430Z 36004KT CAVOK 03/02 Q1015 NOSIG","observationTime":"2019-04-22T04:30:00Z","temp":3,"dewpoint":2,"windDirection":360,"windSpeed":7.408,"visibility":6.21,"altim":29.970472,"flightCategory":"VFR","metarType":"METAR","geometry_esri":{"x":47.42,"y":19.27,"z":185}}}