{"type":"Feature","geometry":{"type":"Point","coordinates":[47.78,13.02,430]},"properties":{"stationId":"LOWS","rawText":"LOWS 040550Z 15003KT 110V190 9999 -RA FEW025 SCT032 BKN050 08/07 Q1007 NOSIG","observationTime":"2019-05-04T05:50:00Z","temp":8,"dewpoint":7,"windDirection":150,"windSpeed":5.556,"visibility":6.21,"altim":29.734253,"flightCategory":"VFR","metarType":"METAR","geometry_esri":{"x":47.78,"y":13.02,"z":430}}}