{"type":"Feature","geometry":{"type":"Point","coordinates":[47.78,13.02,430]},"properties":{"stationId":"LOWS","rawText":"LOWS 230650Z 23007KT 200V260 9999 -RA FEW013 SCT024 BKN034 06/04 Q1025 NOSIG","observationTime":"2018-12-23T06:50:00Z","temp":6,"dewpoint":4,"windDirection":230,"windSpeed":12.964,"visibility":6.21,"altim":30.265747,"flightCategory":"VFR","metarType":"METAR","geometry_esri":{"x":47.78,"y":13.02,"z":430}}}