{"type":"Feature","geometry":{"type":"Point","coordinates":[47.42,19.27,185]},"properties":{"stationId":"LHBP","rawText":"LHBP 172030Z 08003KT 040V100 1200 R13R/P2000N R13L/1500U BR BKN002 OVC005 M03/M03 Q1027 NOSIG","observationTime":"2020-01-17T20:30:00Z","temp":-3,"dewpoint":-3,"windDirection":80,"windSpeed":5.556,"visibility":0.75,"altim":30.324802,"flightCategory":"LIFR","metarType":"METAR","geometry_esri":{"x":47.42,"y":19.27,"z":185}}}