{"type":"Feature","geometry":{"type":"Point","coordinates":[47.42,19.27,185]},"properties":{"stationId":"LHBP","rawText":"LHBP 010830Z 21006KT 170V240 CAVOK 17/10 Q1015 NOSIG","observationTime":"2019-10-01T08:30:00Z","temp":17,"dewpoint":10,"windDirection":210,"windSpeed":11.112,"visibility":6.21,"altim":29.970472,"flightCategory":"VFR","metarType":"METAR","geometry_esri":{"x":47.42,"y":19.27,"z":185}}}