{"type":"Feature","geometry":{"type":"Point","coordinates":[47.42,19.27,185]},"properties":{"stationId":"LHBP","rawText":"LHBP 101530Z 08009KT 9999 FEW050TCU 20/08 Q1005 NOSIG","observationTime":"2019-04-10T15:30:00Z","temp":20,"dewpoint":8,"windDirection":80,"windSpeed":16.668,"visibility":6.21,"altim":29.675198,"flightCategory":"VFR","metarType":"METAR","geometry_esri":{"x":47.42,"y":19.27,"z":185}}}