{"type":"Feature","geometry":{"type":"Point","coordinates":[47.78,13.02,430]},"properties":{"stationId":"LOWS","rawText":"LOWS 130450Z 28009KT 240V330 8000 -SHRA FEW009 SCT014 BKN025 03/00 Q1012 R15/19//95 TEMPO 4000 SHRASN","observationTime":"2019-01-13T04:50:00Z","temp":3,"dewpoint":0,"windDirection":280,"windSpeed":16.668,"visibility":4.97,"altim":29.88189,"flightCategory":"MVFR","metarType":"METAR","geometry_esri":{"x":47.78,"y":13.02,"z":430}}}