{"type":"Feature","geometry":{"type":"Point","coordinates":[47.42,19.27,185]},"properties":{"stationId":"LHBP","rawText":"LHBP 161630Z 29008KT 9999 FEW043CB BKN110 23/14 Q1015 NOSIG","observationTime":"2019-08-16T16:30:00Z","temp":23,"dewpoint":14,"windDirection":290,"windSpeed":14.816,"visibility":6.21,"altim":29.970472,"flightCategory":"VFR","metarType":"METAR","geometry_esri":{"x":47.42,"y":19.27,"z":185}}}