{"type":"Feature","geometry":{"type":"Point","coordinates":[47.78,13.02,430]},"properties":{"stationId":"LOWS","rawText":"LOWS 070250Z AUTO 14011KT 9999 NCD 09/M00 Q1028","observationTime":"2020-04-07T02:50:00Z","temp":9,"dewpoint":0,"windDirection":140,"windSpeed":20.372,"visibility":6.21,"altim":30.35433,"flightCategory":"VFR","metarType":"METAR","geometry_esri":{"x":47.78,"y":13.02,"z":430}}}