{"type":"Feature","geometry":{"type":"Point","coordinates":[47.42,19.27,185]},"properties":{"stationId":"LHBP","rawText":"LHBP 250830Z 09013KT 9999 BKN049 03/M07 Q1029 NOSIG","observationTime":"2020-03-25T08:30:00Z","temp":3,"dewpoint":-7,"windDirection":90,"windSpeed":24.076,"visibility":6.21,"altim":30.383858,"flightCategory":"VFR","metarType":"METAR","geometry_esri":{"x":47.42,"y":19.27,"z":185}}}