{"type":"Feature","geometry":{"type":"Point","coordinates":[47.78,13.02,430]},"properties":{"stationId":"LOWS","rawText":"LOWS 192150Z 22003KT 6000 FEW030 BKN060 M00/M00 Q1040 R15/290195 TEMPO 4500 BR","observationTime":"2020-01-19T21:50:00Z","temp":0,"dewpoint":0,"windDirection":220,"windSpeed":5.556,"visibility":3.73,"altim":30.708662,"flightCategory":"MVFR","metarType":"METAR","geometry_esri":{"x":47.78,"y":13.02,"z":430}}}