{"type":"Feature","geometry":{"type":"Point","coordinates":[47.42,19.27,185]},"properties":{"stationId":"LHBP","rawText":"LHBP 311130Z 27006KT 200V330 CAVOK 19/M03 Q1018 NOSIG","observationTime":"2019-03-31T11:30:00Z","temp":19,"dewpoint":-3,"windDirection":270,"windSpeed":11.112,"visibility":6.21,"altim":30.059055,"flightCategory":"VFR","metarType":"METAR","geometry_esri":{"x":47.42,"y":19.27,"z":185}}}