{"type":"Feature","geometry":{"type":"Point","coordinates":[47.78,13.02,430]},"properties":{"stationId":"LOWS","rawText":"LOWS 062350Z AUTO 17011KT 140V200 9999 FEW250 02/M02 Q1016","observationTime":"2019-12-06T23:50:00Z","temp":2,"dewpoint":-2,"windDirection":170,"windSpeed":20.372,"visibility":6.21,"altim":30,"flightCategory":"VFR","metarType":"METAR","geometry_esri":{"x":47.78,"y":13.02,"z":430}}}