{"type":"Feature","geometry":{"type":"Point","coordinates":[47.78,13.02,430]},"properties":{"stationId":"LOWS","rawText":"LOWS 302050Z 04005KT 9999 FEW010 BKN023 BKN090 05/04 Q1023 NOSIG","observationTime":"2019-10-30T20:50:00Z","temp":5,"dewpoint":4,"windDirection":40,"windSpeed":9.26,"visibility":6.21,"altim":30.206694,"flightCategory":"MVFR","metarType":"METAR","geometry_esri":{"x":47.78,"y":13.02,"z":430}}}