{"type":"Feature","geometry":{"type":"Point","coordinates":[47.42,19.27,185]},"properties":{"stationId":"LHBP","rawText":"LHBP 100530Z 10004KT CAVOK 16/08 Q1011 NOSIG","observationTime":"2020-05-10T05:30:00Z","temp":16,"dewpoint":8,"windDirection":100,"windSpeed":7.408,"visibility":6.21,"altim":29.852362,"flightCategory":"VFR","metarType":"METAR","geometry_esri":{"x":47.42,"y":19.27,"z":185}}}