{"type":"Feature","geometry":{"type":"Point","coordinates":[47.42,19.27,185]},"properties":{"stationId":"LHBP","rawText":"LHBP 051830Z VRB03KT 9999 FEW012 SCT084 01/01 Q1012 R13L/650195 R13R/29//95 BECMG 33012G22KT CAVOK","observationTime":"2019-01-05T18:30:00Z","temp":1,"dewpoint":1,"windDirection":0,"windSpeed":5.556,"visibility":6.21,"altim":29.88189,"flightCategory":"VFR","metarType":"SPECI","geometry_esri":{"x":47.42,"y":19.27,"z":185}}}