{"type":"Feature","geometry":{"type":"Point","coordinates":[47.78,13.02,430]},"properties":{"stationId":"LOWS","rawText":"LOWS 061150Z 27004KT 220V320 9999 -RASN FEW006 SCT017 BKN023 02/00 Q1027 R15/29//95 TEMPO 4000 RASN","observationTime":"2019-01-06T11:50:00Z","temp":2,"dewpoint":0,"windDirection":270,"windSpeed":7.408,"visibility":6.21,"altim":30.324802,"flightCategory":"MVFR","metarType":"METAR","geometry_esri":{"x":47.78,"y":13.02,"z":430}}}