{"type":"Feature","geometry":{"type":"Point","coordinates":[47.78,13.02,430]},"properties":{"stationId":"LOWS","rawText":"LOWS 280450Z 01004KT 6000 -DZ FEW002 BKN008 BKN035 13/12 Q1006 TEMPO 4000","observationTime":"2019-05-28T04:50:00Z","temp":13,"dewpoint":12,"windDirection":10,"windSpeed":7.408,"visibility":3.73,"altim":29.704725,"flightCategory":"IFR","metarType":"METAR","geometry_esri":{"x":47.78,"y":13.02,"z":430}}}