{"type":"Feature","geometry":{"type":"Point","coordinates":[47.42,19.27,185]},"properties":{"stationId":"LHBP","rawText":"LHBP 201740Z VRB02KT 9999 R13L///// VCTS FEW035CB SCT100 23/22 Q1012 TEMPO 5000 TSRA","observationTime":"2019-06-20T17:40:00Z","temp":23,"dewpoint":22,"windDirection":0,"windSpeed":3.704,"visibility":6.21,"altim":29.88189,"flightCategory":"VFR","metarType":"SPECI","geometry_esri":{"x":47.42,"y":19.27,"z":185}}}