{"type":"Feature","geometry":{"type":"Point","coordinates":[47.42,19.27,185]},"properties":{"stationId":"LHBP","rawText":"LHBP 091830Z 28007KT CAVOK 16/09 Q1005 NOSIG","observationTime":"2019-04-09T18:30:00Z","temp":16,"dewpoint":9,"windDirection":280,"windSpeed":12.964,"visibility":6.21,"altim":29.675198,"flightCategory":"VFR","metarType":"METAR","geometry_esri":{"x":47.42,"y":19.27,"z":185}}}