{"type":"Feature","geometry":{"type":"Point","coordinates":[47.42,19.27,185]},"properties":{"stationId":"LHBP","rawText":"LHBP 181030Z VRB03KT 7000 NSC 10/04 Q1025 NOSIG","observationTime":"2019-02-18T10:30:00Z","temp":10,"dewpoint":4,"windDirection":0,"windSpeed":5.556,"visibility":4.35,"altim":30.265747,"flightCategory":"MVFR","metarType":"METAR","geometry_esri":{"x":47.42,"y":19.27,"z":185}}}