{"type":"Feature","geometry":{"type":"Point","coordinates":[47.42,19.27,185]},"properties":{"stationId":"LHBP","rawText":"LHBP 130830Z 12004KT 070V160 CAVOK 17/14 Q1022 NOSIG","observationTime":"2019-10-13T08:30:00Z","temp":17,"dewpoint":14,"windDirection":120,"windSpeed":7.408,"visibility":6.21,"altim":30.177166,"flightCategory":"VFR","metarType":"METAR","geometry_esri":{"x":47.42,"y":19.27,"z":185}}}