{"type":"Feature","geometry":{"type":"Point","coordinates":[47.78,13.02,430]},"properties":{"stationId":"LOWS","rawText":"LOWS 091250Z 15008KT 110V180 9999 FEW040 SCT060 BKN300 15/06 Q1003 TEMPO 32015G35KT TSRA","observationTime":"2019-05-09T12:50:00Z","temp":15,"dewpoint":6,"windDirection":150,"windSpeed":14.816,"visibility":6.21,"altim":29.616142,"flightCategory":"VFR","metarType":"METAR","geometry_esri":{"x":47.78,"y":13.02,"z":430}}}