{"type":"Feature","geometry":{"type":"Point","coordinates":[47.42,19.27,185]},"properties":{"stationId":"LHBP","rawText":"LHBP 092330Z 34003KT 310V020 8000 SCT012 BKN035 08/07 Q1010 NOSIG","observationTime":"2019-11-09T23:30:00Z","temp":8,"dewpoint":7,"windDirection":340,"windSpeed":5.556,"visibility":4.97,"altim":29.822834,"flightCategory":"MVFR","metarType":"METAR","geometry_esri":{"x":47.42,"y":19.27,"z":185}}}