{"type":"Feature","geometry":{"type":"Point","coordinates":[47.78,13.02,430]},"properties":{"stationId":"LOWS","rawText":"LOWS 051950Z 20003KT 170V240 9999 SCT035 05/03 Q1003 NOSIG","observationTime":"2019-04-05T19:50:00Z","temp":5,"dewpoint":3,"windDirection":200,"windSpeed":5.556,"visibility":6.21,"altim":29.616142,"flightCategory":"VFR","metarType":"METAR","geometry_esri":{"x":47.78,"y":13.02,"z":430}}}