{"type":"Feature","geometry":{"type":"Point","coordinates":[47.42,19.27,185]},"properties":{"stationId":"LHBP","rawText":"LHBP 301030Z 33005KT 300V010 9999 BKN047 OVC065 10/03 Q1026 NOSIG","observationTime":"2019-10-30T10:30:00Z","temp":10,"dewpoint":3,"windDirection":330,"windSpeed":9.26,"visibility":6.21,"altim":30.295275,"flightCategory":"VFR","metarType":"METAR","geometry_esri":{"x":47.42,"y":19.27,"z":185}}}