{"type":"Feature","geometry":{"type":"Point","coordinates":[47.78,13.02,430]},"properties":{"stationId":"LOWS","rawText":"LOWS 141550Z 19003KT 160V230 CAVOK 18/12 Q1014 NOSIG","observationTime":"2019-10-14T15:50:00Z","temp":18,"dewpoint":12,"windDirection":190,"windSpeed":5.556,"visibility":6.21,"altim":29.940945,"flightCategory":"VFR","metarType":"METAR","geometry_esri":{"x":47.78,"y":13.02,"z":430}}}