{"type":"Feature","geometry":{"type":"Point","coordinates":[47.42,19.27,185]},"properties":{"stationId":"LHBP","rawText":"LHBP 061030Z 07008KT 040V150 CAVOK 25/14 Q1020 NOSIG","observationTime":"2019-09-06T10:30:00Z","temp":25,"dewpoint":14,"windDirection":70,"windSpeed":14.816,"visibility":6.21,"altim":30.11811,"flightCategory":"VFR","metarType":"METAR","geometry_esri":{"x":47.42,"y":19.27,"z":185}}}