{"type":"Feature","geometry":{"type":"Point","coordinates":[47.42,19.27,185]},"properties":{"stationId":"LHBP","rawText":"LHBP 140830Z 04005KT 330V100 9999 SCT026 SCT120 20/14 Q1010 BECMG SCT030TCU SCT035","observationTime":"2019-07-14T08:30:00Z","temp":20,"dewpoint":14,"windDirection":40,"windSpeed":9.26,"visibility":6.21,"altim":29.822834,"flightCategory":"VFR","metarType":"METAR","geometry_esri":{"x":47.42,"y":19.27,"z":185}}}