{"type":"Feature","geometry":{"type":"Point","coordinates":[47.78,13.02,430]},"properties":{"stationId":"LOWS","rawText":"LOWS 090150Z AUTO 15011KT 9999 NCD 10/00 Q1022","observationTime":"2020-04-09T01:50:00Z","temp":10,"dewpoint":0,"windDirection":150,"windSpeed":20.372,"visibility":6.21,"altim":30.177166,"flightCategory":"VFR","metarType":"METAR","geometry_esri":{"x":47.78,"y":13.02,"z":430}}}