{"type":"Feature","geometry":{"type":"Point","coordinates":[47.78,13.02,430]},"properties":{"stationId":"LOWS","rawText":"LOWS 290850Z 14014KT 9999 FEW070 BKN090 05/M04 Q1006 NOSIG","observationTime":"2020-02-29T08:50:00Z","temp":5,"dewpoint":-4,"windDirection":140,"windSpeed":25.928,"visibility":6.21,"altim":29.704725,"flightCategory":"VFR","metarType":"METAR","geometry_esri":{"x":47.78,"y":13.02,"z":430}}}