{"type":"Feature","geometry":{"type":"Point","coordinates":[47.78,13.02,430]},"properties":{"stationId":"LOWS","rawText":"LOWS 070950Z VRB04KT 9999 FEW060 15/02 Q1024 NOSIG","observationTime":"2020-05-07T09:50:00Z","temp":15,"dewpoint":2,"windDirection":0,"windSpeed":7.408,"visibility":6.21,"altim":30.236221,"flightCategory":"VFR","metarType":"METAR","geometry_esri":{"x":47.78,"y":13.02,"z":430}}}