{"type":"Feature","geometry":{"type":"Point","coordinates":[47.42,19.27,185]},"properties":{"stationId":"LHBP","rawText":"LHBP 211530Z 25005KT 2500 BR OVC004 M01/M01 Q1042 NOSIG","observationTime":"2020-01-21T15:30:00Z","temp":-1,"dewpoint":-1,"windDirection":250,"windSpeed":9.26,"visibility":1.55,"altim":30.767717,"flightCategory":"LIFR","metarType":"METAR","geometry_esri":{"x":47.42,"y":19.27,"z":185}}}