{"type":"Feature","geometry":{"type":"Point","coordinates":[47.42,19.27,185]},"properties":{"stationId":"LHBP","rawText":"LHBP 300030Z VRB02KT 7000 NSC 19/18 Q1007 NOSIG","observationTime":"2019-07-30T00:30:00Z","temp":19,"dewpoint":18,"windDirection":0,"windSpeed":3.704,"visibility":4.35,"altim":29.734253,"flightCategory":"MVFR","metarType":"METAR","geometry_esri":{"x":47.42,"y":19.27,"z":185}}}