{"type":"Feature","geometry":{"type":"Point","coordinates":[47.42,19.27,185]},"properties":{"stationId":"LHBP","rawText":"LHBP 210330Z 02005KT 330V040 CAVOK 05/M04 Q1020 NOSIG","observationTime":"2020-04-21T03:30:00Z","temp":5,"dewpoint":-4,"windDirection":20,"windSpeed":9.26,"visibility":6.21,"altim":30.11811,"flightCategory":"VFR","metarType":"METAR","geometry_esri":{"x":47.42,"y":19.27,"z":185}}}