{"type":"Feature","geometry":{"type":"Point","coordinates":[47.78,13.02,430]},"properties":{"stationId":"LOWS","rawText":"LOWS 061350Z 29009KT 250V310 9999 -RASN FEW006 SCT013 BKN025 02/00 Q1027 R15/29//95 TEMPO 4000 RASN","observationTime":"2019-01-06T13:50:00Z","temp":2,"dewpoint":0,"windDirection":290,"windSpeed":16.668,"visibility":6.21,"altim":30.324802,"flightCategory":"MVFR","metarType":"METAR","geometry_esri":{"x":47.78,"y":13.02,"z":430}}}