{"type":"Feature","geometry":{"type":"Point","coordinates":[47.78,13.02,430]},"properties":{"stationId":"LOWS","rawText":"LOWS 020350Z 14008KT 9999 FEW012 SCT050 BKN170 17/16 Q1015 NOSIG","observationTime":"2019-08-02T03:50:00Z","temp":17,"dewpoint":16,"windDirection":140,"windSpeed":14.816,"visibility":6.21,"altim":29.970472,"flightCategory":"VFR","metarType":"METAR","geometry_esri":{"x":47.78,"y":13.02,"z":430}}}