{"type":"Feature","geometry":{"type":"Point","coordinates":[47.42,19.27,185]},"properties":{"stationId":"LHBP","rawText":"LHBP 301830Z 16005KT CAVOK 27/18 Q1018 NOSIG","observationTime":"2019-06-30T18:30:00Z","temp":27,"dewpoint":18,"windDirection":160,"windSpeed":9.26,"visibility":6.21,"altim":30.059055,"flightCategory":"VFR","metarType":"METAR","geometry_esri":{"x":47.42,"y":19.27,"z":185}}}