{"type":"Feature","geometry":{"type":"Point","coordinates":[47.78,13.02,430]},"properties":{"stationId":"LOWS","rawText":"LOWS 171250Z 17009G19KT 110V200 CAVOK 19/M00 Q1010 NOSIG","observationTime":"2019-12-17T12:50:00Z","temp":19,"dewpoint":0,"windDirection":170,"windSpeed":16.668,"visibility":6.21,"altim":29.822834,"flightCategory":"VFR","metarType":"METAR","geometry_esri":{"x":47.78,"y":13.02,"z":430}}}