{"type":"Feature","geometry":{"type":"Point","coordinates":[47.78,13.02,430]},"properties":{"stationId":"LOWS","rawText":"LOWS 060750Z 01007KT 4200 -SN FEW005 SCT008 BKN014 01/00 Q1025 R15/29//95 TEMPO 6000 -RASN SCT010 BKN018","observationTime":"2019-01-06T07:50:00Z","temp":1,"dewpoint":0,"windDirection":10,"windSpeed":12.964,"visibility":2.61,"altim":30.265747,"flightCategory":"IFR","metarType":"SPECI","geometry_esri":{"x":47.78,"y":13.02,"z":430}}}