{"type":"Feature","geometry":{"type":"Point","coordinates":[47.78,13.02,430]},"properties":{"stationId":"LOWS","rawText":"LOWS 312250Z AUTO 14010KT 9999 FEW110 BKN130 01/M08 Q0995","observationTime":"2019-01-31T22:50:00Z","temp":1,"dewpoint":-8,"windDirection":140,"windSpeed":18.52,"visibility":6.21,"altim":29.379921,"flightCategory":"VFR","metarType":"METAR","geometry_esri":{"x":47.78,"y":13.02,"z":430}}}