{"type":"Feature","geometry":{"type":"Point","coordinates":[47.42,19.27,185]},"properties":{"stationId":"LHBP","rawText":"LHBP 222030Z 30018KT 9999 SCT018 14/13 Q1011 NOSIG","observationTime":"2019-05-22T20:30:00Z","temp":14,"dewpoint":13,"windDirection":300,"windSpeed":33.336,"visibility":6.21,"altim":29.852362,"flightCategory":"VFR","metarType":"METAR","geometry_esri":{"x":47.42,"y":19.27,"z":185}}}