{"type":"Feature","geometry":{"type":"Point","coordinates":[47.78,13.02,430]},"properties":{"stationId":"LOWS","rawText":"LOWS 011050Z 33003KT 300V360 9999 FEW090 BKN150 02/M03 Q0993 NOSIG","observationTime":"2019-02-01T10:50:00Z","temp":2,"dewpoint":-3,"windDirection":330,"windSpeed":5.556,"visibility":6.21,"altim":29.320866,"flightCategory":"VFR","metarType":"METAR","geometry_esri":{"x":47.78,"y":13.02,"z":430}}}