{"type":"Feature","geometry":{"type":"Point","coordinates":[47.42,19.27,185]},"properties":{"stationId":"LHBP","rawText":"LHBP 190730Z 08007KT CAVOK 09/06 Q1023 NOSIG","observationTime":"2019-11-19T07:30:00Z","temp":9,"dewpoint":6,"windDirection":80,"windSpeed":12.964,"visibility":6.21,"altim":30.206694,"flightCategory":"VFR","metarType":"METAR","geometry_esri":{"x":47.42,"y":19.27,"z":185}}}