{"type":"Feature","geometry":{"type":"Point","coordinates":[47.47,21.62,112]},"properties":{"stationId":"LHDC","rawText":"LHDC 271038Z 18010KT 6000 OVC023 M01/M04 Q1008","observationTime":"2019-01-27T10:38:00Z","temp":-1,"dewpoint":-4,"windDirection":180,"windSpeed":18.52,"visibility":3.73,"altim":29.763779,"flightCategory":"MVFR","metarType":"SPECI","geometry_esri":{"x":47.47,"y":21.62,"z":112}}}