{"type":"Feature","geometry":{"type":"Point","coordinates":[47.42,19.27,185]},"properties":{"stationId":"LHBP","rawText":"LHBP 100730Z 17007KT 140V200 CAVOK 27/24 Q1016 NOSIG","observationTime":"2019-08-10T07:30:00Z","temp":27,"dewpoint":24,"windDirection":170,"windSpeed":12.964,"visibility":6.21,"altim":30,"flightCategory":"VFR","metarType":"METAR","geometry_esri":{"x":47.42,"y":19.27,"z":185}}}