{"type":"Feature","geometry":{"type":"Point","coordinates":[47.42,19.27,185]},"properties":{"stationId":"LHBP","rawText":"LHBP 271030Z 32016KT 9999 BKN035 07/M01 Q1007 NOSIG","observationTime":"2020-02-27T10:30:00Z","temp":7,"dewpoint":-1,"windDirection":320,"windSpeed":29.632,"visibility":6.21,"altim":29.734253,"flightCategory":"VFR","metarType":"METAR","geometry_esri":{"x":47.42,"y":19.27,"z":185}}}