{"type":"Feature","geometry":{"type":"Point","coordinates":[47.78,13.02,430]},"properties":{"stationId":"LOWS","rawText":"LOWS 171250Z 32004KT 290V350 9999 FEW060 SCT140 BKN250 15/04 Q1017 NOSIG","observationTime":"2020-02-17T12:50:00Z","temp":15,"dewpoint":4,"windDirection":320,"windSpeed":7.408,"visibility":6.21,"altim":30.029528,"flightCategory":"VFR","metarType":"METAR","geometry_esri":{"x":47.78,"y":13.02,"z":430}}}