{"type":"Feature","geometry":{"type":"Point","coordinates":[47.78,13.02,430]},"properties":{"stationId":"LOWS","rawText":"LOWS 162250Z AUTO 35004KT 280V040 9999 FEW180 BKN200 01/M01 Q1025","observationTime":"2020-01-16T22:50:00Z","temp":1,"dewpoint":-1,"windDirection":350,"windSpeed":7.408,"visibility":6.21,"altim":30.265747,"flightCategory":"VFR","metarType":"METAR","geometry_esri":{"x":47.78,"y":13.02,"z":430}}}