{"type":"Feature","geometry":{"type":"Point","coordinates":[47.42,19.27,185]},"properties":{"stationId":"LHBP","rawText":"LHBP 250830Z 25010KT CAVOK 11/08 Q1013 NOSIG","observationTime":"2019-03-25T08:30:00Z","temp":11,"dewpoint":8,"windDirection":250,"windSpeed":18.52,"visibility":6.21,"altim":29.911417,"flightCategory":"VFR","metarType":"METAR","geometry_esri":{"x":47.42,"y":19.27,"z":185}}}