{"type":"Feature","geometry":{"type":"Point","coordinates":[47.42,19.27,185]},"properties":{"stationId":"LHBP","rawText":"LHBP 140930Z 02008KT 320V060 9999 VCSH FEW032TCU SCT035 22/15 Q1011 BECMG SCT035CB SCT040","observationTime":"2019-07-14T09:30:00Z","temp":22,"dewpoint":15,"windDirection":20,"windSpeed":14.816,"visibility":6.21,"altim":29.852362,"flightCategory":"VFR","metarType":"METAR","geometry_esri":{"x":47.42,"y":19.27,"z":185}}}