{"type":"Feature","geometry":{"type":"Point","coordinates":[47.78,13.02,430]},"properties":{"stationId":"LOWS","rawText":"LOWS 231050Z VRB02KT 7000 FEW012 BKN014 M04/M06 Q0996 R15/1///95 TEMPO BKN015","observationTime":"2019-01-23T10:50:00Z","temp":-4,"dewpoint":-6,"windDirection":0,"windSpeed":3.704,"visibility":4.35,"altim":29.409449,"flightCategory":"MVFR","metarType":"SPECI","geometry_esri":{"x":47.78,"y":13.02,"z":430}}}