{"type":"Feature","geometry":{"type":"Point","coordinates":[47.42,19.27,185]},"properties":{"stationId":"LHBP","rawText":"LHBP 151130Z 33008KT 300V010 9999 SCT042 BKN066 18/07 Q1010 NOSIG","observationTime":"2020-05-15T11:30:00Z","temp":18,"dewpoint":7,"windDirection":330,"windSpeed":14.816,"visibility":6.21,"altim":29.822834,"flightCategory":"VFR","metarType":"METAR","geometry_esri":{"x":47.42,"y":19.27,"z":185}}}