{"type":"Feature","geometry":{"type":"Point","coordinates":[47.42,19.27,185]},"properties":{"stationId":"LHBP","rawText":"LHBP 192330Z 10005KT CAVOK 12/08 Q1017 NOSIG","observationTime":"2019-10-19T23:30:00Z","temp":12,"dewpoint":8,"windDirection":100,"windSpeed":9.26,"visibility":6.21,"altim":30.029528,"flightCategory":"VFR","metarType":"METAR","geometry_esri":{"x":47.42,"y":19.27,"z":185}}}