{"type":"Feature","geometry":{"type":"Point","coordinates":[47.42,19.27,185]},"properties":{"stationId":"LHBP","rawText":"LHBP 271430Z 28004KT 240V310 CAVOK 14/M01 Q1023 NOSIG","observationTime":"2019-02-27T14:30:00Z","temp":14,"dewpoint":-1,"windDirection":280,"windSpeed":7.408,"visibility":6.21,"altim":30.206694,"flightCategory":"VFR","metarType":"METAR","geometry_esri":{"x":47.42,"y":19.27,"z":185}}}