{"type":"Feature","geometry":{"type":"Point","coordinates":[47.42,19.27,185]},"properties":{"stationId":"LHBP","rawText":"LHBP 032030Z VRB02KT CAVOK 11/10 Q1009 NOSIG","observationTime":"2019-05-03T20:30:00Z","temp":11,"dewpoint":10,"windDirection":0,"windSpeed":3.704,"visibility":6.21,"altim":29.793306,"flightCategory":"VFR","metarType":"METAR","geometry_esri":{"x":47.42,"y":19.27,"z":185}}}