{"type":"Feature","geometry":{"type":"Point","coordinates":[47.78,13.02,430]},"properties":{"stationId":"LOWS","rawText":"LOWS 130050Z AUTO 22005KT 120V260 9999 -RA FEW002 SCT015 BKN024 02/01 Q1012","observationTime":"2019-01-13T00:50:00Z","temp":2,"dewpoint":1,"windDirection":220,"windSpeed":9.26,"visibility":6.21,"altim":29.88189,"flightCategory":"MVFR","metarType":"METAR","geometry_esri":{"x":47.78,"y":13.02,"z":430}}}