{"type":"Feature","geometry":{"type":"Point","coordinates":[47.42,19.27,185]},"properties":{"stationId":"LHBP","rawText":"LHBP 102330Z 34004KT CAVOK 11/11 Q1022 NOSIG","observationTime":"2019-09-10T23:30:00Z","temp":11,"dewpoint":11,"windDirection":340,"windSpeed":7.408,"visibility":6.21,"altim":30.177166,"flightCategory":"VFR","metarType":"METAR","geometry_esri":{"x":47.42,"y":19.27,"z":185}}}