{"type":"Feature","geometry":{"type":"Point","coordinates":[47.42,19.27,185]},"properties":{"stationId":"LHBP","rawText":"LHBP 050130Z 10005KT 4500 BR OVC005 M02/M02 Q1031 NOSIG","observationTime":"2019-12-05T01:30:00Z","temp":-2,"dewpoint":-2,"windDirection":100,"windSpeed":9.26,"visibility":2.8,"altim":30.442913,"flightCategory":"IFR","metarType":"METAR","geometry_esri":{"x":47.42,"y":19.27,"z":185}}}