{"type":"Feature","geometry":{"type":"Point","coordinates":[47.42,19.27,185]},"properties":{"stationId":"LHBP","rawText":"LHBP 211230Z 23006KT 200V270 0800 R31L/1000U R31R/1800U FZFG BKN002 OVC004 M01/M01 Q1043 NOSIG","observationTime":"2020-01-21T12:30:00Z","temp":-1,"dewpoint":-1,"windDirection":230,"windSpeed":11.112,"visibility":0.5,"altim":30.797245,"flightCategory":"LIFR","metarType":"SPECI","geometry_esri":{"x":47.42,"y":19.27,"z":185}}}