{"type":"Feature","geometry":{"type":"Point","coordinates":[47.42,19.27,185]},"properties":{"stationId":"LHBP","rawText":"LHBP 051430Z 09005KT 3500 -SG BR OVC006 M02/M03 Q1029 TEMPO 2800 -SG BR","observationTime":"2019-12-05T14:30:00Z","temp":-2,"dewpoint":-3,"windDirection":90,"windSpeed":9.26,"visibility":2.17,"altim":30.383858,"flightCategory":"IFR","metarType":"SPECI","geometry_esri":{"x":47.42,"y":19.27,"z":185}}}