{"type":"Feature","geometry":{"type":"Point","coordinates":[47.78,13.02,430]},"properties":{"stationId":"LOWS","rawText":"LOWS 290650Z 36004KT 330V060 9999 FEW060 BKN080 05/02 Q1016 NOSIG","observationTime":"2020-03-29T06:50:00Z","temp":5,"dewpoint":2,"windDirection":360,"windSpeed":7.408,"visibility":6.21,"altim":30,"flightCategory":"VFR","metarType":"METAR","geometry_esri":{"x":47.78,"y":13.02,"z":430}}}