{"type":"Feature","geometry":{"type":"Point","coordinates":[47.42,19.27,185]},"properties":{"stationId":"LHBP","rawText":"LHBP 070530Z 00000KT 5000 BR NSC M08/M08 Q1025 TEMPO 4000","observationTime":"2019-02-07T05:30:00Z","temp":-8,"dewpoint":-8,"windDirection":0,"windSpeed":0,"visibility":3.11,"altim":30.265747,"flightCategory":"MVFR","metarType":"METAR","geometry_esri":{"x":47.42,"y":19.27,"z":185}}}