{"type":"Feature","geometry":{"type":"Point","coordinates":[47.78,13.02,430]},"properties":{"stationId":"LOWS","rawText":"LOWS 030950Z 28006KT 240V330 7000 -RA FEW006 SCT014 BKN020 02/00 Q1007 R15/29//95 NOSIG","observationTime":"2019-02-03T09:50:00Z","temp":2,"dewpoint":0,"windDirection":280,"windSpeed":11.112,"visibility":4.35,"altim":29.734253,"flightCategory":"MVFR","metarType":"SPECI","geometry_esri":{"x":47.78,"y":13.02,"z":430}}}