{"type":"Feature","geometry":{"type":"Point","coordinates":[47.42,19.27,185]},"properties":{"stationId":"LHBP","rawText":"LHBP 071030Z 22003KT 170V250 CAVOK 01/M06 Q1028 NOSIG","observationTime":"2020-01-07T10:30:00Z","temp":1,"dewpoint":-6,"windDirection":220,"windSpeed":5.556,"visibility":6.21,"altim":30.35433,"flightCategory":"VFR","metarType":"METAR","geometry_esri":{"x":47.42,"y":19.27,"z":185}}}