{"type":"Feature","geometry":{"type":"Point","coordinates":[47.42,19.27,185]},"properties":{"stationId":"LHBP","rawText":"LHBP 121030Z 18006KT 110V220 CAVOK 18/13 Q1023 NOSIG","observationTime":"2019-10-12T10:30:00Z","temp":18,"dewpoint":13,"windDirection":180,"windSpeed":11.112,"visibility":6.21,"altim":30.206694,"flightCategory":"VFR","metarType":"METAR","geometry_esri":{"x":47.42,"y":19.27,"z":185}}}