{"type":"Feature","geometry":{"type":"Point","coordinates":[47.42,19.27,185]},"properties":{"stationId":"LHBP","rawText":"LHBP 281141Z 23009KT 190V260 5000 -TSRA SCT022CB SCT033 SCT070 14/14 Q1006 RETSGR TEMPO 28015G25KT SHRA","observationTime":"2019-05-28T11:41:00Z","temp":14,"dewpoint":14,"windDirection":230,"windSpeed":16.668,"visibility":3.11,"altim":29.704725,"flightCategory":"MVFR","metarType":"SPECI","geometry_esri":{"x":47.42,"y":19.27,"z":185}}}