{"type":"Feature","geometry":{"type":"Point","coordinates":[47.42,19.27,185]},"properties":{"stationId":"LHBP","rawText":"LHBP 221330Z 36007KT 320V030 CAVOK 29/17 Q1022 NOSIG","observationTime":"2019-08-22T13:30:00Z","temp":29,"dewpoint":17,"windDirection":360,"windSpeed":12.964,"visibility":6.21,"altim":30.177166,"flightCategory":"VFR","metarType":"METAR","geometry_esri":{"x":47.42,"y":19.27,"z":185}}}