{"type":"Feature","geometry":{"type":"Point","coordinates":[47.42,19.27,185]},"properties":{"stationId":"LHBP","rawText":"LHBP 230930Z 00000KT 4500 BR NSC 01/M02 Q1035 BECMG 6000 NSW","observationTime":"2020-01-23T09:30:00Z","temp":1,"dewpoint":-2,"windDirection":0,"windSpeed":0,"visibility":2.8,"altim":30.561024,"flightCategory":"IFR","metarType":"SPECI","geometry_esri":{"x":47.42,"y":19.27,"z":185}}}