{"type":"Feature","geometry":{"type":"Point","coordinates":[47.78,13.02,430]},"properties":{"stationId":"LOWS","rawText":"LOWS 071250Z 15005KT 110V220 9999 FEW040 BKN070 05/02 Q1017 R15/19//95 TEMPO 30012KT","observationTime":"2019-12-07T12:50:00Z","temp":5,"dewpoint":2,"windDirection":150,"windSpeed":9.26,"visibility":6.21,"altim":30.029528,"flightCategory":"VFR","metarType":"METAR","geometry_esri":{"x":47.78,"y":13.02,"z":430}}}