{"type":"Feature","geometry":{"type":"Point","coordinates":[47.42,19.27,185]},"properties":{"stationId":"LHBP","rawText":"LHBP 260530Z VRB02KT CAVOK 16/15 Q1015 NOSIG","observationTime":"2019-05-26T05:30:00Z","temp":16,"dewpoint":15,"windDirection":0,"windSpeed":3.704,"visibility":6.21,"altim":29.970472,"flightCategory":"VFR","metarType":"METAR","geometry_esri":{"x":47.42,"y":19.27,"z":185}}}