{"type":"Feature","geometry":{"type":"Point","coordinates":[47.78,13.02,430]},"properties":{"stationId":"LOWS","rawText":"LOWS 080950Z 28012G22KT 230V300 9999 -SHRASN FEW010 SCT020 BKN035 04/01 Q1015 R15/29//95 TEMPO 4000 SHRASN","observationTime":"2019-01-08T09:50:00Z","temp":4,"dewpoint":1,"windDirection":280,"windSpeed":22.224,"visibility":6.21,"altim":29.970472,"flightCategory":"VFR","metarType":"METAR","geometry_esri":{"x":47.78,"y":13.02,"z":430}}}