{"type":"Feature","geometry":{"type":"Point","coordinates":[47.78,13.02,430]},"properties":{"stationId":"LOWS","rawText":"LOWS 252350Z AUTO VRB01KT 9999 FEW070 07/03 Q1009","observationTime":"2020-04-25T23:50:00Z","temp":7,"dewpoint":3,"windDirection":0,"windSpeed":1.852,"visibility":6.21,"altim":29.793306,"flightCategory":"VFR","metarType":"METAR","geometry_esri":{"x":47.78,"y":13.02,"z":430}}}