{"type":"Feature","geometry":{"type":"Point","coordinates":[47.42,19.27,185]},"properties":{"stationId":"LHBP","rawText":"LHBP 131130Z 31012KT 9999 FEW030 BKN080 05/M01 Q1034 NOSIG","observationTime":"2019-02-13T11:30:00Z","temp":5,"dewpoint":-1,"windDirection":310,"windSpeed":22.224,"visibility":6.21,"altim":30.531496,"flightCategory":"VFR","metarType":"METAR","geometry_esri":{"x":47.42,"y":19.27,"z":185}}}