{"type":"Feature","geometry":{"type":"Point","coordinates":[47.78,13.02,430]},"properties":{"stationId":"LOWS","rawText":"LOWS 191350Z VRB02KT 2400 -SHSN SCT003 BKN014 00/M00 Q1034 R15/290195 BECMG 9999 FEW008 BKN040","observationTime":"2020-01-19T13:50:00Z","temp":0,"dewpoint":0,"windDirection":0,"windSpeed":3.704,"visibility":1.49,"altim":30.531496,"flightCategory":"IFR","metarType":"METAR","geometry_esri":{"x":47.78,"y":13.02,"z":430}}}