{"type":"Feature","geometry":{"type":"Point","coordinates":[47.78,13.02,430]},"properties":{"stationId":"LOWS","rawText":"LOWS 160150Z AUTO VRB02KT 9999 NSC 01/M01 Q1017","observationTime":"2019-04-16T01:50:00Z","temp":1,"dewpoint":-1,"windDirection":0,"windSpeed":3.704,"visibility":6.21,"altim":30.029528,"flightCategory":"VFR","metarType":"METAR","geometry_esri":{"x":47.78,"y":13.02,"z":430}}}