{"type":"Feature","geometry":{"type":"Point","coordinates":[47.42,19.27,185]},"properties":{"stationId":"LHBP","rawText":"LHBP 211230Z 32025G36KT 9999 -RA FEW023 BKN049 05/01 Q1021 NOSIG","observationTime":"2020-02-21T12:30:00Z","temp":5,"dewpoint":1,"windDirection":320,"windSpeed":46.300000000000004,"visibility":6.21,"altim":30.147638,"flightCategory":"VFR","metarType":"METAR","geometry_esri":{"x":47.42,"y":19.27,"z":185}}}