{"type":"Feature","geometry":{"type":"Point","coordinates":[47.42,19.27,185]},"properties":{"stationId":"LHBP","rawText":"LHBP 250030Z VRB01KT CAVOK M02/M07 Q1037 NOSIG","observationTime":"2019-02-25T00:30:00Z","temp":-2,"dewpoint":-7,"windDirection":0,"windSpeed":1.852,"visibility":6.21,"altim":30.620079,"flightCategory":"VFR","metarType":"METAR","geometry_esri":{"x":47.42,"y":19.27,"z":185}}}