{"type":"Feature","geometry":{"type":"Point","coordinates":[47.42,19.27,185]},"properties":{"stationId":"LHBP","rawText":"LHBP 132330Z 03010KT 8000 SCT008 OVC019 05/03 Q0994 NOSIG","observationTime":"2019-12-13T23:30:00Z","temp":5,"dewpoint":3,"windDirection":30,"windSpeed":18.52,"visibility":4.97,"altim":29.350393,"flightCategory":"MVFR","metarType":"METAR","geometry_esri":{"x":47.42,"y":19.27,"z":185}}}