{"type":"Feature","geometry":{"type":"Point","coordinates":[47.42,19.27,185]},"properties":{"stationId":"LHBP","rawText":"LHBP 300630Z 30003KT 6000 NSC M10/M11 Q1037 TEMPO 4500 BR","observationTime":"2019-12-30T06:30:00Z","temp":-10,"dewpoint":-11,"windDirection":300,"windSpeed":5.556,"visibility":3.73,"altim":30.620079,"flightCategory":"MVFR","metarType":"SPECI","geometry_esri":{"x":47.42,"y":19.27,"z":185}}}