{"type":"Feature","geometry":{"type":"Point","coordinates":[47.42,19.27,185]},"properties":{"stationId":"LHBP","rawText":"LHBP 130930Z 19003KT 100V210 0200 R31L/0450N R31R/0550N -FZDZ FZFG VV002 M03/M04 Q1029 TEMPO 0600","observationTime":"2020-01-13T09:30:00Z","temp":-3,"dewpoint":-4,"windDirection":190,"windSpeed":5.556,"visibility":0.12,"altim":30.383858,"flightCategory":"LIFR","metarType":"SPECI","geometry_esri":{"x":47.42,"y":19.27,"z":185}}}