{"type":"Feature","geometry":{"type":"Point","coordinates":[47.78,13.02,430]},"properties":{"stationId":"LOWS","rawText":"LOWS 181450Z 36005KT 310V050 9999 SCT044 16/07 Q1022 NOSIG","observationTime":"2019-09-18T14:50:00Z","temp":16,"dewpoint":7,"windDirection":360,"windSpeed":9.26,"visibility":6.21,"altim":30.177166,"flightCategory":"VFR","metarType":"METAR","geometry_esri":{"x":47.78,"y":13.02,"z":430}}}