{"type":"Feature","geometry":{"type":"Point","coordinates":[47.42,19.27,185]},"properties":{"stationId":"LHBP","rawText":"LHBP 222030Z 09005KT 9999 FEW013 M04/M05 Q1029 NOSIG","observationTime":"2020-01-22T20:30:00Z","temp":-4,"dewpoint":-5,"windDirection":90,"windSpeed":9.26,"visibility":6.21,"altim":30.383858,"flightCategory":"VFR","metarType":"METAR","geometry_esri":{"x":47.42,"y":19.27,"z":185}}}