{"type":"Feature","geometry":{"type":"Point","coordinates":[47.42,19.27,185]},"properties":{"stationId":"LHBP","rawText":"LHBP 110853Z 30022G36KT 9999 SQ FEW044 08/M02 Q1003 TEMPO 30026G36KT","observationTime":"2020-02-11T08:53:00Z","temp":8,"dewpoint":-2,"windDirection":300,"windSpeed":40.744,"visibility":6.21,"altim":29.616142,"flightCategory":"VFR","metarType":"METAR","geometry_esri":{"x":47.42,"y":19.27,"z":185}}}