{"type":"Feature","geometry":{"type":"Point","coordinates":[47.42,19.27,185]},"properties":{"stationId":"LHBP","rawText":"LHBP 081830Z VRB01KT 7000 NSC M04/M06 Q1032 NOSIG","observationTime":"2020-01-08T18:30:00Z","temp":-4,"dewpoint":-6,"windDirection":0,"windSpeed":1.852,"visibility":4.35,"altim":30.47244,"flightCategory":"MVFR","metarType":"METAR","geometry_esri":{"x":47.42,"y":19.27,"z":185}}}