{"type":"Feature","geometry":{"type":"Point","coordinates":[47.42,19.27,185]},"properties":{"stationId":"LHBP","rawText":"LHBP 100330Z 08006KT 3400 BR FEW002 M01/M02 Q1022 NOSIG","observationTime":"2020-01-10T03:30:00Z","temp":-1,"dewpoint":-2,"windDirection":80,"windSpeed":11.112,"visibility":2.11,"altim":30.177166,"flightCategory":"IFR","metarType":"METAR","geometry_esri":{"x":47.42,"y":19.27,"z":185}}}