{"type":"Feature","geometry":{"type":"Point","coordinates":[47.78,13.02,430]},"properties":{"stationId":"LOWS","rawText":"LOWS 031450Z 30010KT 4500 -RASN FEW003 SCT017 BKN026 00/M01 Q1013 R15/29//95 TEMPO 2000 SN BKN012","observationTime":"2019-02-03T14:50:00Z","temp":0,"dewpoint":-1,"windDirection":300,"windSpeed":18.52,"visibility":2.8,"altim":29.911417,"flightCategory":"IFR","metarType":"METAR","geometry_esri":{"x":47.78,"y":13.02,"z":430}}}