{"type":"Feature","geometry":{"type":"Point","coordinates":[47.78,13.02,430]},"properties":{"stationId":"LOWS","rawText":"LOWS 251150Z 25009KT 140V300 9999 -SHRA FEW006 SCT026 BKN035 05/03 Q1015 TEMPO 30015G30KT SHRA","observationTime":"2019-12-25T11:50:00Z","temp":5,"dewpoint":3,"windDirection":250,"windSpeed":16.668,"visibility":6.21,"altim":29.970472,"flightCategory":"VFR","metarType":"METAR","geometry_esri":{"x":47.78,"y":13.02,"z":430}}}