{"type":"Feature","geometry":{"type":"Point","coordinates":[47.42,19.27,185]},"properties":{"stationId":"LHBP","rawText":"LHBP 050730Z 07007KT 030V110 9999 FEW028 SCT090 22/18 Q1011 TEMPO FM0800 -TSRA FEW030CB BKN080","observationTime":"2019-06-05T07:30:00Z","temp":22,"dewpoint":18,"windDirection":70,"windSpeed":12.964,"visibility":6.21,"altim":29.852362,"flightCategory":"VFR","metarType":"SPECI","geometry_esri":{"x":47.42,"y":19.27,"z":185}}}