{"type":"Feature","geometry":{"type":"Point","coordinates":[47.78,13.02,430]},"properties":{"stationId":"LOWS","rawText":"LOWS 101150Z 02004KT 310V070 9999 FEW045 SCT300 18/10 Q1017 NOSIG","observationTime":"2019-09-10T11:50:00Z","temp":18,"dewpoint":10,"windDirection":20,"windSpeed":7.408,"visibility":6.21,"altim":30.029528,"flightCategory":"VFR","metarType":"METAR","geometry_esri":{"x":47.78,"y":13.02,"z":430}}}