{"type":"Feature","geometry":{"type":"Point","coordinates":[47.42,19.27,185]},"properties":{"stationId":"LHBP","rawText":"LHBP 031930Z 11003KT 4500 BCFG BR NSC M04/M05 Q1028 BECMG 1500 BCFG","observationTime":"2019-12-03T19:30:00Z","temp":-4,"dewpoint":-5,"windDirection":110,"windSpeed":5.556,"visibility":2.8,"altim":30.35433,"flightCategory":"IFR","metarType":"SPECI","geometry_esri":{"x":47.42,"y":19.27,"z":185}}}