{"type":"Feature","geometry":{"type":"Point","coordinates":[47.42,19.27,185]},"properties":{"stationId":"LHBP","rawText":"LHBP 240830Z 34014KT CAVOK M00/M02 Q1002 R88/29//95 NOSIG","observationTime":"2019-01-24T08:30:00Z","temp":0,"dewpoint":-2,"windDirection":340,"windSpeed":25.928,"visibility":6.21,"altim":29.586615,"flightCategory":"VFR","metarType":"SPECI","geometry_esri":{"x":47.42,"y":19.27,"z":185}}}