{"type":"Feature","geometry":{"type":"Point","coordinates":[47.78,13.02,430]},"properties":{"stationId":"LOWS","rawText":"LOWS 100750Z 14008KT 100V170 CAVOK 22/14 Q1015 NOSIG","observationTime":"2019-06-10T07:50:00Z","temp":22,"dewpoint":14,"windDirection":140,"windSpeed":14.816,"visibility":6.21,"altim":29.970472,"flightCategory":"VFR","metarType":"METAR","geometry_esri":{"x":47.78,"y":13.02,"z":430}}}