{"type":"Feature","geometry":{"type":"Point","coordinates":[47.42,19.27,185]},"properties":{"stationId":"LHBP","rawText":"LHBP 142330Z 35004KT CAVOK 14/12 Q1012 NOSIG","observationTime":"2019-07-14T23:30:00Z","temp":14,"dewpoint":12,"windDirection":350,"windSpeed":7.408,"visibility":6.21,"altim":29.88189,"flightCategory":"VFR","metarType":"METAR","geometry_esri":{"x":47.42,"y":19.27,"z":185}}}