{"type":"Feature","geometry":{"type":"Point","coordinates":[47.78,13.02,430]},"properties":{"stationId":"LOWS","rawText":"LOWS 240250Z AUTO 23010G28KT 160V290 9999 -SHRA FEW026 SCT044 BKN050 11/07 Q1009","observationTime":"2018-12-24T02:50:00Z","temp":11,"dewpoint":7,"windDirection":230,"windSpeed":18.52,"visibility":6.21,"altim":29.793306,"flightCategory":"VFR","metarType":"METAR","geometry_esri":{"x":47.78,"y":13.02,"z":430}}}