{"type":"Feature","geometry":{"type":"Point","coordinates":[47.42,19.27,185]},"properties":{"stationId":"LHBP","rawText":"LHBP 101342Z 29019G40KT 260V330 9999 SHRA BKN040 15/05 Q1005 TEMPO 30035G44KT -SHRA","observationTime":"2020-02-10T13:42:00Z","temp":15,"dewpoint":5,"windDirection":290,"windSpeed":35.188,"visibility":6.21,"altim":29.675198,"flightCategory":"VFR","metarType":"SPECI","geometry_esri":{"x":47.42,"y":19.27,"z":185}}}