{"type":"Feature","geometry":{"type":"Point","coordinates":[47.42,19.27,185]},"properties":{"stationId":"LHBP","rawText":"LHBP 211730Z 32004KT CAVOK 10/M02 Q1032 NOSIG","observationTime":"2019-03-21T17:30:00Z","temp":10,"dewpoint":-2,"windDirection":320,"windSpeed":7.408,"visibility":6.21,"altim":30.47244,"flightCategory":"VFR","metarType":"METAR","geometry_esri":{"x":47.42,"y":19.27,"z":185}}}