{"type":"Feature","geometry":{"type":"Point","coordinates":[47.42,19.27,185]},"properties":{"stationId":"LHBP","rawText":"LHBP 220730Z 08004KT 6000 SCT043 BKN078 M04/M04 Q1017 NOSIG","observationTime":"2019-01-22T07:30:00Z","temp":-4,"dewpoint":-4,"windDirection":80,"windSpeed":7.408,"visibility":3.73,"altim":30.029528,"flightCategory":"MVFR","metarType":"METAR","geometry_esri":{"x":47.42,"y":19.27,"z":185}}}