{"type":"Feature","geometry":{"type":"Point","coordinates":[47.78,13.02,430]},"properties":{"stationId":"LOWS","rawText":"LOWS 201950Z VRB02KT 6000 FEW009 M02/M03 Q1043 R15/29//95 TEMPO 4500 BR","observationTime":"2020-01-20T19:50:00Z","temp":-2,"dewpoint":-3,"windDirection":0,"windSpeed":3.704,"visibility":3.73,"altim":30.797245,"flightCategory":"MVFR","metarType":"METAR","geometry_esri":{"x":47.78,"y":13.02,"z":430}}}