{"type":"Feature","geometry":{"type":"Point","coordinates":[47.42,19.27,185]},"properties":{"stationId":"LHBP","rawText":"LHBP 310130Z 18003KT CAVOK M03/M04 Q1032 NOSIG","observationTime":"2019-12-31T01:30:00Z","temp":-3,"dewpoint":-4,"windDirection":180,"windSpeed":5.556,"visibility":6.21,"altim":30.47244,"flightCategory":"VFR","metarType":"METAR","geometry_esri":{"x":47.42,"y":19.27,"z":185}}}