{"type":"Feature","geometry":{"type":"Point","coordinates":[47.78,13.02,430]},"properties":{"stationId":"LOWS","rawText":"LOWS 291250Z 26006KT 230V300 9999 -RA FEW010 SCT020 BKN030 08/05 Q1018 TEMPO RA","observationTime":"2019-04-29T12:50:00Z","temp":8,"dewpoint":5,"windDirection":260,"windSpeed":11.112,"visibility":6.21,"altim":30.059055,"flightCategory":"MVFR","metarType":"METAR","geometry_esri":{"x":47.78,"y":13.02,"z":430}}}