{"type":"Feature","geometry":{"type":"Point","coordinates":[47.78,13.02,430]},"properties":{"stationId":"LOWS","rawText":"LOWS 021950Z 17006KT 130V250 9999 -SHRA FEW022 SCT030 BKN045 09/08 Q1014 TEMPO 27015G30KT 4500 SHRA","observationTime":"2020-02-02T19:50:00Z","temp":9,"dewpoint":8,"windDirection":170,"windSpeed":11.112,"visibility":6.21,"altim":29.940945,"flightCategory":"VFR","metarType":"METAR","geometry_esri":{"x":47.78,"y":13.02,"z":430}}}