{"type":"Feature","geometry":{"type":"Point","coordinates":[47.42,19.27,185]},"properties":{"stationId":"LHBP","rawText":"LHBP 300830Z 36009KT 330V030 9999 FEW040 18/10 Q1008 NOSIG","observationTime":"2020-04-30T08:30:00Z","temp":18,"dewpoint":10,"windDirection":360,"windSpeed":16.668,"visibility":6.21,"altim":29.763779,"flightCategory":"VFR","metarType":"METAR","geometry_esri":{"x":47.42,"y":19.27,"z":185}}}