{"type":"Feature","geometry":{"type":"Point","coordinates":[47.78,13.02,430]},"properties":{"stationId":"LOWS","rawText":"LOWS 161050Z 34012KT 310V020 9999 FEW040 23/13 Q1017 NOSIG","observationTime":"2019-07-16T10:50:00Z","temp":23,"dewpoint":13,"windDirection":340,"windSpeed":22.224,"visibility":6.21,"altim":30.029528,"flightCategory":"VFR","metarType":"METAR","geometry_esri":{"x":47.78,"y":13.02,"z":430}}}