{"type":"Feature","geometry":{"type":"Point","coordinates":[47.78,13.02,430]},"properties":{"stationId":"LOWS","rawText":"LOWS 091450Z 29008KT 260V320 4500 -SN FEW007 SCT011 BKN018 00/M02 Q1009 R15/29//95 TEMPO 2500 FEW005 BKN011","observationTime":"2019-01-09T14:50:00Z","temp":0,"dewpoint":-2,"windDirection":290,"windSpeed":14.816,"visibility":2.8,"altim":29.793306,"flightCategory":"IFR","metarType":"METAR","geometry_esri":{"x":47.78,"y":13.02,"z":430}}}