{"type":"Feature","geometry":{"type":"Point","coordinates":[47.42,19.27,185]},"properties":{"stationId":"LHBP","rawText":"LHBP 221230Z 34005KT 290V020 CAVOK 28/21 Q1023 NOSIG","observationTime":"2019-08-22T12:30:00Z","temp":28,"dewpoint":21,"windDirection":340,"windSpeed":9.26,"visibility":6.21,"altim":30.206694,"flightCategory":"VFR","metarType":"METAR","geometry_esri":{"x":47.42,"y":19.27,"z":185}}}