{"type":"Feature","geometry":{"type":"Point","coordinates":[47.78,13.02,430]},"properties":{"stationId":"LOWS","rawText":"LOWS 170350Z AUTO 16012KT 9999 FEW180 SCT190 BKN200 12/01 Q1008","observationTime":"2019-12-17T03:50:00Z","temp":12,"dewpoint":1,"windDirection":160,"windSpeed":22.224,"visibility":6.21,"altim":29.763779,"flightCategory":"VFR","metarType":"METAR","geometry_esri":{"x":47.78,"y":13.02,"z":430}}}