{"type":"Feature","geometry":{"type":"Point","coordinates":[47.42,19.27,185]},"properties":{"stationId":"LHBP","rawText":"LHBP 241930Z 02004KT CAVOK 24/21 Q1021 NOSIG","observationTime":"2019-06-24T19:30:00Z","temp":24,"dewpoint":21,"windDirection":20,"windSpeed":7.408,"visibility":6.21,"altim":30.147638,"flightCategory":"VFR","metarType":"METAR","geometry_esri":{"x":47.42,"y":19.27,"z":185}}}