{"type":"Feature","geometry":{"type":"Point","coordinates":[47.47,21.62,112]},"properties":{"stationId":"LHDC","rawText":"LHDC 080340Z AUTO VRB02KT 1000 BR BKN002 01/01 Q1019","observationTime":"2019-12-08T03:40:00Z","temp":1,"dewpoint":1,"windDirection":0,"windSpeed":3.704,"visibility":0.62,"altim":30.088583,"flightCategory":"LIFR","metarType":"SPECI","geometry_esri":{"x":47.47,"y":21.62,"z":112}}}