{"type":"Feature","geometry":{"type":"Point","coordinates":[47.42,19.27,185]},"properties":{"stationId":"LHBP","rawText":"LHBP 181130Z 16004KT 070V200 CAVOK 24/15 Q1013 NOSIG","observationTime":"2019-07-18T11:30:00Z","temp":24,"dewpoint":15,"windDirection":160,"windSpeed":7.408,"visibility":6.21,"altim":29.911417,"flightCategory":"VFR","metarType":"METAR","geometry_esri":{"x":47.42,"y":19.27,"z":185}}}