{"type":"Feature","geometry":{"type":"Point","coordinates":[47.78,13.02,430]},"properties":{"stationId":"LOWS","rawText":"LOWS 070350Z 16009KT CAVOK 07/M00 Q1028 NOSIG","observationTime":"2020-04-07T03:50:00Z","temp":7,"dewpoint":0,"windDirection":160,"windSpeed":16.668,"visibility":6.21,"altim":30.35433,"flightCategory":"VFR","metarType":"METAR","geometry_esri":{"x":47.78,"y":13.02,"z":430}}}