{"type":"Feature","geometry":{"type":"Point","coordinates":[47.78,13.02,430]},"properties":{"stationId":"LOWS","rawText":"LOWS 041450Z 28007KT 230V310 9999 FEW003 SCT009 BKN046 01/M00 Q1013 RESN NOSIG","observationTime":"2020-02-04T14:50:00Z","temp":1,"dewpoint":0,"windDirection":280,"windSpeed":12.964,"visibility":6.21,"altim":29.911417,"flightCategory":"VFR","metarType":"METAR","geometry_esri":{"x":47.78,"y":13.02,"z":430}}}