{"type":"Feature","geometry":{"type":"Point","coordinates":[47.78,13.02,430]},"properties":{"stationId":"LOWS","rawText":"LOWS 191950Z AUTO 03012KT 9999 FEW026 SCT050 BKN070 12/07 Q1015","observationTime":"2020-04-19T19:50:00Z","temp":12,"dewpoint":7,"windDirection":30,"windSpeed":22.224,"visibility":6.21,"altim":29.970472,"flightCategory":"VFR","metarType":"METAR","geometry_esri":{"x":47.78,"y":13.02,"z":430}}}