{"type":"Feature","geometry":{"type":"Point","coordinates":[47.42,19.27,185]},"properties":{"stationId":"LHBP","rawText":"LHBP 311230Z 34006KT 270V020 CAVOK 06/M11 Q1024 NOSIG","observationTime":"2020-03-31T12:30:00Z","temp":6,"dewpoint":-11,"windDirection":340,"windSpeed":11.112,"visibility":6.21,"altim":30.236221,"flightCategory":"VFR","metarType":"METAR","geometry_esri":{"x":47.42,"y":19.27,"z":185}}}