{"type":"Feature","geometry":{"type":"Point","coordinates":[47.42,19.27,185]},"properties":{"stationId":"LHBP","rawText":"LHBP 311530Z 36005KT 310V050 CAVOK 07/M11 Q1023 NOSIG","observationTime":"2020-03-31T15:30:00Z","temp":7,"dewpoint":-11,"windDirection":360,"windSpeed":9.26,"visibility":6.21,"altim":30.206694,"flightCategory":"VFR","metarType":"METAR","geometry_esri":{"x":47.42,"y":19.27,"z":185}}}