{"type":"Feature","geometry":{"type":"Point","coordinates":[47.78,13.02,430]},"properties":{"stationId":"LOWS","rawText":"LOWS 271450Z 13014G25KT 9999 FEW060 17/M01 Q1012 NOSIG","observationTime":"2020-03-27T14:50:00Z","temp":17,"dewpoint":-1,"windDirection":130,"windSpeed":25.928,"visibility":6.21,"altim":29.88189,"flightCategory":"VFR","metarType":"METAR","geometry_esri":{"x":47.78,"y":13.02,"z":430}}}