{"type":"Feature","geometry":{"type":"Point","coordinates":[47.47,21.62,112]},"properties":{"stationId":"LHDC","rawText":"LHDC 221745Z AUTO 24011KT 9999 SCT014 BKN052 BKN079 15/14 Q1008","observationTime":"2019-05-22T17:45:00Z","temp":15,"dewpoint":14,"windDirection":240,"windSpeed":20.372,"visibility":6.21,"altim":29.763779,"flightCategory":"VFR","metarType":"SPECI","geometry_esri":{"x":47.47,"y":21.62,"z":112}}}