{"type":"Feature","geometry":{"type":"Point","coordinates":[47.78,13.02,430]},"properties":{"stationId":"LOWS","rawText":"LOWS 230050Z AUTO 29014G29KT 240V320 9999 -SHRA FEW019 SCT044 BKN060 10/04 Q1021","observationTime":"2018-12-23T00:50:00Z","temp":10,"dewpoint":4,"windDirection":290,"windSpeed":25.928,"visibility":6.21,"altim":30.147638,"flightCategory":"VFR","metarType":"METAR","geometry_esri":{"x":47.78,"y":13.02,"z":430}}}