{"type":"Feature","geometry":{"type":"Point","coordinates":[47.42,19.27,185]},"properties":{"stationId":"LHBP","rawText":"LHBP 220930Z 21005KT 150V260 CAVOK 06/M02 Q1031 NOSIG","observationTime":"2020-02-22T09:30:00Z","temp":6,"dewpoint":-2,"windDirection":210,"windSpeed":9.26,"visibility":6.21,"altim":30.442913,"flightCategory":"VFR","metarType":"METAR","geometry_esri":{"x":47.42,"y":19.27,"z":185}}}