{"type":"Feature","geometry":{"type":"Point","coordinates":[47.42,19.27,185]},"properties":{"stationId":"LHBP","rawText":"LHBP 141030Z 26005KT 180V330 9999 BKN044 23/13 Q1029 NOSIG","observationTime":"2019-09-14T10:30:00Z","temp":23,"dewpoint":13,"windDirection":260,"windSpeed":9.26,"visibility":6.21,"altim":30.383858,"flightCategory":"VFR","metarType":"METAR","geometry_esri":{"x":47.42,"y":19.27,"z":185}}}