{"type":"Feature","geometry":{"type":"Point","coordinates":[47.78,13.02,430]},"properties":{"stationId":"LOWS","rawText":"LOWS 240650Z 16005KT 0800 R15/1300U R33/P1500U FZBCFG BKN002 M05/M05 Q1025 TEMPO 1500 BR SCT002","observationTime":"2020-01-24T06:50:00Z","temp":-5,"dewpoint":-5,"windDirection":160,"windSpeed":9.26,"visibility":0.5,"altim":30.265747,"flightCategory":"LIFR","metarType":"METAR","geometry_esri":{"x":47.78,"y":13.02,"z":430}}}