{"type":"Feature","geometry":{"type":"Point","coordinates":[47.42,19.27,185]},"properties":{"stationId":"LHBP","rawText":"LHBP 130430Z 18004KT 3000 BR FEW002 BKN100 15/15 Q1010 NOSIG","observationTime":"2019-07-13T04:30:00Z","temp":15,"dewpoint":15,"windDirection":180,"windSpeed":7.408,"visibility":1.86,"altim":29.822834,"flightCategory":"IFR","metarType":"METAR","geometry_esri":{"x":47.42,"y":19.27,"z":185}}}