{"type":"Feature","geometry":{"type":"Point","coordinates":[47.78,13.02,430]},"properties":{"stationId":"LOWS","rawText":"LOWS 100550Z 12005KT CAVOK 07/06 Q1017 NOSIG","observationTime":"2019-09-10T05:50:00Z","temp":7,"dewpoint":6,"windDirection":120,"windSpeed":9.26,"visibility":6.21,"altim":30.029528,"flightCategory":"VFR","metarType":"METAR","geometry_esri":{"x":47.78,"y":13.02,"z":430}}}