{"type":"Feature","geometry":{"type":"Point","coordinates":[47.42,19.27,185]},"properties":{"stationId":"LHBP","rawText":"LHBP 270530Z VRB03KT CAVOK M02/M03 Q1025 NOSIG","observationTime":"2019-02-27T05:30:00Z","temp":-2,"dewpoint":-3,"windDirection":0,"windSpeed":5.556,"visibility":6.21,"altim":30.265747,"flightCategory":"VFR","metarType":"METAR","geometry_esri":{"x":47.42,"y":19.27,"z":185}}}