{"type":"Feature","geometry":{"type":"Point","coordinates":[47.42,19.27,185]},"properties":{"stationId":"LHBP","rawText":"LHBP 030630Z 07003KT 1400 R13R/P2000N R13L/2000U BR BKN002 OVC005 M03/M04 Q1030 REFZDZ NOSIG","observationTime":"2020-01-03T06:30:00Z","temp":-3,"dewpoint":-4,"windDirection":70,"windSpeed":5.556,"visibility":0.87,"altim":30.413385,"flightCategory":"LIFR","metarType":"METAR","geometry_esri":{"x":47.42,"y":19.27,"z":185}}}