{"type":"Feature","geometry":{"type":"Point","coordinates":[47.47,21.62,112]},"properties":{"stationId":"LHDC","rawText":"LHDC 220839Z AUTO 21014KT 180V240 9999 BKN015 BKN048 BKN067 17/14 Q1009","observationTime":"2019-05-22T08:39:00Z","temp":17,"dewpoint":14,"windDirection":210,"windSpeed":25.928,"visibility":6.21,"altim":29.793306,"flightCategory":"MVFR","metarType":"SPECI","geometry_esri":{"x":47.47,"y":21.62,"z":112}}}