{"type":"Feature","geometry":{"type":"Point","coordinates":[47.42,19.27,185]},"properties":{"stationId":"LHBP","rawText":"LHBP 260030Z AUTO 06009KT 030V090 9999 OVC069/// 04/M06 Q1025 NOSIG","observationTime":"2020-03-26T00:30:00Z","temp":4,"dewpoint":-6,"windDirection":60,"windSpeed":16.668,"visibility":6.21,"altim":30.265747,"flightCategory":"VFR","metarType":"METAR","geometry_esri":{"x":47.42,"y":19.27,"z":185}}}