{"type":"Feature","geometry":{"type":"Point","coordinates":[47.47,21.62,112]},"properties":{"stationId":"LHDC","rawText":"LHDC 250930Z AUTO 14006KT 120V180 2200 -SHRA SCT006 BKN026 15/15 Q1012","observationTime":"2019-09-25T09:30:00Z","temp":15,"dewpoint":15,"windDirection":140,"windSpeed":11.112,"visibility":1.37,"altim":29.88189,"flightCategory":"IFR","metarType":"SPECI","geometry_esri":{"x":47.47,"y":21.62,"z":112}}}