{"type":"Feature","geometry":{"type":"Point","coordinates":[47.78,13.02,430]},"properties":{"stationId":"LOWS","rawText":"LOWS 060850Z 17004KT 140V200 9999 FEW016 SCT045 BKN150 09/05 Q1018 NOSIG","observationTime":"2019-10-06T08:50:00Z","temp":9,"dewpoint":5,"windDirection":170,"windSpeed":7.408,"visibility":6.21,"altim":30.059055,"flightCategory":"VFR","metarType":"METAR","geometry_esri":{"x":47.78,"y":13.02,"z":430}}}