{"type":"Feature","geometry":{"type":"Point","coordinates":[47.78,13.02,430]},"properties":{"stationId":"LOWS","rawText":"LOWS 122150Z AUTO 18005KT 9999 NSC 13/11 Q1032","observationTime":"2019-09-12T21:50:00Z","temp":13,"dewpoint":11,"windDirection":180,"windSpeed":9.26,"visibility":6.21,"altim":30.47244,"flightCategory":"VFR","metarType":"METAR","geometry_esri":{"x":47.78,"y":13.02,"z":430}}}