{"type":"Feature","geometry":{"type":"Point","coordinates":[47.42,19.27,185]},"properties":{"stationId":"LHBP","rawText":"LHBP 141730Z 01004KT 340V050 CAVOK 19/13 Q1011 NOSIG","observationTime":"2019-07-14T17:30:00Z","temp":19,"dewpoint":13,"windDirection":10,"windSpeed":7.408,"visibility":6.21,"altim":29.852362,"flightCategory":"VFR","metarType":"METAR","geometry_esri":{"x":47.42,"y":19.27,"z":185}}}