{"type":"Feature","geometry":{"type":"Point","coordinates":[47.42,19.27,185]},"properties":{"stationId":"LHBP","rawText":"LHBP 072130Z VRB03KT 8000 NSC M03/M03 Q1021 NOSIG","observationTime":"2019-02-07T21:30:00Z","temp":-3,"dewpoint":-3,"windDirection":0,"windSpeed":5.556,"visibility":4.97,"altim":30.147638,"flightCategory":"MVFR","metarType":"METAR","geometry_esri":{"x":47.42,"y":19.27,"z":185}}}