{"type":"Feature","geometry":{"type":"Point","coordinates":[47.78,13.02,430]},"properties":{"stationId":"LOWS","rawText":"LOWS 051150Z 11006KT 9999 FEW080 10/M05 Q1001 NOSIG","observationTime":"2020-03-05T11:50:00Z","temp":10,"dewpoint":-5,"windDirection":110,"windSpeed":11.112,"visibility":6.21,"altim":29.557087,"flightCategory":"VFR","metarType":"METAR","geometry_esri":{"x":47.78,"y":13.02,"z":430}}}