{"type":"Feature","geometry":{"type":"Point","coordinates":[47.47,21.62,112]},"properties":{"stationId":"LHDC","rawText":"LHDC 280831Z AUTO 17008KT 140V210 2000 BR NCD 02/02 Q1011","observationTime":"2020-01-28T08:31:00Z","temp":2,"dewpoint":2,"windDirection":170,"windSpeed":14.816,"visibility":1.24,"altim":29.852362,"flightCategory":"IFR","metarType":"SPECI","geometry_esri":{"x":47.47,"y":21.62,"z":112}}}