{"type":"Feature","geometry":{"type":"Point","coordinates":[47.78,13.02,430]},"properties":{"stationId":"LOWS","rawText":"LOWS 040950Z 13013G23KT 9999 FEW080 BKN300 18/02 Q0993 NOSIG","observationTime":"2019-04-04T09:50:00Z","temp":18,"dewpoint":2,"windDirection":130,"windSpeed":24.076,"visibility":6.21,"altim":29.320866,"flightCategory":"VFR","metarType":"METAR","geometry_esri":{"x":47.78,"y":13.02,"z":430}}}