{"type":"Feature","geometry":{"type":"Point","coordinates":[47.78,13.02,430]},"properties":{"stationId":"LOWS","rawText":"LOWS 251250Z 32009KT 9999 FEW020 SCT028 BKN050 02/M01 Q1033 NOSIG","observationTime":"2018-12-25T12:50:00Z","temp":2,"dewpoint":-1,"windDirection":320,"windSpeed":16.668,"visibility":6.21,"altim":30.501968,"flightCategory":"VFR","metarType":"METAR","geometry_esri":{"x":47.78,"y":13.02,"z":430}}}