{"type":"Feature","geometry":{"type":"Point","coordinates":[47.42,19.27,185]},"properties":{"stationId":"LHBP","rawText":"LHBP 021630Z 23010KT CAVOK 22/04 Q1006 NOSIG","observationTime":"2019-05-02T16:30:00Z","temp":22,"dewpoint":4,"windDirection":230,"windSpeed":18.52,"visibility":6.21,"altim":29.704725,"flightCategory":"VFR","metarType":"METAR","geometry_esri":{"x":47.42,"y":19.27,"z":185}}}