{"type":"Feature","geometry":{"type":"Point","coordinates":[47.42,19.27,185]},"properties":{"stationId":"LHBP","rawText":"LHBP 041730Z 06008KT 030V090 9999 -SHRA VCTS FEW046CB SCT056 BKN096 23/17 Q1011 TEMPO TL1800 4000 SHRA BECMG FM1800 NSW","observationTime":"2019-06-04T17:30:00Z","temp":23,"dewpoint":17,"windDirection":60,"windSpeed":14.816,"visibility":6.21,"altim":29.852362,"flightCategory":"VFR","metarType":"METAR","geometry_esri":{"x":47.42,"y":19.27,"z":185}}}