{"type":"Feature","geometry":{"type":"Point","coordinates":[47.42,19.27,185]},"properties":{"stationId":"LHBP","rawText":"LHBP 261430Z 31013KT 9999 FEW035 06/00 Q1021 NOSIG","observationTime":"2019-12-26T14:30:00Z","temp":6,"dewpoint":0,"windDirection":310,"windSpeed":24.076,"visibility":6.21,"altim":30.147638,"flightCategory":"VFR","metarType":"METAR","geometry_esri":{"x":47.42,"y":19.27,"z":185}}}