{"type":"Feature","geometry":{"type":"Point","coordinates":[47.78,13.02,430]},"properties":{"stationId":"LOWS","rawText":"LOWS 200450Z 02007KT 340V040 9999 -RA FEW005 BKN012 06/06 Q1015 BECMG NSW BKN030","observationTime":"2020-04-20T04:50:00Z","temp":6,"dewpoint":6,"windDirection":20,"windSpeed":12.964,"visibility":6.21,"altim":29.970472,"flightCategory":"MVFR","metarType":"METAR","geometry_esri":{"x":47.78,"y":13.02,"z":430}}}