{"type":"Feature","geometry":{"type":"Point","coordinates":[47.78,13.02,430]},"properties":{"stationId":"LOWS","rawText":"LOWS 040550Z 33004KT 2500 SHSN FEW005 SCT009 BKN014 M03/M04 Q1033 R15/19//95 TEMPO 0800 SHSN VV006","observationTime":"2019-01-04T05:50:00Z","temp":-3,"dewpoint":-4,"windDirection":330,"windSpeed":7.408,"visibility":1.55,"altim":30.501968,"flightCategory":"IFR","metarType":"METAR","geometry_esri":{"x":47.78,"y":13.02,"z":430}}}