{"type":"Feature","geometry":{"type":"Point","coordinates":[47.42,19.27,185]},"properties":{"stationId":"LHBP","rawText":"LHBP 121730Z 24006KT CAVOK 03/M01 Q1017 NOSIG","observationTime":"2020-02-12T17:30:00Z","temp":3,"dewpoint":-1,"windDirection":240,"windSpeed":11.112,"visibility":6.21,"altim":30.029528,"flightCategory":"VFR","metarType":"METAR","geometry_esri":{"x":47.42,"y":19.27,"z":185}}}