{"type":"Feature","geometry":{"type":"Point","coordinates":[47.78,13.02,430]},"properties":{"stationId":"LOWS","rawText":"LOWS 100850Z VRB02KT 9999 FEW060 17/04 Q1024 NOSIG","observationTime":"2020-04-10T08:50:00Z","temp":17,"dewpoint":4,"windDirection":0,"windSpeed":3.704,"visibility":6.21,"altim":30.236221,"flightCategory":"VFR","metarType":"METAR","geometry_esri":{"x":47.78,"y":13.02,"z":430}}}