{"type":"Feature","geometry":{"type":"Point","coordinates":[47.42,19.27,185]},"properties":{"stationId":"LHBP","rawText":"LHBP 241130Z 33013KT CAVOK 02/M01 Q1001 R88/29//95 NOSIG","observationTime":"2019-01-24T11:30:00Z","temp":2,"dewpoint":-1,"windDirection":330,"windSpeed":24.076,"visibility":6.21,"altim":29.557087,"flightCategory":"VFR","metarType":"SPECI","geometry_esri":{"x":47.42,"y":19.27,"z":185}}}