{"type":"Feature","geometry":{"type":"Point","coordinates":[47.78,13.02,430]},"properties":{"stationId":"LOWS","rawText":"LOWS 300250Z AUTO 31007KT 5000 -SN FEW003 BKN008 BKN018 01/00 Q1022","observationTime":"2020-03-30T02:50:00Z","temp":1,"dewpoint":0,"windDirection":310,"windSpeed":12.964,"visibility":3.11,"altim":30.177166,"flightCategory":"IFR","metarType":"METAR","geometry_esri":{"x":47.78,"y":13.02,"z":430}}}