{"type":"Feature","geometry":{"type":"Point","coordinates":[47.78,13.02,430]},"properties":{"stationId":"LOWS","rawText":"LOWS 291550Z 03006KT CAVOK 30/09 Q1019 NOSIG","observationTime":"2019-06-29T15:50:00Z","temp":30,"dewpoint":9,"windDirection":30,"windSpeed":11.112,"visibility":6.21,"altim":30.088583,"flightCategory":"VFR","metarType":"METAR","geometry_esri":{"x":47.78,"y":13.02,"z":430}}}