{"type":"Feature","geometry":{"type":"Point","coordinates":[47.42,19.27,185]},"properties":{"stationId":"LHBP","rawText":"LHBP 251430Z 29020KT 9999 VCBLDU NSC 14/01 Q1010 NOSIG","observationTime":"2019-03-25T14:30:00Z","temp":14,"dewpoint":1,"windDirection":290,"windSpeed":37.04,"visibility":6.21,"altim":29.822834,"flightCategory":"VFR","metarType":"METAR","geometry_esri":{"x":47.42,"y":19.27,"z":185}}}