{"type":"Feature","geometry":{"type":"Point","coordinates":[47.78,13.02,430]},"properties":{"stationId":"LOWS","rawText":"LOWS 082050Z 19004KT CAVOK M00/M03 Q1026 NOSIG","observationTime":"2020-02-08T20:50:00Z","temp":0,"dewpoint":-3,"windDirection":190,"windSpeed":7.408,"visibility":6.21,"altim":30.295275,"flightCategory":"VFR","metarType":"METAR","geometry_esri":{"x":47.78,"y":13.02,"z":430}}}