{"type":"Feature","geometry":{"type":"Point","coordinates":[47.42,19.27,185]},"properties":{"stationId":"LHBP","rawText":"LHBP 161730Z 28009KT CAVOK 25/13 Q1010 NOSIG","observationTime":"2019-07-16T17:30:00Z","temp":25,"dewpoint":13,"windDirection":280,"windSpeed":16.668,"visibility":6.21,"altim":29.822834,"flightCategory":"VFR","metarType":"METAR","geometry_esri":{"x":47.42,"y":19.27,"z":185}}}