{"type":"Feature","geometry":{"type":"Point","coordinates":[47.78,13.02,430]},"properties":{"stationId":"LOWS","rawText":"LOWS 301950Z 16008KT 9999 FEW070 11/08 Q1027 NOSIG","observationTime":"2019-05-30T19:50:00Z","temp":11,"dewpoint":8,"windDirection":160,"windSpeed":14.816,"visibility":6.21,"altim":30.324802,"flightCategory":"VFR","metarType":"METAR","geometry_esri":{"x":47.78,"y":13.02,"z":430}}}