{"type":"Feature","geometry":{"type":"Point","coordinates":[47.78,13.02,430]},"properties":{"stationId":"LOWS","rawText":"LOWS 060450Z VRB03KT 0200 R15/0650N R33/0700N FZFG VV002 M03/M03 Q1021 NOSIG","observationTime":"2019-12-06T04:50:00Z","temp":-3,"dewpoint":-3,"windDirection":0,"windSpeed":5.556,"visibility":0.12,"altim":30.147638,"flightCategory":"LIFR","metarType":"METAR","geometry_esri":{"x":47.78,"y":13.02,"z":430}}}