{"type":"Feature","geometry":{"type":"Point","coordinates":[47.42,19.27,185]},"properties":{"stationId":"LHBP","rawText":"LHBP 010830Z 11007KT 080V140 CAVOK 07/M11 Q1023 NOSIG","observationTime":"2020-04-01T08:30:00Z","temp":7,"dewpoint":-11,"windDirection":110,"windSpeed":12.964,"visibility":6.21,"altim":30.206694,"flightCategory":"VFR","metarType":"METAR","geometry_esri":{"x":47.42,"y":19.27,"z":185}}}