{"type":"Feature","geometry":{"type":"Point","coordinates":[47.42,19.27,185]},"properties":{"stationId":"LHBP","rawText":"LHBP 262130Z VRB01KT 2700 MIFG BR NSC 08/08 Q1022 BECMG 1400 BCFG","observationTime":"2019-10-26T21:30:00Z","temp":8,"dewpoint":8,"windDirection":0,"windSpeed":1.852,"visibility":1.68,"altim":30.177166,"flightCategory":"IFR","metarType":"SPECI","geometry_esri":{"x":47.42,"y":19.27,"z":185}}}