{"type":"Feature","geometry":{"type":"Point","coordinates":[47.78,13.02,430]},"properties":{"stationId":"LOWS","rawText":"LOWS 240750Z 30011KT 260V320 9000 RA FEW007 SCT009 BKN015 03/01 Q1021 BECMG -RA","observationTime":"2018-12-24T07:50:00Z","temp":3,"dewpoint":1,"windDirection":300,"windSpeed":20.372,"visibility":5.59,"altim":30.147638,"flightCategory":"MVFR","metarType":"METAR","geometry_esri":{"x":47.78,"y":13.02,"z":430}}}