{"type":"Feature","geometry":{"type":"Point","coordinates":[47.42,19.27,185]},"properties":{"stationId":"LHBP","rawText":"LHBP 011330Z 08008KT 5000 BR NSC 03/03 Q1006 NOSIG","observationTime":"2019-02-01T13:30:00Z","temp":3,"dewpoint":3,"windDirection":80,"windSpeed":14.816,"visibility":3.11,"altim":29.704725,"flightCategory":"MVFR","metarType":"METAR","geometry_esri":{"x":47.42,"y":19.27,"z":185}}}