{"type":"Feature","geometry":{"type":"Point","coordinates":[47.42,19.27,185]},"properties":{"stationId":"LHBP","rawText":"LHBP 081130Z 16004KT 120V200 CAVOK 02/M04 Q1032 NOSIG","observationTime":"2020-01-08T11:30:00Z","temp":2,"dewpoint":-4,"windDirection":160,"windSpeed":7.408,"visibility":6.21,"altim":30.47244,"flightCategory":"VFR","metarType":"METAR","geometry_esri":{"x":47.42,"y":19.27,"z":185}}}