{"type":"Feature","geometry":{"type":"Point","coordinates":[47.42,19.27,185]},"properties":{"stationId":"LHBP","rawText":"LHBP 291233Z 26011KT 9999 -SHRA FEW017 FEW037CB BKN042 16/11 Q1004 RESHRA TEMPO 4000 SHRA","observationTime":"2020-04-29T12:33:00Z","temp":16,"dewpoint":11,"windDirection":260,"windSpeed":20.372,"visibility":6.21,"altim":29.64567,"flightCategory":"VFR","metarType":"SPECI","geometry_esri":{"x":47.42,"y":19.27,"z":185}}}