{"type":"Feature","geometry":{"type":"Point","coordinates":[47.42,19.27,185]},"properties":{"stationId":"LHBP","rawText":"LHBP 071530Z 32009KT CAVOK 23/15 Q1006 NOSIG","observationTime":"2019-07-07T15:30:00Z","temp":23,"dewpoint":15,"windDirection":320,"windSpeed":16.668,"visibility":6.21,"altim":29.704725,"flightCategory":"VFR","metarType":"METAR","geometry_esri":{"x":47.42,"y":19.27,"z":185}}}