{"type":"Feature","geometry":{"type":"Point","coordinates":[47.42,19.27,185]},"properties":{"stationId":"LHBP","rawText":"LHBP 081730Z 17007KT 0400 R13R/0600N R13L/0650D -DZ FG VV002 03/03 Q1014 TEMPO 0100 FG VV001","observationTime":"2019-12-08T17:30:00Z","temp":3,"dewpoint":3,"windDirection":170,"windSpeed":12.964,"visibility":0.25,"altim":29.940945,"flightCategory":"LIFR","metarType":"METAR","geometry_esri":{"x":47.42,"y":19.27,"z":185}}}