{"type":"Feature","geometry":{"type":"Point","coordinates":[47.78,13.02,430]},"properties":{"stationId":"LOWS","rawText":"LOWS 090950Z 30011G21KT 260V320 5000 -SHSN FEW008 SCT018 BKN030 00/M01 Q1008 RESN R15/590195 TEMPO 2000","observationTime":"2019-01-09T09:50:00Z","temp":0,"dewpoint":-1,"windDirection":300,"windSpeed":20.372,"visibility":3.11,"altim":29.763779,"flightCategory":"MVFR","metarType":"METAR","geometry_esri":{"x":47.78,"y":13.02,"z":430}}}