{"type":"Feature","geometry":{"type":"Point","coordinates":[47.78,13.02,430]},"properties":{"stationId":"LOWS","rawText":"LOWS 260350Z 15012KT 9999 FEW040 BKN060 M06/M10 Q1014 TEMPO 4000 -SN","observationTime":"2019-01-26T03:50:00Z","temp":-6,"dewpoint":-10,"windDirection":150,"windSpeed":22.224,"visibility":6.21,"altim":29.940945,"flightCategory":"VFR","metarType":"METAR","geometry_esri":{"x":47.78,"y":13.02,"z":430}}}