{"type":"Feature","geometry":{"type":"Point","coordinates":[47.42,19.27,185]},"properties":{"stationId":"LHBP","rawText":"LHBP 251930Z VRB02KT CAVOK 01/M06 Q1031 NOSIG","observationTime":"2019-02-25T19:30:00Z","temp":1,"dewpoint":-6,"windDirection":0,"windSpeed":3.704,"visibility":6.21,"altim":30.442913,"flightCategory":"VFR","metarType":"METAR","geometry_esri":{"x":47.42,"y":19.27,"z":185}}}