{"type":"Feature","geometry":{"type":"Point","coordinates":[47.78,13.02,430]},"properties":{"stationId":"LOWS","rawText":"LOWS 270150Z AUTO 27008KT 230V320 9999 FEW032 SCT048 BKN080 02/M04 Q1009","observationTime":"2020-02-27T01:50:00Z","temp":2,"dewpoint":-4,"windDirection":270,"windSpeed":14.816,"visibility":6.21,"altim":29.793306,"flightCategory":"VFR","metarType":"METAR","geometry_esri":{"x":47.78,"y":13.02,"z":430}}}