{"type":"Feature","geometry":{"type":"Point","coordinates":[47.78,13.02,430]},"properties":{"stationId":"LOWS","rawText":"LOWS 101650Z 27009G19KT 240V300 9999 SCT070 BKN150 09/M03 Q1010 NOSIG","observationTime":"2020-02-10T16:50:00Z","temp":9,"dewpoint":-3,"windDirection":270,"windSpeed":16.668,"visibility":6.21,"altim":29.822834,"flightCategory":"VFR","metarType":"METAR","geometry_esri":{"x":47.78,"y":13.02,"z":430}}}