{"type":"Feature","geometry":{"type":"Point","coordinates":[47.47,21.62,112]},"properties":{"stationId":"LHDC","rawText":"LHDC 141532Z 05005KT 9999 FEW010 BKN043 02/M01 Q0998","observationTime":"2019-01-14T15:32:00Z","temp":2,"dewpoint":-1,"windDirection":50,"windSpeed":9.26,"visibility":6.21,"altim":29.468504,"flightCategory":"VFR","metarType":"SPECI","geometry_esri":{"x":47.47,"y":21.62,"z":112}}}