{"type":"Feature","geometry":{"type":"Point","coordinates":[47.42,19.27,185]},"properties":{"stationId":"LHBP","rawText":"LHBP 301030Z 23004KT 170V280 CAVOK 16/01 Q1026 NOSIG","observationTime":"2019-03-30T10:30:00Z","temp":16,"dewpoint":1,"windDirection":230,"windSpeed":7.408,"visibility":6.21,"altim":30.295275,"flightCategory":"VFR","metarType":"METAR","geometry_esri":{"x":47.42,"y":19.27,"z":185}}}