{"type":"Feature","geometry":{"type":"Point","coordinates":[47.78,13.02,430]},"properties":{"stationId":"LOWS","rawText":"LOWS 210250Z AUTO 33003KT 7000 FEW010 BKN042 M03/M05 Q1018","observationTime":"2019-01-21T02:50:00Z","temp":-3,"dewpoint":-5,"windDirection":330,"windSpeed":5.556,"visibility":4.35,"altim":30.059055,"flightCategory":"MVFR","metarType":"METAR","geometry_esri":{"x":47.78,"y":13.02,"z":430}}}