{"type":"Feature","geometry":{"type":"Point","coordinates":[47.42,19.27,185]},"properties":{"stationId":"LHBP","rawText":"LHBP 120830Z 07004KT 020V110 5000 -RA BR BKN007 OVC026 02/01 Q1010 NOSIG","observationTime":"2019-12-12T08:30:00Z","temp":2,"dewpoint":1,"windDirection":70,"windSpeed":7.408,"visibility":3.11,"altim":29.822834,"flightCategory":"IFR","metarType":"METAR","geometry_esri":{"x":47.42,"y":19.27,"z":185}}}