{"type":"Feature","geometry":{"type":"Point","coordinates":[47.42,19.27,185]},"properties":{"stationId":"LHBP","rawText":"LHBP 011230Z 10009KT 4300 BR FEW009 OVC050 03/03 Q1006 NOSIG","observationTime":"2019-02-01T12:30:00Z","temp":3,"dewpoint":3,"windDirection":100,"windSpeed":16.668,"visibility":2.67,"altim":29.704725,"flightCategory":"IFR","metarType":"METAR","geometry_esri":{"x":47.42,"y":19.27,"z":185}}}