{"type":"Feature","geometry":{"type":"Point","coordinates":[47.42,19.27,185]},"properties":{"stationId":"LHBP","rawText":"LHBP 160330Z 11004KT CAVOK 19/18 Q1013 NOSIG","observationTime":"2019-06-16T03:30:00Z","temp":19,"dewpoint":18,"windDirection":110,"windSpeed":7.408,"visibility":6.21,"altim":29.911417,"flightCategory":"VFR","metarType":"METAR","geometry_esri":{"x":47.42,"y":19.27,"z":185}}}