{"type":"Feature","geometry":{"type":"Point","coordinates":[47.42,19.27,185]},"properties":{"stationId":"LHBP","rawText":"LHBP 190930Z 08005KT 050V110 4500 BR NSC 06/05 Q1026 BECMG 6000 NSW","observationTime":"2019-12-19T09:30:00Z","temp":6,"dewpoint":5,"windDirection":80,"windSpeed":9.26,"visibility":2.8,"altim":30.295275,"flightCategory":"IFR","metarType":"SPECI","geometry_esri":{"x":47.42,"y":19.27,"z":185}}}