{"type":"Feature","geometry":{"type":"Point","coordinates":[47.42,19.27,185]},"properties":{"stationId":"LHBP","rawText":"LHBP 101730Z 25007KT 9000 -RA SCT010 BKN043 07/06 Q1010 NOSIG","observationTime":"2019-11-10T17:30:00Z","temp":7,"dewpoint":6,"windDirection":250,"windSpeed":12.964,"visibility":5.59,"altim":29.822834,"flightCategory":"VFR","metarType":"METAR","geometry_esri":{"x":47.42,"y":19.27,"z":185}}}