{"type":"Feature","geometry":{"type":"Point","coordinates":[47.78,13.02,430]},"properties":{"stationId":"LOWS","rawText":"LOWS 210550Z 32003KT 7000 FEW012 SCT026 BKN038 M02/M05 Q1018 R15/410295 NOSIG","observationTime":"2019-01-21T05:50:00Z","temp":-2,"dewpoint":-5,"windDirection":320,"windSpeed":5.556,"visibility":4.35,"altim":30.059055,"flightCategory":"MVFR","metarType":"METAR","geometry_esri":{"x":47.78,"y":13.02,"z":430}}}