{"type":"Feature","geometry":{"type":"Point","coordinates":[47.42,19.27,185]},"properties":{"stationId":"LHBP","rawText":"LHBP 100430Z 09005KT CAVOK 20/20 Q1015 NOSIG","observationTime":"2019-08-10T04:30:00Z","temp":20,"dewpoint":20,"windDirection":90,"windSpeed":9.26,"visibility":6.21,"altim":29.970472,"flightCategory":"VFR","metarType":"METAR","geometry_esri":{"x":47.42,"y":19.27,"z":185}}}