{"type":"Feature","geometry":{"type":"Point","coordinates":[47.42,19.27,185]},"properties":{"stationId":"LHBP","rawText":"LHBP 121730Z 21006KT CAVOK 16/05 Q1012 NOSIG","observationTime":"2020-03-12T17:30:00Z","temp":16,"dewpoint":5,"windDirection":210,"windSpeed":11.112,"visibility":6.21,"altim":29.88189,"flightCategory":"VFR","metarType":"METAR","geometry_esri":{"x":47.42,"y":19.27,"z":185}}}