{"type":"Feature","geometry":{"type":"Point","coordinates":[47.42,19.27,185]},"properties":{"stationId":"LHBP","rawText":"LHBP 081230Z 27008KT 230V310 CAVOK 15/04 Q1016 NOSIG","observationTime":"2019-03-08T12:30:00Z","temp":15,"dewpoint":4,"windDirection":270,"windSpeed":14.816,"visibility":6.21,"altim":30,"flightCategory":"VFR","metarType":"METAR","geometry_esri":{"x":47.42,"y":19.27,"z":185}}}