{"type":"Feature","geometry":{"type":"Point","coordinates":[47.78,13.02,430]},"properties":{"stationId":"LOWS","rawText":"LOWS 220850Z 13010KT 100V190 CAVOK 17/M01 Q1016 NOSIG","observationTime":"2020-04-22T08:50:00Z","temp":17,"dewpoint":-1,"windDirection":130,"windSpeed":18.52,"visibility":6.21,"altim":30,"flightCategory":"VFR","metarType":"METAR","geometry_esri":{"x":47.78,"y":13.02,"z":430}}}