{"type":"Feature","geometry":{"type":"Point","coordinates":[47.78,13.02,430]},"properties":{"stationId":"LOWS","rawText":"LOWS 191050Z 27004KT 230V320 9999 FEW007 SCT012 BKN024 02/M00 Q1033 R15/290195 NOSIG","observationTime":"2020-01-19T10:50:00Z","temp":2,"dewpoint":0,"windDirection":270,"windSpeed":7.408,"visibility":6.21,"altim":30.501968,"flightCategory":"MVFR","metarType":"METAR","geometry_esri":{"x":47.78,"y":13.02,"z":430}}}