{"type":"Feature","geometry":{"type":"Point","coordinates":[47.78,13.02,430]},"properties":{"stationId":"LOWS","rawText":"LOWS 012050Z 17009KT 4000 +RA FEW002 BKN022 FEW040CB 17/16 Q1017 TEMPO 5000 RA","observationTime":"2019-09-01T20:50:00Z","temp":17,"dewpoint":16,"windDirection":170,"windSpeed":16.668,"visibility":2.49,"altim":30.029528,"flightCategory":"IFR","metarType":"METAR","geometry_esri":{"x":47.78,"y":13.02,"z":430}}}