{"type":"Feature","geometry":{"type":"Point","coordinates":[47.42,19.27,185]},"properties":{"stationId":"LHBP","rawText":"LHBP 280730Z 14013KT CAVOK 17/05 Q1010 NOSIG","observationTime":"2020-04-28T07:30:00Z","temp":17,"dewpoint":5,"windDirection":140,"windSpeed":24.076,"visibility":6.21,"altim":29.822834,"flightCategory":"VFR","metarType":"METAR","geometry_esri":{"x":47.42,"y":19.27,"z":185}}}