{"type":"Feature","geometry":{"type":"Point","coordinates":[47.42,19.27,185]},"properties":{"stationId":"LHBP","rawText":"LHBP 240930Z 07008KT 030V100 9999 FEW039 BKN260 28/19 Q1022 NOSIG","observationTime":"2019-08-24T09:30:00Z","temp":28,"dewpoint":19,"windDirection":70,"windSpeed":14.816,"visibility":6.21,"altim":30.177166,"flightCategory":"VFR","metarType":"METAR","geometry_esri":{"x":47.42,"y":19.27,"z":185}}}