{"type":"Feature","geometry":{"type":"Point","coordinates":[47.78,13.02,430]},"properties":{"stationId":"LOWS","rawText":"LOWS 050350Z 23004KT 190V260 4400 -SN FEW003 BKN015 M00/M01 Q1027 R88/////// TEMPO BKN014","observationTime":"2019-01-05T03:50:00Z","temp":0,"dewpoint":-1,"windDirection":230,"windSpeed":7.408,"visibility":2.73,"altim":30.324802,"flightCategory":"IFR","metarType":"METAR","geometry_esri":{"x":47.78,"y":13.02,"z":430}}}