{"type":"Feature","geometry":{"type":"Point","coordinates":[47.47,21.62,112]},"properties":{"stationId":"LHDC","rawText":"LHDC 041341Z AUTO 18010KT 150V210 5000 SHRA BKN029 16/14 Q0996","observationTime":"2019-11-04T13:41:00Z","temp":16,"dewpoint":14,"windDirection":180,"windSpeed":18.52,"visibility":3.11,"altim":29.409449,"flightCategory":"MVFR","metarType":"SPECI","geometry_esri":{"x":47.47,"y":21.62,"z":112}}}