{"type":"Feature","geometry":{"type":"Point","coordinates":[47.47,21.62,112]},"properties":{"stationId":"LHDC","rawText":"LHDC 080049Z AUTO VRB02KT 4700 BR NSC 16/16 Q1016","observationTime":"2019-09-08T00:49:00Z","temp":16,"dewpoint":16,"windDirection":0,"windSpeed":3.704,"visibility":2.92,"altim":30,"flightCategory":"IFR","metarType":"SPECI","geometry_esri":{"x":47.47,"y":21.62,"z":112}}}