{"type":"Feature","geometry":{"type":"Point","coordinates":[47.42,19.27,185]},"properties":{"stationId":"LHBP","rawText":"LHBP 152130Z 07006KT CAVOK 08/M03 Q1021 NOSIG","observationTime":"2019-04-15T21:30:00Z","temp":8,"dewpoint":-3,"windDirection":70,"windSpeed":11.112,"visibility":6.21,"altim":30.147638,"flightCategory":"VFR","metarType":"METAR","geometry_esri":{"x":47.42,"y":19.27,"z":185}}}