{"type":"Feature","geometry":{"type":"Point","coordinates":[47.78,13.02,430]},"properties":{"stationId":"LOWS","rawText":"LOWS 240350Z 16003KT 5000 1400SE R15/P1500U R33/P1500D BCFG FEW001 SCT180 BKN250 15/14 Q1021 TEMPO 1200","observationTime":"2019-08-24T03:50:00Z","temp":15,"dewpoint":14,"windDirection":160,"windSpeed":5.556,"visibility":3.11,"altim":30.147638,"flightCategory":"MVFR","metarType":"METAR","geometry_esri":{"x":47.78,"y":13.02,"z":430}}}