{"type":"Feature","geometry":{"type":"Point","coordinates":[47.42,19.27,185]},"properties":{"stationId":"LHBP","rawText":"LHBP 190845Z 10004KT 1000 R31L/P1500N R31R/P1500N FZBCFG BR BKN002 M08/M08 Q1030 BECMG 0500 FZFG OVC001","observationTime":"2018-12-19T08:45:00Z","temp":-8,"dewpoint":-8,"windDirection":100,"windSpeed":7.408,"visibility":0.62,"altim":30.413385,"flightCategory":"LIFR","metarType":"SPECI","geometry_esri":{"x":47.42,"y":19.27,"z":185}}}