{"type":"Feature","geometry":{"type":"Point","coordinates":[47.78,13.02,430]},"properties":{"stationId":"LOWS","rawText":"LOWS 281250Z 28005KT 250V310 9999 FEW050 SCT070 BKN110 21/08 Q1005 NOSIG","observationTime":"2020-04-28T12:50:00Z","temp":21,"dewpoint":8,"windDirection":280,"windSpeed":9.26,"visibility":6.21,"altim":29.675198,"flightCategory":"VFR","metarType":"METAR","geometry_esri":{"x":47.78,"y":13.02,"z":430}}}