{"type":"Feature","geometry":{"type":"Point","coordinates":[47.78,13.02,430]},"properties":{"stationId":"LOWS","rawText":"LOWS 030950Z 15010KT CAVOK 03/M02 Q1025 NOSIG","observationTime":"2020-01-03T09:50:00Z","temp":3,"dewpoint":-2,"windDirection":150,"windSpeed":18.52,"visibility":6.21,"altim":30.265747,"flightCategory":"VFR","metarType":"METAR","geometry_esri":{"x":47.78,"y":13.02,"z":430}}}