{"type":"Feature","geometry":{"type":"Point","coordinates":[47.42,19.27,185]},"properties":{"stationId":"LHBP","rawText":"LHBP 240830Z 09005KT 8000 NSC 17/13 Q1018 BECMG CAVOK","observationTime":"2019-10-24T08:30:00Z","temp":17,"dewpoint":13,"windDirection":90,"windSpeed":9.26,"visibility":4.97,"altim":30.059055,"flightCategory":"MVFR","metarType":"METAR","geometry_esri":{"x":47.42,"y":19.27,"z":185}}}