{"type":"Feature","geometry":{"type":"Point","coordinates":[47.42,19.27,185]},"properties":{"stationId":"LHBP","rawText":"LHBP 261830Z 22004KT 180V240 CAVOK 31/21 Q1021 NOSIG","observationTime":"2019-06-26T18:30:00Z","temp":31,"dewpoint":21,"windDirection":220,"windSpeed":7.408,"visibility":6.21,"altim":30.147638,"flightCategory":"VFR","metarType":"METAR","geometry_esri":{"x":47.42,"y":19.27,"z":185}}}