{"type":"Feature","geometry":{"type":"Point","coordinates":[47.47,21.62,112]},"properties":{"stationId":"LHDC","rawText":"LHDC 291131Z AUTO VRB02KT 7000 FEW034 24/17 Q1011","observationTime":"2019-05-29T11:31:00Z","temp":24,"dewpoint":17,"windDirection":0,"windSpeed":3.704,"visibility":4.35,"altim":29.852362,"flightCategory":"MVFR","metarType":"SPECI","geometry_esri":{"x":47.47,"y":21.62,"z":112}}}