{"type":"Feature","geometry":{"type":"Point","coordinates":[47.78,13.02,430]},"properties":{"stationId":"LOWS","rawText":"LOWS 102250Z AUTO 18004KT 120V220 9999 FEW038 BKN050 09/08 Q1023","observationTime":"2019-10-10T22:50:00Z","temp":9,"dewpoint":8,"windDirection":180,"windSpeed":7.408,"visibility":6.21,"altim":30.206694,"flightCategory":"VFR","metarType":"METAR","geometry_esri":{"x":47.78,"y":13.02,"z":430}}}