{"type":"Feature","geometry":{"type":"Point","coordinates":[47.42,19.27,185]},"properties":{"stationId":"LHBP","rawText":"LHBP 132030Z 01006KT 4000 BR OVC010 05/04 Q0994 NOSIG","observationTime":"2019-12-13T20:30:00Z","temp":5,"dewpoint":4,"windDirection":10,"windSpeed":11.112,"visibility":2.49,"altim":29.350393,"flightCategory":"IFR","metarType":"METAR","geometry_esri":{"x":47.42,"y":19.27,"z":185}}}