{"type":"Feature","geometry":{"type":"Point","coordinates":[47.42,19.27,185]},"properties":{"stationId":"LHBP","rawText":"LHBP 071530Z 21007KT 180V240 9999 SCT048 27/15 Q1015 NOSIG","observationTime":"2019-06-07T15:30:00Z","temp":27,"dewpoint":15,"windDirection":210,"windSpeed":12.964,"visibility":6.21,"altim":29.970472,"flightCategory":"VFR","metarType":"METAR","geometry_esri":{"x":47.42,"y":19.27,"z":185}}}