{"type":"Feature","geometry":{"type":"Point","coordinates":[47.78,13.02,430]},"properties":{"stationId":"LOWS","rawText":"LOWS 312350Z AUTO 14006KT 2300 -RA BR FEW001 BKN017 02/01 Q1032","observationTime":"2018-12-31T23:50:00Z","temp":2,"dewpoint":1,"windDirection":140,"windSpeed":11.112,"visibility":1.43,"altim":30.47244,"flightCategory":"IFR","metarType":"METAR","geometry_esri":{"x":47.78,"y":13.02,"z":430}}}