{"type":"Feature","geometry":{"type":"Point","coordinates":[47.42,19.27,185]},"properties":{"stationId":"LHBP","rawText":"LHBP 070930Z 29004KT 230V330 CAVOK 15/M05 Q1035 NOSIG","observationTime":"2020-04-07T09:30:00Z","temp":15,"dewpoint":-5,"windDirection":290,"windSpeed":7.408,"visibility":6.21,"altim":30.561024,"flightCategory":"VFR","metarType":"METAR","geometry_esri":{"x":47.42,"y":19.27,"z":185}}}