{"type":"Feature","geometry":{"type":"Point","coordinates":[47.42,19.27,185]},"properties":{"stationId":"LHBP","rawText":"LHBP 111630Z 23009KT CAVOK 24/08 Q1000 NOSIG","observationTime":"2020-05-11T16:30:00Z","temp":24,"dewpoint":8,"windDirection":230,"windSpeed":16.668,"visibility":6.21,"altim":29.52756,"flightCategory":"VFR","metarType":"METAR","geometry_esri":{"x":47.42,"y":19.27,"z":185}}}