{"type":"Feature","geometry":{"type":"Point","coordinates":[47.78,13.02,430]},"properties":{"stationId":"LOWS","rawText":"LOWS 081550Z 01003KT 270V070 9999 FEW070 24/07 Q1015 NOSIG","observationTime":"2020-05-08T15:50:00Z","temp":24,"dewpoint":7,"windDirection":10,"windSpeed":5.556,"visibility":6.21,"altim":29.970472,"flightCategory":"VFR","metarType":"METAR","geometry_esri":{"x":47.78,"y":13.02,"z":430}}}