{"type":"Feature","geometry":{"type":"Point","coordinates":[47.42,19.27,185]},"properties":{"stationId":"LHBP","rawText":"LHBP 221730Z 24011KT CAVOK 07/06 Q1014 R88/29//95 NOSIG","observationTime":"2018-12-22T17:30:00Z","temp":7,"dewpoint":6,"windDirection":240,"windSpeed":20.372,"visibility":6.21,"altim":29.940945,"flightCategory":"VFR","metarType":"SPECI","geometry_esri":{"x":47.42,"y":19.27,"z":185}}}