{"type":"Feature","geometry":{"type":"Point","coordinates":[47.47,21.62,112]},"properties":{"stationId":"LHDC","rawText":"LHDC 311447Z AUTO 34009KT 300V030 5000 NCD 22/13 Q1019","observationTime":"2019-05-31T14:47:00Z","temp":22,"dewpoint":13,"windDirection":340,"windSpeed":16.668,"visibility":3.11,"altim":30.088583,"flightCategory":"MVFR","metarType":"SPECI","geometry_esri":{"x":47.47,"y":21.62,"z":112}}}