{"type":"Feature","geometry":{"type":"Point","coordinates":[47.42,19.27,185]},"properties":{"stationId":"LHBP","rawText":"LHBP 061830Z 06006KT 020V100 9999 SCT036 BKN060 M02/M03 Q1021 R88/25//95 NOSIG","observationTime":"2019-01-06T18:30:00Z","temp":-2,"dewpoint":-3,"windDirection":60,"windSpeed":11.112,"visibility":6.21,"altim":30.147638,"flightCategory":"VFR","metarType":"METAR","geometry_esri":{"x":47.42,"y":19.27,"z":185}}}