{"type":"Feature","geometry":{"type":"Point","coordinates":[47.42,19.27,185]},"properties":{"stationId":"LHBP","rawText":"LHBP 200930Z 31007KT 2000 BR BKN052 01/00 Q1043 NOSIG","observationTime":"2020-01-20T09:30:00Z","temp":1,"dewpoint":0,"windDirection":310,"windSpeed":12.964,"visibility":1.24,"altim":30.797245,"flightCategory":"IFR","metarType":"METAR","geometry_esri":{"x":47.42,"y":19.27,"z":185}}}