{"type":"Feature","geometry":{"type":"Point","coordinates":[47.47,21.62,112]},"properties":{"stationId":"LHDC","rawText":"LHDC 090047Z AUTO 11003KT 0800 R04/0900U FG FEW004 BKN082 //////TCU 07/07 Q1010","observationTime":"2019-11-09T00:47:00Z","temp":7,"dewpoint":7,"windDirection":110,"windSpeed":5.556,"visibility":0.5,"altim":29.822834,"flightCategory":"LIFR","metarType":"SPECI","geometry_esri":{"x":47.47,"y":21.62,"z":112}}}