{"type":"Feature","geometry":{"type":"Point","coordinates":[47.42,19.27,185]},"properties":{"stationId":"LHBP","rawText":"LHBP 171500Z VRB02KT 2500 BR NSC M04/M04 Q1023 R88/19//95 TEMPO 3000 BR","observationTime":"2018-12-17T15:00:00Z","temp":-4,"dewpoint":-4,"windDirection":0,"windSpeed":3.704,"visibility":1.55,"altim":30.206694,"flightCategory":"IFR","metarType":"METAR","geometry_esri":{"x":47.42,"y":19.27,"z":185}}}