{"type":"Feature","geometry":{"type":"Point","coordinates":[47.42,19.27,185]},"properties":{"stationId":"LHBP","rawText":"LHBP 190830Z 15005KT 120V180 CAVOK 26/15 Q1017 NOSIG","observationTime":"2019-08-19T08:30:00Z","temp":26,"dewpoint":15,"windDirection":150,"windSpeed":9.26,"visibility":6.21,"altim":30.029528,"flightCategory":"VFR","metarType":"METAR","geometry_esri":{"x":47.42,"y":19.27,"z":185}}}