{"type":"Feature","geometry":{"type":"Point","coordinates":[47.42,19.27,185]},"properties":{"stationId":"LHBP","rawText":"LHBP 160330Z 35006KT CAVOK 12/11 Q1013 WS ALL RWY NOSIG","observationTime":"2019-07-16T03:30:00Z","temp":12,"dewpoint":11,"windDirection":350,"windSpeed":11.112,"visibility":6.21,"altim":29.911417,"flightCategory":"VFR","metarType":"METAR","geometry_esri":{"x":47.42,"y":19.27,"z":185}}}