{"type":"Feature","geometry":{"type":"Point","coordinates":[47.78,13.02,430]},"properties":{"stationId":"LOWS","rawText":"LOWS 301450Z 21005KT 150V280 9999 FEW004 SCT022 BKN026 07/06 Q1017 TEMPO SHRA","observationTime":"2019-04-30T14:50:00Z","temp":7,"dewpoint":6,"windDirection":210,"windSpeed":9.26,"visibility":6.21,"altim":30.029528,"flightCategory":"MVFR","metarType":"METAR","geometry_esri":{"x":47.78,"y":13.02,"z":430}}}