{"type":"Feature","geometry":{"type":"Point","coordinates":[47.42,19.27,185]},"properties":{"stationId":"LHBP","rawText":"LHBP 221830Z 31006KT CAVOK M02/M04 Q1028 NOSIG","observationTime":"2020-01-22T18:30:00Z","temp":-2,"dewpoint":-4,"windDirection":310,"windSpeed":11.112,"visibility":6.21,"altim":30.35433,"flightCategory":"VFR","metarType":"METAR","geometry_esri":{"x":47.42,"y":19.27,"z":185}}}