{"type":"Feature","geometry":{"type":"Point","coordinates":[47.78,13.02,430]},"properties":{"stationId":"LOWS","rawText":"LOWS 021150Z 15005KT 110V200 9999 FEW070 BKN300 20/00 Q1011 NOSIG","observationTime":"2019-04-02T11:50:00Z","temp":20,"dewpoint":0,"windDirection":150,"windSpeed":9.26,"visibility":6.21,"altim":29.852362,"flightCategory":"VFR","metarType":"METAR","geometry_esri":{"x":47.78,"y":13.02,"z":430}}}