{"type":"Feature","geometry":{"type":"Point","coordinates":[47.78,13.02,430]},"properties":{"stationId":"LOWS","rawText":"LOWS 030550Z 31004KT 270V330 3300 -SN SCT003 BKN010 00/M00 Q1003 R15/590295 NOSIG","observationTime":"2019-02-03T05:50:00Z","temp":0,"dewpoint":0,"windDirection":310,"windSpeed":7.408,"visibility":2.05,"altim":29.616142,"flightCategory":"IFR","metarType":"METAR","geometry_esri":{"x":47.78,"y":13.02,"z":430}}}