{"type":"Feature","geometry":{"type":"Point","coordinates":[47.42,19.27,185]},"properties":{"stationId":"LHBP","rawText":"LHBP 231630Z 07005KT 050V110 CAVOK 00/M14 Q1039 NOSIG","observationTime":"2019-02-23T16:30:00Z","temp":0,"dewpoint":-14,"windDirection":70,"windSpeed":9.26,"visibility":6.21,"altim":30.679134,"flightCategory":"VFR","metarType":"METAR","geometry_esri":{"x":47.42,"y":19.27,"z":185}}}