{"type":"Feature","geometry":{"type":"Point","coordinates":[47.42,19.27,185]},"properties":{"stationId":"LHBP","rawText":"LHBP 091930Z 05006KT 360V060 2200 -RA BR FEW003 SCT014 OVC048 11/10 Q1011 BECMG 3500","observationTime":"2019-11-09T19:30:00Z","temp":11,"dewpoint":10,"windDirection":50,"windSpeed":11.112,"visibility":1.37,"altim":29.852362,"flightCategory":"IFR","metarType":"METAR","geometry_esri":{"x":47.42,"y":19.27,"z":185}}}