{"type":"Feature","geometry":{"type":"Point","coordinates":[47.42,19.27,185]},"properties":{"stationId":"LHBP","rawText":"LHBP 212330Z 04004KT CAVOK 05/02 Q1016 NOSIG","observationTime":"2019-04-21T23:30:00Z","temp":5,"dewpoint":2,"windDirection":40,"windSpeed":7.408,"visibility":6.21,"altim":30,"flightCategory":"VFR","metarType":"METAR","geometry_esri":{"x":47.42,"y":19.27,"z":185}}}