{"type":"Feature","geometry":{"type":"Point","coordinates":[47.42,19.27,185]},"properties":{"stationId":"LHBP","rawText":"LHBP 030630Z 15003KT 120V180 CAVOK 05/M02 Q1013 NOSIG","observationTime":"2020-04-03T06:30:00Z","temp":5,"dewpoint":-2,"windDirection":150,"windSpeed":5.556,"visibility":6.21,"altim":29.911417,"flightCategory":"VFR","metarType":"METAR","geometry_esri":{"x":47.42,"y":19.27,"z":185}}}