{"type":"Feature","geometry":{"type":"Point","coordinates":[47.42,19.27,185]},"properties":{"stationId":"LHBP","rawText":"LHBP 191830Z 05004KT CAVOK 14/03 Q1016 NOSIG","observationTime":"2020-04-19T18:30:00Z","temp":14,"dewpoint":3,"windDirection":50,"windSpeed":7.408,"visibility":6.21,"altim":30,"flightCategory":"VFR","metarType":"METAR","geometry_esri":{"x":47.42,"y":19.27,"z":185}}}