{"type":"Feature","geometry":{"type":"Point","coordinates":[47.47,21.62,112]},"properties":{"stationId":"LHDC","rawText":"LHDC 080043Z AUTO 06005KT 2500 BR BKN003 07/07 Q1012","observationTime":"2019-11-08T00:43:00Z","temp":7,"dewpoint":7,"windDirection":60,"windSpeed":9.26,"visibility":1.55,"altim":29.88189,"flightCategory":"LIFR","metarType":"SPECI","geometry_esri":{"x":47.47,"y":21.62,"z":112}}}