{"type":"Feature","geometry":{"type":"Point","coordinates":[47.78,13.02,430]},"properties":{"stationId":"LOWS","rawText":"LOWS 031550Z 14003KT CAVOK M01/M03 Q1027 R15/15//95 NOSIG","observationTime":"2019-12-03T15:50:00Z","temp":-1,"dewpoint":-3,"windDirection":140,"windSpeed":5.556,"visibility":6.21,"altim":30.324802,"flightCategory":"VFR","metarType":"SPECI","geometry_esri":{"x":47.78,"y":13.02,"z":430}}}