{"type":"Feature","geometry":{"type":"Point","coordinates":[47.78,13.02,430]},"properties":{"stationId":"LOWS","rawText":"LOWS 091650Z 28007KT 5000 -SN FEW005 SCT009 BKN020 M00/M02 Q1010 R15/29//95 TEMPO 4000 FEW005 BKN013","observationTime":"2019-01-09T16:50:00Z","temp":0,"dewpoint":-2,"windDirection":280,"windSpeed":12.964,"visibility":3.11,"altim":29.822834,"flightCategory":"MVFR","metarType":"METAR","geometry_esri":{"x":47.78,"y":13.02,"z":430}}}