{"type":"Feature","geometry":{"type":"Point","coordinates":[47.78,13.02,430]},"properties":{"stationId":"LOWS","rawText":"LOWS 090650Z 15008KT 9999 SCT080 12/02 Q1024 NOSIG","observationTime":"2020-04-09T06:50:00Z","temp":12,"dewpoint":2,"windDirection":150,"windSpeed":14.816,"visibility":6.21,"altim":30.236221,"flightCategory":"VFR","metarType":"METAR","geometry_esri":{"x":47.78,"y":13.02,"z":430}}}