{"type":"Feature","geometry":{"type":"Point","coordinates":[47.78,13.02,430]},"properties":{"stationId":"LOWS","rawText":"LOWS 241250Z 13007KT 6000 4500NE -RADZ FEW006 BKN020 BKN035 05/04 Q1021 TEMPO 4500","observationTime":"2020-02-24T12:50:00Z","temp":5,"dewpoint":4,"windDirection":130,"windSpeed":12.964,"visibility":3.73,"altim":30.147638,"flightCategory":"MVFR","metarType":"METAR","geometry_esri":{"x":47.78,"y":13.02,"z":430}}}