{"type":"Feature","geometry":{"type":"Point","coordinates":[47.47,21.62,112]},"properties":{"stationId":"LHDC","rawText":"LHDC 240235Z AUTO 06003KT 5000 BR NCD 09/09 Q1019","observationTime":"2019-10-24T02:35:00Z","temp":9,"dewpoint":9,"windDirection":60,"windSpeed":5.556,"visibility":3.11,"altim":30.088583,"flightCategory":"MVFR","metarType":"SPECI","geometry_esri":{"x":47.47,"y":21.62,"z":112}}}