{"type":"Feature","geometry":{"type":"Point","coordinates":[47.42,19.27,185]},"properties":{"stationId":"LHBP","rawText":"LHBP 181730Z 23003KT 3800 BR BKN006 OVC009 M01/M01 Q1025 NOSIG","observationTime":"2020-01-18T17:30:00Z","temp":-1,"dewpoint":-1,"windDirection":230,"windSpeed":5.556,"visibility":2.36,"altim":30.265747,"flightCategory":"IFR","metarType":"METAR","geometry_esri":{"x":47.42,"y":19.27,"z":185}}}