{"type":"Feature","geometry":{"type":"Point","coordinates":[47.78,13.02,430]},"properties":{"stationId":"LOWS","rawText":"LOWS 020250Z AUTO 21003KT 180V240 9999 FEW150 SCT170 BKN180 M01/M03 Q0992","observationTime":"2019-02-02T02:50:00Z","temp":-1,"dewpoint":-3,"windDirection":210,"windSpeed":5.556,"visibility":6.21,"altim":29.291338,"flightCategory":"VFR","metarType":"METAR","geometry_esri":{"x":47.78,"y":13.02,"z":430}}}