{"type":"Feature","geometry":{"type":"Point","coordinates":[47.78,13.02,430]},"properties":{"stationId":"LOWS","rawText":"LOWS 060950Z VRB04KT 9999 FEW024 12/05 Q1004 NOSIG","observationTime":"2019-04-06T09:50:00Z","temp":12,"dewpoint":5,"windDirection":0,"windSpeed":7.408,"visibility":6.21,"altim":29.64567,"flightCategory":"VFR","metarType":"METAR","geometry_esri":{"x":47.78,"y":13.02,"z":430}}}