{"type":"Feature","geometry":{"type":"Point","coordinates":[47.42,19.27,185]},"properties":{"stationId":"LHBP","rawText":"LHBP 080430Z 09008KT 5000 BR BKN007 09/08 Q1010 NOSIG","observationTime":"2019-11-08T04:30:00Z","temp":9,"dewpoint":8,"windDirection":90,"windSpeed":14.816,"visibility":3.11,"altim":29.822834,"flightCategory":"IFR","metarType":"METAR","geometry_esri":{"x":47.42,"y":19.27,"z":185}}}