{"type":"Feature","geometry":{"type":"Point","coordinates":[47.78,13.02,430]},"properties":{"stationId":"LOWS","rawText":"LOWS 240550Z VRB01KT 6000 FEW002 BKN160 BKN300 16/16 Q1021 NOSIG","observationTime":"2019-08-24T05:50:00Z","temp":16,"dewpoint":16,"windDirection":0,"windSpeed":1.852,"visibility":3.73,"altim":30.147638,"flightCategory":"MVFR","metarType":"METAR","geometry_esri":{"x":47.78,"y":13.02,"z":430}}}