{"type":"Feature","geometry":{"type":"Point","coordinates":[47.78,13.02,430]},"properties":{"stationId":"LOWS","rawText":"LOWS 120350Z 15007KT 9999 FEW007 BKN045 14/13 Q1015 NOSIG","observationTime":"2019-07-12T03:50:00Z","temp":14,"dewpoint":13,"windDirection":150,"windSpeed":12.964,"visibility":6.21,"altim":29.970472,"flightCategory":"VFR","metarType":"METAR","geometry_esri":{"x":47.78,"y":13.02,"z":430}}}