{"type":"Feature","geometry":{"type":"Point","coordinates":[47.78,13.02,430]},"properties":{"stationId":"LOWS","rawText":"LOWS 130650Z 14006KT 9999 FEW090 SCT100 BKN300 M01/M04 Q0985 R15/1///95 NOSIG","observationTime":"2019-12-13T06:50:00Z","temp":-1,"dewpoint":-4,"windDirection":140,"windSpeed":11.112,"visibility":6.21,"altim":29.084646,"flightCategory":"VFR","metarType":"METAR","geometry_esri":{"x":47.78,"y":13.02,"z":430}}}