{"type":"Feature","geometry":{"type":"Point","coordinates":[47.78,13.02,430]},"properties":{"stationId":"LOWS","rawText":"LOWS 151150Z 30005KT 260V330 9999 FEW008 SCT014 BKN022 06/03 Q1021 NOSIG","observationTime":"2019-05-15T11:50:00Z","temp":6,"dewpoint":3,"windDirection":300,"windSpeed":9.26,"visibility":6.21,"altim":30.147638,"flightCategory":"MVFR","metarType":"METAR","geometry_esri":{"x":47.78,"y":13.02,"z":430}}}