{"type":"Feature","geometry":{"type":"Point","coordinates":[47.42,19.27,185]},"properties":{"stationId":"LHBP","rawText":"LHBP 242130Z VRB01KT CAVOK 08/07 Q1015 NOSIG","observationTime":"2019-03-24T21:30:00Z","temp":8,"dewpoint":7,"windDirection":0,"windSpeed":1.852,"visibility":6.21,"altim":29.970472,"flightCategory":"VFR","metarType":"METAR","geometry_esri":{"x":47.42,"y":19.27,"z":185}}}