{"type":"Feature","geometry":{"type":"Point","coordinates":[47.42,19.27,185]},"properties":{"stationId":"LHBP","rawText":"LHBP 190630Z 30004KT CAVOK 05/00 Q1022 NOSIG","observationTime":"2019-03-19T06:30:00Z","temp":5,"dewpoint":0,"windDirection":300,"windSpeed":7.408,"visibility":6.21,"altim":30.177166,"flightCategory":"VFR","metarType":"METAR","geometry_esri":{"x":47.42,"y":19.27,"z":185}}}