{"type":"Feature","geometry":{"type":"Point","coordinates":[47.42,19.27,185]},"properties":{"stationId":"LHBP","rawText":"LHBP 311330Z 07004KT 330V140 9999 FEW033 09/01 Q1025 NOSIG","observationTime":"2019-10-31T13:30:00Z","temp":9,"dewpoint":1,"windDirection":70,"windSpeed":7.408,"visibility":6.21,"altim":30.265747,"flightCategory":"VFR","metarType":"METAR","geometry_esri":{"x":47.42,"y":19.27,"z":185}}}