{"type":"Feature","geometry":{"type":"Point","coordinates":[47.42,19.27,185]},"properties":{"stationId":"LHBP","rawText":"LHBP 060430Z 12010KT 9999 -RA SCT035 BKN048 04/02 Q1001 TEMPO 5000 RA BR BKN020 OVC030","observationTime":"2020-03-06T04:30:00Z","temp":4,"dewpoint":2,"windDirection":120,"windSpeed":18.52,"visibility":6.21,"altim":29.557087,"flightCategory":"VFR","metarType":"METAR","geometry_esri":{"x":47.42,"y":19.27,"z":185}}}