{"type":"Feature","geometry":{"type":"Point","coordinates":[47.78,13.02,430]},"properties":{"stationId":"LOWS","rawText":"LOWS 291050Z VRB01KT 6000 FEW003 BKN007 BKN012 M01/M02 Q1033 BECMG SCT007 BKN015","observationTime":"2018-12-29T10:50:00Z","temp":-1,"dewpoint":-2,"windDirection":0,"windSpeed":1.852,"visibility":3.73,"altim":30.501968,"flightCategory":"IFR","metarType":"METAR","geometry_esri":{"x":47.78,"y":13.02,"z":430}}}