{"type":"Feature","geometry":{"type":"Point","coordinates":[47.42,19.27,185]},"properties":{"stationId":"LHBP","rawText":"LHBP 041939Z VRB03KT 9999 BCFG SCT005 08/08 Q1001 TEMPO 5000 BCFG","observationTime":"2019-11-04T19:39:00Z","temp":8,"dewpoint":8,"windDirection":0,"windSpeed":5.556,"visibility":6.21,"altim":29.557087,"flightCategory":"VFR","metarType":"SPECI","geometry_esri":{"x":47.42,"y":19.27,"z":185}}}