{"type":"Feature","geometry":{"type":"Point","coordinates":[47.78,13.02,430]},"properties":{"stationId":"LOWS","rawText":"LOWS 251250Z 32007KT 290V010 9999 FEW060 SCT300 31/18 Q1021 NOSIG","observationTime":"2019-06-25T12:50:00Z","temp":31,"dewpoint":18,"windDirection":320,"windSpeed":12.964,"visibility":6.21,"altim":30.147638,"flightCategory":"VFR","metarType":"METAR","geometry_esri":{"x":47.78,"y":13.02,"z":430}}}