{"type":"Feature","geometry":{"type":"Point","coordinates":[47.42,19.27,185]},"properties":{"stationId":"LHBP","rawText":"LHBP 240930Z 10012KT 060V140 CAVOK 17/11 Q1018 NOSIG","observationTime":"2019-04-24T09:30:00Z","temp":17,"dewpoint":11,"windDirection":100,"windSpeed":22.224,"visibility":6.21,"altim":30.059055,"flightCategory":"VFR","metarType":"METAR","geometry_esri":{"x":47.42,"y":19.27,"z":185}}}