{"type":"Feature","geometry":{"type":"Point","coordinates":[47.42,19.27,185]},"properties":{"stationId":"LHBP","rawText":"LHBP 241030Z 23005KT 200V260 CAVOK 01/M12 Q1039 NOSIG","observationTime":"2019-02-24T10:30:00Z","temp":1,"dewpoint":-12,"windDirection":230,"windSpeed":9.26,"visibility":6.21,"altim":30.679134,"flightCategory":"VFR","metarType":"METAR","geometry_esri":{"x":47.42,"y":19.27,"z":185}}}