{"type":"Feature","geometry":{"type":"Point","coordinates":[47.42,19.27,185]},"properties":{"stationId":"LHBP","rawText":"LHBP 082330Z 19005KT 0500 R13R/0750N R13L/0500N FG VV002 04/04 Q1011 NOSIG","observationTime":"2019-12-08T23:30:00Z","temp":4,"dewpoint":4,"windDirection":190,"windSpeed":9.26,"visibility":0.31,"altim":29.852362,"flightCategory":"LIFR","metarType":"METAR","geometry_esri":{"x":47.42,"y":19.27,"z":185}}}