{"type":"Feature","geometry":{"type":"Point","coordinates":[47.42,19.27,185]},"properties":{"stationId":"LHBP","rawText":"LHBP 180630Z 33011KT CAVOK 09/03 Q1021 NOSIG","observationTime":"2020-02-18T06:30:00Z","temp":9,"dewpoint":3,"windDirection":330,"windSpeed":20.372,"visibility":6.21,"altim":30.147638,"flightCategory":"VFR","metarType":"METAR","geometry_esri":{"x":47.42,"y":19.27,"z":185}}}