{"type":"Feature","geometry":{"type":"Point","coordinates":[47.42,19.27,185]},"properties":{"stationId":"LHBP","rawText":"LHBP 151030Z 23009KT CAVOK 11/M08 Q1024 NOSIG","observationTime":"2020-04-15T10:30:00Z","temp":11,"dewpoint":-8,"windDirection":230,"windSpeed":16.668,"visibility":6.21,"altim":30.236221,"flightCategory":"VFR","metarType":"METAR","geometry_esri":{"x":47.42,"y":19.27,"z":185}}}