{"type":"Feature","geometry":{"type":"Point","coordinates":[47.78,13.02,430]},"properties":{"stationId":"LOWS","rawText":"LOWS 180850Z 25004KT 210V290 9999 -RA FEW010 BKN024 04/02 Q1027 NOSIG","observationTime":"2020-01-18T08:50:00Z","temp":4,"dewpoint":2,"windDirection":250,"windSpeed":7.408,"visibility":6.21,"altim":30.324802,"flightCategory":"MVFR","metarType":"METAR","geometry_esri":{"x":47.78,"y":13.02,"z":430}}}