{"type":"Feature","geometry":{"type":"Point","coordinates":[47.78,13.02,430]},"properties":{"stationId":"LOWS","rawText":"LOWS 190350Z 35003KT 320V040 9999 -RA FEW022 SCT044 BKN050 13/11 Q1015 TEMPO 29010KT SHRA","observationTime":"2020-04-19T03:50:00Z","temp":13,"dewpoint":11,"windDirection":350,"windSpeed":5.556,"visibility":6.21,"altim":29.970472,"flightCategory":"VFR","metarType":"METAR","geometry_esri":{"x":47.78,"y":13.02,"z":430}}}