{"type":"Feature","geometry":{"type":"Point","coordinates":[47.42,19.27,185]},"properties":{"stationId":"LHBP","rawText":"LHBP 220130Z 29004KT CAVOK 17/15 Q1023 NOSIG","observationTime":"2019-08-22T01:30:00Z","temp":17,"dewpoint":15,"windDirection":290,"windSpeed":7.408,"visibility":6.21,"altim":30.206694,"flightCategory":"VFR","metarType":"METAR","geometry_esri":{"x":47.42,"y":19.27,"z":185}}}