{"type":"Feature","geometry":{"type":"Point","coordinates":[47.42,19.27,185]},"properties":{"stationId":"LHBP","rawText":"LHBP 281130Z 24006KT 210V280 CAVOK 08/06 Q1020 NOSIG","observationTime":"2018-12-28T11:30:00Z","temp":8,"dewpoint":6,"windDirection":240,"windSpeed":11.112,"visibility":6.21,"altim":30.11811,"flightCategory":"VFR","metarType":"METAR","geometry_esri":{"x":47.42,"y":19.27,"z":185}}}