{"type":"Feature","geometry":{"type":"Point","coordinates":[47.78,13.02,430]},"properties":{"stationId":"LOWS","rawText":"LOWS 231350Z VRB05KT 9999 -RA FEW008 SCT034 BKN050 06/05 Q1022 TEMPO RA","observationTime":"2018-12-23T13:50:00Z","temp":6,"dewpoint":5,"windDirection":0,"windSpeed":9.26,"visibility":6.21,"altim":30.177166,"flightCategory":"VFR","metarType":"METAR","geometry_esri":{"x":47.78,"y":13.02,"z":430}}}