{"type":"Feature","geometry":{"type":"Point","coordinates":[47.42,19.27,185]},"properties":{"stationId":"LHBP","rawText":"LHBP 120430Z 28013KT CAVOK 02/00 Q1018 NOSIG","observationTime":"2019-03-12T04:30:00Z","temp":2,"dewpoint":0,"windDirection":280,"windSpeed":24.076,"visibility":6.21,"altim":30.059055,"flightCategory":"VFR","metarType":"METAR","geometry_esri":{"x":47.42,"y":19.27,"z":185}}}