{"type":"Feature","geometry":{"type":"Point","coordinates":[47.78,13.02,430]},"properties":{"stationId":"LOWS","rawText":"LOWS 250250Z AUTO 31002KT 9999 0600E R15/P1500U R33/P1500U BCFG FEW001 SCT250 00/00 Q1009","observationTime":"2019-11-25T02:50:00Z","temp":0,"dewpoint":0,"windDirection":310,"windSpeed":3.704,"visibility":6.21,"altim":29.793306,"flightCategory":"VFR","metarType":"METAR","geometry_esri":{"x":47.78,"y":13.02,"z":430}}}