{"type":"Feature","geometry":{"type":"Point","coordinates":[47.78,13.02,430]},"properties":{"stationId":"LOWS","rawText":"LOWS 161550Z 33010KT 300V360 9999 FEW050 24/12 Q1015 NOSIG","observationTime":"2019-07-16T15:50:00Z","temp":24,"dewpoint":12,"windDirection":330,"windSpeed":18.52,"visibility":6.21,"altim":29.970472,"flightCategory":"VFR","metarType":"METAR","geometry_esri":{"x":47.78,"y":13.02,"z":430}}}