{"type":"Feature","geometry":{"type":"Point","coordinates":[47.42,19.27,185]},"properties":{"stationId":"LHBP","rawText":"LHBP 052230Z AUTO 32010KT 9999 SCT079/// BKN097/// 10/01 Q1015 NOSIG","observationTime":"2020-05-05T22:30:00Z","temp":10,"dewpoint":1,"windDirection":320,"windSpeed":18.52,"visibility":6.21,"altim":29.970472,"flightCategory":"VFR","metarType":"METAR","geometry_esri":{"x":47.42,"y":19.27,"z":185}}}