{"type":"Feature","geometry":{"type":"Point","coordinates":[47.42,19.27,185]},"properties":{"stationId":"LHBP","rawText":"LHBP 020430Z 10008KT CAVOK 13/10 Q1006 NOSIG","observationTime":"2019-10-02T04:30:00Z","temp":13,"dewpoint":10,"windDirection":100,"windSpeed":14.816,"visibility":6.21,"altim":29.704725,"flightCategory":"VFR","metarType":"METAR","geometry_esri":{"x":47.42,"y":19.27,"z":185}}}