{"type":"Feature","geometry":{"type":"Point","coordinates":[47.78,13.02,430]},"properties":{"stationId":"LOWS","rawText":"LOWS 162050Z 16006KT CAVOK 14/11 Q1018 NOSIG","observationTime":"2019-08-16T20:50:00Z","temp":14,"dewpoint":11,"windDirection":160,"windSpeed":11.112,"visibility":6.21,"altim":30.059055,"flightCategory":"VFR","metarType":"METAR","geometry_esri":{"x":47.78,"y":13.02,"z":430}}}