{"type":"Feature","geometry":{"type":"Point","coordinates":[47.42,19.27,185]},"properties":{"stationId":"LHBP","rawText":"LHBP 041030Z 21006KT 3000 BR SCT003 BKN030 00/M00 Q1022 BECMG 31012KT 5000","observationTime":"2020-01-04T10:30:00Z","temp":0,"dewpoint":0,"windDirection":210,"windSpeed":11.112,"visibility":1.86,"altim":30.177166,"flightCategory":"IFR","metarType":"METAR","geometry_esri":{"x":47.42,"y":19.27,"z":185}}}