{"type":"Feature","geometry":{"type":"Point","coordinates":[47.42,19.27,185]},"properties":{"stationId":"LHBP","rawText":"LHBP 210930Z 27007KT 210V330 CAVOK 20/01 Q1021 NOSIG","observationTime":"2019-04-21T09:30:00Z","temp":20,"dewpoint":1,"windDirection":270,"windSpeed":12.964,"visibility":6.21,"altim":30.147638,"flightCategory":"VFR","metarType":"METAR","geometry_esri":{"x":47.42,"y":19.27,"z":185}}}