{"type":"Feature","geometry":{"type":"Point","coordinates":[47.78,13.02,430]},"properties":{"stationId":"LOWS","rawText":"LOWS 272150Z AUTO 34004KT 6000 -SHRA FEW003 SCT005 BKN019 13/13 Q1008","observationTime":"2019-05-27T21:50:00Z","temp":13,"dewpoint":13,"windDirection":340,"windSpeed":7.408,"visibility":3.73,"altim":29.763779,"flightCategory":"MVFR","metarType":"METAR","geometry_esri":{"x":47.78,"y":13.02,"z":430}}}