{"type":"Feature","geometry":{"type":"Point","coordinates":[47.78,13.02,430]},"properties":{"stationId":"LOWS","rawText":"LOWS 191350Z 14006KT 9999 FEW110 SCT120 BKN130 03/M03 Q1017 NOSIG","observationTime":"2018-12-19T13:50:00Z","temp":3,"dewpoint":-3,"windDirection":140,"windSpeed":11.112,"visibility":6.21,"altim":30.029528,"flightCategory":"VFR","metarType":"METAR","geometry_esri":{"x":47.78,"y":13.02,"z":430}}}