{"type":"Feature","geometry":{"type":"Point","coordinates":[47.42,19.27,185]},"properties":{"stationId":"LHBP","rawText":"LHBP 281130Z 13006KT 110V170 3200 BR OVC003 03/03 Q1006 NOSIG","observationTime":"2020-01-28T11:30:00Z","temp":3,"dewpoint":3,"windDirection":130,"windSpeed":11.112,"visibility":1.99,"altim":29.704725,"flightCategory":"LIFR","metarType":"METAR","geometry_esri":{"x":47.42,"y":19.27,"z":185}}}