{"type":"Feature","geometry":{"type":"Point","coordinates":[47.42,19.27,185]},"properties":{"stationId":"LHBP","rawText":"LHBP 151030Z 35004KT 290V040 9999 BKN045 BKN070 18/06 Q1010 TEMPO SCT040TCU BKN070","observationTime":"2020-05-15T10:30:00Z","temp":18,"dewpoint":6,"windDirection":350,"windSpeed":7.408,"visibility":6.21,"altim":29.822834,"flightCategory":"VFR","metarType":"METAR","geometry_esri":{"x":47.42,"y":19.27,"z":185}}}