{"type":"Feature","geometry":{"type":"Point","coordinates":[47.78,13.02,430]},"properties":{"stationId":"LOWS","rawText":"LOWS 031950Z 19004KT 140V230 9999 -RA FEW030 BKN050 03/M00 Q1026 TEMPO 28009KT","observationTime":"2020-01-03T19:50:00Z","temp":3,"dewpoint":0,"windDirection":190,"windSpeed":7.408,"visibility":6.21,"altim":30.295275,"flightCategory":"VFR","metarType":"SPECI","geometry_esri":{"x":47.78,"y":13.02,"z":430}}}