{"type":"Feature","geometry":{"type":"Point","coordinates":[47.78,13.02,430]},"properties":{"stationId":"LOWS","rawText":"LOWS 211950Z 14005KT 110V180 9999 SHRA FEW007 BKN060 FEW060CB BKN120 17/16 Q1020 TEMPO -SHRA","observationTime":"2019-06-21T19:50:00Z","temp":17,"dewpoint":16,"windDirection":140,"windSpeed":9.26,"visibility":6.21,"altim":30.11811,"flightCategory":"VFR","metarType":"METAR","geometry_esri":{"x":47.78,"y":13.02,"z":430}}}