{"type":"Feature","geometry":{"type":"Point","coordinates":[47.42,19.27,185]},"properties":{"stationId":"LHBP","rawText":"LHBP 160330Z 12006KT CAVOK M02/M08 Q1029 NOSIG","observationTime":"2020-03-16T03:30:00Z","temp":-2,"dewpoint":-8,"windDirection":120,"windSpeed":11.112,"visibility":6.21,"altim":30.383858,"flightCategory":"VFR","metarType":"METAR","geometry_esri":{"x":47.42,"y":19.27,"z":185}}}