{"type":"Feature","geometry":{"type":"Point","coordinates":[47.78,13.02,430]},"properties":{"stationId":"LOWS","rawText":"LOWS 281250Z 33006KT 300V020 9999 -SHRA FEW007 SCT014 BKN030 13/10 Q1007 TEMPO 4000 SHRA BKN014","observationTime":"2019-05-28T12:50:00Z","temp":13,"dewpoint":10,"windDirection":330,"windSpeed":11.112,"visibility":6.21,"altim":29.734253,"flightCategory":"MVFR","metarType":"METAR","geometry_esri":{"x":47.78,"y":13.02,"z":430}}}