{"type":"Feature","geometry":{"type":"Point","coordinates":[47.78,13.02,430]},"properties":{"stationId":"LOWS","rawText":"LOWS 140650Z 32013KT 9999 FEW015 BKN050 03/M02 Q1021 NOSIG","observationTime":"2020-04-14T06:50:00Z","temp":3,"dewpoint":-2,"windDirection":320,"windSpeed":24.076,"visibility":6.21,"altim":30.147638,"flightCategory":"VFR","metarType":"METAR","geometry_esri":{"x":47.78,"y":13.02,"z":430}}}