{"type":"Feature","geometry":{"type":"Point","coordinates":[47.42,19.27,185]},"properties":{"stationId":"LHBP","rawText":"LHBP 110730Z 07005KT 030V120 CAVOK 15/M03 Q1024 NOSIG","observationTime":"2020-04-11T07:30:00Z","temp":15,"dewpoint":-3,"windDirection":70,"windSpeed":9.26,"visibility":6.21,"altim":30.236221,"flightCategory":"VFR","metarType":"METAR","geometry_esri":{"x":47.42,"y":19.27,"z":185}}}