{"type":"Feature","geometry":{"type":"Point","coordinates":[47.42,19.27,185]},"properties":{"stationId":"LHBP","rawText":"LHBP 281530Z 02003KT 2200 -RA BR OVC002 02/01 Q1004 TEMPO 1500 SHRA","observationTime":"2020-01-28T15:30:00Z","temp":2,"dewpoint":1,"windDirection":20,"windSpeed":5.556,"visibility":1.37,"altim":29.64567,"flightCategory":"LIFR","metarType":"SPECI","geometry_esri":{"x":47.42,"y":19.27,"z":185}}}