{"type":"Feature","geometry":{"type":"Point","coordinates":[47.42,19.27,185]},"properties":{"stationId":"LHBP","rawText":"LHBP 091730Z 32004KT CAVOK 16/10 Q1005 NOSIG","observationTime":"2019-04-09T17:30:00Z","temp":16,"dewpoint":10,"windDirection":320,"windSpeed":7.408,"visibility":6.21,"altim":29.675198,"flightCategory":"VFR","metarType":"METAR","geometry_esri":{"x":47.42,"y":19.27,"z":185}}}