{"type":"Feature","geometry":{"type":"Point","coordinates":[47.42,19.27,185]},"properties":{"stationId":"LHBP","rawText":"LHBP 011730Z 30008KT CAVOK 08/04 Q1008 NOSIG","observationTime":"2019-03-01T17:30:00Z","temp":8,"dewpoint":4,"windDirection":300,"windSpeed":14.816,"visibility":6.21,"altim":29.763779,"flightCategory":"VFR","metarType":"METAR","geometry_esri":{"x":47.42,"y":19.27,"z":185}}}