{"type":"Feature","geometry":{"type":"Point","coordinates":[47.78,13.02,430]},"properties":{"stationId":"LOWS","rawText":"LOWS 100650Z 30009KT 9999 -RA FEW006 SCT012 BKN017 03/01 Q1023 NOSIG","observationTime":"2019-12-10T06:50:00Z","temp":3,"dewpoint":1,"windDirection":300,"windSpeed":16.668,"visibility":6.21,"altim":30.206694,"flightCategory":"MVFR","metarType":"METAR","geometry_esri":{"x":47.78,"y":13.02,"z":430}}}