{"type":"Feature","geometry":{"type":"Point","coordinates":[47.42,19.27,185]},"properties":{"stationId":"LHBP","rawText":"LHBP 222330Z VRB03KT CAVOK 19/18 Q1024 NOSIG","observationTime":"2019-08-22T23:30:00Z","temp":19,"dewpoint":18,"windDirection":0,"windSpeed":5.556,"visibility":6.21,"altim":30.236221,"flightCategory":"VFR","metarType":"METAR","geometry_esri":{"x":47.42,"y":19.27,"z":185}}}