{"type":"Feature","geometry":{"type":"Point","coordinates":[47.42,19.27,185]},"properties":{"stationId":"LHBP","rawText":"LHBP 091030Z 05005KT CAVOK 21/06 Q1005 NOSIG","observationTime":"2019-04-09T10:30:00Z","temp":21,"dewpoint":6,"windDirection":50,"windSpeed":9.26,"visibility":6.21,"altim":29.675198,"flightCategory":"VFR","metarType":"METAR","geometry_esri":{"x":47.42,"y":19.27,"z":185}}}