{"type":"Feature","geometry":{"type":"Point","coordinates":[47.42,19.27,185]},"properties":{"stationId":"LHBP","rawText":"LHBP 161430Z 35005KT 1900 BR BKN004 OVC006 00/M00 Q1031 NOSIG","observationTime":"2020-01-16T14:30:00Z","temp":0,"dewpoint":0,"windDirection":350,"windSpeed":9.26,"visibility":1.18,"altim":30.442913,"flightCategory":"LIFR","metarType":"METAR","geometry_esri":{"x":47.42,"y":19.27,"z":185}}}