{"type":"Feature","geometry":{"type":"Point","coordinates":[45.98,18.23,305]},"properties":{"stationId":"LHPP","rawText":"LHPP 231144Z 24004KT 0700 FG NSC 00/00 Q1037","observationTime":"2020-01-23T11:44:00Z","temp":0,"dewpoint":0,"windDirection":240,"windSpeed":7.408,"visibility":0.43,"altim":30.620079,"flightCategory":"LIFR","metarType":"SPECI","geometry_esri":{"x":45.98,"y":18.23,"z":305}}}