{"type":"Feature","geometry":{"type":"Point","coordinates":[47.47,21.62,112]},"properties":{"stationId":"LHDC","rawText":"LHDC 271539Z 20008KT 7000 FEW008 BKN060 BKN083 02/00 Q1026","observationTime":"2018-12-27T15:39:00Z","temp":2,"dewpoint":0,"windDirection":200,"windSpeed":14.816,"visibility":4.35,"altim":30.295275,"flightCategory":"MVFR","metarType":"SPECI","geometry_esri":{"x":47.47,"y":21.62,"z":112}}}