{"type":"Feature","geometry":{"type":"Point","coordinates":[47.42,19.27,185]},"properties":{"stationId":"LHBP","rawText":"LHBP 311030Z 32007KT CAVOK 06/M10 Q1025 NOSIG","observationTime":"2020-03-31T10:30:00Z","temp":6,"dewpoint":-10,"windDirection":320,"windSpeed":12.964,"visibility":6.21,"altim":30.265747,"flightCategory":"VFR","metarType":"METAR","geometry_esri":{"x":47.42,"y":19.27,"z":185}}}