{"type":"Feature","geometry":{"type":"Point","coordinates":[47.42,19.27,185]},"properties":{"stationId":"LHBP","rawText":"LHBP 271930Z 09008KT 8000 BKN049 BKN080 M00/M01 Q1000 NOSIG","observationTime":"2019-01-27T19:30:00Z","temp":0,"dewpoint":-1,"windDirection":90,"windSpeed":14.816,"visibility":4.97,"altim":29.52756,"flightCategory":"MVFR","metarType":"METAR","geometry_esri":{"x":47.42,"y":19.27,"z":185}}}