{"type":"Feature","geometry":{"type":"Point","coordinates":[47.78,13.02,430]},"properties":{"stationId":"LOWS","rawText":"LOWS 151950Z 15007KT 100V180 9999 -RA FEW020 BKN050 06/05 Q1011 TEMPO 29020G35KT","observationTime":"2019-03-15T19:50:00Z","temp":6,"dewpoint":5,"windDirection":150,"windSpeed":12.964,"visibility":6.21,"altim":29.852362,"flightCategory":"VFR","metarType":"METAR","geometry_esri":{"x":47.78,"y":13.02,"z":430}}}