{"type":"Feature","geometry":{"type":"Point","coordinates":[47.42,19.27,185]},"properties":{"stationId":"LHBP","rawText":"LHBP 011130Z 28009KT 240V320 9999 FEW048 28/19 Q1014 NOSIG","observationTime":"2019-08-01T11:30:00Z","temp":28,"dewpoint":19,"windDirection":280,"windSpeed":16.668,"visibility":6.21,"altim":29.940945,"flightCategory":"VFR","metarType":"METAR","geometry_esri":{"x":47.42,"y":19.27,"z":185}}}