{"type":"Feature","geometry":{"type":"Point","coordinates":[47.78,13.02,430]},"properties":{"stationId":"LOWS","rawText":"LOWS 081950Z 14004KT 9999 FEW044 BKN050 15/13 Q1017 NOSIG","observationTime":"2019-07-08T19:50:00Z","temp":15,"dewpoint":13,"windDirection":140,"windSpeed":7.408,"visibility":6.21,"altim":30.029528,"flightCategory":"VFR","metarType":"METAR","geometry_esri":{"x":47.78,"y":13.02,"z":430}}}