{"type":"Feature","geometry":{"type":"Point","coordinates":[47.78,13.02,430]},"properties":{"stationId":"LOWS","rawText":"LOWS 191550Z 24003KT 190V290 9999 FEW007 SCT030 BKN050 02/00 Q1023 NOSIG","observationTime":"2020-02-19T15:50:00Z","temp":2,"dewpoint":0,"windDirection":240,"windSpeed":5.556,"visibility":6.21,"altim":30.206694,"flightCategory":"VFR","metarType":"METAR","geometry_esri":{"x":47.78,"y":13.02,"z":430}}}