{"type":"Feature","geometry":{"type":"Point","coordinates":[47.42,19.27,185]},"properties":{"stationId":"LHBP","rawText":"LHBP 160930Z 25007KT 220V290 9999 SCT047 SCT087 BKN210 17/04 Q1023 NOSIG","observationTime":"2020-05-16T09:30:00Z","temp":17,"dewpoint":4,"windDirection":250,"windSpeed":12.964,"visibility":6.21,"altim":30.206694,"flightCategory":"VFR","metarType":"METAR","geometry_esri":{"x":47.42,"y":19.27,"z":185}}}