{"type":"Feature","geometry":{"type":"Point","coordinates":[47.78,13.02,430]},"properties":{"stationId":"LOWS","rawText":"LOWS 041150Z 30003KT CAVOK 05/M03 Q1021 NOSIG","observationTime":"2019-12-04T11:50:00Z","temp":5,"dewpoint":-3,"windDirection":300,"windSpeed":5.556,"visibility":6.21,"altim":30.147638,"flightCategory":"VFR","metarType":"METAR","geometry_esri":{"x":47.78,"y":13.02,"z":430}}}