{"type":"Feature","geometry":{"type":"Point","coordinates":[47.78,13.02,430]},"properties":{"stationId":"LOWS","rawText":"LOWS 231720Z 33004KT 300V080 9999 FEW060 SCT300 18/05 Q1017 NOSIG","observationTime":"2019-05-23T17:20:00Z","temp":18,"dewpoint":5,"windDirection":330,"windSpeed":7.408,"visibility":6.21,"altim":30.029528,"flightCategory":"VFR","metarType":"METAR","geometry_esri":{"x":47.78,"y":13.02,"z":430}}}