{"type":"Feature","geometry":{"type":"Point","coordinates":[47.42,19.27,185]},"properties":{"stationId":"LHBP","rawText":"LHBP 281230Z 30011KT CAVOK 17/13 Q1017 NOSIG","observationTime":"2019-10-28T12:30:00Z","temp":17,"dewpoint":13,"windDirection":300,"windSpeed":20.372,"visibility":6.21,"altim":30.029528,"flightCategory":"VFR","metarType":"METAR","geometry_esri":{"x":47.42,"y":19.27,"z":185}}}