{"type":"Feature","geometry":{"type":"Point","coordinates":[47.42,19.27,185]},"properties":{"stationId":"LHBP","rawText":"LHBP 220930Z 05004KT 010V080 7000 NSC M03/M04 Q1016 NOSIG","observationTime":"2019-01-22T09:30:00Z","temp":-3,"dewpoint":-4,"windDirection":50,"windSpeed":7.408,"visibility":4.35,"altim":30,"flightCategory":"MVFR","metarType":"METAR","geometry_esri":{"x":47.42,"y":19.27,"z":185}}}