{"type":"Feature","geometry":{"type":"Point","coordinates":[47.42,19.27,185]},"properties":{"stationId":"LHBP","rawText":"LHBP 271430Z 16006KT 120V200 CAVOK 23/13 Q1015 NOSIG","observationTime":"2019-09-27T14:30:00Z","temp":23,"dewpoint":13,"windDirection":160,"windSpeed":11.112,"visibility":6.21,"altim":29.970472,"flightCategory":"VFR","metarType":"METAR","geometry_esri":{"x":47.42,"y":19.27,"z":185}}}