{"type":"Feature","geometry":{"type":"Point","coordinates":[47.42,19.27,185]},"properties":{"stationId":"LHBP","rawText":"LHBP 110730Z 35006KT 320V040 9999 SCT040 BKN100 11/10 Q1010 NOSIG","observationTime":"2019-04-11T07:30:00Z","temp":11,"dewpoint":10,"windDirection":350,"windSpeed":11.112,"visibility":6.21,"altim":29.822834,"flightCategory":"VFR","metarType":"METAR","geometry_esri":{"x":47.42,"y":19.27,"z":185}}}