{"type":"Feature","geometry":{"type":"Point","coordinates":[47.42,19.27,185]},"properties":{"stationId":"LHBP","rawText":"LHBP 241230Z 32018KT 9999 FEW032 SCT200 10/02 Q1011 NOSIG","observationTime":"2019-12-24T12:30:00Z","temp":10,"dewpoint":2,"windDirection":320,"windSpeed":33.336,"visibility":6.21,"altim":29.852362,"flightCategory":"VFR","metarType":"METAR","geometry_esri":{"x":47.42,"y":19.27,"z":185}}}