{"type":"Feature","geometry":{"type":"Point","coordinates":[47.78,13.02,430]},"properties":{"stationId":"LOWS","rawText":"LOWS 300550Z 19008KT CAVOK M05/M10 Q0995 NOSIG","observationTime":"2019-01-30T05:50:00Z","temp":-5,"dewpoint":-10,"windDirection":190,"windSpeed":14.816,"visibility":6.21,"altim":29.379921,"flightCategory":"VFR","metarType":"METAR","geometry_esri":{"x":47.78,"y":13.02,"z":430}}}