{"type":"Feature","geometry":{"type":"Point","coordinates":[47.42,19.27,185]},"properties":{"stationId":"LHBP","rawText":"LHBP 141530Z 22006KT 160V250 CAVOK 33/15 Q1016 NOSIG","observationTime":"2019-06-14T15:30:00Z","temp":33,"dewpoint":15,"windDirection":220,"windSpeed":11.112,"visibility":6.21,"altim":30,"flightCategory":"VFR","metarType":"METAR","geometry_esri":{"x":47.42,"y":19.27,"z":185}}}