{"type":"Feature","geometry":{"type":"Point","coordinates":[47.78,13.02,430]},"properties":{"stationId":"LOWS","rawText":"LOWS 140150Z AUTO 31014KT 9999 FEW009 SCT016 BKN024 04/02 Q1001","observationTime":"2019-01-14T01:50:00Z","temp":4,"dewpoint":2,"windDirection":310,"windSpeed":25.928,"visibility":6.21,"altim":29.557087,"flightCategory":"MVFR","metarType":"METAR","geometry_esri":{"x":47.78,"y":13.02,"z":430}}}