{"type":"Feature","geometry":{"type":"Point","coordinates":[47.78,13.02,430]},"properties":{"stationId":"LOWS","rawText":"LOWS 131450Z 19015KT 170V230 9999 FEW020 FEW060CB BKN070 BKN100 14/06 Q1012 TEMPO 30015G30KT TSRA","observationTime":"2020-04-13T14:50:00Z","temp":14,"dewpoint":6,"windDirection":190,"windSpeed":27.78,"visibility":6.21,"altim":29.88189,"flightCategory":"VFR","metarType":"METAR","geometry_esri":{"x":47.78,"y":13.02,"z":430}}}