{"type":"Feature","geometry":{"type":"Point","coordinates":[47.78,13.02,430]},"properties":{"stationId":"LOWS","rawText":"LOWS 051150Z 27004KT 230V310 9999 -DZ FEW005 SCT009 BKN028 09/07 Q1017 TEMPO 4000 BKN009","observationTime":"2020-05-05T11:50:00Z","temp":9,"dewpoint":7,"windDirection":270,"windSpeed":7.408,"visibility":6.21,"altim":30.029528,"flightCategory":"MVFR","metarType":"METAR","geometry_esri":{"x":47.78,"y":13.02,"z":430}}}