{"type":"Feature","geometry":{"type":"Point","coordinates":[47.42,19.27,185]},"properties":{"stationId":"LHBP","rawText":"LHBP 101230Z 09009KT 050V130 9999 SCT046 29/20 Q1016 NOSIG","observationTime":"2019-06-10T12:30:00Z","temp":29,"dewpoint":20,"windDirection":90,"windSpeed":16.668,"visibility":6.21,"altim":30,"flightCategory":"VFR","metarType":"METAR","geometry_esri":{"x":47.42,"y":19.27,"z":185}}}