{"type":"Feature","geometry":{"type":"Point","coordinates":[47.42,19.27,185]},"properties":{"stationId":"LHBP","rawText":"LHBP 141630Z 24008KT CAVOK 09/00 Q1008 NOSIG","observationTime":"2019-03-14T16:30:00Z","temp":9,"dewpoint":0,"windDirection":240,"windSpeed":14.816,"visibility":6.21,"altim":29.763779,"flightCategory":"VFR","metarType":"METAR","geometry_esri":{"x":47.42,"y":19.27,"z":185}}}