{"type":"Feature","geometry":{"type":"Point","coordinates":[47.78,13.02,430]},"properties":{"stationId":"LOWS","rawText":"LOWS 190250Z AUTO 17006KT 9999 FEW050 02/M02 Q1023","observationTime":"2020-02-19T02:50:00Z","temp":2,"dewpoint":-2,"windDirection":170,"windSpeed":11.112,"visibility":6.21,"altim":30.206694,"flightCategory":"VFR","metarType":"METAR","geometry_esri":{"x":47.78,"y":13.02,"z":430}}}