{"type":"Feature","geometry":{"type":"Point","coordinates":[47.42,19.27,185]},"properties":{"stationId":"LHBP","rawText":"LHBP 300630Z 31010KT CAVOK 15/10 Q1008 NOSIG","observationTime":"2020-04-30T06:30:00Z","temp":15,"dewpoint":10,"windDirection":310,"windSpeed":18.52,"visibility":6.21,"altim":29.763779,"flightCategory":"VFR","metarType":"METAR","geometry_esri":{"x":47.42,"y":19.27,"z":185}}}