{"type":"Feature","geometry":{"type":"Point","coordinates":[47.47,21.62,112]},"properties":{"stationId":"LHDC","rawText":"LHDC 091337Z AUTO 15004KT 3000 BR BKN005 M01/M01 Q1028 REFZDZ","observationTime":"2020-01-09T13:37:00Z","temp":-1,"dewpoint":-1,"windDirection":150,"windSpeed":7.408,"visibility":1.86,"altim":30.35433,"flightCategory":"IFR","metarType":"SPECI","geometry_esri":{"x":47.47,"y":21.62,"z":112}}}