{"type":"Feature","geometry":{"type":"Point","coordinates":[47.42,19.27,185]},"properties":{"stationId":"LHBP","rawText":"LHBP 071530Z 12004KT 8000 FEW013 10/08 Q1008 NOSIG","observationTime":"2019-11-07T15:30:00Z","temp":10,"dewpoint":8,"windDirection":120,"windSpeed":7.408,"visibility":4.97,"altim":29.763779,"flightCategory":"MVFR","metarType":"METAR","geometry_esri":{"x":47.42,"y":19.27,"z":185}}}