{"type":"Feature","geometry":{"type":"Point","coordinates":[47.42,19.27,185]},"properties":{"stationId":"LHBP","rawText":"LHBP 021030Z 35005KT 260V050 9999 FEW048 BKN085 26/18 Q1013 TEMPO 4000 TSRA SCT050CB BKN070","observationTime":"2019-08-02T10:30:00Z","temp":26,"dewpoint":18,"windDirection":350,"windSpeed":9.26,"visibility":6.21,"altim":29.911417,"flightCategory":"VFR","metarType":"SPECI","geometry_esri":{"x":47.42,"y":19.27,"z":185}}}