{"type":"Feature","geometry":{"type":"Point","coordinates":[47.42,19.27,185]},"properties":{"stationId":"LHBP","rawText":"LHBP 231330Z 21006KT 170V240 9999 FEW020 05/M01 Q1033 NOSIG","observationTime":"2020-01-23T13:30:00Z","temp":5,"dewpoint":-1,"windDirection":210,"windSpeed":11.112,"visibility":6.21,"altim":30.501968,"flightCategory":"VFR","metarType":"METAR","geometry_esri":{"x":47.42,"y":19.27,"z":185}}}