{"type":"Feature","geometry":{"type":"Point","coordinates":[47.78,13.02,430]},"properties":{"stationId":"LOWS","rawText":"LOWS 091350Z 35006KT 9999 FEW080 25/10 Q1010 NOSIG","observationTime":"2020-05-09T13:50:00Z","temp":25,"dewpoint":10,"windDirection":350,"windSpeed":11.112,"visibility":6.21,"altim":29.822834,"flightCategory":"VFR","metarType":"METAR","geometry_esri":{"x":47.78,"y":13.02,"z":430}}}