{"type":"Feature","geometry":{"type":"Point","coordinates":[47.42,19.27,185]},"properties":{"stationId":"LHBP","rawText":"LHBP 190830Z VRB01KT 1800 -SN BR SCT005 BKN012 OVC030 M00/M01 Q1028 NOSIG","observationTime":"2020-01-19T08:30:00Z","temp":0,"dewpoint":-1,"windDirection":0,"windSpeed":1.852,"visibility":1.12,"altim":30.35433,"flightCategory":"IFR","metarType":"METAR","geometry_esri":{"x":47.42,"y":19.27,"z":185}}}