{"type":"Feature","geometry":{"type":"Point","coordinates":[47.42,19.27,185]},"properties":{"stationId":"LHBP","rawText":"LHBP 310930Z 14004KT 3500 BR SCT035 SCT220 01/01 Q1004 R88/29//95 NOSIG","observationTime":"2019-01-31T09:30:00Z","temp":1,"dewpoint":1,"windDirection":140,"windSpeed":7.408,"visibility":2.17,"altim":29.64567,"flightCategory":"IFR","metarType":"METAR","geometry_esri":{"x":47.42,"y":19.27,"z":185}}}