{"type":"Feature","geometry":{"type":"Point","coordinates":[47.63,17.82,129]},"properties":{"stationId":"LHPR","rawText":"LHPR 171515Z 28004KT 6000 OVC021 M02/M04 Q1025 RMK WHT","observationTime":"2018-12-17T15:15:00Z","temp":-2,"dewpoint":-4,"windDirection":280,"windSpeed":7.408,"visibility":3.73,"altim":30.265747,"flightCategory":"MVFR","metarType":"METAR","geometry_esri":{"x":47.63,"y":17.82,"z":129}}}