{"type":"Feature","geometry":{"type":"Point","coordinates":[47.78,13.02,430]},"properties":{"stationId":"LOWS","rawText":"LOWS 091750Z 12005KT 9999 FEW020 11/09 Q1016 NOSIG","observationTime":"2019-09-09T17:50:00Z","temp":11,"dewpoint":9,"windDirection":120,"windSpeed":9.26,"visibility":6.21,"altim":30,"flightCategory":"VFR","metarType":"METAR","geometry_esri":{"x":47.78,"y":13.02,"z":430}}}