{"type":"Feature","geometry":{"type":"Point","coordinates":[47.78,13.02,430]},"properties":{"stationId":"LOWS","rawText":"LOWS 181050Z 27006KT 9999 FEW035 BKN060 01/M05 Q1019 NOSIG","observationTime":"2019-01-18T10:50:00Z","temp":1,"dewpoint":-5,"windDirection":270,"windSpeed":11.112,"visibility":6.21,"altim":30.088583,"flightCategory":"VFR","metarType":"METAR","geometry_esri":{"x":47.78,"y":13.02,"z":430}}}