{"type":"Feature","geometry":{"type":"Point","coordinates":[47.42,19.27,185]},"properties":{"stationId":"LHBP","rawText":"LHBP 300930Z 30011KT CAVOK 06/M01 Q1017 NOSIG","observationTime":"2020-01-30T09:30:00Z","temp":6,"dewpoint":-1,"windDirection":300,"windSpeed":20.372,"visibility":6.21,"altim":30.029528,"flightCategory":"VFR","metarType":"METAR","geometry_esri":{"x":47.42,"y":19.27,"z":185}}}