{"type":"Feature","geometry":{"type":"Point","coordinates":[47.78,13.02,430]},"properties":{"stationId":"LOWS","rawText":"LOWS 130750Z VRB01KT 3000 -SN FEW003 SCT008 BKN012 00/00 Q1004 TEMPO 5000 SCT010 BKN015","observationTime":"2019-11-13T07:50:00Z","temp":0,"dewpoint":0,"windDirection":0,"windSpeed":1.852,"visibility":1.86,"altim":29.64567,"flightCategory":"IFR","metarType":"METAR","geometry_esri":{"x":47.78,"y":13.02,"z":430}}}