{"type":"Feature","geometry":{"type":"Point","coordinates":[47.42,19.27,185]},"properties":{"stationId":"LHBP","rawText":"LHBP 291630Z 23005KT 4500 BR FEW004 08/08 Q1007 TEMPO BKN004","observationTime":"2019-11-29T16:30:00Z","temp":8,"dewpoint":8,"windDirection":230,"windSpeed":9.26,"visibility":2.8,"altim":29.734253,"flightCategory":"IFR","metarType":"SPECI","geometry_esri":{"x":47.42,"y":19.27,"z":185}}}