{"type":"Feature","geometry":{"type":"Point","coordinates":[47.78,13.02,430]},"properties":{"stationId":"LOWS","rawText":"LOWS 170150Z AUTO 04002KT 9999 BKN028 08/05 Q1010","observationTime":"2019-05-17T01:50:00Z","temp":8,"dewpoint":5,"windDirection":40,"windSpeed":3.704,"visibility":6.21,"altim":29.822834,"flightCategory":"MVFR","metarType":"METAR","geometry_esri":{"x":47.78,"y":13.02,"z":430}}}