{"type":"Feature","geometry":{"type":"Point","coordinates":[47.42,19.27,185]},"properties":{"stationId":"LHBP","rawText":"LHBP 271230Z 04010KT 010V070 CAVOK 16/M01 Q1019 NOSIG","observationTime":"2020-03-27T12:30:00Z","temp":16,"dewpoint":-1,"windDirection":40,"windSpeed":18.52,"visibility":6.21,"altim":30.088583,"flightCategory":"VFR","metarType":"METAR","geometry_esri":{"x":47.42,"y":19.27,"z":185}}}