{"type":"Feature","geometry":{"type":"Point","coordinates":[47.78,13.02,430]},"properties":{"stationId":"LOWS","rawText":"LOWS 090550Z 17008KT CAVOK M01/M04 Q1026 NOSIG","observationTime":"2020-02-09T05:50:00Z","temp":-1,"dewpoint":-4,"windDirection":170,"windSpeed":14.816,"visibility":6.21,"altim":30.295275,"flightCategory":"VFR","metarType":"METAR","geometry_esri":{"x":47.78,"y":13.02,"z":430}}}