{"type":"Feature","geometry":{"type":"Point","coordinates":[47.42,19.27,185]},"properties":{"stationId":"LHBP","rawText":"LHBP 281930Z VRB03KT CAVOK 09/M00 Q1030 NOSIG","observationTime":"2019-03-28T19:30:00Z","temp":9,"dewpoint":0,"windDirection":0,"windSpeed":5.556,"visibility":6.21,"altim":30.413385,"flightCategory":"VFR","metarType":"METAR","geometry_esri":{"x":47.42,"y":19.27,"z":185}}}