{"type":"Feature","geometry":{"type":"Point","coordinates":[47.42,19.27,185]},"properties":{"stationId":"LHBP","rawText":"LHBP 131430Z 29013KT 9999 FEW020 SCT058 BKN071 04/01 Q1034 NOSIG","observationTime":"2019-02-13T14:30:00Z","temp":4,"dewpoint":1,"windDirection":290,"windSpeed":24.076,"visibility":6.21,"altim":30.531496,"flightCategory":"VFR","metarType":"METAR","geometry_esri":{"x":47.42,"y":19.27,"z":185}}}