{"type":"Feature","geometry":{"type":"Point","coordinates":[47.78,13.02,430]},"properties":{"stationId":"LOWS","rawText":"LOWS 302250Z AUTO 15010KT 9999 FEW008 BKN030 07/06 Q1018","observationTime":"2019-04-30T22:50:00Z","temp":7,"dewpoint":6,"windDirection":150,"windSpeed":18.52,"visibility":6.21,"altim":30.059055,"flightCategory":"MVFR","metarType":"METAR","geometry_esri":{"x":47.78,"y":13.02,"z":430}}}