{"type":"Feature","geometry":{"type":"Point","coordinates":[47.78,13.02,430]},"properties":{"stationId":"LOWS","rawText":"LOWS 201650Z 34004KT 8000 -SHRA FEW012 SCT026 BKN035 20/18 Q1020 TEMPO BKN012","observationTime":"2019-08-20T16:50:00Z","temp":20,"dewpoint":18,"windDirection":340,"windSpeed":7.408,"visibility":4.97,"altim":30.11811,"flightCategory":"MVFR","metarType":"METAR","geometry_esri":{"x":47.78,"y":13.02,"z":430}}}