{"type":"Feature","geometry":{"type":"Point","coordinates":[47.42,19.27,185]},"properties":{"stationId":"LHBP","rawText":"LHBP 132230Z 08004KT CAVOK 22/21 Q1015 NOSIG","observationTime":"2019-06-13T22:30:00Z","temp":22,"dewpoint":21,"windDirection":80,"windSpeed":7.408,"visibility":6.21,"altim":29.970472,"flightCategory":"VFR","metarType":"METAR","geometry_esri":{"x":47.42,"y":19.27,"z":185}}}