{"type":"Feature","geometry":{"type":"Point","coordinates":[47.78,13.02,430]},"properties":{"stationId":"LOWS","rawText":"LOWS 290550Z 33005KT 4500 -RA FEW003 SCT005 BKN008 07/07 Q1017 TEMPO BKN005","observationTime":"2019-10-29T05:50:00Z","temp":7,"dewpoint":7,"windDirection":330,"windSpeed":9.26,"visibility":2.8,"altim":30.029528,"flightCategory":"IFR","metarType":"METAR","geometry_esri":{"x":47.78,"y":13.02,"z":430}}}