{"type":"Feature","geometry":{"type":"Point","coordinates":[47.78,13.02,430]},"properties":{"stationId":"LOWS","rawText":"LOWS 281150Z 22005KT 160V260 9999 FEW040 BKN070 17/10 Q1019 NOSIG","observationTime":"2019-09-28T11:50:00Z","temp":17,"dewpoint":10,"windDirection":220,"windSpeed":9.26,"visibility":6.21,"altim":30.088583,"flightCategory":"VFR","metarType":"METAR","geometry_esri":{"x":47.78,"y":13.02,"z":430}}}