{"type":"Feature","geometry":{"type":"Point","coordinates":[47.42,19.27,185]},"properties":{"stationId":"LHBP","rawText":"LHBP 192030Z 02004KT 340V050 1600 R31L/P2000N R31R/0700D BCFG BR FEW002 04/03 Q1021 NOSIG","observationTime":"2019-12-19T20:30:00Z","temp":4,"dewpoint":3,"windDirection":20,"windSpeed":7.408,"visibility":0.99,"altim":30.147638,"flightCategory":"LIFR","metarType":"METAR","geometry_esri":{"x":47.42,"y":19.27,"z":185}}}