{"type":"Feature","geometry":{"type":"Point","coordinates":[47.78,13.02,430]},"properties":{"stationId":"LOWS","rawText":"LOWS 011550Z 01004KT 330V040 9999 FEW012 SCT110 BKN250 08/06 Q1010 NOSIG","observationTime":"2019-11-01T15:50:00Z","temp":8,"dewpoint":6,"windDirection":10,"windSpeed":7.408,"visibility":6.21,"altim":29.822834,"flightCategory":"VFR","metarType":"METAR","geometry_esri":{"x":47.78,"y":13.02,"z":430}}}