{"type":"Feature","geometry":{"type":"Point","coordinates":[47.42,19.27,185]},"properties":{"stationId":"LHBP","rawText":"LHBP 091530Z 23012KT CAVOK 14/06 Q1016 NOSIG","observationTime":"2019-03-09T15:30:00Z","temp":14,"dewpoint":6,"windDirection":230,"windSpeed":22.224,"visibility":6.21,"altim":30,"flightCategory":"VFR","metarType":"METAR","geometry_esri":{"x":47.42,"y":19.27,"z":185}}}