{"type":"Feature","geometry":{"type":"Point","coordinates":[47.42,19.27,185]},"properties":{"stationId":"LHBP","rawText":"LHBP 280730Z 33007KT 280V020 CAVOK 23/12 Q1018 NOSIG","observationTime":"2019-06-28T07:30:00Z","temp":23,"dewpoint":12,"windDirection":330,"windSpeed":12.964,"visibility":6.21,"altim":30.059055,"flightCategory":"VFR","metarType":"METAR","geometry_esri":{"x":47.42,"y":19.27,"z":185}}}