{"type":"Feature","geometry":{"type":"Point","coordinates":[47.42,19.27,185]},"properties":{"stationId":"LHBP","rawText":"LHBP 201230Z 26003KT 200V320 4200 BR NSC 04/02 Q1044 NOSIG","observationTime":"2020-01-20T12:30:00Z","temp":4,"dewpoint":2,"windDirection":260,"windSpeed":5.556,"visibility":2.61,"altim":30.82677,"flightCategory":"IFR","metarType":"METAR","geometry_esri":{"x":47.42,"y":19.27,"z":185}}}