{"type":"Feature","geometry":{"type":"Point","coordinates":[45.98,18.23,305]},"properties":{"stationId":"LHPP","rawText":"LHPP 270846Z 11013KT 4500 HZ NSC 11/02 Q1021","observationTime":"2020-03-27T08:46:00Z","temp":11,"dewpoint":2,"windDirection":110,"windSpeed":24.076,"visibility":2.8,"altim":30.147638,"flightCategory":"IFR","metarType":"SPECI","geometry_esri":{"x":45.98,"y":18.23,"z":305}}}