{"type":"Feature","geometry":{"type":"Point","coordinates":[47.78,13.02,430]},"properties":{"stationId":"LOWS","rawText":"LOWS 102050Z 16004KT 100V200 9999 FEW050 BKN060 05/02 Q1027 NOSIG","observationTime":"2020-01-10T20:50:00Z","temp":5,"dewpoint":2,"windDirection":160,"windSpeed":7.408,"visibility":6.21,"altim":30.324802,"flightCategory":"VFR","metarType":"METAR","geometry_esri":{"x":47.78,"y":13.02,"z":430}}}