{"type":"Feature","geometry":{"type":"Point","coordinates":[47.42,19.27,185]},"properties":{"stationId":"LHBP","rawText":"LHBP 150930Z 09008KT 030V120 CAVOK 08/02 Q1028 TEMPO FM1045 2000 BCFG BR BKN002","observationTime":"2020-02-15T09:30:00Z","temp":8,"dewpoint":2,"windDirection":90,"windSpeed":14.816,"visibility":6.21,"altim":30.35433,"flightCategory":"VFR","metarType":"METAR","geometry_esri":{"x":47.42,"y":19.27,"z":185}}}