{"type":"Feature","geometry":{"type":"Point","coordinates":[47.78,13.02,430]},"properties":{"stationId":"LOWS","rawText":"LOWS 141650Z 05007KT 020V080 9999 FEW018 BKN022 11/07 Q1013 NOSIG","observationTime":"2020-05-14T16:50:00Z","temp":11,"dewpoint":7,"windDirection":50,"windSpeed":12.964,"visibility":6.21,"altim":29.911417,"flightCategory":"MVFR","metarType":"METAR","geometry_esri":{"x":47.78,"y":13.02,"z":430}}}