{"type":"Feature","geometry":{"type":"Point","coordinates":[47.78,13.02,430]},"properties":{"stationId":"LOWS","rawText":"LOWS 221950Z 16007KT CAVOK 07/M01 Q1026 NOSIG","observationTime":"2020-02-22T19:50:00Z","temp":7,"dewpoint":-1,"windDirection":160,"windSpeed":12.964,"visibility":6.21,"altim":30.295275,"flightCategory":"VFR","metarType":"METAR","geometry_esri":{"x":47.78,"y":13.02,"z":430}}}