{"type":"Feature","geometry":{"type":"Point","coordinates":[47.78,13.02,430]},"properties":{"stationId":"LOWS","rawText":"LOWS 201550Z 03010KT 350V050 CAVOK 21/01 Q1024 BECMG 15006KT","observationTime":"2019-04-20T15:50:00Z","temp":21,"dewpoint":1,"windDirection":30,"windSpeed":18.52,"visibility":6.21,"altim":30.236221,"flightCategory":"VFR","metarType":"METAR","geometry_esri":{"x":47.78,"y":13.02,"z":430}}}