{"type":"Feature","geometry":{"type":"Point","coordinates":[47.42,19.27,185]},"properties":{"stationId":"LHBP","rawText":"LHBP 051130Z 35019KT CAVOK 09/M03 Q1010 NOSIG","observationTime":"2020-02-05T11:30:00Z","temp":9,"dewpoint":-3,"windDirection":350,"windSpeed":35.188,"visibility":6.21,"altim":29.822834,"flightCategory":"VFR","metarType":"METAR","geometry_esri":{"x":47.42,"y":19.27,"z":185}}}