{"type":"Feature","geometry":{"type":"Point","coordinates":[47.42,19.27,185]},"properties":{"stationId":"LHBP","rawText":"LHBP 270830Z 31012KT 9999 FEW026 05/M01 Q1006 NOSIG","observationTime":"2020-02-27T08:30:00Z","temp":5,"dewpoint":-1,"windDirection":310,"windSpeed":22.224,"visibility":6.21,"altim":29.704725,"flightCategory":"VFR","metarType":"METAR","geometry_esri":{"x":47.42,"y":19.27,"z":185}}}