{"type":"Feature","geometry":{"type":"Point","coordinates":[47.78,13.02,430]},"properties":{"stationId":"LOWS","rawText":"LOWS 110450Z 14003KT 9999 1000S BCFG FEW001 08/07 Q1022 TEMPO 0700 BECMG NSW","observationTime":"2019-09-11T04:50:00Z","temp":8,"dewpoint":7,"windDirection":140,"windSpeed":5.556,"visibility":6.21,"altim":30.177166,"flightCategory":"VFR","metarType":"METAR","geometry_esri":{"x":47.78,"y":13.02,"z":430}}}