{"type":"Feature","geometry":{"type":"Point","coordinates":[47.42,19.27,185]},"properties":{"stationId":"LHBP","rawText":"LHBP 041530Z 28009KT CAVOK M02/M08 Q1027 NOSIG","observationTime":"2019-01-04T15:30:00Z","temp":-2,"dewpoint":-8,"windDirection":280,"windSpeed":16.668,"visibility":6.21,"altim":30.324802,"flightCategory":"VFR","metarType":"METAR","geometry_esri":{"x":47.42,"y":19.27,"z":185}}}