{"type":"Feature","geometry":{"type":"Point","coordinates":[47.78,13.02,430]},"properties":{"stationId":"LOWS","rawText":"LOWS 211850Z 23010KT 7000 TSRA FEW010 BKN040 SCT060CB 17/16 Q1020 BECMG -SHRA","observationTime":"2019-06-21T18:50:00Z","temp":17,"dewpoint":16,"windDirection":230,"windSpeed":18.52,"visibility":4.35,"altim":30.11811,"flightCategory":"MVFR","metarType":"SPECI","geometry_esri":{"x":47.78,"y":13.02,"z":430}}}