{"type":"Feature","geometry":{"type":"Point","coordinates":[47.42,19.27,185]},"properties":{"stationId":"LHBP","rawText":"LHBP 272230Z 27007KT CAVOK 13/08 Q1011 NOSIG","observationTime":"2019-04-27T22:30:00Z","temp":13,"dewpoint":8,"windDirection":270,"windSpeed":12.964,"visibility":6.21,"altim":29.852362,"flightCategory":"VFR","metarType":"METAR","geometry_esri":{"x":47.42,"y":19.27,"z":185}}}