{"type":"Feature","geometry":{"type":"Point","coordinates":[47.78,13.02,430]},"properties":{"stationId":"LOWS","rawText":"LOWS 111250Z 04007KT 9999 FEW070 27/15 Q1015 NOSIG","observationTime":"2019-08-11T12:50:00Z","temp":27,"dewpoint":15,"windDirection":40,"windSpeed":12.964,"visibility":6.21,"altim":29.970472,"flightCategory":"VFR","metarType":"METAR","geometry_esri":{"x":47.78,"y":13.02,"z":430}}}