{"type":"Feature","geometry":{"type":"Point","coordinates":[47.78,13.02,430]},"properties":{"stationId":"LOWS","rawText":"LOWS 190650Z 15012KT 9999 FEW070 SCT090 BKN110 03/M02 Q1020 NOSIG","observationTime":"2020-02-19T06:50:00Z","temp":3,"dewpoint":-2,"windDirection":150,"windSpeed":22.224,"visibility":6.21,"altim":30.11811,"flightCategory":"VFR","metarType":"METAR","geometry_esri":{"x":47.78,"y":13.02,"z":430}}}