{"type":"Feature","geometry":{"type":"Point","coordinates":[47.78,13.02,430]},"properties":{"stationId":"LOWS","rawText":"LOWS 070750Z 31006KT 8000 -RASN FEW007 SCT010 BKN014 02/01 Q1030 R15/29//95 TEMPO 4000 RASN","observationTime":"2019-01-07T07:50:00Z","temp":2,"dewpoint":1,"windDirection":310,"windSpeed":11.112,"visibility":4.97,"altim":30.413385,"flightCategory":"MVFR","metarType":"METAR","geometry_esri":{"x":47.78,"y":13.02,"z":430}}}