{"type":"Feature","geometry":{"type":"Point","coordinates":[47.78,13.02,430]},"properties":{"stationId":"LOWS","rawText":"LOWS 221950Z 29013KT 6000 SHRA FEW010 SCT024 FEW035CB BKN038 08/06 Q1021 RETS TEMPO -RA","observationTime":"2018-12-22T19:50:00Z","temp":8,"dewpoint":6,"windDirection":290,"windSpeed":24.076,"visibility":3.73,"altim":30.147638,"flightCategory":"MVFR","metarType":"METAR","geometry_esri":{"x":47.78,"y":13.02,"z":430}}}