{"type":"Feature","geometry":{"type":"Point","coordinates":[47.42,19.27,185]},"properties":{"stationId":"LHBP","rawText":"LHBP 071530Z 03004KT 320V070 CAVOK 19/M08 Q1032 NOSIG","observationTime":"2020-04-07T15:30:00Z","temp":19,"dewpoint":-8,"windDirection":30,"windSpeed":7.408,"visibility":6.21,"altim":30.47244,"flightCategory":"VFR","metarType":"METAR","geometry_esri":{"x":47.42,"y":19.27,"z":185}}}