{"type":"Feature","geometry":{"type":"Point","coordinates":[47.78,13.02,430]},"properties":{"stationId":"LOWS","rawText":"LOWS 031550Z 30010KT 8000 -SN FEW006 SCT024 BKN032 00/M02 Q1014 R15/29//95 NOSIG","observationTime":"2019-02-03T15:50:00Z","temp":0,"dewpoint":-2,"windDirection":300,"windSpeed":18.52,"visibility":4.97,"altim":29.940945,"flightCategory":"MVFR","metarType":"METAR","geometry_esri":{"x":47.78,"y":13.02,"z":430}}}