{"type":"Feature","geometry":{"type":"Point","coordinates":[47.78,13.02,430]},"properties":{"stationId":"LOWS","rawText":"LOWS 260250Z AUTO 06007KT 030V090 9999 FEW130 01/M09 Q1017","observationTime":"2020-03-26T02:50:00Z","temp":1,"dewpoint":-9,"windDirection":60,"windSpeed":12.964,"visibility":6.21,"altim":30.029528,"flightCategory":"VFR","metarType":"METAR","geometry_esri":{"x":47.78,"y":13.02,"z":430}}}