{"type":"Feature","geometry":{"type":"Point","coordinates":[47.42,19.27,185]},"properties":{"stationId":"LHBP","rawText":"LHBP 180430Z 10005KT CAVOK 17/13 Q1012 NOSIG","observationTime":"2019-07-18T04:30:00Z","temp":17,"dewpoint":13,"windDirection":100,"windSpeed":9.26,"visibility":6.21,"altim":29.88189,"flightCategory":"VFR","metarType":"METAR","geometry_esri":{"x":47.42,"y":19.27,"z":185}}}