{"type":"Feature","geometry":{"type":"Point","coordinates":[47.42,19.27,185]},"properties":{"stationId":"LHBP","rawText":"LHBP 080930Z 20006KT 130V260 9999 FEW046 14/03 Q1017 NOSIG","observationTime":"2019-05-08T09:30:00Z","temp":14,"dewpoint":3,"windDirection":200,"windSpeed":11.112,"visibility":6.21,"altim":30.029528,"flightCategory":"VFR","metarType":"METAR","geometry_esri":{"x":47.42,"y":19.27,"z":185}}}