{"type":"Feature","geometry":{"type":"Point","coordinates":[47.42,19.27,185]},"properties":{"stationId":"LHBP","rawText":"LHBP 071530Z 21004KT 9999 BKN040 M05/M10 Q1029 R88/25//95 NOSIG","observationTime":"2019-01-07T15:30:00Z","temp":-5,"dewpoint":-10,"windDirection":210,"windSpeed":7.408,"visibility":6.21,"altim":30.383858,"flightCategory":"VFR","metarType":"METAR","geometry_esri":{"x":47.42,"y":19.27,"z":185}}}