{"type":"Feature","geometry":{"type":"Point","coordinates":[47.78,13.02,430]},"properties":{"stationId":"LOWS","rawText":"LOWS 291750Z 28006KT 250V310 7000 -RA FEW012 SCT016 BKN020 06/05 Q1019 TEMPO 4000 RA","observationTime":"2019-04-29T17:50:00Z","temp":6,"dewpoint":5,"windDirection":280,"windSpeed":11.112,"visibility":4.35,"altim":30.088583,"flightCategory":"MVFR","metarType":"METAR","geometry_esri":{"x":47.78,"y":13.02,"z":430}}}