{"type":"Feature","geometry":{"type":"Point","coordinates":[47.42,19.27,185]},"properties":{"stationId":"LHBP","rawText":"LHBP 202130Z VRB02KT CAVOK M00/M00 Q1025 NOSIG","observationTime":"2019-02-20T21:30:00Z","temp":0,"dewpoint":0,"windDirection":0,"windSpeed":3.704,"visibility":6.21,"altim":30.265747,"flightCategory":"VFR","metarType":"METAR","geometry_esri":{"x":47.42,"y":19.27,"z":185}}}