{"type":"Feature","geometry":{"type":"Point","coordinates":[47.78,13.02,430]},"properties":{"stationId":"LOWS","rawText":"LOWS 122350Z AUTO 02005KT 330V070 9999 FEW050 BKN070 16/11 Q1014","observationTime":"2019-07-12T23:50:00Z","temp":16,"dewpoint":11,"windDirection":20,"windSpeed":9.26,"visibility":6.21,"altim":29.940945,"flightCategory":"VFR","metarType":"METAR","geometry_esri":{"x":47.78,"y":13.02,"z":430}}}