{"type":"Feature","geometry":{"type":"Point","coordinates":[47.78,13.02,430]},"properties":{"stationId":"LOWS","rawText":"LOWS 231150Z 33003KT 300V360 9999 -SHRA FEW040 BKN085 10/05 Q1020 TEMPO 26010G20KT","observationTime":"2020-02-23T11:50:00Z","temp":10,"dewpoint":5,"windDirection":330,"windSpeed":5.556,"visibility":6.21,"altim":30.11811,"flightCategory":"VFR","metarType":"METAR","geometry_esri":{"x":47.78,"y":13.02,"z":430}}}