{"type":"Feature","geometry":{"type":"Point","coordinates":[47.78,13.02,430]},"properties":{"stationId":"LOWS","rawText":"LOWS 260250Z AUTO 36004KT 320V020 9999 FEW013 BKN017 01/M00 Q1025","observationTime":"2019-03-26T02:50:00Z","temp":1,"dewpoint":0,"windDirection":360,"windSpeed":7.408,"visibility":6.21,"altim":30.265747,"flightCategory":"MVFR","metarType":"METAR","geometry_esri":{"x":47.78,"y":13.02,"z":430}}}