{"type":"Feature","geometry":{"type":"Point","coordinates":[47.78,13.02,430]},"properties":{"stationId":"LOWS","rawText":"LOWS 230450Z 22009KT 9999 -RA FEW020 SCT030 BKN040 06/04 Q1024 TEMPO SHRA","observationTime":"2018-12-23T04:50:00Z","temp":6,"dewpoint":4,"windDirection":220,"windSpeed":16.668,"visibility":6.21,"altim":30.236221,"flightCategory":"VFR","metarType":"METAR","geometry_esri":{"x":47.78,"y":13.02,"z":430}}}