{"type":"Feature","geometry":{"type":"Point","coordinates":[47.78,13.02,430]},"properties":{"stationId":"LOWS","rawText":"LOWS 070550Z 16006KT 9999 FEW018 BKN110 16/12 Q1015 NOSIG","observationTime":"2019-06-07T05:50:00Z","temp":16,"dewpoint":12,"windDirection":160,"windSpeed":11.112,"visibility":6.21,"altim":29.970472,"flightCategory":"VFR","metarType":"METAR","geometry_esri":{"x":47.78,"y":13.02,"z":430}}}