{"type":"Feature","geometry":{"type":"Point","coordinates":[47.42,19.27,185]},"properties":{"stationId":"LHBP","rawText":"LHBP 062030Z 10006KT CAVOK 19/18 Q1013 TEMPO 4000 TSRA FEW030CB","observationTime":"2019-06-06T20:30:00Z","temp":19,"dewpoint":18,"windDirection":100,"windSpeed":11.112,"visibility":6.21,"altim":29.911417,"flightCategory":"VFR","metarType":"METAR","geometry_esri":{"x":47.42,"y":19.27,"z":185}}}