{"type":"Feature","geometry":{"type":"Point","coordinates":[47.42,19.27,185]},"properties":{"stationId":"LHBP","rawText":"LHBP 151630Z 08005KT 1200 R13R/1400D R13L/1100U BCFG BR OVC002 M01/M02 Q1029 NOSIG","observationTime":"2020-01-15T16:30:00Z","temp":-1,"dewpoint":-2,"windDirection":80,"windSpeed":9.26,"visibility":0.75,"altim":30.383858,"flightCategory":"LIFR","metarType":"SPECI","geometry_esri":{"x":47.42,"y":19.27,"z":185}}}