{"type":"Feature","geometry":{"type":"Point","coordinates":[47.78,13.02,430]},"properties":{"stationId":"LOWS","rawText":"LOWS 190850Z 13004KT 080V170 9999 FEW030 BKN060 15/11 Q1015 BECMG 35007KT","observationTime":"2020-04-19T08:50:00Z","temp":15,"dewpoint":11,"windDirection":130,"windSpeed":7.408,"visibility":6.21,"altim":29.970472,"flightCategory":"VFR","metarType":"METAR","geometry_esri":{"x":47.78,"y":13.02,"z":430}}}