{"type":"Feature","geometry":{"type":"Point","coordinates":[47.78,13.02,430]},"properties":{"stationId":"LOWS","rawText":"LOWS 052350Z AUTO 16005KT 0650 R15/0800N R33/0700N FZFG BKN001 M06/M06 Q1029","observationTime":"2019-02-05T23:50:00Z","temp":-6,"dewpoint":-6,"windDirection":160,"windSpeed":9.26,"visibility":0.4,"altim":30.383858,"flightCategory":"LIFR","metarType":"METAR","geometry_esri":{"x":47.78,"y":13.02,"z":430}}}