{"type":"Feature","geometry":{"type":"Point","coordinates":[47.42,19.27,185]},"properties":{"stationId":"LHBP","rawText":"LHBP 161630Z 18005KT 150V210 CAVOK 18/05 Q1021 NOSIG","observationTime":"2020-05-16T16:30:00Z","temp":18,"dewpoint":5,"windDirection":180,"windSpeed":9.26,"visibility":6.21,"altim":30.147638,"flightCategory":"VFR","metarType":"METAR","geometry_esri":{"x":47.42,"y":19.27,"z":185}}}