{"type":"Feature","geometry":{"type":"Point","coordinates":[47.78,13.02,430]},"properties":{"stationId":"LOWS","rawText":"LOWS 281550Z 27005KT 240V300 9999 -RA FEW007 SCT020 BKN040 13/11 Q1009 RERA TEMPO RA","observationTime":"2019-05-28T15:50:00Z","temp":13,"dewpoint":11,"windDirection":270,"windSpeed":9.26,"visibility":6.21,"altim":29.793306,"flightCategory":"VFR","metarType":"METAR","geometry_esri":{"x":47.78,"y":13.02,"z":430}}}