{"type":"Feature","geometry":{"type":"Point","coordinates":[47.78,13.02,430]},"properties":{"stationId":"LOWS","rawText":"LOWS 280950Z 31006KT 280V340 9999 FEW012 SCT032 BKN045 01/M02 Q1038 NOSIG","observationTime":"2019-12-28T09:50:00Z","temp":1,"dewpoint":-2,"windDirection":310,"windSpeed":11.112,"visibility":6.21,"altim":30.649607,"flightCategory":"VFR","metarType":"METAR","geometry_esri":{"x":47.78,"y":13.02,"z":430}}}