{"type":"Feature","geometry":{"type":"Point","coordinates":[47.78,13.02,430]},"properties":{"stationId":"LOWS","rawText":"LOWS 110250Z AUTO 15007KT 9999 SCT040 BKN046 07/05 Q1015","observationTime":"2020-03-11T02:50:00Z","temp":7,"dewpoint":5,"windDirection":150,"windSpeed":12.964,"visibility":6.21,"altim":29.970472,"flightCategory":"VFR","metarType":"METAR","geometry_esri":{"x":47.78,"y":13.02,"z":430}}}