{"type":"Feature","geometry":{"type":"Point","coordinates":[47.78,13.02,430]},"properties":{"stationId":"LOWS","rawText":"LOWS 250550Z 32008KT 9000 -SN FEW015 BKN030 BKN050 M04/M07 Q1014 R15/420195 NOSIG","observationTime":"2019-01-25T05:50:00Z","temp":-4,"dewpoint":-7,"windDirection":320,"windSpeed":14.816,"visibility":5.59,"altim":29.940945,"flightCategory":"MVFR","metarType":"METAR","geometry_esri":{"x":47.78,"y":13.02,"z":430}}}