{"type":"Feature","geometry":{"type":"Point","coordinates":[47.42,19.27,185]},"properties":{"stationId":"LHBP","rawText":"LHBP 010630Z 00000KT 5000 MIFG BR FEW021 01/01 Q1025 NOSIG","observationTime":"2019-11-01T06:30:00Z","temp":1,"dewpoint":1,"windDirection":0,"windSpeed":0,"visibility":3.11,"altim":30.265747,"flightCategory":"MVFR","metarType":"METAR","geometry_esri":{"x":47.42,"y":19.27,"z":185}}}