{"type":"Feature","geometry":{"type":"Point","coordinates":[47.42,19.27,185]},"properties":{"stationId":"LHBP","rawText":"LHBP 250630Z 35004KT 2000 BR OVC003 M02/M03 Q1024 NOSIG","observationTime":"2020-01-25T06:30:00Z","temp":-2,"dewpoint":-3,"windDirection":350,"windSpeed":7.408,"visibility":1.24,"altim":30.236221,"flightCategory":"LIFR","metarType":"METAR","geometry_esri":{"x":47.42,"y":19.27,"z":185}}}