{"type":"Feature","geometry":{"type":"Point","coordinates":[47.78,13.02,430]},"properties":{"stationId":"LOWS","rawText":"LOWS 092350Z AUTO 16009KT 9999 FEW060 SCT250 03/M01 Q1017","observationTime":"2019-02-09T23:50:00Z","temp":3,"dewpoint":-1,"windDirection":160,"windSpeed":16.668,"visibility":6.21,"altim":30.029528,"flightCategory":"VFR","metarType":"METAR","geometry_esri":{"x":47.78,"y":13.02,"z":430}}}