{"type":"Feature","geometry":{"type":"Point","coordinates":[47.47,21.62,112]},"properties":{"stationId":"LHDC","rawText":"LHDC 251545Z AUTO 25001KT 5000 BR SCT011 BKN084 04/04 Q1012","observationTime":"2019-12-25T15:45:00Z","temp":4,"dewpoint":4,"windDirection":250,"windSpeed":1.852,"visibility":3.11,"altim":29.88189,"flightCategory":"MVFR","metarType":"SPECI","geometry_esri":{"x":47.47,"y":21.62,"z":112}}}