{"type":"Feature","geometry":{"type":"Point","coordinates":[47.78,13.02,430]},"properties":{"stationId":"LOWS","rawText":"LOWS 070350Z AUTO 16004KT 120V190 9999 NCD 02/00 Q1025","observationTime":"2020-05-07T03:50:00Z","temp":2,"dewpoint":0,"windDirection":160,"windSpeed":7.408,"visibility":6.21,"altim":30.265747,"flightCategory":"VFR","metarType":"METAR","geometry_esri":{"x":47.78,"y":13.02,"z":430}}}