{"type":"Feature","geometry":{"type":"Point","coordinates":[47.42,19.27,185]},"properties":{"stationId":"LHBP","rawText":"LHBP 301330Z 33012KT 9999 FEW038TCU BKN090 17/09 Q1007 TEMPO 4000 SHRA","observationTime":"2019-04-30T13:30:00Z","temp":17,"dewpoint":9,"windDirection":330,"windSpeed":22.224,"visibility":6.21,"altim":29.734253,"flightCategory":"VFR","metarType":"SPECI","geometry_esri":{"x":47.42,"y":19.27,"z":185}}}