{"type":"Feature","geometry":{"type":"Point","coordinates":[47.78,13.02,430]},"properties":{"stationId":"LOWS","rawText":"LOWS 050050Z AUTO 25007KT 220V280 3700 -SN FEW008 BKN016 M00/M01 Q1029","observationTime":"2019-01-05T00:50:00Z","temp":0,"dewpoint":-1,"windDirection":250,"windSpeed":12.964,"visibility":2.3,"altim":30.383858,"flightCategory":"IFR","metarType":"METAR","geometry_esri":{"x":47.78,"y":13.02,"z":430}}}