{"type":"Feature","geometry":{"type":"Point","coordinates":[47.42,19.27,185]},"properties":{"stationId":"LHBP","rawText":"LHBP 132030Z 24004KT 8000 NSC 01/01 Q1033 NOSIG","observationTime":"2019-02-13T20:30:00Z","temp":1,"dewpoint":1,"windDirection":240,"windSpeed":7.408,"visibility":4.97,"altim":30.501968,"flightCategory":"MVFR","metarType":"METAR","geometry_esri":{"x":47.42,"y":19.27,"z":185}}}