{"type":"Feature","geometry":{"type":"Point","coordinates":[47.42,19.27,185]},"properties":{"stationId":"LHBP","rawText":"LHBP 270030Z 35002KT 2500 BR FEW003 OVC006 M00/M01 Q1020 TEMPO -FZRA","observationTime":"2020-01-27T00:30:00Z","temp":0,"dewpoint":-1,"windDirection":350,"windSpeed":3.704,"visibility":1.55,"altim":30.11811,"flightCategory":"IFR","metarType":"SPECI","geometry_esri":{"x":47.42,"y":19.27,"z":185}}}