{"type":"Feature","geometry":{"type":"Point","coordinates":[47.42,19.27,185]},"properties":{"stationId":"LHBP","rawText":"LHBP 090830Z 14004KT 3000 BR BKN048 M01/M02 Q1029 BECMG 6000 NSW","observationTime":"2020-01-09T08:30:00Z","temp":-1,"dewpoint":-2,"windDirection":140,"windSpeed":7.408,"visibility":1.86,"altim":30.383858,"flightCategory":"IFR","metarType":"METAR","geometry_esri":{"x":47.42,"y":19.27,"z":185}}}