{"type":"Feature","geometry":{"type":"Point","coordinates":[47.78,13.02,430]},"properties":{"stationId":"LOWS","rawText":"LOWS 110550Z 15008KT 110V170 9999 FEW100 SCT120 BKN300 13/06 Q1010 NOSIG","observationTime":"2019-05-11T05:50:00Z","temp":13,"dewpoint":6,"windDirection":150,"windSpeed":14.816,"visibility":6.21,"altim":29.822834,"flightCategory":"VFR","metarType":"METAR","geometry_esri":{"x":47.78,"y":13.02,"z":430}}}