{"type":"Feature","geometry":{"type":"Point","coordinates":[47.78,13.02,430]},"properties":{"stationId":"LOWS","rawText":"LOWS 031250Z 16006KT 9999 FEW035 03/M01 Q1027 R15/15//95 NOSIG","observationTime":"2019-12-03T12:50:00Z","temp":3,"dewpoint":-1,"windDirection":160,"windSpeed":11.112,"visibility":6.21,"altim":30.324802,"flightCategory":"VFR","metarType":"SPECI","geometry_esri":{"x":47.78,"y":13.02,"z":430}}}