{"type":"Feature","geometry":{"type":"Point","coordinates":[47.78,13.02,430]},"properties":{"stationId":"LOWS","rawText":"LOWS 160150Z AUTO 14003KT 110V190 9999 FEW030 SCT036 BKN050 14/13 Q1019","observationTime":"2019-08-16T01:50:00Z","temp":14,"dewpoint":13,"windDirection":140,"windSpeed":5.556,"visibility":6.21,"altim":30.088583,"flightCategory":"VFR","metarType":"METAR","geometry_esri":{"x":47.78,"y":13.02,"z":430}}}