{"type":"Feature","geometry":{"type":"Point","coordinates":[47.42,19.27,185]},"properties":{"stationId":"LHBP","rawText":"LHBP 090830Z VRB03KT 0700 R31L/0600U R31R/1400U FZFG OVC002 M03/M03 Q1004 R13L/650295 R13R/650295 NOSIG","observationTime":"2019-01-09T08:30:00Z","temp":-3,"dewpoint":-3,"windDirection":0,"windSpeed":5.556,"visibility":0.43,"altim":29.64567,"flightCategory":"LIFR","metarType":"SPECI","geometry_esri":{"x":47.42,"y":19.27,"z":185}}}