{"type":"Feature","geometry":{"type":"Point","coordinates":[47.42,19.27,185]},"properties":{"stationId":"LHBP","rawText":"LHBP 081039Z 15005KT 1800 SN BR BKN007 OVC020 M04/M04 Q1015 R88/490194 TEMPO -SN","observationTime":"2019-01-08T10:39:00Z","temp":-4,"dewpoint":-4,"windDirection":150,"windSpeed":9.26,"visibility":1.12,"altim":29.970472,"flightCategory":"IFR","metarType":"SPECI","geometry_esri":{"x":47.42,"y":19.27,"z":185}}}