{"type":"Feature","geometry":{"type":"Point","coordinates":[47.78,13.02,430]},"properties":{"stationId":"LOWS","rawText":"LOWS 191550Z 20003KT 140V250 9999 FEW006 SCT024 BKN030 00/M00 Q1036 R15/290195 NOSIG","observationTime":"2020-01-19T15:50:00Z","temp":0,"dewpoint":0,"windDirection":200,"windSpeed":5.556,"visibility":6.21,"altim":30.590551,"flightCategory":"MVFR","metarType":"SPECI","geometry_esri":{"x":47.78,"y":13.02,"z":430}}}