{"type":"Feature","geometry":{"type":"Point","coordinates":[47.78,13.02,430]},"properties":{"stationId":"LOWS","rawText":"LOWS 111650Z 31007KT 8000 FEW008 SCT010 BKN120 02/01 Q1007 TEMPO 4000 BR BKN009","observationTime":"2019-11-11T16:50:00Z","temp":2,"dewpoint":1,"windDirection":310,"windSpeed":12.964,"visibility":4.97,"altim":29.734253,"flightCategory":"MVFR","metarType":"METAR","geometry_esri":{"x":47.78,"y":13.02,"z":430}}}