{"type":"Feature","geometry":{"type":"Point","coordinates":[47.42,19.27,185]},"properties":{"stationId":"LHBP","rawText":"LHBP 041630Z 18009KT CAVOK 16/00 Q1000 NOSIG","observationTime":"2019-03-04T16:30:00Z","temp":16,"dewpoint":0,"windDirection":180,"windSpeed":16.668,"visibility":6.21,"altim":29.52756,"flightCategory":"VFR","metarType":"METAR","geometry_esri":{"x":47.42,"y":19.27,"z":185}}}