{"type":"Feature","geometry":{"type":"Point","coordinates":[47.42,19.27,185]},"properties":{"stationId":"LHBP","rawText":"LHBP 180830Z 21005KT 160V240 CAVOK 22/17 Q1016 NOSIG","observationTime":"2019-08-18T08:30:00Z","temp":22,"dewpoint":17,"windDirection":210,"windSpeed":9.26,"visibility":6.21,"altim":30,"flightCategory":"VFR","metarType":"METAR","geometry_esri":{"x":47.42,"y":19.27,"z":185}}}