{"type":"Feature","geometry":{"type":"Point","coordinates":[47.42,19.27,185]},"properties":{"stationId":"LHBP","rawText":"LHBP 130043Z VRB03KT 6000 -SHRA SCT035 BKN082 14/14 Q1011 RESHRA NOSIG","observationTime":"2019-07-13T00:43:00Z","temp":14,"dewpoint":14,"windDirection":0,"windSpeed":5.556,"visibility":3.73,"altim":29.852362,"flightCategory":"MVFR","metarType":"SPECI","geometry_esri":{"x":47.42,"y":19.27,"z":185}}}