{"type":"Feature","geometry":{"type":"Point","coordinates":[47.42,19.27,185]},"properties":{"stationId":"LHBP","rawText":"LHBP 101530Z 15004KT CAVOK 32/19 Q1014 NOSIG","observationTime":"2019-08-10T15:30:00Z","temp":32,"dewpoint":19,"windDirection":150,"windSpeed":7.408,"visibility":6.21,"altim":29.940945,"flightCategory":"VFR","metarType":"METAR","geometry_esri":{"x":47.42,"y":19.27,"z":185}}}