{"type":"Feature","geometry":{"type":"Point","coordinates":[47.42,19.27,185]},"properties":{"stationId":"LHBP","rawText":"LHBP 191630Z 31009KT CAVOK 14/01 Q1023 NOSIG","observationTime":"2019-09-19T16:30:00Z","temp":14,"dewpoint":1,"windDirection":310,"windSpeed":16.668,"visibility":6.21,"altim":30.206694,"flightCategory":"VFR","metarType":"METAR","geometry_esri":{"x":47.42,"y":19.27,"z":185}}}