{"type":"Feature","geometry":{"type":"Point","coordinates":[47.78,13.02,430]},"properties":{"stationId":"LOWS","rawText":"LOWS 311750Z 15005KT 110V180 9999 FEW050 BKN070 16/10 Q1026 NOSIG","observationTime":"2019-05-31T17:50:00Z","temp":16,"dewpoint":10,"windDirection":150,"windSpeed":9.26,"visibility":6.21,"altim":30.295275,"flightCategory":"VFR","metarType":"METAR","geometry_esri":{"x":47.78,"y":13.02,"z":430}}}