{"type":"Feature","geometry":{"type":"Point","coordinates":[47.47,21.62,112]},"properties":{"stationId":"LHDC","rawText":"LHDC 210551Z 22003KT 2800 BR NSC M02/M03 Q1027","observationTime":"2019-02-21T05:51:00Z","temp":-2,"dewpoint":-3,"windDirection":220,"windSpeed":5.556,"visibility":1.74,"altim":30.324802,"flightCategory":"IFR","metarType":"SPECI","geometry_esri":{"x":47.47,"y":21.62,"z":112}}}