{"type":"Feature","geometry":{"type":"Point","coordinates":[47.42,19.27,185]},"properties":{"stationId":"LHBP","rawText":"LHBP 301230Z 30006KT 260V340 9999 R31R/1100N FEW035 29/22 Q1008 NOSIG","observationTime":"2019-07-30T12:30:00Z","temp":29,"dewpoint":22,"windDirection":300,"windSpeed":11.112,"visibility":6.21,"altim":29.763779,"flightCategory":"VFR","metarType":"METAR","geometry_esri":{"x":47.42,"y":19.27,"z":185}}}