{"type":"Feature","geometry":{"type":"Point","coordinates":[47.78,13.02,430]},"properties":{"stationId":"LOWS","rawText":"LOWS 250950Z 15009KT CAVOK 07/03 Q1006 NOSIG","observationTime":"2020-02-25T09:50:00Z","temp":7,"dewpoint":3,"windDirection":150,"windSpeed":16.668,"visibility":6.21,"altim":29.704725,"flightCategory":"VFR","metarType":"METAR","geometry_esri":{"x":47.78,"y":13.02,"z":430}}}