{"type":"Feature","geometry":{"type":"Point","coordinates":[47.42,19.27,185]},"properties":{"stationId":"LHBP","rawText":"LHBP 151730Z 09005KT 0700 R13R/1200D R13L/1100D FZFG OVC002 M01/M02 Q1030 NOSIG","observationTime":"2020-01-15T17:30:00Z","temp":-1,"dewpoint":-2,"windDirection":90,"windSpeed":9.26,"visibility":0.43,"altim":30.413385,"flightCategory":"LIFR","metarType":"SPECI","geometry_esri":{"x":47.42,"y":19.27,"z":185}}}