{"type":"Feature","geometry":{"type":"Point","coordinates":[47.78,13.02,430]},"properties":{"stationId":"LOWS","rawText":"LOWS 302350Z AUTO 15006KT 120V180 9999 SCT250 21/15 Q1018","observationTime":"2019-06-30T23:50:00Z","temp":21,"dewpoint":15,"windDirection":150,"windSpeed":11.112,"visibility":6.21,"altim":30.059055,"flightCategory":"VFR","metarType":"METAR","geometry_esri":{"x":47.78,"y":13.02,"z":430}}}