{"type":"Feature","geometry":{"type":"Point","coordinates":[47.78,13.02,430]},"properties":{"stationId":"LOWS","rawText":"LOWS 202250Z AUTO 15011KT 110V170 9999 FEW200 BKN250 20/07 Q1012","observationTime":"2019-10-20T22:50:00Z","temp":20,"dewpoint":7,"windDirection":150,"windSpeed":20.372,"visibility":6.21,"altim":29.88189,"flightCategory":"VFR","metarType":"METAR","geometry_esri":{"x":47.78,"y":13.02,"z":430}}}