{"type":"Feature","geometry":{"type":"Point","coordinates":[47.78,13.02,430]},"properties":{"stationId":"LOWS","rawText":"LOWS 071450Z VRB05KT 9999 -RA FEW015 BKN040 08/04 Q1009 RERA NOSIG","observationTime":"2019-03-07T14:50:00Z","temp":8,"dewpoint":4,"windDirection":0,"windSpeed":9.26,"visibility":6.21,"altim":29.793306,"flightCategory":"VFR","metarType":"METAR","geometry_esri":{"x":47.78,"y":13.02,"z":430}}}