{"type":"Feature","geometry":{"type":"Point","coordinates":[47.42,19.27,185]},"properties":{"stationId":"LHBP","rawText":"LHBP 300730Z VRB02KT 1800 BR OVC003 M00/M00 Q1003 R88/510194 NOSIG","observationTime":"2019-01-30T07:30:00Z","temp":0,"dewpoint":0,"windDirection":0,"windSpeed":3.704,"visibility":1.12,"altim":29.616142,"flightCategory":"LIFR","metarType":"SPECI","geometry_esri":{"x":47.42,"y":19.27,"z":185}}}