{"type":"Feature","geometry":{"type":"Point","coordinates":[47.42,19.27,185]},"properties":{"stationId":"LHBP","rawText":"LHBP 072030Z 01002KT CAVOK 04/M02 Q1032 NOSIG","observationTime":"2020-04-07T20:30:00Z","temp":4,"dewpoint":-2,"windDirection":10,"windSpeed":3.704,"visibility":6.21,"altim":30.47244,"flightCategory":"VFR","metarType":"METAR","geometry_esri":{"x":47.42,"y":19.27,"z":185}}}