{"type":"Feature","geometry":{"type":"Point","coordinates":[47.78,13.02,430]},"properties":{"stationId":"LOWS","rawText":"LOWS 290150Z AUTO 15003KT 130V190 9999 FEW060 SCT070 BKN090 06/02 Q1015","observationTime":"2020-03-29T01:50:00Z","temp":6,"dewpoint":2,"windDirection":150,"windSpeed":5.556,"visibility":6.21,"altim":29.970472,"flightCategory":"VFR","metarType":"METAR","geometry_esri":{"x":47.78,"y":13.02,"z":430}}}