{"type":"Feature","geometry":{"type":"Point","coordinates":[47.42,19.27,185]},"properties":{"stationId":"LHBP","rawText":"LHBP 161830Z 18003KT CAVOK 16/06 Q1021 NOSIG","observationTime":"2020-05-16T18:30:00Z","temp":16,"dewpoint":6,"windDirection":180,"windSpeed":5.556,"visibility":6.21,"altim":30.147638,"flightCategory":"VFR","metarType":"METAR","geometry_esri":{"x":47.42,"y":19.27,"z":185}}}