{"type":"Feature","geometry":{"type":"Point","coordinates":[47.78,13.02,430]},"properties":{"stationId":"LOWS","rawText":"LOWS 221550Z 35003KT 300V020 8000 FEW006 BKN007 M02/M03 Q1033 NOSIG","observationTime":"2020-01-22T15:50:00Z","temp":-2,"dewpoint":-3,"windDirection":350,"windSpeed":5.556,"visibility":4.97,"altim":30.501968,"flightCategory":"IFR","metarType":"METAR","geometry_esri":{"x":47.78,"y":13.02,"z":430}}}