{"type":"Feature","geometry":{"type":"Point","coordinates":[47.42,19.27,185]},"properties":{"stationId":"LHBP","rawText":"LHBP 070830Z 18015KT CAVOK 13/03 Q1010 NOSIG","observationTime":"2019-03-07T08:30:00Z","temp":13,"dewpoint":3,"windDirection":180,"windSpeed":27.78,"visibility":6.21,"altim":29.822834,"flightCategory":"VFR","metarType":"METAR","geometry_esri":{"x":47.42,"y":19.27,"z":185}}}