{"type":"Feature","geometry":{"type":"Point","coordinates":[47.47,21.62,112]},"properties":{"stationId":"LHDC","rawText":"LHDC 100736Z AUTO 07004KT 030V110 3000 BR NCD M01/M02 Q1024","observationTime":"2020-01-10T07:36:00Z","temp":-1,"dewpoint":-2,"windDirection":70,"windSpeed":7.408,"visibility":1.86,"altim":30.236221,"flightCategory":"IFR","metarType":"SPECI","geometry_esri":{"x":47.47,"y":21.62,"z":112}}}