{"type":"Feature","geometry":{"type":"Point","coordinates":[47.42,19.27,185]},"properties":{"stationId":"LHBP","rawText":"LHBP 131430Z 24006KT 9999 SCT030 05/01 Q1004 R88/29//95 NOSIG","observationTime":"2019-01-13T14:30:00Z","temp":5,"dewpoint":1,"windDirection":240,"windSpeed":11.112,"visibility":6.21,"altim":29.64567,"flightCategory":"VFR","metarType":"SPECI","geometry_esri":{"x":47.42,"y":19.27,"z":185}}}