{"type":"Feature","geometry":{"type":"Point","coordinates":[47.47,21.62,112]},"properties":{"stationId":"LHDC","rawText":"LHDC 250851Z AUTO 14005KT 110V180 2400 -SHRA BKN037 15/15 Q1012","observationTime":"2019-09-25T08:51:00Z","temp":15,"dewpoint":15,"windDirection":140,"windSpeed":9.26,"visibility":1.49,"altim":29.88189,"flightCategory":"IFR","metarType":"SPECI","geometry_esri":{"x":47.47,"y":21.62,"z":112}}}