{"type":"Feature","geometry":{"type":"Point","coordinates":[47.78,13.02,430]},"properties":{"stationId":"LOWS","rawText":"LOWS 122250Z AUTO 17008KT 130V210 9999 FEW006 BKN100 13/05 Q1014","observationTime":"2020-04-12T22:50:00Z","temp":13,"dewpoint":5,"windDirection":170,"windSpeed":14.816,"visibility":6.21,"altim":29.940945,"flightCategory":"VFR","metarType":"METAR","geometry_esri":{"x":47.78,"y":13.02,"z":430}}}