{"type":"Feature","geometry":{"type":"Point","coordinates":[47.42,19.27,185]},"properties":{"stationId":"LHBP","rawText":"LHBP 151630Z 09007KT 7000 OVC015 11/10 Q1013 NOSIG","observationTime":"2019-11-15T16:30:00Z","temp":11,"dewpoint":10,"windDirection":90,"windSpeed":12.964,"visibility":4.35,"altim":29.911417,"flightCategory":"MVFR","metarType":"METAR","geometry_esri":{"x":47.42,"y":19.27,"z":185}}}