{"type":"Feature","geometry":{"type":"Point","coordinates":[47.42,19.27,185]},"properties":{"stationId":"LHBP","rawText":"LHBP 140930Z VRB02KT CAVOK 08/05 Q1012 NOSIG","observationTime":"2019-11-14T09:30:00Z","temp":8,"dewpoint":5,"windDirection":0,"windSpeed":3.704,"visibility":6.21,"altim":29.88189,"flightCategory":"VFR","metarType":"METAR","geometry_esri":{"x":47.42,"y":19.27,"z":185}}}