{"type":"Feature","geometry":{"type":"Point","coordinates":[47.42,19.27,185]},"properties":{"stationId":"LHBP","rawText":"LHBP 150230Z 28011KT CAVOK M01/M06 Q1011 NOSIG","observationTime":"2019-01-15T02:30:00Z","temp":-1,"dewpoint":-6,"windDirection":280,"windSpeed":20.372,"visibility":6.21,"altim":29.852362,"flightCategory":"VFR","metarType":"METAR","geometry_esri":{"x":47.42,"y":19.27,"z":185}}}