{"type":"Feature","geometry":{"type":"Point","coordinates":[47.42,19.27,185]},"properties":{"stationId":"LHBP","rawText":"LHBP 222330Z VRB03KT CAVOK 05/03 Q1016 NOSIG","observationTime":"2018-12-22T23:30:00Z","temp":5,"dewpoint":3,"windDirection":0,"windSpeed":5.556,"visibility":6.21,"altim":30,"flightCategory":"VFR","metarType":"METAR","geometry_esri":{"x":47.42,"y":19.27,"z":185}}}