{"type":"Feature","geometry":{"type":"Point","coordinates":[47.78,13.02,430]},"properties":{"stationId":"LOWS","rawText":"LOWS 190150Z AUTO VRB01KT 9999 SCT250 09/08 Q1013","observationTime":"2019-10-19T01:50:00Z","temp":9,"dewpoint":8,"windDirection":0,"windSpeed":1.852,"visibility":6.21,"altim":29.911417,"flightCategory":"VFR","metarType":"METAR","geometry_esri":{"x":47.78,"y":13.02,"z":430}}}