{"type":"Feature","geometry":{"type":"Point","coordinates":[47.42,19.27,185]},"properties":{"stationId":"LHBP","rawText":"LHBP 131630Z 15004KT 1000 R31L/P2000N R31R/P2000N -FZDZ BCFG BR BKN002 OVC004 M03/M03 Q1026 TEMPO 1500","observationTime":"2020-01-13T16:30:00Z","temp":-3,"dewpoint":-3,"windDirection":150,"windSpeed":7.408,"visibility":0.62,"altim":30.295275,"flightCategory":"LIFR","metarType":"SPECI","geometry_esri":{"x":47.42,"y":19.27,"z":185}}}