{"type":"Feature","geometry":{"type":"Point","coordinates":[47.78,13.02,430]},"properties":{"stationId":"LOWS","rawText":"LOWS 091950Z 16003KT 130V270 9999 FEW060 SCT070 15/11 Q1017 NOSIG","observationTime":"2019-07-09T19:50:00Z","temp":15,"dewpoint":11,"windDirection":160,"windSpeed":5.556,"visibility":6.21,"altim":30.029528,"flightCategory":"VFR","metarType":"METAR","geometry_esri":{"x":47.78,"y":13.02,"z":430}}}