{"type":"Feature","geometry":{"type":"Point","coordinates":[47.78,13.02,430]},"properties":{"stationId":"LOWS","rawText":"LOWS 161950Z 02004KT 340V060 8000 FEW009 BKN010 05/03 Q1012 BECMG BKN009","observationTime":"2019-11-16T19:50:00Z","temp":5,"dewpoint":3,"windDirection":20,"windSpeed":7.408,"visibility":4.97,"altim":29.88189,"flightCategory":"MVFR","metarType":"METAR","geometry_esri":{"x":47.78,"y":13.02,"z":430}}}