{"type":"Feature","geometry":{"type":"Point","coordinates":[47.42,19.27,185]},"properties":{"stationId":"LHBP","rawText":"LHBP 200430Z 10007KT 1500 0500S R13L/P2000N R31R/1200D BCFG BR BKN002 03/03 Q1016 TEMPO 1200","observationTime":"2019-12-20T04:30:00Z","temp":3,"dewpoint":3,"windDirection":100,"windSpeed":12.964,"visibility":0.93,"altim":30,"flightCategory":"LIFR","metarType":"SPECI","geometry_esri":{"x":47.42,"y":19.27,"z":185}}}