{"type":"Feature","geometry":{"type":"Point","coordinates":[47.78,13.02,430]},"properties":{"stationId":"LOWS","rawText":"LOWS 180850Z 18005KT 160V220 9999 FEW020 SCT045 BKN050 04/M00 Q1018 NOSIG","observationTime":"2019-03-18T08:50:00Z","temp":4,"dewpoint":0,"windDirection":180,"windSpeed":9.26,"visibility":6.21,"altim":30.059055,"flightCategory":"VFR","metarType":"METAR","geometry_esri":{"x":47.78,"y":13.02,"z":430}}}