{"type":"Feature","geometry":{"type":"Point","coordinates":[47.42,19.27,185]},"properties":{"stationId":"LHBP","rawText":"LHBP 210230Z 32002KT 0300 R31L/0500N R31R/0500N -FZDZ FZFG VV001 M02/M03 Q1045 NOSIG","observationTime":"2020-01-21T02:30:00Z","temp":-2,"dewpoint":-3,"windDirection":320,"windSpeed":3.704,"visibility":0.19,"altim":30.856298,"flightCategory":"LIFR","metarType":"METAR","geometry_esri":{"x":47.42,"y":19.27,"z":185}}}