{"type":"Feature","geometry":{"type":"Point","coordinates":[47.78,13.02,430]},"properties":{"stationId":"LOWS","rawText":"LOWS 281150Z 35008KT 310V030 CAVOK 26/10 Q1022 NOSIG","observationTime":"2019-06-28T11:50:00Z","temp":26,"dewpoint":10,"windDirection":350,"windSpeed":14.816,"visibility":6.21,"altim":30.177166,"flightCategory":"VFR","metarType":"METAR","geometry_esri":{"x":47.78,"y":13.02,"z":430}}}