{"type":"Feature","geometry":{"type":"Point","coordinates":[47.42,19.27,185]},"properties":{"stationId":"LHBP","rawText":"LHBP 281030Z 33016KT 9999 FEW032 SCT100 04/M03 Q1028 NOSIG","observationTime":"2019-12-28T10:30:00Z","temp":4,"dewpoint":-3,"windDirection":330,"windSpeed":29.632,"visibility":6.21,"altim":30.35433,"flightCategory":"VFR","metarType":"METAR","geometry_esri":{"x":47.42,"y":19.27,"z":185}}}