{"type":"Feature","geometry":{"type":"Point","coordinates":[47.78,13.02,430]},"properties":{"stationId":"LOWS","rawText":"LOWS 280550Z 03003KT 9000 FEW003 BKN009 BKN035 13/12 Q1006 BECMG BKN012","observationTime":"2019-05-28T05:50:00Z","temp":13,"dewpoint":12,"windDirection":30,"windSpeed":5.556,"visibility":5.59,"altim":29.704725,"flightCategory":"IFR","metarType":"METAR","geometry_esri":{"x":47.78,"y":13.02,"z":430}}}