{"type":"Feature","geometry":{"type":"Point","coordinates":[47.42,19.27,185]},"properties":{"stationId":"LHBP","rawText":"LHBP 090130Z 15005KT 4300 -FZRA BR FEW005 BKN047 OVC069 M03/M04 Q1030 BECMG 5000 BR","observationTime":"2020-01-09T01:30:00Z","temp":-3,"dewpoint":-4,"windDirection":150,"windSpeed":9.26,"visibility":2.67,"altim":30.413385,"flightCategory":"IFR","metarType":"METAR","geometry_esri":{"x":47.42,"y":19.27,"z":185}}}