{"type":"Feature","geometry":{"type":"Point","coordinates":[47.42,19.27,185]},"properties":{"stationId":"LHBP","rawText":"LHBP 171130Z 23005KT 9999 BKN027 15/11 Q1014 NOSIG","observationTime":"2019-05-17T11:30:00Z","temp":15,"dewpoint":11,"windDirection":230,"windSpeed":9.26,"visibility":6.21,"altim":29.940945,"flightCategory":"MVFR","metarType":"METAR","geometry_esri":{"x":47.42,"y":19.27,"z":185}}}