{"type":"Feature","geometry":{"type":"Point","coordinates":[47.42,19.27,185]},"properties":{"stationId":"LHBP","rawText":"LHBP 172330Z VRB01KT 3500 BR NSC M03/M03 Q1026 NOSIG","observationTime":"2019-02-17T23:30:00Z","temp":-3,"dewpoint":-3,"windDirection":0,"windSpeed":1.852,"visibility":2.17,"altim":30.295275,"flightCategory":"IFR","metarType":"METAR","geometry_esri":{"x":47.42,"y":19.27,"z":185}}}