{"type":"Feature","geometry":{"type":"Point","coordinates":[47.42,19.27,185]},"properties":{"stationId":"LHBP","rawText":"LHBP 070630Z 17013KT CAVOK 10/02 Q1010 NOSIG","observationTime":"2019-03-07T06:30:00Z","temp":10,"dewpoint":2,"windDirection":170,"windSpeed":24.076,"visibility":6.21,"altim":29.822834,"flightCategory":"VFR","metarType":"METAR","geometry_esri":{"x":47.42,"y":19.27,"z":185}}}