{"type":"Feature","geometry":{"type":"Point","coordinates":[47.63,17.82,129]},"properties":{"stationId":"LHPR","rawText":"LHPR 171645Z 27006KT 7000 OVC015 M01/M03 Q1026 RMK WHT","observationTime":"2018-12-17T16:45:00Z","temp":-1,"dewpoint":-3,"windDirection":270,"windSpeed":11.112,"visibility":4.35,"altim":30.295275,"flightCategory":"MVFR","metarType":"METAR","geometry_esri":{"x":47.63,"y":17.82,"z":129}}}