{"type":"Feature","geometry":{"type":"Point","coordinates":[47.42,19.27,185]},"properties":{"stationId":"LHBP","rawText":"LHBP 260530Z 32004KT 290V010 CAVOK 15/13 Q1011 NOSIG","observationTime":"2019-09-26T05:30:00Z","temp":15,"dewpoint":13,"windDirection":320,"windSpeed":7.408,"visibility":6.21,"altim":29.852362,"flightCategory":"VFR","metarType":"METAR","geometry_esri":{"x":47.42,"y":19.27,"z":185}}}