{"type":"Feature","geometry":{"type":"Point","coordinates":[47.42,19.27,185]},"properties":{"stationId":"LHBP","rawText":"LHBP 070230Z VRB02KT 7000 NSC M07/M07 Q1025 NOSIG","observationTime":"2019-02-07T02:30:00Z","temp":-7,"dewpoint":-7,"windDirection":0,"windSpeed":3.704,"visibility":4.35,"altim":30.265747,"flightCategory":"MVFR","metarType":"METAR","geometry_esri":{"x":47.42,"y":19.27,"z":185}}}