{"type":"Feature","geometry":{"type":"Point","coordinates":[47.42,19.27,185]},"properties":{"stationId":"LHBP","rawText":"LHBP 221730Z 31011KT CAVOK 28/11 Q1020 NOSIG","observationTime":"2019-07-22T17:30:00Z","temp":28,"dewpoint":11,"windDirection":310,"windSpeed":20.372,"visibility":6.21,"altim":30.11811,"flightCategory":"VFR","metarType":"METAR","geometry_esri":{"x":47.42,"y":19.27,"z":185}}}