{"type":"Feature","geometry":{"type":"Point","coordinates":[47.42,19.27,185]},"properties":{"stationId":"LHBP","rawText":"LHBP 010930Z 15007KT 9999 FEW016 08/05 Q1024 NOSIG","observationTime":"2019-11-01T09:30:00Z","temp":8,"dewpoint":5,"windDirection":150,"windSpeed":12.964,"visibility":6.21,"altim":30.236221,"flightCategory":"VFR","metarType":"METAR","geometry_esri":{"x":47.42,"y":19.27,"z":185}}}