{"type":"Feature","geometry":{"type":"Point","coordinates":[47.78,13.02,430]},"properties":{"stationId":"LOWS","rawText":"LOWS 090250Z AUTO 28012G23KT 250V310 9999 -RASN FEW007 SCT010 BKN017 02/M01 Q1007","observationTime":"2019-01-09T02:50:00Z","temp":2,"dewpoint":-1,"windDirection":280,"windSpeed":22.224,"visibility":6.21,"altim":29.734253,"flightCategory":"MVFR","metarType":"METAR","geometry_esri":{"x":47.78,"y":13.02,"z":430}}}