{"type":"Feature","geometry":{"type":"Point","coordinates":[47.78,13.02,430]},"properties":{"stationId":"LOWS","rawText":"LOWS 261650Z 27011KT 240V300 9999 FEW043 BKN060 03/M04 Q1004 R15/2///95 NOSIG","observationTime":"2020-02-26T16:50:00Z","temp":3,"dewpoint":-4,"windDirection":270,"windSpeed":20.372,"visibility":6.21,"altim":29.64567,"flightCategory":"VFR","metarType":"SPECI","geometry_esri":{"x":47.78,"y":13.02,"z":430}}}