{"type":"Feature","geometry":{"type":"Point","coordinates":[47.78,13.02,430]},"properties":{"stationId":"LOWS","rawText":"LOWS 301250Z 28013G29KT 240V310 9999 FEW009 SCT021 BKN035 04/01 Q1030 R15/2///95 NOSIG","observationTime":"2018-12-30T12:50:00Z","temp":4,"dewpoint":1,"windDirection":280,"windSpeed":24.076,"visibility":6.21,"altim":30.413385,"flightCategory":"VFR","metarType":"METAR","geometry_esri":{"x":47.78,"y":13.02,"z":430}}}