{"type":"Feature","geometry":{"type":"Point","coordinates":[47.78,13.02,430]},"properties":{"stationId":"LOWS","rawText":"LOWS 191150Z 15006KT 120V180 9999 FEW040 SCT080 19/12 Q1014 BECMG 35007KT TEMPO SHRA","observationTime":"2020-04-19T11:50:00Z","temp":19,"dewpoint":12,"windDirection":150,"windSpeed":11.112,"visibility":6.21,"altim":29.940945,"flightCategory":"VFR","metarType":"METAR","geometry_esri":{"x":47.78,"y":13.02,"z":430}}}