{"type":"Feature","geometry":{"type":"Point","coordinates":[47.42,19.27,185]},"properties":{"stationId":"LHBP","rawText":"LHBP 141730Z 30008KT CAVOK 18/09 Q1028 NOSIG","observationTime":"2019-09-14T17:30:00Z","temp":18,"dewpoint":9,"windDirection":300,"windSpeed":14.816,"visibility":6.21,"altim":30.35433,"flightCategory":"VFR","metarType":"METAR","geometry_esri":{"x":47.42,"y":19.27,"z":185}}}