{"type":"Feature","geometry":{"type":"Point","coordinates":[47.78,13.02,430]},"properties":{"stationId":"LOWS","rawText":"LOWS 241550Z 31004KT CAVOK 03/M00 Q1023 NOSIG","observationTime":"2020-01-24T15:50:00Z","temp":3,"dewpoint":0,"windDirection":310,"windSpeed":7.408,"visibility":6.21,"altim":30.206694,"flightCategory":"VFR","metarType":"METAR","geometry_esri":{"x":47.78,"y":13.02,"z":430}}}