{"type":"Feature","geometry":{"type":"Point","coordinates":[47.42,19.27,185]},"properties":{"stationId":"LHBP","rawText":"LHBP 261430Z 00000KT 7000 NSC 20/12 Q1022 NOSIG","observationTime":"2019-10-26T14:30:00Z","temp":20,"dewpoint":12,"windDirection":0,"windSpeed":0,"visibility":4.35,"altim":30.177166,"flightCategory":"MVFR","metarType":"METAR","geometry_esri":{"x":47.42,"y":19.27,"z":185}}}