{"type":"Feature","geometry":{"type":"Point","coordinates":[47.42,19.27,185]},"properties":{"stationId":"LHBP","rawText":"LHBP 080930Z VRB02KT 7000 NSC M01/M04 Q1033 NOSIG","observationTime":"2020-01-08T09:30:00Z","temp":-1,"dewpoint":-4,"windDirection":0,"windSpeed":3.704,"visibility":4.35,"altim":30.501968,"flightCategory":"MVFR","metarType":"METAR","geometry_esri":{"x":47.42,"y":19.27,"z":185}}}