{"type":"Feature","geometry":{"type":"Point","coordinates":[47.78,13.02,430]},"properties":{"stationId":"LOWS","rawText":"LOWS 272350Z AUTO 04003KT 360V060 4100 -RA FEW002 SCT004 BKN013 13/12 Q1007","observationTime":"2019-05-27T23:50:00Z","temp":13,"dewpoint":12,"windDirection":40,"windSpeed":5.556,"visibility":2.55,"altim":29.734253,"flightCategory":"IFR","metarType":"METAR","geometry_esri":{"x":47.78,"y":13.02,"z":430}}}