{"type":"Feature","geometry":{"type":"Point","coordinates":[47.78,13.02,430]},"properties":{"stationId":"LOWS","rawText":"LOWS 301050Z 16008KT 9999 FEW065 BKN090 01/M07 Q0996 NOSIG","observationTime":"2019-01-30T10:50:00Z","temp":1,"dewpoint":-7,"windDirection":160,"windSpeed":14.816,"visibility":6.21,"altim":29.409449,"flightCategory":"VFR","metarType":"METAR","geometry_esri":{"x":47.78,"y":13.02,"z":430}}}