{"type":"Feature","geometry":{"type":"Point","coordinates":[47.42,19.27,185]},"properties":{"stationId":"LHBP","rawText":"LHBP 182330Z 07002KT CAVOK 07/03 Q1021 NOSIG","observationTime":"2019-11-18T23:30:00Z","temp":7,"dewpoint":3,"windDirection":70,"windSpeed":3.704,"visibility":6.21,"altim":30.147638,"flightCategory":"VFR","metarType":"METAR","geometry_esri":{"x":47.42,"y":19.27,"z":185}}}