{"type":"Feature","geometry":{"type":"Point","coordinates":[47.78,13.02,430]},"properties":{"stationId":"LOWS","rawText":"LOWS 140750Z 33008KT 9999 FEW035 BKN070 09/02 Q1028 NOSIG","observationTime":"2019-05-14T07:50:00Z","temp":9,"dewpoint":2,"windDirection":330,"windSpeed":14.816,"visibility":6.21,"altim":30.35433,"flightCategory":"VFR","metarType":"METAR","geometry_esri":{"x":47.78,"y":13.02,"z":430}}}