{"type":"Feature","geometry":{"type":"Point","coordinates":[47.78,13.02,430]},"properties":{"stationId":"LOWS","rawText":"LOWS 192150Z VRB05KT 9999 FEW050 BKN070 05/M01 Q1022","observationTime":"2019-02-19T21:50:00Z","temp":5,"dewpoint":-1,"windDirection":0,"windSpeed":9.26,"visibility":6.21,"altim":30.177166,"flightCategory":"VFR","metarType":"METAR","geometry_esri":{"x":47.78,"y":13.02,"z":430}}}