{"type":"Feature","geometry":{"type":"Point","coordinates":[47.42,19.27,185]},"properties":{"stationId":"LHBP","rawText":"LHBP 201830Z 21005KT CAVOK 18/13 Q1006 NOSIG","observationTime":"2019-05-20T18:30:00Z","temp":18,"dewpoint":13,"windDirection":210,"windSpeed":9.26,"visibility":6.21,"altim":29.704725,"flightCategory":"VFR","metarType":"METAR","geometry_esri":{"x":47.42,"y":19.27,"z":185}}}