{"type":"Feature","geometry":{"type":"Point","coordinates":[47.78,13.02,430]},"properties":{"stationId":"LOWS","rawText":"LOWS 200250Z AUTO 15009KT 090V190 9999 NSC 14/02 Q1003","observationTime":"2019-12-20T02:50:00Z","temp":14,"dewpoint":2,"windDirection":150,"windSpeed":16.668,"visibility":6.21,"altim":29.616142,"flightCategory":"VFR","metarType":"METAR","geometry_esri":{"x":47.78,"y":13.02,"z":430}}}