{"type":"Feature","geometry":{"type":"Point","coordinates":[47.78,13.02,430]},"properties":{"stationId":"LOWS","rawText":"LOWS 150650Z 20003KT 5000 -RADZ FEW004 SCT008 BKN013 04/03 Q1021 TEMPO 4000","observationTime":"2019-05-15T06:50:00Z","temp":4,"dewpoint":3,"windDirection":200,"windSpeed":5.556,"visibility":3.11,"altim":30.147638,"flightCategory":"MVFR","metarType":"METAR","geometry_esri":{"x":47.78,"y":13.02,"z":430}}}