{"type":"Feature","geometry":{"type":"Point","coordinates":[47.42,19.27,185]},"properties":{"stationId":"LHBP","rawText":"LHBP 210730Z 13004KT 060V210 CAVOK 25/19 Q1018 NOSIG","observationTime":"2019-07-21T07:30:00Z","temp":25,"dewpoint":19,"windDirection":130,"windSpeed":7.408,"visibility":6.21,"altim":30.059055,"flightCategory":"VFR","metarType":"METAR","geometry_esri":{"x":47.42,"y":19.27,"z":185}}}