{"type":"Feature","geometry":{"type":"Point","coordinates":[47.42,19.27,185]},"properties":{"stationId":"LHBP","rawText":"LHBP 150230Z 05003KT CAVOK M00/M07 Q1026 NOSIG","observationTime":"2020-03-15T02:30:00Z","temp":0,"dewpoint":-7,"windDirection":50,"windSpeed":5.556,"visibility":6.21,"altim":30.295275,"flightCategory":"VFR","metarType":"METAR","geometry_esri":{"x":47.42,"y":19.27,"z":185}}}