{"type":"Feature","geometry":{"type":"Point","coordinates":[47.78,13.02,430]},"properties":{"stationId":"LOWS","rawText":"LOWS 191350Z 24012KT 210V270 9999 -SHRA FEW014 SCT025 BKN045 04/01 Q1020 RERA TEMPO 4000 TSRA SCT025CB BKN040","observationTime":"2020-02-19T13:50:00Z","temp":4,"dewpoint":1,"windDirection":240,"windSpeed":22.224,"visibility":6.21,"altim":30.11811,"flightCategory":"VFR","metarType":"SPECI","geometry_esri":{"x":47.78,"y":13.02,"z":430}}}