{"type":"Feature","geometry":{"type":"Point","coordinates":[47.78,13.02,430]},"properties":{"stationId":"LOWS","rawText":"LOWS 101550Z 16009KT 9999 -RA FEW007 SCT024 BKN036 05/03 Q1015 TEMPO RA","observationTime":"2020-03-10T15:50:00Z","temp":5,"dewpoint":3,"windDirection":160,"windSpeed":16.668,"visibility":6.21,"altim":29.970472,"flightCategory":"VFR","metarType":"SPECI","geometry_esri":{"x":47.78,"y":13.02,"z":430}}}