{"type":"Feature","geometry":{"type":"Point","coordinates":[47.78,13.02,430]},"properties":{"stationId":"LOWS","rawText":"LOWS 131750Z 32005KT 230V030 9999 -SHRA FEW025 FEW050CB BKN055 12/07 Q1013 TEMPO 30015G25KT TSRA","observationTime":"2020-04-13T17:50:00Z","temp":12,"dewpoint":7,"windDirection":320,"windSpeed":9.26,"visibility":6.21,"altim":29.911417,"flightCategory":"VFR","metarType":"METAR","geometry_esri":{"x":47.78,"y":13.02,"z":430}}}