{"type":"Feature","geometry":{"type":"Point","coordinates":[47.78,13.02,430]},"properties":{"stationId":"LOWS","rawText":"LOWS 060950Z 32003KT 260V040 6000 BCFG FEW003 SCT300 M01/M01 Q1021 R15/29//95 TEMPO 3500 BCFG","observationTime":"2019-12-06T09:50:00Z","temp":-1,"dewpoint":-1,"windDirection":320,"windSpeed":5.556,"visibility":3.73,"altim":30.147638,"flightCategory":"MVFR","metarType":"METAR","geometry_esri":{"x":47.78,"y":13.02,"z":430}}}