{"type":"Feature","geometry":{"type":"Point","coordinates":[47.42,19.27,185]},"properties":{"stationId":"LHBP","rawText":"LHBP 220930Z 31016KT 9999 FEW022 SCT100 10/05 Q1019 NOSIG","observationTime":"2019-02-22T09:30:00Z","temp":10,"dewpoint":5,"windDirection":310,"windSpeed":29.632,"visibility":6.21,"altim":30.088583,"flightCategory":"VFR","metarType":"METAR","geometry_esri":{"x":47.42,"y":19.27,"z":185}}}