{"type":"Feature","geometry":{"type":"Point","coordinates":[47.42,19.27,185]},"properties":{"stationId":"LHBP","rawText":"LHBP 040630Z 24007KT 0900 R13R/1100N R13L/1100N FZFG BKN002 M02/M02 Q1023 NOSIG","observationTime":"2020-01-04T06:30:00Z","temp":-2,"dewpoint":-2,"windDirection":240,"windSpeed":12.964,"visibility":0.56,"altim":30.206694,"flightCategory":"LIFR","metarType":"METAR","geometry_esri":{"x":47.42,"y":19.27,"z":185}}}