{"type":"Feature","geometry":{"type":"Point","coordinates":[47.42,19.27,185]},"properties":{"stationId":"LHBP","rawText":"LHBP 091030Z 13006KT 090V180 CAVOK 05/M07 Q1029 NOSIG","observationTime":"2020-02-09T10:30:00Z","temp":5,"dewpoint":-7,"windDirection":130,"windSpeed":11.112,"visibility":6.21,"altim":30.383858,"flightCategory":"VFR","metarType":"METAR","geometry_esri":{"x":47.42,"y":19.27,"z":185}}}