{"type":"Feature","geometry":{"type":"Point","coordinates":[47.78,13.02,430]},"properties":{"stationId":"LOWS","rawText":"LOWS 190450Z 22004KT 170V270 CAVOK 11/06 Q1004 NOSIG","observationTime":"2019-05-19T04:50:00Z","temp":11,"dewpoint":6,"windDirection":220,"windSpeed":7.408,"visibility":6.21,"altim":29.64567,"flightCategory":"VFR","metarType":"METAR","geometry_esri":{"x":47.78,"y":13.02,"z":430}}}