{"type":"Feature","geometry":{"type":"Point","coordinates":[47.42,19.27,185]},"properties":{"stationId":"LHBP","rawText":"LHBP 111430Z 24012KT 9999 SCT045 BKN065 15/07 Q1014 NOSIG","observationTime":"2020-03-11T14:30:00Z","temp":15,"dewpoint":7,"windDirection":240,"windSpeed":22.224,"visibility":6.21,"altim":29.940945,"flightCategory":"VFR","metarType":"METAR","geometry_esri":{"x":47.42,"y":19.27,"z":185}}}