{"type":"Feature","geometry":{"type":"Point","coordinates":[47.42,19.27,185]},"properties":{"stationId":"LHBP","rawText":"LHBP 190630Z 33006KT CAVOK 15/05 Q1029 NOSIG","observationTime":"2019-04-19T06:30:00Z","temp":15,"dewpoint":5,"windDirection":330,"windSpeed":11.112,"visibility":6.21,"altim":30.383858,"flightCategory":"VFR","metarType":"METAR","geometry_esri":{"x":47.42,"y":19.27,"z":185}}}