{"type":"Feature","geometry":{"type":"Point","coordinates":[47.78,13.02,430]},"properties":{"stationId":"LOWS","rawText":"LOWS 061550Z 31006KT 270V340 9999 FEW070 BKN130 30/10 Q1010 NOSIG","observationTime":"2019-07-06T15:50:00Z","temp":30,"dewpoint":10,"windDirection":310,"windSpeed":11.112,"visibility":6.21,"altim":29.822834,"flightCategory":"VFR","metarType":"METAR","geometry_esri":{"x":47.78,"y":13.02,"z":430}}}