{"type":"Feature","geometry":{"type":"Point","coordinates":[47.42,19.27,185]},"properties":{"stationId":"LHBP","rawText":"LHBP 281830Z 28019KT CAVOK 15/M01 Q1007 NOSIG","observationTime":"2019-02-28T18:30:00Z","temp":15,"dewpoint":-1,"windDirection":280,"windSpeed":35.188,"visibility":6.21,"altim":29.734253,"flightCategory":"VFR","metarType":"METAR","geometry_esri":{"x":47.42,"y":19.27,"z":185}}}