{"type":"Feature","geometry":{"type":"Point","coordinates":[47.78,13.02,430]},"properties":{"stationId":"LOWS","rawText":"LOWS 180150Z AUTO 17006KT 140V200 9999 FEW070 07/06 Q1030","observationTime":"2020-03-18T01:50:00Z","temp":7,"dewpoint":6,"windDirection":170,"windSpeed":11.112,"visibility":6.21,"altim":30.413385,"flightCategory":"VFR","metarType":"METAR","geometry_esri":{"x":47.78,"y":13.02,"z":430}}}