{"type":"Feature","geometry":{"type":"Point","coordinates":[47.78,13.02,430]},"properties":{"stationId":"LOWS","rawText":"LOWS 311250Z VRB02KT 3000 -RASN BR FEW003 SCT009 BKN016 01/00 Q1032 TEMPO SCT008 BKN014","observationTime":"2018-12-31T12:50:00Z","temp":1,"dewpoint":0,"windDirection":0,"windSpeed":3.704,"visibility":1.86,"altim":30.47244,"flightCategory":"IFR","metarType":"METAR","geometry_esri":{"x":47.78,"y":13.02,"z":430}}}