{"type":"Feature","geometry":{"type":"Point","coordinates":[47.42,19.27,185]},"properties":{"stationId":"LHBP","rawText":"LHBP 130730Z 30008KT 260V330 CAVOK 25/19 Q1013 NOSIG","observationTime":"2019-08-13T07:30:00Z","temp":25,"dewpoint":19,"windDirection":300,"windSpeed":14.816,"visibility":6.21,"altim":29.911417,"flightCategory":"VFR","metarType":"METAR","geometry_esri":{"x":47.42,"y":19.27,"z":185}}}