{"type":"Feature","geometry":{"type":"Point","coordinates":[47.78,13.02,430]},"properties":{"stationId":"LOWS","rawText":"LOWS 010650Z 14006KT 9999 FEW070 BKN095 15/12 Q1025 NOSIG","observationTime":"2019-06-01T06:50:00Z","temp":15,"dewpoint":12,"windDirection":140,"windSpeed":11.112,"visibility":6.21,"altim":30.265747,"flightCategory":"VFR","metarType":"METAR","geometry_esri":{"x":47.78,"y":13.02,"z":430}}}