{"type":"Feature","geometry":{"type":"Point","coordinates":[47.78,13.02,430]},"properties":{"stationId":"LOWS","rawText":"LOWS 191650Z 05014KT 9999 FEW026 FEW045TCU BKN050 16/11 Q1013 TEMPO SHRA","observationTime":"2020-04-19T16:50:00Z","temp":16,"dewpoint":11,"windDirection":50,"windSpeed":25.928,"visibility":6.21,"altim":29.911417,"flightCategory":"VFR","metarType":"METAR","geometry_esri":{"x":47.78,"y":13.02,"z":430}}}