{"type":"Feature","geometry":{"type":"Point","coordinates":[47.78,13.02,430]},"properties":{"stationId":"LOWS","rawText":"LOWS 142350Z AUTO VRB03KT 9999 FEW200 BKN210 08/08 Q1012","observationTime":"2019-10-14T23:50:00Z","temp":8,"dewpoint":8,"windDirection":0,"windSpeed":5.556,"visibility":6.21,"altim":29.88189,"flightCategory":"VFR","metarType":"METAR","geometry_esri":{"x":47.78,"y":13.02,"z":430}}}