{"type":"Feature","geometry":{"type":"Point","coordinates":[47.42,19.27,185]},"properties":{"stationId":"LHBP","rawText":"LHBP 030530Z 09004KT 050V120 0900 R13R/P2000N R13L/P2000N -FZDZ FZFG OVC002 M03/M04 Q1029 NOSIG","observationTime":"2020-01-03T05:30:00Z","temp":-3,"dewpoint":-4,"windDirection":90,"windSpeed":7.408,"visibility":0.56,"altim":30.383858,"flightCategory":"LIFR","metarType":"SPECI","geometry_esri":{"x":47.42,"y":19.27,"z":185}}}