{"type":"Feature","geometry":{"type":"Point","coordinates":[47.78,13.02,430]},"properties":{"stationId":"LOWS","rawText":"LOWS 120050Z AUTO 18003KT 150V210 9999 -RA FEW026 SCT028 BKN036 08/07 Q1017","observationTime":"2019-05-12T00:50:00Z","temp":8,"dewpoint":7,"windDirection":180,"windSpeed":5.556,"visibility":6.21,"altim":30.029528,"flightCategory":"VFR","metarType":"METAR","geometry_esri":{"x":47.78,"y":13.02,"z":430}}}