{"type":"Feature","geometry":{"type":"Point","coordinates":[47.42,19.27,185]},"properties":{"stationId":"LHBP","rawText":"LHBP 301730Z VRB03KT CAVOK 06/06 Q1027 NOSIG","observationTime":"2019-10-30T17:30:00Z","temp":6,"dewpoint":6,"windDirection":0,"windSpeed":5.556,"visibility":6.21,"altim":30.324802,"flightCategory":"VFR","metarType":"METAR","geometry_esri":{"x":47.42,"y":19.27,"z":185}}}