{"type":"Feature","geometry":{"type":"Point","coordinates":[47.42,19.27,185]},"properties":{"stationId":"LHBP","rawText":"LHBP 200530Z 14005KT 110V170 8000 BKN004 SCT023 BKN050 14/14 Q1005 BECMG SCT004 BKN045","observationTime":"2019-05-20T05:30:00Z","temp":14,"dewpoint":14,"windDirection":140,"windSpeed":9.26,"visibility":4.97,"altim":29.675198,"flightCategory":"LIFR","metarType":"SPECI","geometry_esri":{"x":47.42,"y":19.27,"z":185}}}