{"type":"Feature","geometry":{"type":"Point","coordinates":[47.78,13.02,430]},"properties":{"stationId":"LOWS","rawText":"LOWS 080850Z 33005KT 8000 SHRA FEW006 SCT014 BKN027 14/12 Q1018 BECMG NSW","observationTime":"2019-07-08T08:50:00Z","temp":14,"dewpoint":12,"windDirection":330,"windSpeed":9.26,"visibility":4.97,"altim":30.059055,"flightCategory":"MVFR","metarType":"METAR","geometry_esri":{"x":47.78,"y":13.02,"z":430}}}