{"type":"Feature","geometry":{"type":"Point","coordinates":[47.42,19.27,185]},"properties":{"stationId":"LHBP","rawText":"LHBP 010430Z 07006KT CAVOK M01/M10 Q1023 NOSIG","observationTime":"2020-04-01T04:30:00Z","temp":-1,"dewpoint":-10,"windDirection":70,"windSpeed":11.112,"visibility":6.21,"altim":30.206694,"flightCategory":"VFR","metarType":"METAR","geometry_esri":{"x":47.42,"y":19.27,"z":185}}}