{"type":"Feature","geometry":{"type":"Point","coordinates":[47.78,13.02,430]},"properties":{"stationId":"LOWS","rawText":"LOWS 301950Z 15010KT CAVOK 03/M02 Q1031 NOSIG","observationTime":"2019-12-30T19:50:00Z","temp":3,"dewpoint":-2,"windDirection":150,"windSpeed":18.52,"visibility":6.21,"altim":30.442913,"flightCategory":"VFR","metarType":"METAR","geometry_esri":{"x":47.78,"y":13.02,"z":430}}}