{"type":"Feature","geometry":{"type":"Point","coordinates":[47.78,13.02,430]},"properties":{"stationId":"LOWS","rawText":"LOWS 051750Z 26003KT 230V300 9999 FEW030 BKN050 09/06 Q1017 NOSIG","observationTime":"2019-10-05T17:50:00Z","temp":9,"dewpoint":6,"windDirection":260,"windSpeed":5.556,"visibility":6.21,"altim":30.029528,"flightCategory":"VFR","metarType":"METAR","geometry_esri":{"x":47.78,"y":13.02,"z":430}}}