{"type":"Feature","geometry":{"type":"Point","coordinates":[45.98,18.23,305]},"properties":{"stationId":"LHPP","rawText":"LHPP 261047Z 32016G26KT CAVOK 13/M02 Q1026","observationTime":"2019-02-26T10:47:00Z","temp":13,"dewpoint":-2,"windDirection":320,"windSpeed":29.632,"visibility":6.21,"altim":30.295275,"flightCategory":"VFR","metarType":"SPECI","geometry_esri":{"x":45.98,"y":18.23,"z":305}}}