{"type":"Feature","geometry":{"type":"Point","coordinates":[47.42,19.27,185]},"properties":{"stationId":"LHBP","rawText":"LHBP 221130Z 36013KT 330V040 9999 SCT030 BKN052 11/04 Q1020 NOSIG","observationTime":"2019-02-22T11:30:00Z","temp":11,"dewpoint":4,"windDirection":360,"windSpeed":24.076,"visibility":6.21,"altim":30.11811,"flightCategory":"VFR","metarType":"METAR","geometry_esri":{"x":47.42,"y":19.27,"z":185}}}