{"type":"Feature","geometry":{"type":"Point","coordinates":[47.78,13.02,430]},"properties":{"stationId":"LOWS","rawText":"LOWS 010350Z 19006KT 9999 FEW065 BKN085 12/10 Q1025 NOSIG","observationTime":"2019-06-01T03:50:00Z","temp":12,"dewpoint":10,"windDirection":190,"windSpeed":11.112,"visibility":6.21,"altim":30.265747,"flightCategory":"VFR","metarType":"METAR","geometry_esri":{"x":47.78,"y":13.02,"z":430}}}