{"type":"Feature","geometry":{"type":"Point","coordinates":[47.42,19.27,185]},"properties":{"stationId":"LHBP","rawText":"LHBP 061030Z 13006KT 2300 -FZDZ BR OVC004 M01/M02 Q1025 NOSIG","observationTime":"2019-12-06T10:30:00Z","temp":-1,"dewpoint":-2,"windDirection":130,"windSpeed":11.112,"visibility":1.43,"altim":30.265747,"flightCategory":"LIFR","metarType":"METAR","geometry_esri":{"x":47.42,"y":19.27,"z":185}}}