{"type":"Feature","geometry":{"type":"Point","coordinates":[47.42,19.27,185]},"properties":{"stationId":"LHBP","rawText":"LHBP 051030Z 27019KT CAVOK 13/M01 Q1010 NOSIG","observationTime":"2019-03-05T10:30:00Z","temp":13,"dewpoint":-1,"windDirection":270,"windSpeed":35.188,"visibility":6.21,"altim":29.822834,"flightCategory":"VFR","metarType":"METAR","geometry_esri":{"x":47.42,"y":19.27,"z":185}}}