{"type":"Feature","geometry":{"type":"Point","coordinates":[47.78,13.02,430]},"properties":{"stationId":"LOWS","rawText":"LOWS 031950Z 30011KT 1500 SN FEW005 BKN010 BKN025 M02/M04 Q1032 R15/490195 TEMPO 5000 -SN SCT010 BKN025","observationTime":"2019-01-03T19:50:00Z","temp":-2,"dewpoint":-4,"windDirection":300,"windSpeed":20.372,"visibility":0.93,"altim":30.47244,"flightCategory":"LIFR","metarType":"METAR","geometry_esri":{"x":47.78,"y":13.02,"z":430}}}