{"type":"Feature","geometry":{"type":"Point","coordinates":[47.42,19.27,185]},"properties":{"stationId":"LHBP","rawText":"LHBP 280230Z VRB02KT CAVOK M05/M05 Q1017 NOSIG","observationTime":"2019-02-28T02:30:00Z","temp":-5,"dewpoint":-5,"windDirection":0,"windSpeed":3.704,"visibility":6.21,"altim":30.029528,"flightCategory":"VFR","metarType":"METAR","geometry_esri":{"x":47.42,"y":19.27,"z":185}}}