{"type":"Feature","geometry":{"type":"Point","coordinates":[47.78,13.02,430]},"properties":{"stationId":"LOWS","rawText":"LOWS 260550Z 14007KT 9999 R15/P1500D R33/P1500D FEW300 23/17 Q1014 NOSIG","observationTime":"2019-07-26T05:50:00Z","temp":23,"dewpoint":17,"windDirection":140,"windSpeed":12.964,"visibility":6.21,"altim":29.940945,"flightCategory":"VFR","metarType":"METAR","geometry_esri":{"x":47.78,"y":13.02,"z":430}}}