{"type":"Feature","geometry":{"type":"Point","coordinates":[47.78,13.02,430]},"properties":{"stationId":"LOWS","rawText":"LOWS 250850Z 15014KT CAVOK 22/03 Q1011 NOSIG","observationTime":"2019-04-25T08:50:00Z","temp":22,"dewpoint":3,"windDirection":150,"windSpeed":25.928,"visibility":6.21,"altim":29.852362,"flightCategory":"VFR","metarType":"METAR","geometry_esri":{"x":47.78,"y":13.02,"z":430}}}