{"type":"Feature","geometry":{"type":"Point","coordinates":[47.78,13.02,430]},"properties":{"stationId":"LOWS","rawText":"LOWS 151650Z 02008KT 350V060 9999 FEW045 23/09 Q1014 NOSIG","observationTime":"2019-07-15T16:50:00Z","temp":23,"dewpoint":9,"windDirection":20,"windSpeed":14.816,"visibility":6.21,"altim":29.940945,"flightCategory":"VFR","metarType":"METAR","geometry_esri":{"x":47.78,"y":13.02,"z":430}}}