{"type":"Feature","geometry":{"type":"Point","coordinates":[47.42,19.27,185]},"properties":{"stationId":"LHBP","rawText":"LHBP 222130Z 00000KT CAVOK 11/10 Q1023 NOSIG","observationTime":"2019-10-22T21:30:00Z","temp":11,"dewpoint":10,"windDirection":0,"windSpeed":0,"visibility":6.21,"altim":30.206694,"flightCategory":"VFR","metarType":"METAR","geometry_esri":{"x":47.42,"y":19.27,"z":185}}}