{"type":"Feature","geometry":{"type":"Point","coordinates":[47.42,19.27,185]},"properties":{"stationId":"LHBP","rawText":"LHBP 272130Z 22004KT 0700 R31L/1000D R31R/0900N FZFG VV002 M01/M01 Q1016 TEMPO 0300 FZFG VV002","observationTime":"2020-01-27T21:30:00Z","temp":-1,"dewpoint":-1,"windDirection":220,"windSpeed":7.408,"visibility":0.43,"altim":30,"flightCategory":"LIFR","metarType":"SPECI","geometry_esri":{"x":47.42,"y":19.27,"z":185}}}