{"type":"Feature","geometry":{"type":"Point","coordinates":[47.78,13.02,430]},"properties":{"stationId":"LOWS","rawText":"LOWS 150250Z AUTO 15014KT 9999 FEW090 BKN130 02/M01 Q1007","observationTime":"2019-12-15T02:50:00Z","temp":2,"dewpoint":-1,"windDirection":150,"windSpeed":25.928,"visibility":6.21,"altim":29.734253,"flightCategory":"VFR","metarType":"METAR","geometry_esri":{"x":47.78,"y":13.02,"z":430}}}