{"type":"Feature","geometry":{"type":"Point","coordinates":[47.78,13.02,430]},"properties":{"stationId":"LOWS","rawText":"LOWS 012350Z AUTO 13005KT 100V160 9999 FEW100 BKN150 19/16 Q1018","observationTime":"2019-07-01T23:50:00Z","temp":19,"dewpoint":16,"windDirection":130,"windSpeed":9.26,"visibility":6.21,"altim":30.059055,"flightCategory":"VFR","metarType":"METAR","geometry_esri":{"x":47.78,"y":13.02,"z":430}}}