{"type":"Feature","geometry":{"type":"Point","coordinates":[47.42,19.27,185]},"properties":{"stationId":"LHBP","rawText":"LHBP 252030Z 36002KT 4100 -DZ BR BKN003 OVC005 M01/M01 Q1024 NOSIG","observationTime":"2020-01-25T20:30:00Z","temp":-1,"dewpoint":-1,"windDirection":360,"windSpeed":3.704,"visibility":2.55,"altim":30.236221,"flightCategory":"LIFR","metarType":"METAR","geometry_esri":{"x":47.42,"y":19.27,"z":185}}}