{"type":"Feature","geometry":{"type":"Point","coordinates":[47.78,13.02,430]},"properties":{"stationId":"LOWS","rawText":"LOWS 040350Z AUTO 11003KT 090V190 9999 NSC M05/M06 Q1023","observationTime":"2019-12-04T03:50:00Z","temp":-5,"dewpoint":-6,"windDirection":110,"windSpeed":5.556,"visibility":6.21,"altim":30.206694,"flightCategory":"VFR","metarType":"METAR","geometry_esri":{"x":47.78,"y":13.02,"z":430}}}