{"type":"Feature","geometry":{"type":"Point","coordinates":[47.78,13.02,430]},"properties":{"stationId":"LOWS","rawText":"LOWS 190250Z AUTO 29017KT 250V310 9999 -RA FEW028 SCT034 BKN048 21/15 Q1019","observationTime":"2019-08-19T02:50:00Z","temp":21,"dewpoint":15,"windDirection":290,"windSpeed":31.484,"visibility":6.21,"altim":30.088583,"flightCategory":"VFR","metarType":"METAR","geometry_esri":{"x":47.78,"y":13.02,"z":430}}}