{"type":"Feature","geometry":{"type":"Point","coordinates":[47.42,19.27,185]},"properties":{"stationId":"LHBP","rawText":"LHBP 140130Z 30007KT CAVOK 05/03 Q1009 NOSIG","observationTime":"2019-11-14T01:30:00Z","temp":5,"dewpoint":3,"windDirection":300,"windSpeed":12.964,"visibility":6.21,"altim":29.793306,"flightCategory":"VFR","metarType":"METAR","geometry_esri":{"x":47.42,"y":19.27,"z":185}}}