{"type":"Feature","geometry":{"type":"Point","coordinates":[47.78,13.02,430]},"properties":{"stationId":"LOWS","rawText":"LOWS 231250Z 31003KT 260V340 8000 FEW015 BKN018 M03/M06 Q0995 R15/1///95 NOSIG","observationTime":"2019-01-23T12:50:00Z","temp":-3,"dewpoint":-6,"windDirection":310,"windSpeed":5.556,"visibility":4.97,"altim":29.379921,"flightCategory":"MVFR","metarType":"SPECI","geometry_esri":{"x":47.78,"y":13.02,"z":430}}}