{"type":"Feature","geometry":{"type":"Point","coordinates":[47.42,19.27,185]},"properties":{"stationId":"LHBP","rawText":"LHBP 240630Z VRB03KT 5000 BR NSC 12/12 Q1018 BECMG 6000 NSW","observationTime":"2019-10-24T06:30:00Z","temp":12,"dewpoint":12,"windDirection":0,"windSpeed":5.556,"visibility":3.11,"altim":30.059055,"flightCategory":"MVFR","metarType":"SPECI","geometry_esri":{"x":47.42,"y":19.27,"z":185}}}