{"type":"Feature","geometry":{"type":"Point","coordinates":[47.42,19.27,185]},"properties":{"stationId":"LHBP","rawText":"LHBP 230830Z VRB01KT 2700 BR NSC M02/M03 Q1035 BECMG 3500","observationTime":"2020-01-23T08:30:00Z","temp":-2,"dewpoint":-3,"windDirection":0,"windSpeed":1.852,"visibility":1.68,"altim":30.561024,"flightCategory":"IFR","metarType":"SPECI","geometry_esri":{"x":47.42,"y":19.27,"z":185}}}