{"type":"Feature","geometry":{"type":"Point","coordinates":[47.42,19.27,185]},"properties":{"stationId":"LHBP","rawText":"LHBP 131330Z 05010KT 020V080 9999 FEW035 SCT055 BKN230 16/08 Q1014 NOSIG","observationTime":"2020-05-13T13:30:00Z","temp":16,"dewpoint":8,"windDirection":50,"windSpeed":18.52,"visibility":6.21,"altim":29.940945,"flightCategory":"VFR","metarType":"METAR","geometry_esri":{"x":47.42,"y":19.27,"z":185}}}