{"type":"Feature","geometry":{"type":"Point","coordinates":[47.42,19.27,185]},"properties":{"stationId":"LHBP","rawText":"LHBP 022330Z 07009KT CAVOK 08/07 Q1004 NOSIG","observationTime":"2019-02-02T23:30:00Z","temp":8,"dewpoint":7,"windDirection":70,"windSpeed":16.668,"visibility":6.21,"altim":29.64567,"flightCategory":"VFR","metarType":"METAR","geometry_esri":{"x":47.42,"y":19.27,"z":185}}}