{"type":"Feature","geometry":{"type":"Point","coordinates":[47.42,19.27,185]},"properties":{"stationId":"LHBP","rawText":"LHBP 280130Z 11005KT 8000 BKN023 BKN027 16/16 Q1008 NOSIG","observationTime":"2019-05-28T01:30:00Z","temp":16,"dewpoint":16,"windDirection":110,"windSpeed":9.26,"visibility":4.97,"altim":29.763779,"flightCategory":"MVFR","metarType":"METAR","geometry_esri":{"x":47.42,"y":19.27,"z":185}}}