{"type":"Feature","geometry":{"type":"Point","coordinates":[47.42,19.27,185]},"properties":{"stationId":"LHBP","rawText":"LHBP 211930Z 09005KT CAVOK 11/10 Q1015 NOSIG","observationTime":"2019-11-21T19:30:00Z","temp":11,"dewpoint":10,"windDirection":90,"windSpeed":9.26,"visibility":6.21,"altim":29.970472,"flightCategory":"VFR","metarType":"METAR","geometry_esri":{"x":47.42,"y":19.27,"z":185}}}