{"type":"Feature","geometry":{"type":"Point","coordinates":[47.78,13.02,430]},"properties":{"stationId":"LOWS","rawText":"LOWS 280450Z 33005KT 8000 FEW012 SCT026 BKN035 00/M00 Q1035 NOSIG","observationTime":"2019-12-28T04:50:00Z","temp":0,"dewpoint":0,"windDirection":330,"windSpeed":9.26,"visibility":4.97,"altim":30.561024,"flightCategory":"MVFR","metarType":"METAR","geometry_esri":{"x":47.78,"y":13.02,"z":430}}}