{"type":"Feature","geometry":{"type":"Point","coordinates":[47.78,13.02,430]},"properties":{"stationId":"LOWS","rawText":"LOWS 112350Z AUTO VRB02KT 9000 FEW026 BKN034 01/00 Q1010","observationTime":"2019-11-11T23:50:00Z","temp":1,"dewpoint":0,"windDirection":0,"windSpeed":3.704,"visibility":5.59,"altim":29.822834,"flightCategory":"VFR","metarType":"METAR","geometry_esri":{"x":47.78,"y":13.02,"z":430}}}