{"type":"Feature","geometry":{"type":"Point","coordinates":[47.42,19.27,185]},"properties":{"stationId":"LHBP","rawText":"LHBP 252030Z VRB01KT CAVOK 24/21 Q1024 NOSIG","observationTime":"2019-06-25T20:30:00Z","temp":24,"dewpoint":21,"windDirection":0,"windSpeed":1.852,"visibility":6.21,"altim":30.236221,"flightCategory":"VFR","metarType":"METAR","geometry_esri":{"x":47.42,"y":19.27,"z":185}}}