{"type":"Feature","geometry":{"type":"Point","coordinates":[47.42,19.27,185]},"properties":{"stationId":"LHBP","rawText":"LHBP 172130Z VRB02KT 4500 BR NSC M02/M02 Q1027 NOSIG","observationTime":"2019-02-17T21:30:00Z","temp":-2,"dewpoint":-2,"windDirection":0,"windSpeed":3.704,"visibility":2.8,"altim":30.324802,"flightCategory":"IFR","metarType":"METAR","geometry_esri":{"x":47.42,"y":19.27,"z":185}}}