{"type":"Feature","geometry":{"type":"Point","coordinates":[47.78,13.02,430]},"properties":{"stationId":"LOWS","rawText":"LOWS 302350Z AUTO 27008KT 230V300 9999 -SHRA FEW015 SCT022 BKN036 04/01 Q1031","observationTime":"2018-12-30T23:50:00Z","temp":4,"dewpoint":1,"windDirection":270,"windSpeed":14.816,"visibility":6.21,"altim":30.442913,"flightCategory":"VFR","metarType":"METAR","geometry_esri":{"x":47.78,"y":13.02,"z":430}}}