{"type":"Feature","geometry":{"type":"Point","coordinates":[47.78,13.02,430]},"properties":{"stationId":"LOWS","rawText":"LOWS 231450Z 04008KT 360V100 9999 FEW060 02/M12 Q1031 NOSIG","observationTime":"2020-03-23T14:50:00Z","temp":2,"dewpoint":-12,"windDirection":40,"windSpeed":14.816,"visibility":6.21,"altim":30.442913,"flightCategory":"VFR","metarType":"METAR","geometry_esri":{"x":47.78,"y":13.02,"z":430}}}