{"type":"Feature","geometry":{"type":"Point","coordinates":[45.98,18.23,305]},"properties":{"stationId":"LHPP","rawText":"LHPP 121445Z 27002KT 2000 -DZ BR OVC004 02/02 Q1006","observationTime":"2019-12-12T14:45:00Z","temp":2,"dewpoint":2,"windDirection":270,"windSpeed":3.704,"visibility":1.24,"altim":29.704725,"flightCategory":"LIFR","metarType":"SPECI","geometry_esri":{"x":45.98,"y":18.23,"z":305}}}