{"type":"Feature","geometry":{"type":"Point","coordinates":[47.42,19.27,185]},"properties":{"stationId":"LHBP","rawText":"LHBP 221830Z 31006KT CAVOK 25/12 Q1020 NOSIG","observationTime":"2019-07-22T18:30:00Z","temp":25,"dewpoint":12,"windDirection":310,"windSpeed":11.112,"visibility":6.21,"altim":30.11811,"flightCategory":"VFR","metarType":"METAR","geometry_esri":{"x":47.42,"y":19.27,"z":185}}}