{"type":"Feature","geometry":{"type":"Point","coordinates":[47.42,19.27,185]},"properties":{"stationId":"LHBP","rawText":"LHBP 220630Z 19004KT 1000 R13R/1000U R13L/1200D BR OVC002 M03/M03 Q1034 TEMPO 0600 FZFG VV002","observationTime":"2020-01-22T06:30:00Z","temp":-3,"dewpoint":-3,"windDirection":190,"windSpeed":7.408,"visibility":0.62,"altim":30.531496,"flightCategory":"LIFR","metarType":"SPECI","geometry_esri":{"x":47.42,"y":19.27,"z":185}}}