{"type":"Feature","geometry":{"type":"Point","coordinates":[47.42,19.27,185]},"properties":{"stationId":"LHBP","rawText":"LHBP 081730Z 26004KT CAVOK 17/M06 Q1025 NOSIG","observationTime":"2020-04-08T17:30:00Z","temp":17,"dewpoint":-6,"windDirection":260,"windSpeed":7.408,"visibility":6.21,"altim":30.265747,"flightCategory":"VFR","metarType":"METAR","geometry_esri":{"x":47.42,"y":19.27,"z":185}}}