{"type":"Feature","geometry":{"type":"Point","coordinates":[47.78,13.02,430]},"properties":{"stationId":"LOWS","rawText":"LOWS 211050Z VRB04KT CAVOK 09/M04 Q1033 NOSIG","observationTime":"2019-03-21T10:50:00Z","temp":9,"dewpoint":-4,"windDirection":0,"windSpeed":7.408,"visibility":6.21,"altim":30.501968,"flightCategory":"VFR","metarType":"METAR","geometry_esri":{"x":47.78,"y":13.02,"z":430}}}