{"type":"Feature","geometry":{"type":"Point","coordinates":[47.78,13.02,430]},"properties":{"stationId":"LOWS","rawText":"LOWS 090050Z AUTO 28012G22KT 240V310 9999 -SHRA FEW008 SCT017 BKN032 02/M01 Q1009","observationTime":"2019-01-09T00:50:00Z","temp":2,"dewpoint":-1,"windDirection":280,"windSpeed":22.224,"visibility":6.21,"altim":29.793306,"flightCategory":"VFR","metarType":"METAR","geometry_esri":{"x":47.78,"y":13.02,"z":430}}}