{"type":"Feature","geometry":{"type":"Point","coordinates":[47.42,19.27,185]},"properties":{"stationId":"LHBP","rawText":"LHBP 030730Z 25013KT 220V280 CAVOK 17/10 Q1006 NOSIG","observationTime":"2019-05-03T07:30:00Z","temp":17,"dewpoint":10,"windDirection":250,"windSpeed":24.076,"visibility":6.21,"altim":29.704725,"flightCategory":"VFR","metarType":"METAR","geometry_esri":{"x":47.42,"y":19.27,"z":185}}}