{"type":"Feature","geometry":{"type":"Point","coordinates":[47.42,19.27,185]},"properties":{"stationId":"LHBP","rawText":"LHBP 132330Z 20007KT 6000 -RA BKN020 OVC035 01/01 Q0994 NOSIG","observationTime":"2019-01-13T23:30:00Z","temp":1,"dewpoint":1,"windDirection":200,"windSpeed":12.964,"visibility":3.73,"altim":29.350393,"flightCategory":"MVFR","metarType":"METAR","geometry_esri":{"x":47.42,"y":19.27,"z":185}}}