{"type":"Feature","geometry":{"type":"Point","coordinates":[47.42,19.27,185]},"properties":{"stationId":"LHBP","rawText":"LHBP 151730Z 25016KT 9999 -RA FEW025 SCT035 BKN055 09/05 Q1009 NOSIG","observationTime":"2019-03-15T17:30:00Z","temp":9,"dewpoint":5,"windDirection":250,"windSpeed":29.632,"visibility":6.21,"altim":29.793306,"flightCategory":"VFR","metarType":"METAR","geometry_esri":{"x":47.42,"y":19.27,"z":185}}}