{"type":"Feature","geometry":{"type":"Point","coordinates":[47.42,19.27,185]},"properties":{"stationId":"LHBP","rawText":"LHBP 130230Z 13005KT 3300 -RA BR OVC003 03/03 Q0998 RERA NOSIG","observationTime":"2019-12-13T02:30:00Z","temp":3,"dewpoint":3,"windDirection":130,"windSpeed":9.26,"visibility":2.05,"altim":29.468504,"flightCategory":"LIFR","metarType":"METAR","geometry_esri":{"x":47.42,"y":19.27,"z":185}}}