{"type":"Feature","geometry":{"type":"Point","coordinates":[47.78,13.02,430]},"properties":{"stationId":"LOWS","rawText":"LOWS 061050Z 32005KT 7000 FEW004 M05/M06 Q1028 NOSIG","observationTime":"2019-02-06T10:50:00Z","temp":-5,"dewpoint":-6,"windDirection":320,"windSpeed":9.26,"visibility":4.35,"altim":30.35433,"flightCategory":"MVFR","metarType":"METAR","geometry_esri":{"x":47.78,"y":13.02,"z":430}}}