{"type":"Feature","geometry":{"type":"Point","coordinates":[47.42,19.27,185]},"properties":{"stationId":"LHBP","rawText":"LHBP 101430Z 33015KT CAVOK 07/01 Q1019 NOSIG","observationTime":"2019-12-10T14:30:00Z","temp":7,"dewpoint":1,"windDirection":330,"windSpeed":27.78,"visibility":6.21,"altim":30.088583,"flightCategory":"VFR","metarType":"METAR","geometry_esri":{"x":47.42,"y":19.27,"z":185}}}