{"type":"Feature","geometry":{"type":"Point","coordinates":[47.42,19.27,185]},"properties":{"stationId":"LHBP","rawText":"LHBP 280030Z 16005KT 0500 R31L/0800N R31R/0700N -FZDZ FZFG VV002 M01/M01 Q1014 NOSIG","observationTime":"2020-01-28T00:30:00Z","temp":-1,"dewpoint":-1,"windDirection":160,"windSpeed":9.26,"visibility":0.31,"altim":29.940945,"flightCategory":"LIFR","metarType":"METAR","geometry_esri":{"x":47.42,"y":19.27,"z":185}}}