{"type":"Feature","geometry":{"type":"Point","coordinates":[47.42,19.27,185]},"properties":{"stationId":"LHBP","rawText":"LHBP 291230Z 27007KT 7000 -SHRA BKN014 OVC020 03/02 Q1009 TEMPO 4000 SHRASN","observationTime":"2020-01-29T12:30:00Z","temp":3,"dewpoint":2,"windDirection":270,"windSpeed":12.964,"visibility":4.35,"altim":29.793306,"flightCategory":"MVFR","metarType":"SPECI","geometry_esri":{"x":47.42,"y":19.27,"z":185}}}