{"type":"Feature","geometry":{"type":"Point","coordinates":[47.78,13.02,430]},"properties":{"stationId":"LOWS","rawText":"LOWS 231550Z 03004KT 9999 FEW070 19/02 Q1017 NOSIG","observationTime":"2020-04-23T15:50:00Z","temp":19,"dewpoint":2,"windDirection":30,"windSpeed":7.408,"visibility":6.21,"altim":30.029528,"flightCategory":"VFR","metarType":"METAR","geometry_esri":{"x":47.78,"y":13.02,"z":430}}}