{"type":"Feature","geometry":{"type":"Point","coordinates":[47.42,19.27,185]},"properties":{"stationId":"LHBP","rawText":"LHBP 081430Z 17004KT 120V240 CAVOK 05/M12 Q1030 NOSIG","observationTime":"2020-02-08T14:30:00Z","temp":5,"dewpoint":-12,"windDirection":170,"windSpeed":7.408,"visibility":6.21,"altim":30.413385,"flightCategory":"VFR","metarType":"METAR","geometry_esri":{"x":47.42,"y":19.27,"z":185}}}