{"type":"Feature","geometry":{"type":"Point","coordinates":[47.42,19.27,185]},"properties":{"stationId":"LHBP","rawText":"LHBP 291538Z 24010KT 9999 -TSRA SCT035CB BKN043 16/11 Q1005 TEMPO 29020G30KT 1400 +TSRAGR SQ BKN030CB","observationTime":"2020-04-29T15:38:00Z","temp":16,"dewpoint":11,"windDirection":240,"windSpeed":18.52,"visibility":6.21,"altim":29.675198,"flightCategory":"VFR","metarType":"SPECI","geometry_esri":{"x":47.42,"y":19.27,"z":185}}}