{"type":"Feature","geometry":{"type":"Point","coordinates":[47.78,13.02,430]},"properties":{"stationId":"LOWS","rawText":"LOWS 211750Z 17007KT 9999 FEW050 BKN070 20/17 Q1024 NOSIG","observationTime":"2019-07-21T17:50:00Z","temp":20,"dewpoint":17,"windDirection":170,"windSpeed":12.964,"visibility":6.21,"altim":30.236221,"flightCategory":"VFR","metarType":"METAR","geometry_esri":{"x":47.78,"y":13.02,"z":430}}}