{"type":"Feature","geometry":{"type":"Point","coordinates":[47.78,13.02,430]},"properties":{"stationId":"LOWS","rawText":"LOWS 091050Z 34007KT 300V020 9999 FEW080 23/10 Q1013 NOSIG","observationTime":"2020-05-09T10:50:00Z","temp":23,"dewpoint":10,"windDirection":340,"windSpeed":12.964,"visibility":6.21,"altim":29.911417,"flightCategory":"VFR","metarType":"METAR","geometry_esri":{"x":47.78,"y":13.02,"z":430}}}