{"type":"Feature","geometry":{"type":"Point","coordinates":[47.78,13.02,430]},"properties":{"stationId":"LOWS","rawText":"LOWS 021950Z 31008KT 280V340 9999 -RA FEW005 BKN026 09/08 Q1013 RERA NOSIG","observationTime":"2019-10-02T19:50:00Z","temp":9,"dewpoint":8,"windDirection":310,"windSpeed":14.816,"visibility":6.21,"altim":29.911417,"flightCategory":"MVFR","metarType":"METAR","geometry_esri":{"x":47.78,"y":13.02,"z":430}}}