{"type":"Feature","geometry":{"type":"Point","coordinates":[45.98,18.23,305]},"properties":{"stationId":"LHPP","rawText":"LHPP 281246Z 02011KT 6000 -RASN SCT006 OVC013 02/00 Q0997","observationTime":"2019-01-28T12:46:00Z","temp":2,"dewpoint":0,"windDirection":20,"windSpeed":20.372,"visibility":3.73,"altim":29.438976,"flightCategory":"MVFR","metarType":"SPECI","geometry_esri":{"x":45.98,"y":18.23,"z":305}}}