{"type":"Feature","geometry":{"type":"Point","coordinates":[47.78,13.02,430]},"properties":{"stationId":"LOWS","rawText":"LOWS 061750Z 31010KT 9999 -TSRA SCT040 SCT040CB BKN045 20/13 Q1013 TEMPO 25015G25KT TSRA","observationTime":"2019-06-06T17:50:00Z","temp":20,"dewpoint":13,"windDirection":310,"windSpeed":18.52,"visibility":6.21,"altim":29.911417,"flightCategory":"VFR","metarType":"METAR","geometry_esri":{"x":47.78,"y":13.02,"z":430}}}