{"type":"Feature","geometry":{"type":"Point","coordinates":[47.47,21.62,112]},"properties":{"stationId":"LHDC","rawText":"LHDC 292135Z AUTO 03011KT 350V060 7000 -RA FEW039TCU OVC089 13/13 Q1015 RERA","observationTime":"2019-05-29T21:35:00Z","temp":13,"dewpoint":13,"windDirection":30,"windSpeed":20.372,"visibility":4.35,"altim":29.970472,"flightCategory":"MVFR","metarType":"SPECI","geometry_esri":{"x":47.47,"y":21.62,"z":112}}}