{"type":"Feature","geometry":{"type":"Point","coordinates":[47.42,19.27,185]},"properties":{"stationId":"LHBP","rawText":"LHBP 060530Z 13005KT CAVOK 20/19 Q1014 NOSIG","observationTime":"2019-08-06T05:30:00Z","temp":20,"dewpoint":19,"windDirection":130,"windSpeed":9.26,"visibility":6.21,"altim":29.940945,"flightCategory":"VFR","metarType":"METAR","geometry_esri":{"x":47.42,"y":19.27,"z":185}}}