{"type":"Feature","geometry":{"type":"Point","coordinates":[47.78,13.02,430]},"properties":{"stationId":"LOWS","rawText":"LOWS 150350Z VRB02KT 0600 R15/1300N R33/0800U BCFG SCT001 10/10 Q1015 TEMPO 0300 BKN001","observationTime":"2019-07-15T03:50:00Z","temp":10,"dewpoint":10,"windDirection":0,"windSpeed":3.704,"visibility":0.37,"altim":29.970472,"flightCategory":"LIFR","metarType":"METAR","geometry_esri":{"x":47.78,"y":13.02,"z":430}}}