{"type":"Feature","geometry":{"type":"Point","coordinates":[47.42,19.27,185]},"properties":{"stationId":"LHBP","rawText":"LHBP 240730Z 36010KT 330V030 CAVOK 24/18 Q1018 NOSIG","observationTime":"2019-06-24T07:30:00Z","temp":24,"dewpoint":18,"windDirection":360,"windSpeed":18.52,"visibility":6.21,"altim":30.059055,"flightCategory":"VFR","metarType":"METAR","geometry_esri":{"x":47.42,"y":19.27,"z":185}}}