{"type":"Feature","geometry":{"type":"Point","coordinates":[47.78,13.02,430]},"properties":{"stationId":"LOWS","rawText":"LOWS 230150Z AUTO 30019KT 6000 SHRA FEW010 SCT017 BKN030 06/04 Q1023","observationTime":"2018-12-23T01:50:00Z","temp":6,"dewpoint":4,"windDirection":300,"windSpeed":35.188,"visibility":3.73,"altim":30.206694,"flightCategory":"MVFR","metarType":"METAR","geometry_esri":{"x":47.78,"y":13.02,"z":430}}}