{"type":"Feature","geometry":{"type":"Point","coordinates":[47.78,13.02,430]},"properties":{"stationId":"LOWS","rawText":"LOWS 050850Z VRB03KT 2000 -SN BR FEW004 SCT010 BKN016 00/M00 Q1024 R15/590295 TEMPO 27012G22KT 1200 SHSN BKN012","observationTime":"2019-01-05T08:50:00Z","temp":0,"dewpoint":0,"windDirection":0,"windSpeed":5.556,"visibility":1.24,"altim":30.236221,"flightCategory":"IFR","metarType":"METAR","geometry_esri":{"x":47.78,"y":13.02,"z":430}}}