{"type":"Feature","geometry":{"type":"Point","coordinates":[47.42,19.27,185]},"properties":{"stationId":"LHBP","rawText":"LHBP 290930Z 21006KT 180V250 9999 -SHRA FEW030TCU SCT055 BKN075 10/07 Q1006 NOSIG","observationTime":"2019-11-29T09:30:00Z","temp":10,"dewpoint":7,"windDirection":210,"windSpeed":11.112,"visibility":6.21,"altim":29.704725,"flightCategory":"VFR","metarType":"METAR","geometry_esri":{"x":47.42,"y":19.27,"z":185}}}