{"type":"Feature","geometry":{"type":"Point","coordinates":[47.78,13.02,430]},"properties":{"stationId":"LOWS","rawText":"LOWS 011750Z 34004KT 9999 FEW012 BKN140 06/05 Q1010 NOSIG","observationTime":"2019-11-01T17:50:00Z","temp":6,"dewpoint":5,"windDirection":340,"windSpeed":7.408,"visibility":6.21,"altim":29.822834,"flightCategory":"VFR","metarType":"METAR","geometry_esri":{"x":47.78,"y":13.02,"z":430}}}