{"type":"Feature","geometry":{"type":"Point","coordinates":[47.42,19.27,185]},"properties":{"stationId":"LHBP","rawText":"LHBP 210130Z VRB02KT 1500 FZBCFG BR BKN002 OVC004 M04/M04 Q1026 R88/510195 TEMPO 0700 FZDZ FZFG OVC001","observationTime":"2018-12-21T01:30:00Z","temp":-4,"dewpoint":-4,"windDirection":0,"windSpeed":3.704,"visibility":0.93,"altim":30.295275,"flightCategory":"LIFR","metarType":"SPECI","geometry_esri":{"x":47.42,"y":19.27,"z":185}}}