{"type":"Feature","geometry":{"type":"Point","coordinates":[47.42,19.27,185]},"properties":{"stationId":"LHBP","rawText":"LHBP 060430Z 12004KT CAVOK 18/18 Q1014 NOSIG","observationTime":"2019-08-06T04:30:00Z","temp":18,"dewpoint":18,"windDirection":120,"windSpeed":7.408,"visibility":6.21,"altim":29.940945,"flightCategory":"VFR","metarType":"METAR","geometry_esri":{"x":47.42,"y":19.27,"z":185}}}