{"type":"Feature","geometry":{"type":"Point","coordinates":[47.42,19.27,185]},"properties":{"stationId":"LHBP","rawText":"LHBP 151530Z 09007KT 0800 R13R/1500U R13L/1000D FZFG OVC002 M01/M02 Q1029 NOSIG","observationTime":"2020-01-15T15:30:00Z","temp":-1,"dewpoint":-2,"windDirection":90,"windSpeed":12.964,"visibility":0.5,"altim":30.383858,"flightCategory":"LIFR","metarType":"METAR","geometry_esri":{"x":47.42,"y":19.27,"z":185}}}