{"type":"Feature","geometry":{"type":"Point","coordinates":[47.47,21.62,112]},"properties":{"stationId":"LHDC","rawText":"LHDC 260138Z AUTO 15002KT 3000 BR NCD 06/06 Q1022","observationTime":"2019-10-26T01:38:00Z","temp":6,"dewpoint":6,"windDirection":150,"windSpeed":3.704,"visibility":1.86,"altim":30.177166,"flightCategory":"IFR","metarType":"SPECI","geometry_esri":{"x":47.47,"y":21.62,"z":112}}}