{"type":"Feature","geometry":{"type":"Point","coordinates":[47.78,13.02,430]},"properties":{"stationId":"LOWS","rawText":"LOWS 160050Z AUTO 14013KT 9999 FEW200 BKN220 05/M01 Q1023","observationTime":"2020-02-16T00:50:00Z","temp":5,"dewpoint":-1,"windDirection":140,"windSpeed":24.076,"visibility":6.21,"altim":30.206694,"flightCategory":"VFR","metarType":"METAR","geometry_esri":{"x":47.78,"y":13.02,"z":430}}}