{"type":"Feature","geometry":{"type":"Point","coordinates":[46.25,20.1,84]},"properties":{"stationId":"LHUD","rawText":"LHUD 190330Z 17002KT 0300 FZFG OVC003 M10/M11 Q1030","observationTime":"2018-12-19T03:30:00Z","temp":-10,"dewpoint":-11,"windDirection":170,"windSpeed":3.704,"visibility":0.19,"altim":30.413385,"flightCategory":"LIFR","metarType":"SPECI","geometry_esri":{"x":46.25,"y":20.1,"z":84}}}