{"type":"Feature","geometry":{"type":"Point","coordinates":[47.78,13.02,430]},"properties":{"stationId":"LOWS","rawText":"LOWS 280450Z 17003KT 4500 -RA BR FEW012 SCT028 BKN040 12/12 Q1020 TEMPO RA BKN012","observationTime":"2019-10-28T04:50:00Z","temp":12,"dewpoint":12,"windDirection":170,"windSpeed":5.556,"visibility":2.8,"altim":30.11811,"flightCategory":"IFR","metarType":"SPECI","geometry_esri":{"x":47.78,"y":13.02,"z":430}}}