{"type":"Feature","geometry":{"type":"Point","coordinates":[47.42,19.27,185]},"properties":{"stationId":"LHBP","rawText":"LHBP 090230Z 15003KT 4300 BR SCT005 BKN045 OVC065 M03/M04 Q1030 NOSIG","observationTime":"2020-01-09T02:30:00Z","temp":-3,"dewpoint":-4,"windDirection":150,"windSpeed":5.556,"visibility":2.67,"altim":30.413385,"flightCategory":"IFR","metarType":"METAR","geometry_esri":{"x":47.42,"y":19.27,"z":185}}}