{"type":"Feature","geometry":{"type":"Point","coordinates":[47.78,13.02,430]},"properties":{"stationId":"LOWS","rawText":"LOWS 121550Z 03004KT 350V080 9999 FEW034 BKN040 10/03 Q1015 NOSIG","observationTime":"2020-05-12T15:50:00Z","temp":10,"dewpoint":3,"windDirection":30,"windSpeed":7.408,"visibility":6.21,"altim":29.970472,"flightCategory":"VFR","metarType":"METAR","geometry_esri":{"x":47.78,"y":13.02,"z":430}}}