{"type":"Feature","geometry":{"type":"Point","coordinates":[47.78,13.02,430]},"properties":{"stationId":"LOWS","rawText":"LOWS 260050Z AUTO 15004KT 9999 SCT120 18/16 Q1020","observationTime":"2019-08-26T00:50:00Z","temp":18,"dewpoint":16,"windDirection":150,"windSpeed":7.408,"visibility":6.21,"altim":30.11811,"flightCategory":"VFR","metarType":"METAR","geometry_esri":{"x":47.78,"y":13.02,"z":430}}}