{"type":"Feature","geometry":{"type":"Point","coordinates":[45.98,18.23,305]},"properties":{"stationId":"LHPP","rawText":"LHPP 051634Z 28014KT 2000 -SN OVC005 M01/M01 Q1016","observationTime":"2019-01-05T16:34:00Z","temp":-1,"dewpoint":-1,"windDirection":280,"windSpeed":25.928,"visibility":1.24,"altim":30,"flightCategory":"IFR","metarType":"SPECI","geometry_esri":{"x":45.98,"y":18.23,"z":305}}}