{"type":"Feature","geometry":{"type":"Point","coordinates":[47.78,13.02,430]},"properties":{"stationId":"LOWS","rawText":"LOWS 270250Z AUTO 16002KT 9999 FEW060 BKN100 13/11 Q1012","observationTime":"2019-05-27T02:50:00Z","temp":13,"dewpoint":11,"windDirection":160,"windSpeed":3.704,"visibility":6.21,"altim":29.88189,"flightCategory":"VFR","metarType":"METAR","geometry_esri":{"x":47.78,"y":13.02,"z":430}}}