{"type":"Feature","geometry":{"type":"Point","coordinates":[47.78,13.02,430]},"properties":{"stationId":"LOWS","rawText":"LOWS 161950Z 18007KT CAVOK 08/00 Q1024 NOSIG","observationTime":"2020-03-16T19:50:00Z","temp":8,"dewpoint":0,"windDirection":180,"windSpeed":12.964,"visibility":6.21,"altim":30.236221,"flightCategory":"VFR","metarType":"METAR","geometry_esri":{"x":47.78,"y":13.02,"z":430}}}