{"type":"Feature","geometry":{"type":"Point","coordinates":[47.78,13.02,430]},"properties":{"stationId":"LOWS","rawText":"LOWS 040150Z AUTO 32009KT 280V340 8000 -SN FEW010 SCT017 BKN028 M02/M04 Q1033","observationTime":"2019-01-04T01:50:00Z","temp":-2,"dewpoint":-4,"windDirection":320,"windSpeed":16.668,"visibility":4.97,"altim":30.501968,"flightCategory":"MVFR","metarType":"METAR","geometry_esri":{"x":47.78,"y":13.02,"z":430}}}