{"type":"Feature","geometry":{"type":"Point","coordinates":[47.78,13.02,430]},"properties":{"stationId":"LOWS","rawText":"LOWS 061650Z 35005KT 9999 FEW070 SCT120 BKN250 29/12 Q1010 NOSIG","observationTime":"2019-07-06T16:50:00Z","temp":29,"dewpoint":12,"windDirection":350,"windSpeed":9.26,"visibility":6.21,"altim":29.822834,"flightCategory":"VFR","metarType":"METAR","geometry_esri":{"x":47.78,"y":13.02,"z":430}}}