{"type":"Feature","geometry":{"type":"Point","coordinates":[47.78,13.02,430]},"properties":{"stationId":"LOWS","rawText":"LOWS 051750Z 22002KT 7000 FEW018 SCT036 BKN046 00/M00 Q1035 NOSIG","observationTime":"2020-01-05T17:50:00Z","temp":0,"dewpoint":0,"windDirection":220,"windSpeed":3.704,"visibility":4.35,"altim":30.561024,"flightCategory":"MVFR","metarType":"METAR","geometry_esri":{"x":47.78,"y":13.02,"z":430}}}