{"type":"Feature","geometry":{"type":"Point","coordinates":[47.42,19.27,185]},"properties":{"stationId":"LHBP","rawText":"LHBP 121130Z 01009KT 9999 BKN031 11/05 Q1014 NOSIG","observationTime":"2019-04-12T11:30:00Z","temp":11,"dewpoint":5,"windDirection":10,"windSpeed":16.668,"visibility":6.21,"altim":29.940945,"flightCategory":"VFR","metarType":"METAR","geometry_esri":{"x":47.42,"y":19.27,"z":185}}}