{"type":"Feature","geometry":{"type":"Point","coordinates":[47.42,19.27,185]},"properties":{"stationId":"LHBP","rawText":"LHBP 091330Z 27009KT CAVOK 22/M04 Q1020 NOSIG","observationTime":"2020-04-09T13:30:00Z","temp":22,"dewpoint":-4,"windDirection":270,"windSpeed":16.668,"visibility":6.21,"altim":30.11811,"flightCategory":"VFR","metarType":"METAR","geometry_esri":{"x":47.42,"y":19.27,"z":185}}}