{"type":"Feature","geometry":{"type":"Point","coordinates":[47.78,13.02,430]},"properties":{"stationId":"LOWS","rawText":"LOWS 200150Z AUTO 04007KT 9999 FEW015 BKN018 08/07 Q1015","observationTime":"2020-04-20T01:50:00Z","temp":8,"dewpoint":7,"windDirection":40,"windSpeed":12.964,"visibility":6.21,"altim":29.970472,"flightCategory":"MVFR","metarType":"METAR","geometry_esri":{"x":47.78,"y":13.02,"z":430}}}