{"type":"Feature","geometry":{"type":"Point","coordinates":[47.78,13.02,430]},"properties":{"stationId":"LOWS","rawText":"LOWS 172350Z AUTO 13003KT 080V170 9999 FEW022 BKN030 01/00 Q1029","observationTime":"2018-12-17T23:50:00Z","temp":1,"dewpoint":0,"windDirection":130,"windSpeed":5.556,"visibility":6.21,"altim":30.383858,"flightCategory":"MVFR","metarType":"METAR","geometry_esri":{"x":47.78,"y":13.02,"z":430}}}