{"type":"Feature","geometry":{"type":"Point","coordinates":[47.42,19.27,185]},"properties":{"stationId":"LHBP","rawText":"LHBP 171630Z 04008KT 010V070 CAVOK 24/18 Q1017 NOSIG","observationTime":"2019-06-17T16:30:00Z","temp":24,"dewpoint":18,"windDirection":40,"windSpeed":14.816,"visibility":6.21,"altim":30.029528,"flightCategory":"VFR","metarType":"METAR","geometry_esri":{"x":47.42,"y":19.27,"z":185}}}