{"type":"Feature","geometry":{"type":"Point","coordinates":[47.42,19.27,185]},"properties":{"stationId":"LHBP","rawText":"LHBP 071430Z 31009KT CAVOK 14/02 Q1015 NOSIG","observationTime":"2019-05-07T14:30:00Z","temp":14,"dewpoint":2,"windDirection":310,"windSpeed":16.668,"visibility":6.21,"altim":29.970472,"flightCategory":"VFR","metarType":"METAR","geometry_esri":{"x":47.42,"y":19.27,"z":185}}}