{"type":"Feature","geometry":{"type":"Point","coordinates":[47.78,13.02,430]},"properties":{"stationId":"LOWS","rawText":"LOWS 281950Z 27010G20KT 220V310 9999 -RA FEW008 SCT012 BKN045 02/00 Q1007 RERA NOSIG","observationTime":"2020-01-28T19:50:00Z","temp":2,"dewpoint":0,"windDirection":270,"windSpeed":18.52,"visibility":6.21,"altim":29.734253,"flightCategory":"VFR","metarType":"METAR","geometry_esri":{"x":47.78,"y":13.02,"z":430}}}