{"type":"Feature","geometry":{"type":"Point","coordinates":[47.42,19.27,185]},"properties":{"stationId":"LHBP","rawText":"LHBP 311830Z 01003KT CAVOK M01/M08 Q1023 NOSIG","observationTime":"2020-03-31T18:30:00Z","temp":-1,"dewpoint":-8,"windDirection":10,"windSpeed":5.556,"visibility":6.21,"altim":30.206694,"flightCategory":"VFR","metarType":"METAR","geometry_esri":{"x":47.42,"y":19.27,"z":185}}}