{"type":"Feature","geometry":{"type":"Point","coordinates":[47.42,19.27,185]},"properties":{"stationId":"LHBP","rawText":"LHBP 282330Z 00000KT CAVOK 10/09 Q1018 NOSIG","observationTime":"2019-09-28T23:30:00Z","temp":10,"dewpoint":9,"windDirection":0,"windSpeed":0,"visibility":6.21,"altim":30.059055,"flightCategory":"VFR","metarType":"METAR","geometry_esri":{"x":47.42,"y":19.27,"z":185}}}