{"type":"Feature","geometry":{"type":"Point","coordinates":[47.78,13.02,430]},"properties":{"stationId":"LOWS","rawText":"LOWS 280050Z AUTO 36003KT 310V100 9999 SCT004 BKN080 15/14 Q1017","observationTime":"2019-09-28T00:50:00Z","temp":15,"dewpoint":14,"windDirection":360,"windSpeed":5.556,"visibility":6.21,"altim":30.029528,"flightCategory":"VFR","metarType":"METAR","geometry_esri":{"x":47.78,"y":13.02,"z":430}}}