{"type":"Feature","geometry":{"type":"Point","coordinates":[47.42,19.27,185]},"properties":{"stationId":"LHBP","rawText":"LHBP 182330Z 00000KT CAVOK 09/09 Q1016 NOSIG","observationTime":"2019-10-18T23:30:00Z","temp":9,"dewpoint":9,"windDirection":0,"windSpeed":0,"visibility":6.21,"altim":30,"flightCategory":"VFR","metarType":"METAR","geometry_esri":{"x":47.42,"y":19.27,"z":185}}}