{"type":"Feature","geometry":{"type":"Point","coordinates":[47.42,19.27,185]},"properties":{"stationId":"LHBP","rawText":"LHBP 111430Z 26010KT CAVOK 10/M03 Q1012 TEMPO 31025G35KT 4000 SHRAGS FEW030TCU BKN040","observationTime":"2019-03-11T14:30:00Z","temp":10,"dewpoint":-3,"windDirection":260,"windSpeed":18.52,"visibility":6.21,"altim":29.88189,"flightCategory":"VFR","metarType":"METAR","geometry_esri":{"x":47.42,"y":19.27,"z":185}}}