{"type":"Feature","geometry":{"type":"Point","coordinates":[47.42,19.27,185]},"properties":{"stationId":"LHBP","rawText":"LHBP 291030Z VRB05KT CAVOK 14/M00 Q1031 NOSIG","observationTime":"2019-03-29T10:30:00Z","temp":14,"dewpoint":0,"windDirection":0,"windSpeed":9.26,"visibility":6.21,"altim":30.442913,"flightCategory":"VFR","metarType":"METAR","geometry_esri":{"x":47.42,"y":19.27,"z":185}}}