{"type":"Feature","geometry":{"type":"Point","coordinates":[47.78,13.02,430]},"properties":{"stationId":"LOWS","rawText":"LOWS 140750Z 28009KT 240V330 9999 VCSH FEW035 BKN040 05/M01 Q1014 NOSIG","observationTime":"2019-03-14T07:50:00Z","temp":5,"dewpoint":-1,"windDirection":280,"windSpeed":16.668,"visibility":6.21,"altim":29.940945,"flightCategory":"VFR","metarType":"METAR","geometry_esri":{"x":47.78,"y":13.02,"z":430}}}