{"type":"Feature","geometry":{"type":"Point","coordinates":[47.42,19.27,185]},"properties":{"stationId":"LHBP","rawText":"LHBP 111330Z 27014KT 240V310 CAVOK 25/06 Q1011 NOSIG","observationTime":"2019-07-11T13:30:00Z","temp":25,"dewpoint":6,"windDirection":270,"windSpeed":25.928,"visibility":6.21,"altim":29.852362,"flightCategory":"VFR","metarType":"METAR","geometry_esri":{"x":47.42,"y":19.27,"z":185}}}