{"type":"Feature","geometry":{"type":"Point","coordinates":[47.42,19.27,185]},"properties":{"stationId":"LHBP","rawText":"LHBP 192030Z 03004KT CAVOK 11/04 Q1017 NOSIG","observationTime":"2020-04-19T20:30:00Z","temp":11,"dewpoint":4,"windDirection":30,"windSpeed":7.408,"visibility":6.21,"altim":30.029528,"flightCategory":"VFR","metarType":"METAR","geometry_esri":{"x":47.42,"y":19.27,"z":185}}}