{"type":"Feature","geometry":{"type":"Point","coordinates":[47.78,13.02,430]},"properties":{"stationId":"LOWS","rawText":"LOWS 131850Z 09006KT 8000 -RA FEW006 SCT014 BKN022 02/01 Q1002 R15/29//95 TEMPO 30015G30KT 4000 RA","observationTime":"2019-01-13T18:50:00Z","temp":2,"dewpoint":1,"windDirection":90,"windSpeed":11.112,"visibility":4.97,"altim":29.586615,"flightCategory":"MVFR","metarType":"METAR","geometry_esri":{"x":47.78,"y":13.02,"z":430}}}