{"type":"Feature","geometry":{"type":"Point","coordinates":[47.78,13.02,430]},"properties":{"stationId":"LOWS","rawText":"LOWS 301850Z 15010KT 9999 FEW038 SCT042 BKN050 M00/M02 Q1000 NOSIG","observationTime":"2019-01-30T18:50:00Z","temp":0,"dewpoint":-2,"windDirection":150,"windSpeed":18.52,"visibility":6.21,"altim":29.52756,"flightCategory":"VFR","metarType":"METAR","geometry_esri":{"x":47.78,"y":13.02,"z":430}}}