{"type":"Feature","geometry":{"type":"Point","coordinates":[47.42,19.27,185]},"properties":{"stationId":"LHBP","rawText":"LHBP 041430Z 21015KT 180V240 CAVOK 18/00 Q1002 NOSIG","observationTime":"2019-03-04T14:30:00Z","temp":18,"dewpoint":0,"windDirection":210,"windSpeed":27.78,"visibility":6.21,"altim":29.586615,"flightCategory":"VFR","metarType":"METAR","geometry_esri":{"x":47.42,"y":19.27,"z":185}}}