{"type":"Feature","geometry":{"type":"Point","coordinates":[47.42,19.27,185]},"properties":{"stationId":"LHBP","rawText":"LHBP 301430Z 30008KT 7000 -RA FEW005 BKN027 OVC036 06/06 Q1027 NOSIG","observationTime":"2019-10-30T14:30:00Z","temp":6,"dewpoint":6,"windDirection":300,"windSpeed":14.816,"visibility":4.35,"altim":30.324802,"flightCategory":"MVFR","metarType":"METAR","geometry_esri":{"x":47.42,"y":19.27,"z":185}}}