{"type":"Feature","geometry":{"type":"Point","coordinates":[47.42,19.27,185]},"properties":{"stationId":"LHBP","rawText":"LHBP 171430Z 20005KT CAVOK 13/04 Q1026 NOSIG","observationTime":"2019-02-17T14:30:00Z","temp":13,"dewpoint":4,"windDirection":200,"windSpeed":9.26,"visibility":6.21,"altim":30.295275,"flightCategory":"VFR","metarType":"METAR","geometry_esri":{"x":47.42,"y":19.27,"z":185}}}