{"type":"Feature","geometry":{"type":"Point","coordinates":[47.42,19.27,185]},"properties":{"stationId":"LHBP","rawText":"LHBP 220130Z 25010KT 9999 SCT008 BKN040 OVC065 08/07 Q0992 NOSIG","observationTime":"2019-12-22T01:30:00Z","temp":8,"dewpoint":7,"windDirection":250,"windSpeed":18.52,"visibility":6.21,"altim":29.291338,"flightCategory":"VFR","metarType":"METAR","geometry_esri":{"x":47.42,"y":19.27,"z":185}}}