{"type":"Feature","geometry":{"type":"Point","coordinates":[47.42,19.27,185]},"properties":{"stationId":"LHBP","rawText":"LHBP 050430Z 12005KT 5000 BR OVC004 M02/M02 Q1030 NOSIG","observationTime":"2019-12-05T04:30:00Z","temp":-2,"dewpoint":-2,"windDirection":120,"windSpeed":9.26,"visibility":3.11,"altim":30.413385,"flightCategory":"LIFR","metarType":"METAR","geometry_esri":{"x":47.42,"y":19.27,"z":185}}}