{"type":"Feature","geometry":{"type":"Point","coordinates":[47.78,13.02,430]},"properties":{"stationId":"LOWS","rawText":"LOWS 092350Z AUTO 19005KT 9999 NCD 08/02 Q1024","observationTime":"2020-04-09T23:50:00Z","temp":8,"dewpoint":2,"windDirection":190,"windSpeed":9.26,"visibility":6.21,"altim":30.236221,"flightCategory":"VFR","metarType":"METAR","geometry_esri":{"x":47.78,"y":13.02,"z":430}}}