{"type":"Feature","geometry":{"type":"Point","coordinates":[47.78,13.02,430]},"properties":{"stationId":"LOWS","rawText":"LOWS 062350Z AUTO VRB02KT 0450 R15/0600N R33/0450N FZFG BKN001 M06/M07 Q1021","observationTime":"2019-02-06T23:50:00Z","temp":-6,"dewpoint":-7,"windDirection":0,"windSpeed":3.704,"visibility":0.28,"altim":30.147638,"flightCategory":"LIFR","metarType":"METAR","geometry_esri":{"x":47.78,"y":13.02,"z":430}}}