{"type":"Feature","geometry":{"type":"Point","coordinates":[47.63,17.82,129]},"properties":{"stationId":"LHPR","rawText":"LHPR 171615Z 27005KT 8000 OVC017 M01/M04 Q1025 RMK WHT","observationTime":"2018-12-17T16:15:00Z","temp":-1,"dewpoint":-4,"windDirection":270,"windSpeed":9.26,"visibility":4.97,"altim":30.265747,"flightCategory":"MVFR","metarType":"METAR","geometry_esri":{"x":47.63,"y":17.82,"z":129}}}