{"type":"Feature","geometry":{"type":"Point","coordinates":[47.42,19.27,185]},"properties":{"stationId":"LHBP","rawText":"LHBP 101430Z 11008KT 080V150 CAVOK 31/19 Q1015 NOSIG","observationTime":"2019-06-10T14:30:00Z","temp":31,"dewpoint":19,"windDirection":110,"windSpeed":14.816,"visibility":6.21,"altim":29.970472,"flightCategory":"VFR","metarType":"METAR","geometry_esri":{"x":47.42,"y":19.27,"z":185}}}