{"type":"Feature","geometry":{"type":"Point","coordinates":[47.42,19.27,185]},"properties":{"stationId":"LHBP","rawText":"LHBP 220530Z 20004KT 1700 BR OVC002 M03/M03 Q1034 NOSIG","observationTime":"2020-01-22T05:30:00Z","temp":-3,"dewpoint":-3,"windDirection":200,"windSpeed":7.408,"visibility":1.06,"altim":30.531496,"flightCategory":"LIFR","metarType":"METAR","geometry_esri":{"x":47.42,"y":19.27,"z":185}}}