{"type":"Feature","geometry":{"type":"Point","coordinates":[47.78,13.02,430]},"properties":{"stationId":"LOWS","rawText":"LOWS 271750Z 22014KT 9999 SHRA FEW015 FEW050CB BKN100 BKN300 19/16 Q1003 BECMG 15006KT -SHRA","observationTime":"2019-07-27T17:50:00Z","temp":19,"dewpoint":16,"windDirection":220,"windSpeed":25.928,"visibility":6.21,"altim":29.616142,"flightCategory":"VFR","metarType":"METAR","geometry_esri":{"x":47.78,"y":13.02,"z":430}}}