{"type":"Feature","geometry":{"type":"Point","coordinates":[45.98,18.23,305]},"properties":{"stationId":"LHPP","rawText":"LHPP 081046Z 11010KT 6000 OVC006 11/10 Q1008","observationTime":"2019-11-08T10:46:00Z","temp":11,"dewpoint":10,"windDirection":110,"windSpeed":18.52,"visibility":3.73,"altim":29.763779,"flightCategory":"IFR","metarType":"SPECI","geometry_esri":{"x":45.98,"y":18.23,"z":305}}}