{"type":"Feature","geometry":{"type":"Point","coordinates":[47.78,13.02,430]},"properties":{"stationId":"LOWS","rawText":"LOWS 101650Z 02006KT 8000 -RADZ FEW018 SCT028 BKN045 10/06 Q1009 NOSIG","observationTime":"2019-04-10T16:50:00Z","temp":10,"dewpoint":6,"windDirection":20,"windSpeed":11.112,"visibility":4.97,"altim":29.793306,"flightCategory":"MVFR","metarType":"METAR","geometry_esri":{"x":47.78,"y":13.02,"z":430}}}