{"type":"Feature","geometry":{"type":"Point","coordinates":[47.78,13.02,430]},"properties":{"stationId":"LOWS","rawText":"LOWS 271050Z 34006KT 290V020 9999 FEW070 31/21 Q1022 NOSIG","observationTime":"2019-06-27T10:50:00Z","temp":31,"dewpoint":21,"windDirection":340,"windSpeed":11.112,"visibility":6.21,"altim":30.177166,"flightCategory":"VFR","metarType":"METAR","geometry_esri":{"x":47.78,"y":13.02,"z":430}}}