{"type":"Feature","geometry":{"type":"Point","coordinates":[45.98,18.23,305]},"properties":{"stationId":"LHPP","rawText":"LHPP 080537Z 26002KT 1600 -DZ BR OVC004 16/16 Q1017","observationTime":"2019-09-08T05:37:00Z","temp":16,"dewpoint":16,"windDirection":260,"windSpeed":3.704,"visibility":0.99,"altim":30.029528,"flightCategory":"LIFR","metarType":"SPECI","geometry_esri":{"x":45.98,"y":18.23,"z":305}}}