{"type":"Feature","geometry":{"type":"Point","coordinates":[47.78,13.02,430]},"properties":{"stationId":"LOWS","rawText":"LOWS 221750Z 16007KT 6000 FEW004 BKN005 M02/M03 Q1033 BECMG 33004KT 4500 BR","observationTime":"2020-01-22T17:50:00Z","temp":-2,"dewpoint":-3,"windDirection":160,"windSpeed":12.964,"visibility":3.73,"altim":30.501968,"flightCategory":"IFR","metarType":"METAR","geometry_esri":{"x":47.78,"y":13.02,"z":430}}}