{"type":"Feature","geometry":{"type":"Point","coordinates":[47.42,19.27,185]},"properties":{"stationId":"LHBP","rawText":"LHBP 081242Z 22005KT 180V250 6000 BKN039 04/02 Q1022 NOSIG","observationTime":"2019-02-08T12:42:00Z","temp":4,"dewpoint":2,"windDirection":220,"windSpeed":9.26,"visibility":3.73,"altim":30.177166,"flightCategory":"MVFR","metarType":"SPECI","geometry_esri":{"x":47.42,"y":19.27,"z":185}}}