{"type":"Feature","geometry":{"type":"Point","coordinates":[47.42,19.27,185]},"properties":{"stationId":"LHBP","rawText":"LHBP 280230Z 18004KT 2300 -RA BR OVC003 09/09 Q1004 NOSIG","observationTime":"2019-11-28T02:30:00Z","temp":9,"dewpoint":9,"windDirection":180,"windSpeed":7.408,"visibility":1.43,"altim":29.64567,"flightCategory":"LIFR","metarType":"METAR","geometry_esri":{"x":47.42,"y":19.27,"z":185}}}