{"type":"Feature","geometry":{"type":"Point","coordinates":[47.42,19.27,185]},"properties":{"stationId":"LHBP","rawText":"LHBP 201630Z 29005KT 250V340 CAVOK 11/M05 Q1032 NOSIG","observationTime":"2019-03-20T16:30:00Z","temp":11,"dewpoint":-5,"windDirection":290,"windSpeed":9.26,"visibility":6.21,"altim":30.47244,"flightCategory":"VFR","metarType":"METAR","geometry_esri":{"x":47.42,"y":19.27,"z":185}}}