{"type":"Feature","geometry":{"type":"Point","coordinates":[47.42,19.27,185]},"properties":{"stationId":"LHBP","rawText":"LHBP 060730Z 20014KT CAVOK 14/M07 Q1032 NOSIG","observationTime":"2020-04-06T07:30:00Z","temp":14,"dewpoint":-7,"windDirection":200,"windSpeed":25.928,"visibility":6.21,"altim":30.47244,"flightCategory":"VFR","metarType":"METAR","geometry_esri":{"x":47.42,"y":19.27,"z":185}}}