{"type":"Feature","geometry":{"type":"Point","coordinates":[47.42,19.27,185]},"properties":{"stationId":"LHBP","rawText":"LHBP 220442Z VRB02KT 5000 MIFG BR NSC 08/08 Q1022 TEMPO 2000 BCFG BR","observationTime":"2019-10-22T04:42:00Z","temp":8,"dewpoint":8,"windDirection":0,"windSpeed":3.704,"visibility":3.11,"altim":30.177166,"flightCategory":"MVFR","metarType":"SPECI","geometry_esri":{"x":47.42,"y":19.27,"z":185}}}