{"type":"Feature","geometry":{"type":"Point","coordinates":[47.42,19.27,185]},"properties":{"stationId":"LHBP","rawText":"LHBP 180530Z VRB03KT CAVOK 19/13 Q1013 TEMPO 06012KT 6000 -TSRA SCT040CB","observationTime":"2019-07-18T05:30:00Z","temp":19,"dewpoint":13,"windDirection":0,"windSpeed":5.556,"visibility":6.21,"altim":29.911417,"flightCategory":"VFR","metarType":"METAR","geometry_esri":{"x":47.42,"y":19.27,"z":185}}}