{"type":"Feature","geometry":{"type":"Point","coordinates":[47.42,19.27,185]},"properties":{"stationId":"LHBP","rawText":"LHBP 101330Z 33007KT CAVOK 00/M03 Q1011 NOSIG","observationTime":"2019-01-10T13:30:00Z","temp":0,"dewpoint":-3,"windDirection":330,"windSpeed":12.964,"visibility":6.21,"altim":29.852362,"flightCategory":"VFR","metarType":"METAR","geometry_esri":{"x":47.42,"y":19.27,"z":185}}}