{"type":"Feature","geometry":{"type":"Point","coordinates":[47.42,19.27,185]},"properties":{"stationId":"LHBP","rawText":"LHBP 300630Z VRB03KT 6000 NSC 07/07 Q1025 NOSIG","observationTime":"2019-10-30T06:30:00Z","temp":7,"dewpoint":7,"windDirection":0,"windSpeed":5.556,"visibility":3.73,"altim":30.265747,"flightCategory":"MVFR","metarType":"METAR","geometry_esri":{"x":47.42,"y":19.27,"z":185}}}