{"type":"Feature","geometry":{"type":"Point","coordinates":[47.78,13.02,430]},"properties":{"stationId":"LOWS","rawText":"LOWS 131950Z 14007KT 8000 -RA FEW006 SCT014 BKN020 02/01 Q1001 R15/29//95 TEMPO 30015G30KT 4000 RA","observationTime":"2019-01-13T19:50:00Z","temp":2,"dewpoint":1,"windDirection":140,"windSpeed":12.964,"visibility":4.97,"altim":29.557087,"flightCategory":"MVFR","metarType":"METAR","geometry_esri":{"x":47.78,"y":13.02,"z":430}}}