{"type":"Feature","geometry":{"type":"Point","coordinates":[47.78,13.02,430]},"properties":{"stationId":"LOWS","rawText":"LOWS 181550Z 34007KT 310V020 9999 FEW060 23/10 Q1021 NOSIG","observationTime":"2020-05-18T15:50:00Z","temp":23,"dewpoint":10,"windDirection":340,"windSpeed":12.964,"visibility":6.21,"altim":30.147638,"flightCategory":"VFR","metarType":"METAR","geometry_esri":{"x":47.78,"y":13.02,"z":430}}}