{"type":"Feature","geometry":{"type":"Point","coordinates":[47.78,13.02,430]},"properties":{"stationId":"LOWS","rawText":"LOWS 072350Z AUTO 16005KT 110V220 9999 FEW040 OVC060 06/04 Q1013","observationTime":"2019-03-07T23:50:00Z","temp":6,"dewpoint":4,"windDirection":160,"windSpeed":9.26,"visibility":6.21,"altim":29.911417,"flightCategory":"VFR","metarType":"METAR","geometry_esri":{"x":47.78,"y":13.02,"z":430}}}