{"type":"Feature","geometry":{"type":"Point","coordinates":[47.78,13.02,430]},"properties":{"stationId":"LOWS","rawText":"LOWS 021150Z VRB05KT 9999 FEW060 SCT300 27/12 Q1019 NOSIG","observationTime":"2019-06-02T11:50:00Z","temp":27,"dewpoint":12,"windDirection":0,"windSpeed":9.26,"visibility":6.21,"altim":30.088583,"flightCategory":"VFR","metarType":"METAR","geometry_esri":{"x":47.78,"y":13.02,"z":430}}}