{"type":"Feature","geometry":{"type":"Point","coordinates":[47.78,13.02,430]},"properties":{"stationId":"LOWS","rawText":"LOWS 030650Z 26007KT 230V290 9999 -RA FEW010 SCT020 BKN026 05/02 Q1000 NOSIG","observationTime":"2020-03-03T06:50:00Z","temp":5,"dewpoint":2,"windDirection":260,"windSpeed":12.964,"visibility":6.21,"altim":29.52756,"flightCategory":"MVFR","metarType":"METAR","geometry_esri":{"x":47.78,"y":13.02,"z":430}}}