{"type":"Feature","geometry":{"type":"Point","coordinates":[47.78,13.02,430]},"properties":{"stationId":"LOWS","rawText":"LOWS 202350Z AUTO 32004KT 5000 -DZ BR SCT003 BKN008 02/02 Q1012","observationTime":"2019-11-20T23:50:00Z","temp":2,"dewpoint":2,"windDirection":320,"windSpeed":7.408,"visibility":3.11,"altim":29.88189,"flightCategory":"IFR","metarType":"METAR","geometry_esri":{"x":47.78,"y":13.02,"z":430}}}