{"type":"Feature","geometry":{"type":"Point","coordinates":[47.78,13.02,430]},"properties":{"stationId":"LOWS","rawText":"LOWS 121150Z 32026KT 9999 FEW060 BKN250 26/17 Q1007 TEMPO 32010KT","observationTime":"2019-06-12T11:50:00Z","temp":26,"dewpoint":17,"windDirection":320,"windSpeed":48.152,"visibility":6.21,"altim":29.734253,"flightCategory":"VFR","metarType":"METAR","geometry_esri":{"x":47.78,"y":13.02,"z":430}}}