{"type":"Feature","geometry":{"type":"Point","coordinates":[47.78,13.02,430]},"properties":{"stationId":"LOWS","rawText":"LOWS 270250Z AUTO 19006KT 9999 FEW100 BKN150 21/15 Q1005","observationTime":"2019-07-27T02:50:00Z","temp":21,"dewpoint":15,"windDirection":190,"windSpeed":11.112,"visibility":6.21,"altim":29.675198,"flightCategory":"VFR","metarType":"METAR","geometry_esri":{"x":47.78,"y":13.02,"z":430}}}