{"type":"Feature","geometry":{"type":"Point","coordinates":[47.42,19.27,185]},"properties":{"stationId":"LHBP","rawText":"LHBP 110830Z 30026G39KT 9999 BLDU NSC 09/M02 Q1013 BECMG CAVOK","observationTime":"2019-03-11T08:30:00Z","temp":9,"dewpoint":-2,"windDirection":300,"windSpeed":48.152,"visibility":6.21,"altim":29.911417,"flightCategory":"VFR","metarType":"METAR","geometry_esri":{"x":47.42,"y":19.27,"z":185}}}