{"type":"Feature","geometry":{"type":"Point","coordinates":[47.42,19.27,185]},"properties":{"stationId":"LHBP","rawText":"LHBP 301630Z 19005KT CAVOK 17/M03 Q1022 NOSIG","observationTime":"2019-03-30T16:30:00Z","temp":17,"dewpoint":-3,"windDirection":190,"windSpeed":9.26,"visibility":6.21,"altim":30.177166,"flightCategory":"VFR","metarType":"METAR","geometry_esri":{"x":47.42,"y":19.27,"z":185}}}