{"type":"Feature","geometry":{"type":"Point","coordinates":[47.42,19.27,185]},"properties":{"stationId":"LHBP","rawText":"LHBP 011830Z 09008KT 8000 NSC 04/04 Q1005 NOSIG","observationTime":"2019-02-01T18:30:00Z","temp":4,"dewpoint":4,"windDirection":90,"windSpeed":14.816,"visibility":4.97,"altim":29.675198,"flightCategory":"MVFR","metarType":"METAR","geometry_esri":{"x":47.42,"y":19.27,"z":185}}}