{"type":"Feature","geometry":{"type":"Point","coordinates":[47.78,13.02,430]},"properties":{"stationId":"LOWS","rawText":"LOWS 090550Z 15006KT 120V180 9999 BKN080 04/01 Q1018 NOSIG","observationTime":"2019-03-09T05:50:00Z","temp":4,"dewpoint":1,"windDirection":150,"windSpeed":11.112,"visibility":6.21,"altim":30.059055,"flightCategory":"VFR","metarType":"METAR","geometry_esri":{"x":47.78,"y":13.02,"z":430}}}