{"type":"Feature","geometry":{"type":"Point","coordinates":[47.78,13.02,430]},"properties":{"stationId":"LOWS","rawText":"LOWS 160650Z 03003KT 330V080 9999 FEW050 SCT070 17/12 Q1017 BECMG 32010KT","observationTime":"2019-07-16T06:50:00Z","temp":17,"dewpoint":12,"windDirection":30,"windSpeed":5.556,"visibility":6.21,"altim":30.029528,"flightCategory":"VFR","metarType":"METAR","geometry_esri":{"x":47.78,"y":13.02,"z":430}}}