{"type":"Feature","geometry":{"type":"Point","coordinates":[47.78,13.02,430]},"properties":{"stationId":"LOWS","rawText":"LOWS 210350Z AUTO 02002KT 7000 FEW011 SCT040 BKN044 M03/M05 Q1018","observationTime":"2019-01-21T03:50:00Z","temp":-3,"dewpoint":-5,"windDirection":20,"windSpeed":3.704,"visibility":4.35,"altim":30.059055,"flightCategory":"MVFR","metarType":"METAR","geometry_esri":{"x":47.78,"y":13.02,"z":430}}}