{"type":"Feature","geometry":{"type":"Point","coordinates":[47.42,19.27,185]},"properties":{"stationId":"LHBP","rawText":"LHBP 101230Z 21009KT 9999 FEW042 BKN095 16/10 Q1017 NOSIG","observationTime":"2019-10-10T12:30:00Z","temp":16,"dewpoint":10,"windDirection":210,"windSpeed":16.668,"visibility":6.21,"altim":30.029528,"flightCategory":"VFR","metarType":"METAR","geometry_esri":{"x":47.42,"y":19.27,"z":185}}}