{"type":"Feature","geometry":{"type":"Point","coordinates":[47.42,19.27,185]},"properties":{"stationId":"LHBP","rawText":"LHBP 261230Z VRB01KT 9000 BKN026 OVC035 10/06 Q1013 NOSIG","observationTime":"2019-11-26T12:30:00Z","temp":10,"dewpoint":6,"windDirection":0,"windSpeed":1.852,"visibility":5.59,"altim":29.911417,"flightCategory":"MVFR","metarType":"METAR","geometry_esri":{"x":47.42,"y":19.27,"z":185}}}