{"type":"Feature","geometry":{"type":"Point","coordinates":[47.47,21.62,112]},"properties":{"stationId":"LHDC","rawText":"LHDC 030132Z AUTO VRB02KT 5000 -RA BR NSC 15/15 Q1003","observationTime":"2019-10-03T01:32:00Z","temp":15,"dewpoint":15,"windDirection":0,"windSpeed":3.704,"visibility":3.11,"altim":29.616142,"flightCategory":"MVFR","metarType":"SPECI","geometry_esri":{"x":47.47,"y":21.62,"z":112}}}