{"type":"Feature","geometry":{"type":"Point","coordinates":[47.42,19.27,185]},"properties":{"stationId":"LHBP","rawText":"LHBP 292030Z VRB02KT CAVOK 01/M02 Q1011 NOSIG","observationTime":"2020-01-29T20:30:00Z","temp":1,"dewpoint":-2,"windDirection":0,"windSpeed":3.704,"visibility":6.21,"altim":29.852362,"flightCategory":"VFR","metarType":"METAR","geometry_esri":{"x":47.42,"y":19.27,"z":185}}}