{"type":"Feature","geometry":{"type":"Point","coordinates":[47.42,19.27,185]},"properties":{"stationId":"LHBP","rawText":"LHBP 081230Z 29008KT 260V350 CAVOK 28/18 Q1018 NOSIG","observationTime":"2019-06-08T12:30:00Z","temp":28,"dewpoint":18,"windDirection":290,"windSpeed":14.816,"visibility":6.21,"altim":30.059055,"flightCategory":"VFR","metarType":"METAR","geometry_esri":{"x":47.42,"y":19.27,"z":185}}}