{"type":"Feature","geometry":{"type":"Point","coordinates":[47.78,13.02,430]},"properties":{"stationId":"LOWS","rawText":"LOWS 160350Z 25010G20KT 160V310 9999 FEW035 BKN055 11/05 Q1012 NOSIG","observationTime":"2019-03-16T03:50:00Z","temp":11,"dewpoint":5,"windDirection":250,"windSpeed":18.52,"visibility":6.21,"altim":29.88189,"flightCategory":"VFR","metarType":"METAR","geometry_esri":{"x":47.78,"y":13.02,"z":430}}}