{"type":"Feature","geometry":{"type":"Point","coordinates":[47.42,19.27,185]},"properties":{"stationId":"LHBP","rawText":"LHBP 260030Z 34004KT 7000 NSC 03/03 Q1013 NOSIG","observationTime":"2019-11-26T00:30:00Z","temp":3,"dewpoint":3,"windDirection":340,"windSpeed":7.408,"visibility":4.35,"altim":29.911417,"flightCategory":"MVFR","metarType":"METAR","geometry_esri":{"x":47.42,"y":19.27,"z":185}}}