{"type":"Feature","geometry":{"type":"Point","coordinates":[47.42,19.27,185]},"properties":{"stationId":"LHBP","rawText":"LHBP 281130Z 18006KT 7000 BKN007 BKN042 11/10 Q1002 NOSIG","observationTime":"2019-11-28T11:30:00Z","temp":11,"dewpoint":10,"windDirection":180,"windSpeed":11.112,"visibility":4.35,"altim":29.586615,"flightCategory":"IFR","metarType":"METAR","geometry_esri":{"x":47.42,"y":19.27,"z":185}}}