{"type":"Feature","geometry":{"type":"Point","coordinates":[47.78,13.02,430]},"properties":{"stationId":"LOWS","rawText":"LOWS 052150Z AUTO 16004KT 120V200 9999 FEW160 21/12 Q1005","observationTime":"2019-06-05T21:50:00Z","temp":21,"dewpoint":12,"windDirection":160,"windSpeed":7.408,"visibility":6.21,"altim":29.675198,"flightCategory":"VFR","metarType":"METAR","geometry_esri":{"x":47.78,"y":13.02,"z":430}}}