{"type":"Feature","geometry":{"type":"Point","coordinates":[47.42,19.27,185]},"properties":{"stationId":"LHBP","rawText":"LHBP 150230Z 10005KT 0700 R13L/P2000N R31R/1800U FZFG OVC002 M02/M02 Q1029 NOSIG","observationTime":"2020-01-15T02:30:00Z","temp":-2,"dewpoint":-2,"windDirection":100,"windSpeed":9.26,"visibility":0.43,"altim":30.383858,"flightCategory":"LIFR","metarType":"METAR","geometry_esri":{"x":47.42,"y":19.27,"z":185}}}