{"type":"Feature","geometry":{"type":"Point","coordinates":[47.78,13.02,430]},"properties":{"stationId":"LOWS","rawText":"LOWS 231350Z 35004KT 310V040 8000 FEW015 BKN018 M03/M07 Q0995 R15/D NOSIG","observationTime":"2019-01-23T13:50:00Z","temp":-3,"dewpoint":-7,"windDirection":350,"windSpeed":7.408,"visibility":4.97,"altim":29.379921,"flightCategory":"MVFR","metarType":"SPECI","geometry_esri":{"x":47.78,"y":13.02,"z":430}}}