{"type":"Feature","geometry":{"type":"Point","coordinates":[47.42,19.27,185]},"properties":{"stationId":"LHBP","rawText":"LHBP 202130Z 05001KT CAVOK 06/02 Q1017 NOSIG","observationTime":"2020-03-20T21:30:00Z","temp":6,"dewpoint":2,"windDirection":50,"windSpeed":1.852,"visibility":6.21,"altim":30.029528,"flightCategory":"VFR","metarType":"METAR","geometry_esri":{"x":47.42,"y":19.27,"z":185}}}