{"type":"Feature","geometry":{"type":"Point","coordinates":[47.78,13.02,430]},"properties":{"stationId":"LOWS","rawText":"LOWS 010250Z AUTO 18003KT 130V210 6000 0800S R15/P1500U R33/P1500D BCFG FEW000 BKN090 13/12 Q1019","observationTime":"2019-08-01T02:50:00Z","temp":13,"dewpoint":12,"windDirection":180,"windSpeed":5.556,"visibility":3.73,"altim":30.088583,"flightCategory":"MVFR","metarType":"METAR","geometry_esri":{"x":47.78,"y":13.02,"z":430}}}