{"type":"Feature","geometry":{"type":"Point","coordinates":[47.42,19.27,185]},"properties":{"stationId":"LHBP","rawText":"LHBP 072230Z 12009KT 9999 BKN038 02/M08 Q1030 NOSIG","observationTime":"2020-02-07T22:30:00Z","temp":2,"dewpoint":-8,"windDirection":120,"windSpeed":16.668,"visibility":6.21,"altim":30.413385,"flightCategory":"VFR","metarType":"METAR","geometry_esri":{"x":47.42,"y":19.27,"z":185}}}