{"type":"Feature","geometry":{"type":"Point","coordinates":[47.42,19.27,185]},"properties":{"stationId":"LHBP","rawText":"LHBP 011230Z 19009KT 150V230 CAVOK 22/08 Q1012 NOSIG","observationTime":"2019-10-01T12:30:00Z","temp":22,"dewpoint":8,"windDirection":190,"windSpeed":16.668,"visibility":6.21,"altim":29.88189,"flightCategory":"VFR","metarType":"METAR","geometry_esri":{"x":47.42,"y":19.27,"z":185}}}