{"type":"Feature","geometry":{"type":"Point","coordinates":[47.42,19.27,185]},"properties":{"stationId":"LHBP","rawText":"LHBP 040530Z VRB02KT 1400 0500N R13R/P2000N R13L/1600N FZBCFG BR OVC002 M06/M06 Q1030 NOSIG","observationTime":"2019-12-04T05:30:00Z","temp":-6,"dewpoint":-6,"windDirection":0,"windSpeed":3.704,"visibility":0.87,"altim":30.413385,"flightCategory":"LIFR","metarType":"SPECI","geometry_esri":{"x":47.42,"y":19.27,"z":185}}}