{"type":"Feature","geometry":{"type":"Point","coordinates":[47.78,13.02,430]},"properties":{"stationId":"LOWS","rawText":"LOWS 192150Z 15014KT 9999 FEW130 SCT160 14/04 Q1008","observationTime":"2019-12-19T21:50:00Z","temp":14,"dewpoint":4,"windDirection":150,"windSpeed":25.928,"visibility":6.21,"altim":29.763779,"flightCategory":"VFR","metarType":"METAR","geometry_esri":{"x":47.78,"y":13.02,"z":430}}}