{"type":"Feature","geometry":{"type":"Point","coordinates":[47.78,13.02,430]},"properties":{"stationId":"LOWS","rawText":"LOWS 121750Z 19004KT CAVOK 13/09 Q1018 NOSIG","observationTime":"2019-10-12T17:50:00Z","temp":13,"dewpoint":9,"windDirection":190,"windSpeed":7.408,"visibility":6.21,"altim":30.059055,"flightCategory":"VFR","metarType":"METAR","geometry_esri":{"x":47.78,"y":13.02,"z":430}}}