{"type":"Feature","geometry":{"type":"Point","coordinates":[47.47,21.62,112]},"properties":{"stationId":"LHDC","rawText":"LHDC 201147Z AUTO VRB05KT 2600 HZ NCD 33/14 Q1019","observationTime":"2019-08-20T11:47:00Z","temp":33,"dewpoint":14,"windDirection":0,"windSpeed":9.26,"visibility":1.62,"altim":30.088583,"flightCategory":"IFR","metarType":"SPECI","geometry_esri":{"x":47.47,"y":21.62,"z":112}}}