{"type":"Feature","geometry":{"type":"Point","coordinates":[47.42,19.27,185]},"properties":{"stationId":"LHBP","rawText":"LHBP 291130Z 29004KT 260V320 9999 SCT014 BKN092 22/19 Q1006 NOSIG","observationTime":"2019-07-29T11:30:00Z","temp":22,"dewpoint":19,"windDirection":290,"windSpeed":7.408,"visibility":6.21,"altim":29.704725,"flightCategory":"VFR","metarType":"METAR","geometry_esri":{"x":47.42,"y":19.27,"z":185}}}