{"type":"Feature","geometry":{"type":"Point","coordinates":[47.78,13.02,430]},"properties":{"stationId":"LOWS","rawText":"LOWS 040250Z AUTO 16004KT 7000 FEW034 SCT038 BKN130 06/06 Q1008","observationTime":"2019-05-04T02:50:00Z","temp":6,"dewpoint":6,"windDirection":160,"windSpeed":7.408,"visibility":4.35,"altim":29.763779,"flightCategory":"MVFR","metarType":"METAR","geometry_esri":{"x":47.78,"y":13.02,"z":430}}}