{"type":"Feature","geometry":{"type":"Point","coordinates":[47.78,13.02,430]},"properties":{"stationId":"LOWS","rawText":"LOWS 230550Z 28003KT 230V330 9999 -RA FEW038 SCT040 BKN046 07/04 Q1027 WS ALL RWY NOSIG","observationTime":"2020-02-23T05:50:00Z","temp":7,"dewpoint":4,"windDirection":280,"windSpeed":5.556,"visibility":6.21,"altim":30.324802,"flightCategory":"VFR","metarType":"METAR","geometry_esri":{"x":47.78,"y":13.02,"z":430}}}