{"type":"Feature","geometry":{"type":"Point","coordinates":[47.42,19.27,185]},"properties":{"stationId":"LHBP","rawText":"LHBP 091230Z 21011KT 180V250 CAVOK 20/08 Q1013 NOSIG","observationTime":"2019-10-09T12:30:00Z","temp":20,"dewpoint":8,"windDirection":210,"windSpeed":20.372,"visibility":6.21,"altim":29.911417,"flightCategory":"VFR","metarType":"METAR","geometry_esri":{"x":47.42,"y":19.27,"z":185}}}