{"type":"Feature","geometry":{"type":"Point","coordinates":[47.78,13.02,430]},"properties":{"stationId":"LOWS","rawText":"LOWS 011950Z 24005KT 9999 FEW015 SCT027 BKN045 05/02 Q1023 TEMPO 28015G30KT SHRA","observationTime":"2019-01-01T19:50:00Z","temp":5,"dewpoint":2,"windDirection":240,"windSpeed":9.26,"visibility":6.21,"altim":30.206694,"flightCategory":"VFR","metarType":"METAR","geometry_esri":{"x":47.78,"y":13.02,"z":430}}}