{"type":"Feature","geometry":{"type":"Point","coordinates":[47.78,13.02,430]},"properties":{"stationId":"LOWS","rawText":"LOWS 030150Z AUTO 18005KT 150V220 6000 FEW036 SCT040 M01/M01 Q1028","observationTime":"2019-12-03T01:50:00Z","temp":-1,"dewpoint":-1,"windDirection":180,"windSpeed":9.26,"visibility":3.73,"altim":30.35433,"flightCategory":"MVFR","metarType":"METAR","geometry_esri":{"x":47.78,"y":13.02,"z":430}}}