{"type":"Feature","geometry":{"type":"Point","coordinates":[47.47,21.62,112]},"properties":{"stationId":"LHDC","rawText":"LHDC 230347Z AUTO 00000KT 5000 BR NCD 10/09 Q1023","observationTime":"2019-10-23T03:47:00Z","temp":10,"dewpoint":9,"windDirection":0,"windSpeed":0,"visibility":3.11,"altim":30.206694,"flightCategory":"MVFR","metarType":"SPECI","geometry_esri":{"x":47.47,"y":21.62,"z":112}}}