{"type":"Feature","geometry":{"type":"Point","coordinates":[47.42,19.27,185]},"properties":{"stationId":"LHBP","rawText":"LHBP 131930Z VRB03KT CAVOK 05/05 Q1013 NOSIG","observationTime":"2019-03-13T19:30:00Z","temp":5,"dewpoint":5,"windDirection":0,"windSpeed":5.556,"visibility":6.21,"altim":29.911417,"flightCategory":"VFR","metarType":"METAR","geometry_esri":{"x":47.42,"y":19.27,"z":185}}}