{"type":"Feature","geometry":{"type":"Point","coordinates":[47.42,19.27,185]},"properties":{"stationId":"LHBP","rawText":"LHBP 132330Z AUTO 30010KT 9999 -RA FEW013/// SCT068/// OVC095/// 12/09 Q1008 NOSIG","observationTime":"2020-04-13T23:30:00Z","temp":12,"dewpoint":9,"windDirection":300,"windSpeed":18.52,"visibility":6.21,"altim":29.763779,"flightCategory":"VFR","metarType":"METAR","geometry_esri":{"x":47.42,"y":19.27,"z":185}}}