{"type":"Feature","geometry":{"type":"Point","coordinates":[47.78,13.02,430]},"properties":{"stationId":"LOWS","rawText":"LOWS 232150Z 21014KT 9999 -RA FEW012 BKN030 08/06 Q1015 RERA","observationTime":"2018-12-23T21:50:00Z","temp":8,"dewpoint":6,"windDirection":210,"windSpeed":25.928,"visibility":6.21,"altim":29.970472,"flightCategory":"MVFR","metarType":"METAR","geometry_esri":{"x":47.78,"y":13.02,"z":430}}}