{"type":"Feature","geometry":{"type":"Point","coordinates":[47.42,19.27,185]},"properties":{"stationId":"LHBP","rawText":"LHBP 012030Z 30011KT CAVOK 15/08 Q1009 NOSIG","observationTime":"2019-05-01T20:30:00Z","temp":15,"dewpoint":8,"windDirection":300,"windSpeed":20.372,"visibility":6.21,"altim":29.793306,"flightCategory":"VFR","metarType":"METAR","geometry_esri":{"x":47.42,"y":19.27,"z":185}}}