{"type":"Feature","geometry":{"type":"Point","coordinates":[47.42,19.27,185]},"properties":{"stationId":"LHBP","rawText":"LHBP 261930Z 00000KT 4500 MIFG BR NSC 09/08 Q1023 NOSIG","observationTime":"2019-10-26T19:30:00Z","temp":9,"dewpoint":8,"windDirection":0,"windSpeed":0,"visibility":2.8,"altim":30.206694,"flightCategory":"IFR","metarType":"METAR","geometry_esri":{"x":47.42,"y":19.27,"z":185}}}