{"type":"Feature","geometry":{"type":"Point","coordinates":[47.78,13.02,430]},"properties":{"stationId":"LOWS","rawText":"LOWS 031850Z 16004KT 9999 SCT046 08/06 Q1018 NOSIG","observationTime":"2019-10-03T18:50:00Z","temp":8,"dewpoint":6,"windDirection":160,"windSpeed":7.408,"visibility":6.21,"altim":30.059055,"flightCategory":"VFR","metarType":"METAR","geometry_esri":{"x":47.78,"y":13.02,"z":430}}}