{"type":"Feature","geometry":{"type":"Point","coordinates":[47.78,13.02,430]},"properties":{"stationId":"LOWS","rawText":"LOWS 242350Z AUTO 25007KT 220V280 9999 FEW070 BKN090 16/01 Q1010","observationTime":"2020-04-24T23:50:00Z","temp":16,"dewpoint":1,"windDirection":250,"windSpeed":12.964,"visibility":6.21,"altim":29.822834,"flightCategory":"VFR","metarType":"METAR","geometry_esri":{"x":47.78,"y":13.02,"z":430}}}