{"type":"Feature","geometry":{"type":"Point","coordinates":[47.78,13.02,430]},"properties":{"stationId":"LOWS","rawText":"LOWS 280550Z 12004KT 6000 -RA FEW001 SCT026 BKN034 12/11 Q1020 TEMPO 4000 RA","observationTime":"2019-10-28T05:50:00Z","temp":12,"dewpoint":11,"windDirection":120,"windSpeed":7.408,"visibility":3.73,"altim":30.11811,"flightCategory":"MVFR","metarType":"METAR","geometry_esri":{"x":47.78,"y":13.02,"z":430}}}