{"type":"Feature","geometry":{"type":"Point","coordinates":[47.78,13.02,430]},"properties":{"stationId":"LOWS","rawText":"LOWS 051050Z VRB03KT 9999 FEW015 BKN026 08/02 Q1004 NOSIG","observationTime":"2019-04-05T10:50:00Z","temp":8,"dewpoint":2,"windDirection":0,"windSpeed":5.556,"visibility":6.21,"altim":29.64567,"flightCategory":"MVFR","metarType":"METAR","geometry_esri":{"x":47.78,"y":13.02,"z":430}}}