{"type":"Feature","geometry":{"type":"Point","coordinates":[47.78,13.02,430]},"properties":{"stationId":"LOWS","rawText":"LOWS 131250Z 34007KT 290V020 9999 FEW050 24/13 Q1013 NOSIG","observationTime":"2019-06-13T12:50:00Z","temp":24,"dewpoint":13,"windDirection":340,"windSpeed":12.964,"visibility":6.21,"altim":29.911417,"flightCategory":"VFR","metarType":"METAR","geometry_esri":{"x":47.78,"y":13.02,"z":430}}}