{"type":"Feature","geometry":{"type":"Point","coordinates":[47.78,13.02,430]},"properties":{"stationId":"LOWS","rawText":"LOWS 092150Z 16005KT CAVOK 01/01 Q1010 NOSIG","observationTime":"2019-11-09T21:50:00Z","temp":1,"dewpoint":1,"windDirection":160,"windSpeed":9.26,"visibility":6.21,"altim":29.822834,"flightCategory":"VFR","metarType":"METAR","geometry_esri":{"x":47.78,"y":13.02,"z":430}}}