{"type":"Feature","geometry":{"type":"Point","coordinates":[47.78,13.02,430]},"properties":{"stationId":"LOWS","rawText":"LOWS 151250Z 02007KT 330V070 9999 FEW040 22/11 Q1015 NOSIG","observationTime":"2019-07-15T12:50:00Z","temp":22,"dewpoint":11,"windDirection":20,"windSpeed":12.964,"visibility":6.21,"altim":29.970472,"flightCategory":"VFR","metarType":"METAR","geometry_esri":{"x":47.78,"y":13.02,"z":430}}}