{"type":"Feature","geometry":{"type":"Point","coordinates":[47.78,13.02,430]},"properties":{"stationId":"LOWS","rawText":"LOWS 300950Z 02009KT 6000 -RASN FEW006 SCT014 BKN026 00/M02 Q1024 TEMPO 4000","observationTime":"2020-03-30T09:50:00Z","temp":0,"dewpoint":-2,"windDirection":20,"windSpeed":16.668,"visibility":3.73,"altim":30.236221,"flightCategory":"MVFR","metarType":"METAR","geometry_esri":{"x":47.78,"y":13.02,"z":430}}}