{"type":"Feature","geometry":{"type":"Point","coordinates":[47.78,13.02,430]},"properties":{"stationId":"LOWS","rawText":"LOWS 211250Z 15010KT 120V190 9999 FEW035 SCT110 BKN300 22/18 Q1023 NOSIG","observationTime":"2019-07-21T12:50:00Z","temp":22,"dewpoint":18,"windDirection":150,"windSpeed":18.52,"visibility":6.21,"altim":30.206694,"flightCategory":"VFR","metarType":"METAR","geometry_esri":{"x":47.78,"y":13.02,"z":430}}}