{"type":"Feature","geometry":{"type":"Point","coordinates":[47.47,21.62,112]},"properties":{"stationId":"LHDC","rawText":"LHDC 021545Z AUTO 03011KT 360V060 CAVOK 33/20 Q1012","observationTime":"2019-07-02T15:45:00Z","temp":33,"dewpoint":20,"windDirection":30,"windSpeed":20.372,"visibility":6.21,"altim":29.88189,"flightCategory":"VFR","metarType":"SPECI","geometry_esri":{"x":47.47,"y":21.62,"z":112}}}