{"type":"Feature","geometry":{"type":"Point","coordinates":[47.42,19.27,185]},"properties":{"stationId":"LHBP","rawText":"LHBP 240930Z 01008KT 320V030 9999 SCT036 26/17 Q1019 NOSIG","observationTime":"2019-06-24T09:30:00Z","temp":26,"dewpoint":17,"windDirection":10,"windSpeed":14.816,"visibility":6.21,"altim":30.088583,"flightCategory":"VFR","metarType":"METAR","geometry_esri":{"x":47.42,"y":19.27,"z":185}}}