{"type":"Feature","geometry":{"type":"Point","coordinates":[47.78,13.02,430]},"properties":{"stationId":"LOWS","rawText":"LOWS 020350Z VRB01KT 9999 FEW050 BKN150 18/16 Q1020 TEMPO SHRA","observationTime":"2019-07-02T03:50:00Z","temp":18,"dewpoint":16,"windDirection":0,"windSpeed":1.852,"visibility":6.21,"altim":30.11811,"flightCategory":"VFR","metarType":"SPECI","geometry_esri":{"x":47.78,"y":13.02,"z":430}}}