{"type":"Feature","geometry":{"type":"Point","coordinates":[47.78,13.02,430]},"properties":{"stationId":"LOWS","rawText":"LOWS 141650Z 29009KT 250V310 9999 FEW008 SCT018 BKN030 02/M01 Q1011 R15/29//95 NOSIG","observationTime":"2019-01-14T16:50:00Z","temp":2,"dewpoint":-1,"windDirection":290,"windSpeed":16.668,"visibility":6.21,"altim":29.852362,"flightCategory":"MVFR","metarType":"METAR","geometry_esri":{"x":47.78,"y":13.02,"z":430}}}