{"type":"Feature","geometry":{"type":"Point","coordinates":[47.78,13.02,430]},"properties":{"stationId":"LOWS","rawText":"LOWS 220350Z VRB02KT CAVOK 03/00 Q1013 NOSIG","observationTime":"2019-04-22T03:50:00Z","temp":3,"dewpoint":0,"windDirection":0,"windSpeed":3.704,"visibility":6.21,"altim":29.911417,"flightCategory":"VFR","metarType":"METAR","geometry_esri":{"x":47.78,"y":13.02,"z":430}}}