{"type":"Feature","geometry":{"type":"Point","coordinates":[47.42,19.27,185]},"properties":{"stationId":"LHBP","rawText":"LHBP 090730Z 17005KT 130V220 9999 FEW045 SCT063 BKN090 08/06 Q1021 NOSIG","observationTime":"2019-03-09T07:30:00Z","temp":8,"dewpoint":6,"windDirection":170,"windSpeed":9.26,"visibility":6.21,"altim":30.147638,"flightCategory":"VFR","metarType":"METAR","geometry_esri":{"x":47.42,"y":19.27,"z":185}}}