{"type":"Feature","geometry":{"type":"Point","coordinates":[47.42,19.27,185]},"properties":{"stationId":"LHBP","rawText":"LHBP 171630Z VRB01KT 1500 FZBCFG BR SCT002 BKN200 M06/M06 Q1024 R88/19//95 TEMPO 1000 FZBCFG BR","observationTime":"2018-12-17T16:30:00Z","temp":-6,"dewpoint":-6,"windDirection":0,"windSpeed":1.852,"visibility":0.93,"altim":30.236221,"flightCategory":"LIFR","metarType":"METAR","geometry_esri":{"x":47.42,"y":19.27,"z":185}}}