{"type":"Feature","geometry":{"type":"Point","coordinates":[47.78,13.02,430]},"properties":{"stationId":"LOWS","rawText":"LOWS 251950Z 18007KT 9999 FEW014 SCT035 BKN070 01/00 Q1022 TEMPO FM2030 SHSNRA","observationTime":"2019-03-25T19:50:00Z","temp":1,"dewpoint":0,"windDirection":180,"windSpeed":12.964,"visibility":6.21,"altim":30.177166,"flightCategory":"VFR","metarType":"METAR","geometry_esri":{"x":47.78,"y":13.02,"z":430}}}