{"type":"Feature","geometry":{"type":"Point","coordinates":[47.42,19.27,185]},"properties":{"stationId":"LHBP","rawText":"LHBP 121730Z 30010KT CAVOK 01/M06 Q1025 NOSIG","observationTime":"2019-02-12T17:30:00Z","temp":1,"dewpoint":-6,"windDirection":300,"windSpeed":18.52,"visibility":6.21,"altim":30.265747,"flightCategory":"VFR","metarType":"METAR","geometry_esri":{"x":47.42,"y":19.27,"z":185}}}