{"type":"Feature","geometry":{"type":"Point","coordinates":[47.78,13.02,430]},"properties":{"stationId":"LOWS","rawText":"LOWS 152050Z 32012KT 290V350 9999 FEW090 BKN100 16/11 Q1010","observationTime":"2019-10-15T20:50:00Z","temp":16,"dewpoint":11,"windDirection":320,"windSpeed":22.224,"visibility":6.21,"altim":29.822834,"flightCategory":"VFR","metarType":"METAR","geometry_esri":{"x":47.78,"y":13.02,"z":430}}}