{"type":"Feature","geometry":{"type":"Point","coordinates":[47.78,13.02,430]},"properties":{"stationId":"LOWS","rawText":"LOWS 060050Z AUTO VRB01KT 0350 R15/0400N R33/0450N FZFG BKN001 M03/M03 Q1021","observationTime":"2019-12-06T00:50:00Z","temp":-3,"dewpoint":-3,"windDirection":0,"windSpeed":1.852,"visibility":0.22,"altim":30.147638,"flightCategory":"LIFR","metarType":"METAR","geometry_esri":{"x":47.78,"y":13.02,"z":430}}}