{"type":"Feature","geometry":{"type":"Point","coordinates":[47.78,13.02,430]},"properties":{"stationId":"LOWS","rawText":"LOWS 041950Z 30012KT 4000 SHRASN FEW004 BKN011 01/M00 Q1016 BECMG 9999 NSW FEW015 BKN030","observationTime":"2020-02-04T19:50:00Z","temp":1,"dewpoint":0,"windDirection":300,"windSpeed":22.224,"visibility":2.49,"altim":30,"flightCategory":"IFR","metarType":"METAR","geometry_esri":{"x":47.78,"y":13.02,"z":430}}}