{"type":"Feature","geometry":{"type":"Point","coordinates":[47.42,19.27,185]},"properties":{"stationId":"LHBP","rawText":"LHBP 302130Z 00000KT 5000 BR BKN046 M00/M00 Q1004 R88/29//95 NOSIG","observationTime":"2019-01-30T21:30:00Z","temp":0,"dewpoint":0,"windDirection":0,"windSpeed":0,"visibility":3.11,"altim":29.64567,"flightCategory":"MVFR","metarType":"METAR","geometry_esri":{"x":47.42,"y":19.27,"z":185}}}