{"type":"Feature","geometry":{"type":"Point","coordinates":[47.42,19.27,185]},"properties":{"stationId":"LHBP","rawText":"LHBP 062130Z 32014KT CAVOK 03/M02 Q1023 NOSIG","observationTime":"2020-02-06T21:30:00Z","temp":3,"dewpoint":-2,"windDirection":320,"windSpeed":25.928,"visibility":6.21,"altim":30.206694,"flightCategory":"VFR","metarType":"METAR","geometry_esri":{"x":47.42,"y":19.27,"z":185}}}