{"type":"Feature","geometry":{"type":"Point","coordinates":[47.78,13.02,430]},"properties":{"stationId":"LOWS","rawText":"LOWS 150650Z VRB02KT 9999 FEW005 SCT010 14/12 Q1016 NOSIG","observationTime":"2019-07-15T06:50:00Z","temp":14,"dewpoint":12,"windDirection":0,"windSpeed":3.704,"visibility":6.21,"altim":30,"flightCategory":"VFR","metarType":"METAR","geometry_esri":{"x":47.78,"y":13.02,"z":430}}}