{"type":"Feature","geometry":{"type":"Point","coordinates":[47.78,13.02,430]},"properties":{"stationId":"LOWS","rawText":"LOWS 161150Z 02003KT 320V070 5000 BR BKN006 04/03 Q1010 NOSIG","observationTime":"2019-11-16T11:50:00Z","temp":4,"dewpoint":3,"windDirection":20,"windSpeed":5.556,"visibility":3.11,"altim":29.822834,"flightCategory":"IFR","metarType":"METAR","geometry_esri":{"x":47.78,"y":13.02,"z":430}}}