{"type":"Feature","geometry":{"type":"Point","coordinates":[47.78,13.02,430]},"properties":{"stationId":"LOWS","rawText":"LOWS 162150Z AUTO 32002KT 9999 FEW026 OVC038 09/06 Q1012","observationTime":"2019-05-16T21:50:00Z","temp":9,"dewpoint":6,"windDirection":320,"windSpeed":3.704,"visibility":6.21,"altim":29.88189,"flightCategory":"VFR","metarType":"METAR","geometry_esri":{"x":47.78,"y":13.02,"z":430}}}