{"type":"Feature","geometry":{"type":"Point","coordinates":[47.78,13.02,430]},"properties":{"stationId":"LOWS","rawText":"LOWS 310350Z AUTO 20004KT 9999 OVC140 M01/M02 Q1031","observationTime":"2019-12-31T03:50:00Z","temp":-1,"dewpoint":-2,"windDirection":200,"windSpeed":7.408,"visibility":6.21,"altim":30.442913,"flightCategory":"VFR","metarType":"METAR","geometry_esri":{"x":47.78,"y":13.02,"z":430}}}