{"type":"Feature","geometry":{"type":"Point","coordinates":[47.78,13.02,430]},"properties":{"stationId":"LOWS","rawText":"LOWS 021650Z 27003KT 180V330 9999 SHRA FEW012 SCT028 BKN060 12/10 Q1009 TEMPO -SHRA","observationTime":"2019-10-02T16:50:00Z","temp":12,"dewpoint":10,"windDirection":270,"windSpeed":5.556,"visibility":6.21,"altim":29.793306,"flightCategory":"VFR","metarType":"METAR","geometry_esri":{"x":47.78,"y":13.02,"z":430}}}