{"type":"Feature","geometry":{"type":"Point","coordinates":[47.78,13.02,430]},"properties":{"stationId":"LOWS","rawText":"LOWS 120750Z 15006KT 9999 FEW040 SCT060 BKN300 19/14 Q1015 BECMG 31007KT","observationTime":"2019-07-12T07:50:00Z","temp":19,"dewpoint":14,"windDirection":150,"windSpeed":11.112,"visibility":6.21,"altim":29.970472,"flightCategory":"VFR","metarType":"METAR","geometry_esri":{"x":47.78,"y":13.02,"z":430}}}