{"type":"Feature","geometry":{"type":"Point","coordinates":[47.42,19.27,185]},"properties":{"stationId":"LHBP","rawText":"LHBP 080930Z 33008KT CAVOK 07/01 Q1020 NOSIG","observationTime":"2020-03-08T09:30:00Z","temp":7,"dewpoint":1,"windDirection":330,"windSpeed":14.816,"visibility":6.21,"altim":30.11811,"flightCategory":"VFR","metarType":"METAR","geometry_esri":{"x":47.42,"y":19.27,"z":185}}}