{"type":"Feature","geometry":{"type":"Point","coordinates":[47.42,19.27,185]},"properties":{"stationId":"LHBP","rawText":"LHBP 110630Z 33004KT 280V350 CAVOK 16/14 Q1023 NOSIG","observationTime":"2019-09-11T06:30:00Z","temp":16,"dewpoint":14,"windDirection":330,"windSpeed":7.408,"visibility":6.21,"altim":30.206694,"flightCategory":"VFR","metarType":"METAR","geometry_esri":{"x":47.42,"y":19.27,"z":185}}}