{"type":"Feature","geometry":{"type":"Point","coordinates":[47.78,13.02,430]},"properties":{"stationId":"LOWS","rawText":"LOWS 091150Z 28007KT 1600 SHSN FEW004 BKN012 BKN017 00/M01 Q1008 R15/29//95 TEMPO 8000 -SN","observationTime":"2019-01-09T11:50:00Z","temp":0,"dewpoint":-1,"windDirection":280,"windSpeed":12.964,"visibility":0.99,"altim":29.763779,"flightCategory":"LIFR","metarType":"METAR","geometry_esri":{"x":47.78,"y":13.02,"z":430}}}