{"type":"Feature","geometry":{"type":"Point","coordinates":[47.78,13.02,430]},"properties":{"stationId":"LOWS","rawText":"LOWS 232350Z AUTO 13005KT 7000 RA FEW006 SCT026 BKN032 12/11 Q1018","observationTime":"2019-09-23T23:50:00Z","temp":12,"dewpoint":11,"windDirection":130,"windSpeed":9.26,"visibility":4.35,"altim":30.059055,"flightCategory":"MVFR","metarType":"METAR","geometry_esri":{"x":47.78,"y":13.02,"z":430}}}