{"type":"Feature","geometry":{"type":"Point","coordinates":[47.78,13.02,430]},"properties":{"stationId":"LOWS","rawText":"LOWS 141750Z 13005KT 100V160 9999 VCSH FEW013 FEW015TCU BKN050 05/02 Q1024 TEMPO 34010G20KT SHRAGS","observationTime":"2019-05-14T17:50:00Z","temp":5,"dewpoint":2,"windDirection":130,"windSpeed":9.26,"visibility":6.21,"altim":30.236221,"flightCategory":"VFR","metarType":"METAR","geometry_esri":{"x":47.78,"y":13.02,"z":430}}}