{"type":"Feature","geometry":{"type":"Point","coordinates":[47.42,19.27,185]},"properties":{"stationId":"LHBP","rawText":"LHBP 061230Z 26005KT 220V290 9999 SCT026 BKN240 13/08 Q1006 NOSIG","observationTime":"2019-11-06T12:30:00Z","temp":13,"dewpoint":8,"windDirection":260,"windSpeed":9.26,"visibility":6.21,"altim":29.704725,"flightCategory":"VFR","metarType":"METAR","geometry_esri":{"x":47.42,"y":19.27,"z":185}}}