{"type":"Feature","geometry":{"type":"Point","coordinates":[45.98,18.23,305]},"properties":{"stationId":"LHPP","rawText":"LHPP 120847Z 07008KT 4000 RA FEW013 OVC050 07/07 Q1009 REDZ","observationTime":"2019-11-12T08:47:00Z","temp":7,"dewpoint":7,"windDirection":70,"windSpeed":14.816,"visibility":2.49,"altim":29.793306,"flightCategory":"IFR","metarType":"SPECI","geometry_esri":{"x":45.98,"y":18.23,"z":305}}}