{"type":"Feature","geometry":{"type":"Point","coordinates":[47.78,13.02,430]},"properties":{"stationId":"LOWS","rawText":"LOWS 212350Z AUTO VRB02KT 5000 BR BKN003 M03/M03 Q1036","observationTime":"2020-01-21T23:50:00Z","temp":-3,"dewpoint":-3,"windDirection":0,"windSpeed":3.704,"visibility":3.11,"altim":30.590551,"flightCategory":"LIFR","metarType":"METAR","geometry_esri":{"x":47.78,"y":13.02,"z":430}}}