{"type":"Feature","geometry":{"type":"Point","coordinates":[47.78,13.02,430]},"properties":{"stationId":"LOWS","rawText":"LOWS 162350Z AUTO 17011KT 130V190 9999 NSC 07/02 Q1010","observationTime":"2019-03-16T23:50:00Z","temp":7,"dewpoint":2,"windDirection":170,"windSpeed":20.372,"visibility":6.21,"altim":29.822834,"flightCategory":"VFR","metarType":"METAR","geometry_esri":{"x":47.78,"y":13.02,"z":430}}}