{"type":"Feature","geometry":{"type":"Point","coordinates":[47.78,13.02,430]},"properties":{"stationId":"LOWS","rawText":"LOWS 291750Z 15005KT 8000 SCT060 BKN300 M01/M02 Q1030 NOSIG","observationTime":"2018-12-29T17:50:00Z","temp":-1,"dewpoint":-2,"windDirection":150,"windSpeed":9.26,"visibility":4.97,"altim":30.413385,"flightCategory":"MVFR","metarType":"METAR","geometry_esri":{"x":47.78,"y":13.02,"z":430}}}