{"type":"Feature","geometry":{"type":"Point","coordinates":[47.78,13.02,430]},"properties":{"stationId":"LOWS","rawText":"LOWS 231950Z VRB01KT 7000 NSC M04/M04 Q1025 BECMG 4000 BR","observationTime":"2020-01-23T19:50:00Z","temp":-4,"dewpoint":-4,"windDirection":0,"windSpeed":1.852,"visibility":4.35,"altim":30.265747,"flightCategory":"MVFR","metarType":"SPECI","geometry_esri":{"x":47.78,"y":13.02,"z":430}}}