{"type":"Feature","geometry":{"type":"Point","coordinates":[47.42,19.27,185]},"properties":{"stationId":"LHBP","rawText":"LHBP 180730Z 10008KT 9999 VCSH NSC 15/01 Q1017 NOSIG","observationTime":"2020-04-18T07:30:00Z","temp":15,"dewpoint":1,"windDirection":100,"windSpeed":14.816,"visibility":6.21,"altim":30.029528,"flightCategory":"VFR","metarType":"METAR","geometry_esri":{"x":47.42,"y":19.27,"z":185}}}