{"type":"Feature","geometry":{"type":"Point","coordinates":[46.68,17.17,125]},"properties":{"stationId":"LHSM","rawText":"LHSM 171445Z 31001KT 8000 NSC M01/M03 Q1025 NOSIG","observationTime":"2018-12-17T14:45:00Z","temp":-1,"dewpoint":-3,"windDirection":310,"windSpeed":1.852,"visibility":4.97,"altim":30.265747,"flightCategory":"MVFR","metarType":"METAR","geometry_esri":{"x":46.68,"y":17.17,"z":125}}}