{"type":"Feature","geometry":{"type":"Point","coordinates":[47.78,13.02,430]},"properties":{"stationId":"LOWS","rawText":"LOWS 110550Z 13004KT 0800 R15/0800U R33/1200U FZBCFG BKN002 M02/M02 Q1014 TEMPO 1500","observationTime":"2019-11-11T05:50:00Z","temp":-2,"dewpoint":-2,"windDirection":130,"windSpeed":7.408,"visibility":0.5,"altim":29.940945,"flightCategory":"LIFR","metarType":"METAR","geometry_esri":{"x":47.78,"y":13.02,"z":430}}}