{"type":"Feature","geometry":{"type":"Point","coordinates":[47.47,21.62,112]},"properties":{"stationId":"LHDC","rawText":"LHDC 071550Z AUTO 03013KT 350V070 CAVOK 19/03 Q1016","observationTime":"2020-05-07T15:50:00Z","temp":19,"dewpoint":3,"windDirection":30,"windSpeed":24.076,"visibility":6.21,"altim":30,"flightCategory":"VFR","metarType":"SPECI","geometry_esri":{"x":47.47,"y":21.62,"z":112}}}