{"type":"Feature","geometry":{"type":"Point","coordinates":[47.42,19.27,185]},"properties":{"stationId":"LHBP","rawText":"LHBP 101030Z 31013KT 280V340 9999 SCT036 BKN080 17/13 Q1009 TEMPO SHRA SCT030TCU BKN080","observationTime":"2019-05-10T10:30:00Z","temp":17,"dewpoint":13,"windDirection":310,"windSpeed":24.076,"visibility":6.21,"altim":29.793306,"flightCategory":"VFR","metarType":"METAR","geometry_esri":{"x":47.42,"y":19.27,"z":185}}}