{"type":"Feature","geometry":{"type":"Point","coordinates":[47.42,19.27,185]},"properties":{"stationId":"LHBP","rawText":"LHBP 291730Z 29006KT 7000 SCT040 BKN079 08/08 Q1021 NOSIG","observationTime":"2019-10-29T17:30:00Z","temp":8,"dewpoint":8,"windDirection":290,"windSpeed":11.112,"visibility":4.35,"altim":30.147638,"flightCategory":"MVFR","metarType":"METAR","geometry_esri":{"x":47.42,"y":19.27,"z":185}}}