{"type":"Feature","geometry":{"type":"Point","coordinates":[47.42,19.27,185]},"properties":{"stationId":"LHBP","rawText":"LHBP 160430Z 00000KT 0500 R13R/0600N R13L/0600N FZFG VV002 M02/M03 Q1030 NOSIG","observationTime":"2020-01-16T04:30:00Z","temp":-2,"dewpoint":-3,"windDirection":0,"windSpeed":0,"visibility":0.31,"altim":30.413385,"flightCategory":"LIFR","metarType":"SPECI","geometry_esri":{"x":47.42,"y":19.27,"z":185}}}