{"type":"Feature","geometry":{"type":"Point","coordinates":[47.42,19.27,185]},"properties":{"stationId":"LHBP","rawText":"LHBP 081930Z 16007KT CAVOK 11/03 Q1018 NOSIG","observationTime":"2019-10-08T19:30:00Z","temp":11,"dewpoint":3,"windDirection":160,"windSpeed":12.964,"visibility":6.21,"altim":30.059055,"flightCategory":"VFR","metarType":"METAR","geometry_esri":{"x":47.42,"y":19.27,"z":185}}}