{"type":"Feature","geometry":{"type":"Point","coordinates":[47.42,19.27,185]},"properties":{"stationId":"LHBP","rawText":"LHBP 250042Z 01005KT 340V050 CAVOK 22/22 Q1019 WS ALL RWY NOSIG","observationTime":"2019-08-25T00:42:00Z","temp":22,"dewpoint":22,"windDirection":10,"windSpeed":9.26,"visibility":6.21,"altim":30.088583,"flightCategory":"VFR","metarType":"SPECI","geometry_esri":{"x":47.42,"y":19.27,"z":185}}}