{"type":"Feature","geometry":{"type":"Point","coordinates":[47.47,21.62,112]},"properties":{"stationId":"LHDC","rawText":"LHDC 240047Z AUTO 35004KT 310V020 9999 BKN015 BKN031 BKN100 13/12 Q1012","observationTime":"2019-05-24T00:47:00Z","temp":13,"dewpoint":12,"windDirection":350,"windSpeed":7.408,"visibility":6.21,"altim":29.88189,"flightCategory":"MVFR","metarType":"SPECI","geometry_esri":{"x":47.47,"y":21.62,"z":112}}}