{"type":"Feature","geometry":{"type":"Point","coordinates":[47.42,19.27,185]},"properties":{"stationId":"LHBP","rawText":"LHBP 032130Z AUTO 33006KT 9999 NCD 05/M03 Q1017 NOSIG","observationTime":"2020-04-03T21:30:00Z","temp":5,"dewpoint":-3,"windDirection":330,"windSpeed":11.112,"visibility":6.21,"altim":30.029528,"flightCategory":"VFR","metarType":"METAR","geometry_esri":{"x":47.42,"y":19.27,"z":185}}}