{"type":"Feature","geometry":{"type":"Point","coordinates":[47.78,13.02,430]},"properties":{"stationId":"LOWS","rawText":"LOWS 052050Z 26007KT 200V310 9999 -RA FEW015 SCT020 BKN028 03/00 Q1024 R15/29//95 NOSIG","observationTime":"2019-01-05T20:50:00Z","temp":3,"dewpoint":0,"windDirection":260,"windSpeed":12.964,"visibility":6.21,"altim":30.236221,"flightCategory":"MVFR","metarType":"METAR","geometry_esri":{"x":47.78,"y":13.02,"z":430}}}