{"type":"Feature","geometry":{"type":"Point","coordinates":[47.42,19.27,185]},"properties":{"stationId":"LHBP","rawText":"LHBP 252230Z 14005KT CAVOK 15/09 Q1016 NOSIG","observationTime":"2019-04-25T22:30:00Z","temp":15,"dewpoint":9,"windDirection":140,"windSpeed":9.26,"visibility":6.21,"altim":30,"flightCategory":"VFR","metarType":"METAR","geometry_esri":{"x":47.42,"y":19.27,"z":185}}}