{"type":"Feature","geometry":{"type":"Point","coordinates":[47.78,13.02,430]},"properties":{"stationId":"LOWS","rawText":"LOWS 160550Z 31002KT 2000 0500SE R15/P1500U R33/0650U BCFG BR FEW003 M00/M00 Q1006 TEMPO 0400 BKN003","observationTime":"2019-11-16T05:50:00Z","temp":0,"dewpoint":0,"windDirection":310,"windSpeed":3.704,"visibility":1.24,"altim":29.704725,"flightCategory":"IFR","metarType":"METAR","geometry_esri":{"x":47.78,"y":13.02,"z":430}}}