{"type":"Feature","geometry":{"type":"Point","coordinates":[47.42,19.27,185]},"properties":{"stationId":"LHBP","rawText":"LHBP 112330Z 30015KT CAVOK 04/M01 Q1014 NOSIG","observationTime":"2019-02-11T23:30:00Z","temp":4,"dewpoint":-1,"windDirection":300,"windSpeed":27.78,"visibility":6.21,"altim":29.940945,"flightCategory":"VFR","metarType":"METAR","geometry_esri":{"x":47.42,"y":19.27,"z":185}}}