{"type":"Feature","geometry":{"type":"Point","coordinates":[47.78,13.02,430]},"properties":{"stationId":"LOWS","rawText":"LOWS 280850Z 28011G21KT 240V320 9999 FEW040 BKN060 03/M04 Q0998 NOSIG","observationTime":"2019-01-28T08:50:00Z","temp":3,"dewpoint":-4,"windDirection":280,"windSpeed":20.372,"visibility":6.21,"altim":29.468504,"flightCategory":"VFR","metarType":"METAR","geometry_esri":{"x":47.78,"y":13.02,"z":430}}}