{"type":"Feature","geometry":{"type":"Point","coordinates":[47.42,19.27,185]},"properties":{"stationId":"LHBP","rawText":"LHBP 300730Z 29011KT CAVOK 04/01 Q1023 NOSIG","observationTime":"2018-12-30T07:30:00Z","temp":4,"dewpoint":1,"windDirection":290,"windSpeed":20.372,"visibility":6.21,"altim":30.206694,"flightCategory":"VFR","metarType":"METAR","geometry_esri":{"x":47.42,"y":19.27,"z":185}}}