{"type":"Feature","geometry":{"type":"Point","coordinates":[47.42,19.27,185]},"properties":{"stationId":"LHBP","rawText":"LHBP 301430Z VRB02KT 5000 BR OVC012 01/01 Q1003 R88/29//95 NOSIG","observationTime":"2019-01-30T14:30:00Z","temp":1,"dewpoint":1,"windDirection":0,"windSpeed":3.704,"visibility":3.11,"altim":29.616142,"flightCategory":"MVFR","metarType":"METAR","geometry_esri":{"x":47.42,"y":19.27,"z":185}}}