{"type":"Feature","geometry":{"type":"Point","coordinates":[47.42,19.27,185]},"properties":{"stationId":"LHBP","rawText":"LHBP 261241Z 26014KT 200V320 5000 1300W +TSRA SCT020 BKN040CB SCT060 23/20 Q1011 TEMPO TL1330 1400 +TSRA BECMG FM1330 -TSRA","observationTime":"2019-07-26T12:41:00Z","temp":23,"dewpoint":20,"windDirection":260,"windSpeed":25.928,"visibility":3.11,"altim":29.852362,"flightCategory":"MVFR","metarType":"SPECI","geometry_esri":{"x":47.42,"y":19.27,"z":185}}}