{"type":"Feature","geometry":{"type":"Point","coordinates":[47.78,13.02,430]},"properties":{"stationId":"LOWS","rawText":"LOWS 212350Z AUTO 22004KT 190V260 9999 -SHRA FEW030 BKN040 06/04 Q1028","observationTime":"2019-02-21T23:50:00Z","temp":6,"dewpoint":4,"windDirection":220,"windSpeed":7.408,"visibility":6.21,"altim":30.35433,"flightCategory":"VFR","metarType":"METAR","geometry_esri":{"x":47.78,"y":13.02,"z":430}}}