{"type":"Feature","geometry":{"type":"Point","coordinates":[47.42,19.27,185]},"properties":{"stationId":"LHBP","rawText":"LHBP 232130Z 32020G30KT 9999 SCT025 BKN100 07/03 Q1002 NOSIG","observationTime":"2019-12-23T21:30:00Z","temp":7,"dewpoint":3,"windDirection":320,"windSpeed":37.04,"visibility":6.21,"altim":29.586615,"flightCategory":"VFR","metarType":"METAR","geometry_esri":{"x":47.42,"y":19.27,"z":185}}}