{"type":"Feature","geometry":{"type":"Point","coordinates":[47.78,13.02,430]},"properties":{"stationId":"LOWS","rawText":"LOWS 290650Z 26010KT 9999 -SHRA FEW010 SCT035 BKN060 02/M01 Q1009 RERA TEMPO 4000 SHRASN","observationTime":"2020-01-29T06:50:00Z","temp":2,"dewpoint":-1,"windDirection":260,"windSpeed":18.52,"visibility":6.21,"altim":29.793306,"flightCategory":"VFR","metarType":"METAR","geometry_esri":{"x":47.78,"y":13.02,"z":430}}}