{"type":"Feature","geometry":{"type":"Point","coordinates":[47.42,19.27,185]},"properties":{"stationId":"LHBP","rawText":"LHBP 021730Z 29015KT 250V310 9999 -SHRA FEW014 FEW041TCU BKN049 16/14 Q1004 NOSIG","observationTime":"2019-10-02T17:30:00Z","temp":16,"dewpoint":14,"windDirection":290,"windSpeed":27.78,"visibility":6.21,"altim":29.64567,"flightCategory":"VFR","metarType":"METAR","geometry_esri":{"x":47.42,"y":19.27,"z":185}}}