{"type":"Feature","geometry":{"type":"Point","coordinates":[47.78,13.02,430]},"properties":{"stationId":"LOWS","rawText":"LOWS 302150Z 17004KT 9999 FEW130 SCT190 BKN240 20/17 Q1015 NOSIG","observationTime":"2019-07-30T21:50:00Z","temp":20,"dewpoint":17,"windDirection":170,"windSpeed":7.408,"visibility":6.21,"altim":29.970472,"flightCategory":"VFR","metarType":"METAR","geometry_esri":{"x":47.78,"y":13.02,"z":430}}}