{"type":"Feature","geometry":{"type":"Point","coordinates":[47.42,19.27,185]},"properties":{"stationId":"LHBP","rawText":"LHBP 161030Z 35005KT 1500 BR BKN003 OVC004 M01/M01 Q1032 NOSIG","observationTime":"2020-01-16T10:30:00Z","temp":-1,"dewpoint":-1,"windDirection":350,"windSpeed":9.26,"visibility":0.93,"altim":30.47244,"flightCategory":"LIFR","metarType":"METAR","geometry_esri":{"x":47.42,"y":19.27,"z":185}}}