{"type":"Feature","geometry":{"type":"Point","coordinates":[46.68,17.17,125]},"properties":{"stationId":"LHSM","rawText":"LHSM 171515Z 30003KT 5000 BR NSC M01/M03 Q1025 NOSIG","observationTime":"2018-12-17T15:15:00Z","temp":-1,"dewpoint":-3,"windDirection":300,"windSpeed":5.556,"visibility":3.11,"altim":30.265747,"flightCategory":"MVFR","metarType":"METAR","geometry_esri":{"x":46.68,"y":17.17,"z":125}}}