{"type":"Feature","geometry":{"type":"Point","coordinates":[47.42,19.27,185]},"properties":{"stationId":"LHBP","rawText":"LHBP 121030Z 34013G23KT 310V010 9999 SCT044 08/M02 Q1021 NOSIG","observationTime":"2019-03-12T10:30:00Z","temp":8,"dewpoint":-2,"windDirection":340,"windSpeed":24.076,"visibility":6.21,"altim":30.147638,"flightCategory":"VFR","metarType":"METAR","geometry_esri":{"x":47.42,"y":19.27,"z":185}}}