{"type":"Feature","geometry":{"type":"Point","coordinates":[47.42,19.27,185]},"properties":{"stationId":"LHBP","rawText":"LHBP 051830Z VRB02KT 4000 SHRA BR SCT006 FEW022CB OVC032 13/13 Q0999 TEMPO 2500 +SHRA","observationTime":"2019-11-05T18:30:00Z","temp":13,"dewpoint":13,"windDirection":0,"windSpeed":3.704,"visibility":2.49,"altim":29.498032,"flightCategory":"IFR","metarType":"SPECI","geometry_esri":{"x":47.42,"y":19.27,"z":185}}}