{"type":"Feature","geometry":{"type":"Point","coordinates":[47.47,21.62,112]},"properties":{"stationId":"LHDC","rawText":"LHDC 100939Z AUTO VRB03KT 8000 OVC011 17/14 Q1021","observationTime":"2019-09-10T09:39:00Z","temp":17,"dewpoint":14,"windDirection":0,"windSpeed":5.556,"visibility":4.97,"altim":30.147638,"flightCategory":"MVFR","metarType":"SPECI","geometry_esri":{"x":47.47,"y":21.62,"z":112}}}