{"type":"Feature","geometry":{"type":"Point","coordinates":[47.42,19.27,185]},"properties":{"stationId":"LHBP","rawText":"LHBP 152130Z 00000KT CAVOK 14/12 Q1013 NOSIG","observationTime":"2019-07-15T21:30:00Z","temp":14,"dewpoint":12,"windDirection":0,"windSpeed":0,"visibility":6.21,"altim":29.911417,"flightCategory":"VFR","metarType":"METAR","geometry_esri":{"x":47.42,"y":19.27,"z":185}}}