{"type":"Feature","geometry":{"type":"Point","coordinates":[47.47,21.62,112]},"properties":{"stationId":"LHDC","rawText":"LHDC 270347Z AUTO VRB03KT 6000 NSC 01/01 Q1020","observationTime":"2019-12-27T03:47:00Z","temp":1,"dewpoint":1,"windDirection":0,"windSpeed":5.556,"visibility":3.73,"altim":30.11811,"flightCategory":"MVFR","metarType":"SPECI","geometry_esri":{"x":47.47,"y":21.62,"z":112}}}