{"type":"Feature","geometry":{"type":"Point","coordinates":[47.42,19.27,185]},"properties":{"stationId":"LHBP","rawText":"LHBP 271530Z 23008KT 200V260 CAVOK 20/02 Q1011 NOSIG","observationTime":"2020-04-27T15:30:00Z","temp":20,"dewpoint":2,"windDirection":230,"windSpeed":14.816,"visibility":6.21,"altim":29.852362,"flightCategory":"VFR","metarType":"METAR","geometry_esri":{"x":47.42,"y":19.27,"z":185}}}