{"type":"Feature","geometry":{"type":"Point","coordinates":[47.42,19.27,185]},"properties":{"stationId":"LHBP","rawText":"LHBP 091430Z 20007KT 130V250 CAVOK 30/15 Q1014 NOSIG","observationTime":"2019-08-09T14:30:00Z","temp":30,"dewpoint":15,"windDirection":200,"windSpeed":12.964,"visibility":6.21,"altim":29.940945,"flightCategory":"VFR","metarType":"METAR","geometry_esri":{"x":47.42,"y":19.27,"z":185}}}