{"type":"Feature","geometry":{"type":"Point","coordinates":[47.42,19.27,185]},"properties":{"stationId":"LHBP","rawText":"LHBP 250630Z VRB02KT 9999 SCT047 BKN060 M04/M05 Q1036 NOSIG","observationTime":"2019-02-25T06:30:00Z","temp":-4,"dewpoint":-5,"windDirection":0,"windSpeed":3.704,"visibility":6.21,"altim":30.590551,"flightCategory":"VFR","metarType":"METAR","geometry_esri":{"x":47.42,"y":19.27,"z":185}}}