{"type":"Feature","geometry":{"type":"Point","coordinates":[47.42,19.27,185]},"properties":{"stationId":"LHBP","rawText":"LHBP 040930Z 22004KT 190V260 2800 BR BKN003 M00/M01 Q1023 BECMG 3500","observationTime":"2020-01-04T09:30:00Z","temp":0,"dewpoint":-1,"windDirection":220,"windSpeed":7.408,"visibility":1.74,"altim":30.206694,"flightCategory":"LIFR","metarType":"METAR","geometry_esri":{"x":47.42,"y":19.27,"z":185}}}