{"type":"Feature","geometry":{"type":"Point","coordinates":[47.78,13.02,430]},"properties":{"stationId":"LOWS","rawText":"LOWS 141150Z VRB05KT 9999 SCT050 BKN060 08/01 Q1010 TEMPO 28012G22KT","observationTime":"2019-03-14T11:50:00Z","temp":8,"dewpoint":1,"windDirection":0,"windSpeed":9.26,"visibility":6.21,"altim":29.822834,"flightCategory":"VFR","metarType":"METAR","geometry_esri":{"x":47.78,"y":13.02,"z":430}}}