{"type":"Feature","geometry":{"type":"Point","coordinates":[47.78,13.02,430]},"properties":{"stationId":"LOWS","rawText":"LOWS 042050Z 12003KT 9000 NSC M04/M05 Q1028 R15/19//95 TEMPO 4000 BR","observationTime":"2019-02-04T20:50:00Z","temp":-4,"dewpoint":-5,"windDirection":120,"windSpeed":5.556,"visibility":5.59,"altim":30.35433,"flightCategory":"VFR","metarType":"METAR","geometry_esri":{"x":47.78,"y":13.02,"z":430}}}