{"type":"Feature","geometry":{"type":"Point","coordinates":[47.78,13.02,430]},"properties":{"stationId":"LOWS","rawText":"LOWS 051250Z VRB07KT 5000 -RASN FEW005 SCT013 BKN022 02/M00 Q1022 RERA R15/29//95 TEMPO 4000 SNRA BKN013","observationTime":"2019-01-05T12:50:00Z","temp":2,"dewpoint":0,"windDirection":0,"windSpeed":12.964,"visibility":3.11,"altim":30.177166,"flightCategory":"MVFR","metarType":"METAR","geometry_esri":{"x":47.78,"y":13.02,"z":430}}}