{"type":"Feature","geometry":{"type":"Point","coordinates":[47.42,19.27,185]},"properties":{"stationId":"LHBP","rawText":"LHBP 151030Z 29020KT 9999 FEW026 SCT240 03/M03 Q1013 NOSIG","observationTime":"2019-01-15T10:30:00Z","temp":3,"dewpoint":-3,"windDirection":290,"windSpeed":37.04,"visibility":6.21,"altim":29.911417,"flightCategory":"VFR","metarType":"METAR","geometry_esri":{"x":47.42,"y":19.27,"z":185}}}