{"type":"Feature","geometry":{"type":"Point","coordinates":[47.42,19.27,185]},"properties":{"stationId":"LHBP","rawText":"LHBP 061930Z 09004KT CAVOK 07/M03 Q1032 NOSIG","observationTime":"2020-04-06T19:30:00Z","temp":7,"dewpoint":-3,"windDirection":90,"windSpeed":7.408,"visibility":6.21,"altim":30.47244,"flightCategory":"VFR","metarType":"METAR","geometry_esri":{"x":47.42,"y":19.27,"z":185}}}