{"type":"Feature","geometry":{"type":"Point","coordinates":[47.42,19.27,185]},"properties":{"stationId":"LHBP","rawText":"LHBP 071330Z 23005KT 0900 R31L/1400N R31R/0450D FG OVC003 01/01 Q1017 BECMG 1500 BCFG","observationTime":"2019-12-07T13:30:00Z","temp":1,"dewpoint":1,"windDirection":230,"windSpeed":9.26,"visibility":0.56,"altim":30.029528,"flightCategory":"LIFR","metarType":"METAR","geometry_esri":{"x":47.42,"y":19.27,"z":185}}}