{"type":"Feature","geometry":{"type":"Point","coordinates":[47.78,13.02,430]},"properties":{"stationId":"LOWS","rawText":"LOWS 061550Z 30011KT 8000 FEW006 SCT015 BKN024 02/00 Q1028 R15/29//95 TEMPO 4000 RASN","observationTime":"2019-01-06T15:50:00Z","temp":2,"dewpoint":0,"windDirection":300,"windSpeed":20.372,"visibility":4.97,"altim":30.35433,"flightCategory":"MVFR","metarType":"METAR","geometry_esri":{"x":47.78,"y":13.02,"z":430}}}