{"type":"Feature","geometry":{"type":"Point","coordinates":[47.42,19.27,185]},"properties":{"stationId":"LHBP","rawText":"LHBP 281830Z 28016KT CAVOK 06/03 Q1022 NOSIG","observationTime":"2018-12-28T18:30:00Z","temp":6,"dewpoint":3,"windDirection":280,"windSpeed":29.632,"visibility":6.21,"altim":30.177166,"flightCategory":"VFR","metarType":"METAR","geometry_esri":{"x":47.42,"y":19.27,"z":185}}}