{"type":"Feature","geometry":{"type":"Point","coordinates":[47.42,19.27,185]},"properties":{"stationId":"LHBP","rawText":"LHBP 231130Z 29013KT CAVOK 30/14 Q1018 NOSIG","observationTime":"2019-07-23T11:30:00Z","temp":30,"dewpoint":14,"windDirection":290,"windSpeed":24.076,"visibility":6.21,"altim":30.059055,"flightCategory":"VFR","metarType":"METAR","geometry_esri":{"x":47.42,"y":19.27,"z":185}}}