{"type":"Feature","geometry":{"type":"Point","coordinates":[47.42,19.27,185]},"properties":{"stationId":"LHBP","rawText":"LHBP 291730Z VRB02KT CAVOK 28/16 Q1017 NOSIG","observationTime":"2019-08-29T17:30:00Z","temp":28,"dewpoint":16,"windDirection":0,"windSpeed":3.704,"visibility":6.21,"altim":30.029528,"flightCategory":"VFR","metarType":"METAR","geometry_esri":{"x":47.42,"y":19.27,"z":185}}}