{"type":"Feature","geometry":{"type":"Point","coordinates":[47.47,21.62,112]},"properties":{"stationId":"LHDC","rawText":"LHDC 061643Z AUTO 35013G24KT 320V020 5000 BR OVC009 06/05 Q1009","observationTime":"2019-05-06T16:43:00Z","temp":6,"dewpoint":5,"windDirection":350,"windSpeed":24.076,"visibility":3.11,"altim":29.793306,"flightCategory":"IFR","metarType":"SPECI","geometry_esri":{"x":47.47,"y":21.62,"z":112}}}