{"type":"Feature","geometry":{"type":"Point","coordinates":[47.42,19.27,185]},"properties":{"stationId":"LHBP","rawText":"LHBP 072130Z 23004KT 0250 R31L/0650N R31R/0650U VV001 01/01 Q1019 NOSIG","observationTime":"2019-12-07T21:30:00Z","temp":1,"dewpoint":1,"windDirection":230,"windSpeed":7.408,"visibility":0.16,"altim":30.088583,"flightCategory":"LIFR","metarType":"METAR","geometry_esri":{"x":47.42,"y":19.27,"z":185}}}