{"type":"Feature","geometry":{"type":"Point","coordinates":[47.78,13.02,430]},"properties":{"stationId":"LOWS","rawText":"LOWS 090850Z VRB03KT 9999 FEW004 SCT013 BKN026 03/03 Q1011 NOSIG","observationTime":"2019-11-09T08:50:00Z","temp":3,"dewpoint":3,"windDirection":0,"windSpeed":5.556,"visibility":6.21,"altim":29.852362,"flightCategory":"MVFR","metarType":"METAR","geometry_esri":{"x":47.78,"y":13.02,"z":430}}}