{"type":"Feature","geometry":{"type":"Point","coordinates":[47.78,13.02,430]},"properties":{"stationId":"LOWS","rawText":"LOWS 100550Z 03002KT 0400 R15/0800N R33/0650U FZFG BKN002 M02/M02 Q1010 TEMPO 0800 FZBCFG","observationTime":"2019-11-10T05:50:00Z","temp":-2,"dewpoint":-2,"windDirection":30,"windSpeed":3.704,"visibility":0.25,"altim":29.822834,"flightCategory":"LIFR","metarType":"METAR","geometry_esri":{"x":47.78,"y":13.02,"z":430}}}