{"type":"Feature","geometry":{"type":"Point","coordinates":[47.42,19.27,185]},"properties":{"stationId":"LHBP","rawText":"LHBP 110230Z 09005KT 050V110 9999 -SHRA SCT040 03/01 Q1003 NOSIG","observationTime":"2020-02-11T02:30:00Z","temp":3,"dewpoint":1,"windDirection":90,"windSpeed":9.26,"visibility":6.21,"altim":29.616142,"flightCategory":"VFR","metarType":"METAR","geometry_esri":{"x":47.42,"y":19.27,"z":185}}}