{"type":"Feature","geometry":{"type":"Point","coordinates":[47.78,13.02,430]},"properties":{"stationId":"LOWS","rawText":"LOWS 032350Z AUTO 31011KT 280V340 9999 FEW010 SCT018 BKN032 M02/M04 Q1032","observationTime":"2019-01-03T23:50:00Z","temp":-2,"dewpoint":-4,"windDirection":310,"windSpeed":20.372,"visibility":6.21,"altim":30.47244,"flightCategory":"VFR","metarType":"METAR","geometry_esri":{"x":47.78,"y":13.02,"z":430}}}