{"type":"Feature","geometry":{"type":"Point","coordinates":[47.42,19.27,185]},"properties":{"stationId":"LHBP","rawText":"LHBP 011530Z 13007KT CAVOK 01/M05 Q1024 NOSIG","observationTime":"2019-12-01T15:30:00Z","temp":1,"dewpoint":-5,"windDirection":130,"windSpeed":12.964,"visibility":6.21,"altim":30.236221,"flightCategory":"VFR","metarType":"METAR","geometry_esri":{"x":47.42,"y":19.27,"z":185}}}