{"type":"Feature","geometry":{"type":"Point","coordinates":[47.42,19.27,185]},"properties":{"stationId":"LHBP","rawText":"LHBP 211230Z 31011KT CAVOK 21/01 Q1019 NOSIG","observationTime":"2019-04-21T12:30:00Z","temp":21,"dewpoint":1,"windDirection":310,"windSpeed":20.372,"visibility":6.21,"altim":30.088583,"flightCategory":"VFR","metarType":"METAR","geometry_esri":{"x":47.42,"y":19.27,"z":185}}}