{"type":"Feature","geometry":{"type":"Point","coordinates":[47.78,13.02,430]},"properties":{"stationId":"LOWS","rawText":"LOWS 181750Z 27003KT 230V300 9999 FEW060 27/16 Q1011 NOSIG","observationTime":"2019-08-18T17:50:00Z","temp":27,"dewpoint":16,"windDirection":270,"windSpeed":5.556,"visibility":6.21,"altim":29.852362,"flightCategory":"VFR","metarType":"METAR","geometry_esri":{"x":47.78,"y":13.02,"z":430}}}