{"type":"Feature","geometry":{"type":"Point","coordinates":[47.42,19.27,185]},"properties":{"stationId":"LHBP","rawText":"LHBP 101030Z 08007KT 3200 BR BKN005 00/M01 Q1022 BECMG 5000 BR BKN008","observationTime":"2020-01-10T10:30:00Z","temp":0,"dewpoint":-1,"windDirection":80,"windSpeed":12.964,"visibility":1.99,"altim":30.177166,"flightCategory":"IFR","metarType":"METAR","geometry_esri":{"x":47.42,"y":19.27,"z":185}}}