{"type":"Feature","geometry":{"type":"Point","coordinates":[47.78,13.02,430]},"properties":{"stationId":"LOWS","rawText":"LOWS 050750Z 17004KT 9999 FEW080 BKN100 18/12 Q1017 BECMG 32007KT","observationTime":"2019-09-05T07:50:00Z","temp":18,"dewpoint":12,"windDirection":170,"windSpeed":7.408,"visibility":6.21,"altim":30.029528,"flightCategory":"VFR","metarType":"METAR","geometry_esri":{"x":47.78,"y":13.02,"z":430}}}