{"type":"Feature","geometry":{"type":"Point","coordinates":[47.42,19.27,185]},"properties":{"stationId":"LHBP","rawText":"LHBP 081430Z 28009KT 250V310 CAVOK 15/03 Q1016 NOSIG","observationTime":"2019-03-08T14:30:00Z","temp":15,"dewpoint":3,"windDirection":280,"windSpeed":16.668,"visibility":6.21,"altim":30,"flightCategory":"VFR","metarType":"METAR","geometry_esri":{"x":47.42,"y":19.27,"z":185}}}