{"type":"Feature","geometry":{"type":"Point","coordinates":[47.78,13.02,430]},"properties":{"stationId":"LOWS","rawText":"LOWS 191150Z 06006KT 360V140 9999 FEW060 SCT300 21/09 Q1002 TEMPO SHRA FEW040TCU","observationTime":"2019-05-19T11:50:00Z","temp":21,"dewpoint":9,"windDirection":60,"windSpeed":11.112,"visibility":6.21,"altim":29.586615,"flightCategory":"VFR","metarType":"METAR","geometry_esri":{"x":47.78,"y":13.02,"z":430}}}