{"type":"Feature","geometry":{"type":"Point","coordinates":[45.98,18.23,305]},"properties":{"stationId":"LHPP","rawText":"LHPP 230645Z 32004KT 3000 BR NSC M05/M05 Q1038","observationTime":"2020-01-23T06:45:00Z","temp":-5,"dewpoint":-5,"windDirection":320,"windSpeed":7.408,"visibility":1.86,"altim":30.649607,"flightCategory":"IFR","metarType":"SPECI","geometry_esri":{"x":45.98,"y":18.23,"z":305}}}