{"type":"Feature","geometry":{"type":"Point","coordinates":[47.78,13.02,430]},"properties":{"stationId":"LOWS","rawText":"LOWS 221350Z 04013KT 020V080 CAVOK 23/05 Q1006 NOSIG","observationTime":"2019-04-22T13:50:00Z","temp":23,"dewpoint":5,"windDirection":40,"windSpeed":24.076,"visibility":6.21,"altim":29.704725,"flightCategory":"VFR","metarType":"METAR","geometry_esri":{"x":47.78,"y":13.02,"z":430}}}