{"type":"Feature","geometry":{"type":"Point","coordinates":[47.42,19.27,185]},"properties":{"stationId":"LHBP","rawText":"LHBP 151730Z 11006KT CAVOK 03/M12 Q1028 NOSIG","observationTime":"2020-03-15T17:30:00Z","temp":3,"dewpoint":-12,"windDirection":110,"windSpeed":11.112,"visibility":6.21,"altim":30.35433,"flightCategory":"VFR","metarType":"METAR","geometry_esri":{"x":47.42,"y":19.27,"z":185}}}