{"type":"Feature","geometry":{"type":"Point","coordinates":[47.78,13.02,430]},"properties":{"stationId":"LOWS","rawText":"LOWS 041450Z 01005KT 340V040 9999 FEW013 01/M03 Q1028 R15/19//95 NOSIG","observationTime":"2019-02-04T14:50:00Z","temp":1,"dewpoint":-3,"windDirection":10,"windSpeed":9.26,"visibility":6.21,"altim":30.35433,"flightCategory":"VFR","metarType":"METAR","geometry_esri":{"x":47.78,"y":13.02,"z":430}}}