{"type":"Feature","geometry":{"type":"Point","coordinates":[47.78,13.02,430]},"properties":{"stationId":"LOWS","rawText":"LOWS 292150Z VRB02KT 7000 FEW120 BKN180 M02/M03 Q1028 NOSIG","observationTime":"2018-12-29T21:50:00Z","temp":-2,"dewpoint":-3,"windDirection":0,"windSpeed":3.704,"visibility":4.35,"altim":30.35433,"flightCategory":"MVFR","metarType":"METAR","geometry_esri":{"x":47.78,"y":13.02,"z":430}}}