{"type":"Feature","geometry":{"type":"Point","coordinates":[47.47,21.62,112]},"properties":{"stationId":"LHDC","rawText":"LHDC 091348Z 31002KT 3000 BR OVC010 M00/M03 Q1006","observationTime":"2019-01-09T13:48:00Z","temp":0,"dewpoint":-3,"windDirection":310,"windSpeed":3.704,"visibility":1.86,"altim":29.704725,"flightCategory":"IFR","metarType":"SPECI","geometry_esri":{"x":47.47,"y":21.62,"z":112}}}