{"type":"Feature","geometry":{"type":"Point","coordinates":[47.42,19.27,185]},"properties":{"stationId":"LHBP","rawText":"LHBP 050130Z 07004KT 9999 -RA FEW047 BKN072 09/06 Q1010 NOSIG","observationTime":"2019-10-05T01:30:00Z","temp":9,"dewpoint":6,"windDirection":70,"windSpeed":7.408,"visibility":6.21,"altim":29.822834,"flightCategory":"VFR","metarType":"METAR","geometry_esri":{"x":47.42,"y":19.27,"z":185}}}