{"type":"Feature","geometry":{"type":"Point","coordinates":[47.42,19.27,185]},"properties":{"stationId":"LHBP","rawText":"LHBP 122230Z 15006KT 0300 R13R/0500N R13L/0700U -FZDZ FZFG VV001 M04/M04 Q1030 NOSIG","observationTime":"2020-01-12T22:30:00Z","temp":-4,"dewpoint":-4,"windDirection":150,"windSpeed":11.112,"visibility":0.19,"altim":30.413385,"flightCategory":"LIFR","metarType":"SPECI","geometry_esri":{"x":47.42,"y":19.27,"z":185}}}