{"type":"Feature","geometry":{"type":"Point","coordinates":[47.42,19.27,185]},"properties":{"stationId":"LHBP","rawText":"LHBP 040830Z 01006KT 330V050 9999 FEW040 SCT090 24/16 Q1013 BECMG FEW040TCU SCT045","observationTime":"2019-06-04T08:30:00Z","temp":24,"dewpoint":16,"windDirection":10,"windSpeed":11.112,"visibility":6.21,"altim":29.911417,"flightCategory":"VFR","metarType":"SPECI","geometry_esri":{"x":47.42,"y":19.27,"z":185}}}