{"type":"Feature","geometry":{"type":"Point","coordinates":[47.42,19.27,185]},"properties":{"stationId":"LHBP","rawText":"LHBP 221630Z 06009KT 9999 FEW044CB SCT050 27/18 Q1015 NOSIG","observationTime":"2019-06-22T16:30:00Z","temp":27,"dewpoint":18,"windDirection":60,"windSpeed":16.668,"visibility":6.21,"altim":29.970472,"flightCategory":"VFR","metarType":"METAR","geometry_esri":{"x":47.42,"y":19.27,"z":185}}}