{"type":"Feature","geometry":{"type":"Point","coordinates":[47.42,19.27,185]},"properties":{"stationId":"LHBP","rawText":"LHBP 082330Z 13004KT 3800 BR NSC M04/M05 Q1031 NOSIG","observationTime":"2020-01-08T23:30:00Z","temp":-4,"dewpoint":-5,"windDirection":130,"windSpeed":7.408,"visibility":2.36,"altim":30.442913,"flightCategory":"IFR","metarType":"METAR","geometry_esri":{"x":47.42,"y":19.27,"z":185}}}