{"type":"Feature","geometry":{"type":"Point","coordinates":[47.42,19.27,185]},"properties":{"stationId":"LHBP","rawText":"LHBP 190130Z VRB03KT CAVOK 09/09 Q1007 NOSIG","observationTime":"2019-05-19T01:30:00Z","temp":9,"dewpoint":9,"windDirection":0,"windSpeed":5.556,"visibility":6.21,"altim":29.734253,"flightCategory":"VFR","metarType":"METAR","geometry_esri":{"x":47.42,"y":19.27,"z":185}}}