{"type":"Feature","geometry":{"type":"Point","coordinates":[47.42,19.27,185]},"properties":{"stationId":"LHBP","rawText":"LHBP 280330Z 32004KT 9999 SCT049 17/10 Q1018 NOSIG","observationTime":"2019-06-28T03:30:00Z","temp":17,"dewpoint":10,"windDirection":320,"windSpeed":7.408,"visibility":6.21,"altim":30.059055,"flightCategory":"VFR","metarType":"METAR","geometry_esri":{"x":47.42,"y":19.27,"z":185}}}