{"type":"Feature","geometry":{"type":"Point","coordinates":[47.42,19.27,185]},"properties":{"stationId":"LHBP","rawText":"LHBP 301530Z 31019KT 9999 FEW038CB SCT046 BKN100 16/10 Q1006 TEMPO 4000 SHRA","observationTime":"2019-04-30T15:30:00Z","temp":16,"dewpoint":10,"windDirection":310,"windSpeed":35.188,"visibility":6.21,"altim":29.704725,"flightCategory":"VFR","metarType":"SPECI","geometry_esri":{"x":47.42,"y":19.27,"z":185}}}