{"type":"Feature","geometry":{"type":"Point","coordinates":[47.78,13.02,430]},"properties":{"stationId":"LOWS","rawText":"LOWS 071350Z 22006KT 180V250 9999 FEW032 SCT055 BKN100 22/15 Q1012 TEMPO SHRA","observationTime":"2019-07-07T13:50:00Z","temp":22,"dewpoint":15,"windDirection":220,"windSpeed":11.112,"visibility":6.21,"altim":29.88189,"flightCategory":"VFR","metarType":"METAR","geometry_esri":{"x":47.78,"y":13.02,"z":430}}}