{"type":"Feature","geometry":{"type":"Point","coordinates":[47.78,13.02,430]},"properties":{"stationId":"LOWS","rawText":"LOWS 100050Z AUTO 14008KT 110V170 9999 NSC 15/10 Q1008","observationTime":"2020-05-10T00:50:00Z","temp":15,"dewpoint":10,"windDirection":140,"windSpeed":14.816,"visibility":6.21,"altim":29.763779,"flightCategory":"VFR","metarType":"METAR","geometry_esri":{"x":47.78,"y":13.02,"z":430}}}