{"type":"Feature","geometry":{"type":"Point","coordinates":[47.78,13.02,430]},"properties":{"stationId":"LOWS","rawText":"LOWS 230550Z 29013KT 260V320 9999 -RA FEW015 SCT022 BKN032 05/03 Q1004 NOSIG","observationTime":"2019-12-23T05:50:00Z","temp":5,"dewpoint":3,"windDirection":290,"windSpeed":24.076,"visibility":6.21,"altim":29.64567,"flightCategory":"VFR","metarType":"METAR","geometry_esri":{"x":47.78,"y":13.02,"z":430}}}