{"type":"Feature","geometry":{"type":"Point","coordinates":[47.78,13.02,430]},"properties":{"stationId":"LOWS","rawText":"LOWS 110150Z AUTO 02004KT 340V060 9999 FEW012 SCT250 16/14 Q1010","observationTime":"2019-06-11T01:50:00Z","temp":16,"dewpoint":14,"windDirection":20,"windSpeed":7.408,"visibility":6.21,"altim":29.822834,"flightCategory":"VFR","metarType":"METAR","geometry_esri":{"x":47.78,"y":13.02,"z":430}}}