{"type":"Feature","geometry":{"type":"Point","coordinates":[47.42,19.27,185]},"properties":{"stationId":"LHBP","rawText":"LHBP 111530Z 10010KT CAVOK 29/18 Q1012 TEMPO FEW050CB","observationTime":"2019-06-11T15:30:00Z","temp":29,"dewpoint":18,"windDirection":100,"windSpeed":18.52,"visibility":6.21,"altim":29.88189,"flightCategory":"VFR","metarType":"SPECI","geometry_esri":{"x":47.42,"y":19.27,"z":185}}}