{"type":"Feature","geometry":{"type":"Point","coordinates":[47.78,13.02,430]},"properties":{"stationId":"LOWS","rawText":"LOWS 221250Z 28005KT 240V310 9999 VCTS FEW020 BKN032 FEW050CB 22/17 Q1015 TEMPO TSRA","observationTime":"2019-06-22T12:50:00Z","temp":22,"dewpoint":17,"windDirection":280,"windSpeed":9.26,"visibility":6.21,"altim":29.970472,"flightCategory":"VFR","metarType":"METAR","geometry_esri":{"x":47.78,"y":13.02,"z":430}}}