{"type":"Feature","geometry":{"type":"Point","coordinates":[47.42,19.27,185]},"properties":{"stationId":"LHBP","rawText":"LHBP 221730Z 05015KT 7000 RA SCT007 BKN023 OVC032 09/07 Q0987 NOSIG","observationTime":"2019-12-22T17:30:00Z","temp":9,"dewpoint":7,"windDirection":50,"windSpeed":27.78,"visibility":4.35,"altim":29.143702,"flightCategory":"MVFR","metarType":"METAR","geometry_esri":{"x":47.42,"y":19.27,"z":185}}}