{"type":"Feature","geometry":{"type":"Point","coordinates":[47.42,19.27,185]},"properties":{"stationId":"LHBP","rawText":"LHBP 090930Z 10006KT 350V140 CAVOK 23/05 Q1015 NOSIG","observationTime":"2020-05-09T09:30:00Z","temp":23,"dewpoint":5,"windDirection":100,"windSpeed":11.112,"visibility":6.21,"altim":29.970472,"flightCategory":"VFR","metarType":"METAR","geometry_esri":{"x":47.42,"y":19.27,"z":185}}}