{"type":"Feature","geometry":{"type":"Point","coordinates":[47.42,19.27,185]},"properties":{"stationId":"LHBP","rawText":"LHBP 021430Z 30006KT 9999 -RA SCT039 OVC092 22/19 Q1012 TEMPO 4000 SHRA FEW035CB BKN075","observationTime":"2019-08-02T14:30:00Z","temp":22,"dewpoint":19,"windDirection":300,"windSpeed":11.112,"visibility":6.21,"altim":29.88189,"flightCategory":"VFR","metarType":"SPECI","geometry_esri":{"x":47.42,"y":19.27,"z":185}}}