{"type":"Feature","geometry":{"type":"Point","coordinates":[47.42,19.27,185]},"properties":{"stationId":"LHBP","rawText":"LHBP 291530Z 29009KT CAVOK 06/02 Q1026 NOSIG","observationTime":"2018-12-29T15:30:00Z","temp":6,"dewpoint":2,"windDirection":290,"windSpeed":16.668,"visibility":6.21,"altim":30.295275,"flightCategory":"VFR","metarType":"METAR","geometry_esri":{"x":47.42,"y":19.27,"z":185}}}