{"type":"Feature","geometry":{"type":"Point","coordinates":[47.42,19.27,185]},"properties":{"stationId":"LHBP","rawText":"LHBP 210430Z VRB01KT CAVOK M04/M05 Q1035 NOSIG","observationTime":"2019-03-21T04:30:00Z","temp":-4,"dewpoint":-5,"windDirection":0,"windSpeed":1.852,"visibility":6.21,"altim":30.561024,"flightCategory":"VFR","metarType":"METAR","geometry_esri":{"x":47.42,"y":19.27,"z":185}}}