{"type":"Feature","geometry":{"type":"Point","coordinates":[47.42,19.27,185]},"properties":{"stationId":"LHBP","rawText":"LHBP 172230Z VRB01KT CAVOK 10/08 Q1018 NOSIG","observationTime":"2019-10-17T22:30:00Z","temp":10,"dewpoint":8,"windDirection":0,"windSpeed":1.852,"visibility":6.21,"altim":30.059055,"flightCategory":"VFR","metarType":"METAR","geometry_esri":{"x":47.42,"y":19.27,"z":185}}}