{"type":"Feature","geometry":{"type":"Point","coordinates":[47.47,21.62,112]},"properties":{"stationId":"LHDC","rawText":"LHDC 060032Z AUTO 29003KT 260V320 5000 SHRA NCD 13/13 Q1000","observationTime":"2019-11-06T00:32:00Z","temp":13,"dewpoint":13,"windDirection":290,"windSpeed":5.556,"visibility":3.11,"altim":29.52756,"flightCategory":"MVFR","metarType":"SPECI","geometry_esri":{"x":47.47,"y":21.62,"z":112}}}