{"type":"Feature","geometry":{"type":"Point","coordinates":[47.42,19.27,185]},"properties":{"stationId":"LHBP","rawText":"LHBP 031530Z 34006KT 320V020 9999 FEW022 BKN055 19/15 Q1021 NOSIG","observationTime":"2019-09-03T15:30:00Z","temp":19,"dewpoint":15,"windDirection":340,"windSpeed":11.112,"visibility":6.21,"altim":30.147638,"flightCategory":"VFR","metarType":"METAR","geometry_esri":{"x":47.42,"y":19.27,"z":185}}}