{"type":"Feature","geometry":{"type":"Point","coordinates":[47.42,19.27,185]},"properties":{"stationId":"LHBP","rawText":"LHBP 080330Z 34004KT 8000 NSC 07/07 Q1005 NOSIG","observationTime":"2019-04-08T03:30:00Z","temp":7,"dewpoint":7,"windDirection":340,"windSpeed":7.408,"visibility":4.97,"altim":29.675198,"flightCategory":"MVFR","metarType":"METAR","geometry_esri":{"x":47.42,"y":19.27,"z":185}}}