{"type":"Feature","geometry":{"type":"Point","coordinates":[47.42,19.27,185]},"properties":{"stationId":"LHBP","rawText":"LHBP 041430Z 17004KT 2800 BR OVC005 M02/M02 Q1031 NOSIG","observationTime":"2019-12-04T14:30:00Z","temp":-2,"dewpoint":-2,"windDirection":170,"windSpeed":7.408,"visibility":1.74,"altim":30.442913,"flightCategory":"IFR","metarType":"METAR","geometry_esri":{"x":47.42,"y":19.27,"z":185}}}