{"type":"Feature","geometry":{"type":"Point","coordinates":[47.42,19.27,185]},"properties":{"stationId":"LHBP","rawText":"LHBP 201330Z 05010KT CAVOK 16/M04 Q1019 NOSIG","observationTime":"2020-04-20T13:30:00Z","temp":16,"dewpoint":-4,"windDirection":50,"windSpeed":18.52,"visibility":6.21,"altim":30.088583,"flightCategory":"VFR","metarType":"METAR","geometry_esri":{"x":47.42,"y":19.27,"z":185}}}