{"type":"Feature","geometry":{"type":"Point","coordinates":[47.78,13.02,430]},"properties":{"stationId":"LOWS","rawText":"LOWS 271350Z VRB02KT CAVOK 06/M01 Q1025 NOSIG","observationTime":"2018-12-27T13:50:00Z","temp":6,"dewpoint":-1,"windDirection":0,"windSpeed":3.704,"visibility":6.21,"altim":30.265747,"flightCategory":"VFR","metarType":"METAR","geometry_esri":{"x":47.78,"y":13.02,"z":430}}}