{"type":"Feature","geometry":{"type":"Point","coordinates":[47.42,19.27,185]},"properties":{"stationId":"LHBP","rawText":"LHBP 031230Z 27010KT 230V310 9999 FEW040 BKN140 17/09 Q1007 TEMPO FM1330 FEW040CB SCT043 BKN120","observationTime":"2019-05-03T12:30:00Z","temp":17,"dewpoint":9,"windDirection":270,"windSpeed":18.52,"visibility":6.21,"altim":29.734253,"flightCategory":"VFR","metarType":"METAR","geometry_esri":{"x":47.42,"y":19.27,"z":185}}}