{"type":"Feature","geometry":{"type":"Point","coordinates":[47.42,19.27,185]},"properties":{"stationId":"LHBP","rawText":"LHBP 302130Z 17006KT CAVOK 23/17 Q1019 NOSIG","observationTime":"2019-06-30T21:30:00Z","temp":23,"dewpoint":17,"windDirection":170,"windSpeed":11.112,"visibility":6.21,"altim":30.088583,"flightCategory":"VFR","metarType":"METAR","geometry_esri":{"x":47.42,"y":19.27,"z":185}}}