{"type":"Feature","geometry":{"type":"Point","coordinates":[47.42,19.27,185]},"properties":{"stationId":"LHBP","rawText":"LHBP 310430Z 31007KT 4500 R13L///// FZBCFG BR NSC M00/M00 Q1027 TEMPO 1200","observationTime":"2019-10-31T04:30:00Z","temp":0,"dewpoint":0,"windDirection":310,"windSpeed":12.964,"visibility":2.8,"altim":30.324802,"flightCategory":"IFR","metarType":"SPECI","geometry_esri":{"x":47.42,"y":19.27,"z":185}}}