{"type":"Feature","geometry":{"type":"Point","coordinates":[47.42,19.27,185]},"properties":{"stationId":"LHBP","rawText":"LHBP 191030Z VRB02KT 8000 NSC 11/06 Q1021 NOSIG","observationTime":"2019-02-19T10:30:00Z","temp":11,"dewpoint":6,"windDirection":0,"windSpeed":3.704,"visibility":4.97,"altim":30.147638,"flightCategory":"MVFR","metarType":"METAR","geometry_esri":{"x":47.42,"y":19.27,"z":185}}}