{"type":"Feature","geometry":{"type":"Point","coordinates":[47.42,19.27,185]},"properties":{"stationId":"LHBP","rawText":"LHBP 011030Z 17007KT 120V230 9999 SCT024 08/04 Q1024 NOSIG","observationTime":"2019-11-01T10:30:00Z","temp":8,"dewpoint":4,"windDirection":170,"windSpeed":12.964,"visibility":6.21,"altim":30.236221,"flightCategory":"VFR","metarType":"METAR","geometry_esri":{"x":47.42,"y":19.27,"z":185}}}