{"type":"Feature","geometry":{"type":"Point","coordinates":[47.42,19.27,185]},"properties":{"stationId":"LHBP","rawText":"LHBP 152030Z 08008KT CAVOK 09/M03 Q1021 NOSIG","observationTime":"2019-04-15T20:30:00Z","temp":9,"dewpoint":-3,"windDirection":80,"windSpeed":14.816,"visibility":6.21,"altim":30.147638,"flightCategory":"VFR","metarType":"METAR","geometry_esri":{"x":47.42,"y":19.27,"z":185}}}