{"type":"Feature","geometry":{"type":"Point","coordinates":[47.42,19.27,185]},"properties":{"stationId":"LHBP","rawText":"LHBP 161130Z 21008KT 180V240 CAVOK 18/02 Q1023 NOSIG","observationTime":"2020-05-16T11:30:00Z","temp":18,"dewpoint":2,"windDirection":210,"windSpeed":14.816,"visibility":6.21,"altim":30.206694,"flightCategory":"VFR","metarType":"METAR","geometry_esri":{"x":47.42,"y":19.27,"z":185}}}