{"type":"Feature","geometry":{"type":"Point","coordinates":[47.42,19.27,185]},"properties":{"stationId":"LHBP","rawText":"LHBP 011930Z 29010KT CAVOK 16/06 Q1009 NOSIG","observationTime":"2019-05-01T19:30:00Z","temp":16,"dewpoint":6,"windDirection":290,"windSpeed":18.52,"visibility":6.21,"altim":29.793306,"flightCategory":"VFR","metarType":"METAR","geometry_esri":{"x":47.42,"y":19.27,"z":185}}}