{"type":"Feature","geometry":{"type":"Point","coordinates":[47.78,13.02,430]},"properties":{"stationId":"LOWS","rawText":"LOWS 301150Z 15007KT 9999 FEW100 05/M05 Q1034 NOSIG","observationTime":"2019-12-30T11:50:00Z","temp":5,"dewpoint":-5,"windDirection":150,"windSpeed":12.964,"visibility":6.21,"altim":30.531496,"flightCategory":"VFR","metarType":"METAR","geometry_esri":{"x":47.78,"y":13.02,"z":430}}}