{"type":"Feature","geometry":{"type":"Point","coordinates":[47.78,13.02,430]},"properties":{"stationId":"LOWS","rawText":"LOWS 210950Z 20005KT 160V240 9999 FEW028 SCT040 BKN055 12/09 Q1009 NOSIG","observationTime":"2019-05-21T09:50:00Z","temp":12,"dewpoint":9,"windDirection":200,"windSpeed":9.26,"visibility":6.21,"altim":29.793306,"flightCategory":"VFR","metarType":"METAR","geometry_esri":{"x":47.78,"y":13.02,"z":430}}}