{"type":"Feature","geometry":{"type":"Point","coordinates":[47.47,21.62,112]},"properties":{"stationId":"LHDC","rawText":"LHDC 311742Z AUTO 22004KT 8000 -SHRA FEW052 SCT063 BKN203 //////TCU 24/22 Q1011","observationTime":"2019-07-31T17:42:00Z","temp":24,"dewpoint":22,"windDirection":220,"windSpeed":7.408,"visibility":4.97,"altim":29.852362,"flightCategory":"MVFR","metarType":"SPECI","geometry_esri":{"x":47.47,"y":21.62,"z":112}}}