{"type":"Feature","geometry":{"type":"Point","coordinates":[47.42,19.27,185]},"properties":{"stationId":"LHBP","rawText":"LHBP 191340Z 20010KT 130V220 9999 -TSRA SCT040CB SCT048 26/19 Q1012 RETSRA TEMPO VRB20G30KT 2000 TSRA","observationTime":"2019-06-19T13:40:00Z","temp":26,"dewpoint":19,"windDirection":200,"windSpeed":18.52,"visibility":6.21,"altim":29.88189,"flightCategory":"VFR","metarType":"SPECI","geometry_esri":{"x":47.42,"y":19.27,"z":185}}}