{"type":"Feature","geometry":{"type":"Point","coordinates":[47.42,19.27,185]},"properties":{"stationId":"LHBP","rawText":"LHBP 221330Z 08008KT 040V110 9999 FEW040TCU SCT044 28/18 Q1016 NOSIG","observationTime":"2019-06-22T13:30:00Z","temp":28,"dewpoint":18,"windDirection":80,"windSpeed":14.816,"visibility":6.21,"altim":30,"flightCategory":"VFR","metarType":"METAR","geometry_esri":{"x":47.42,"y":19.27,"z":185}}}