{"type":"Feature","geometry":{"type":"Point","coordinates":[47.78,13.02,430]},"properties":{"stationId":"LOWS","rawText":"LOWS 040650Z 17004KT CAVOK 20/12 Q1016 NOSIG","observationTime":"2019-06-04T06:50:00Z","temp":20,"dewpoint":12,"windDirection":170,"windSpeed":7.408,"visibility":6.21,"altim":30,"flightCategory":"VFR","metarType":"METAR","geometry_esri":{"x":47.78,"y":13.02,"z":430}}}