{"type":"Feature","geometry":{"type":"Point","coordinates":[47.42,19.27,185]},"properties":{"stationId":"LHBP","rawText":"LHBP 140430Z 34005KT CAVOK 09/07 Q1007 NOSIG","observationTime":"2020-05-14T04:30:00Z","temp":9,"dewpoint":7,"windDirection":340,"windSpeed":9.26,"visibility":6.21,"altim":29.734253,"flightCategory":"VFR","metarType":"METAR","geometry_esri":{"x":47.42,"y":19.27,"z":185}}}