{"type":"Feature","geometry":{"type":"Point","coordinates":[47.78,13.02,430]},"properties":{"stationId":"LOWS","rawText":"LOWS 242250Z AUTO 32007KT 9999 FEW015 SCT019 BKN060 03/01 Q1032","observationTime":"2018-12-24T22:50:00Z","temp":3,"dewpoint":1,"windDirection":320,"windSpeed":12.964,"visibility":6.21,"altim":30.47244,"flightCategory":"VFR","metarType":"METAR","geometry_esri":{"x":47.78,"y":13.02,"z":430}}}