{"type":"Feature","geometry":{"type":"Point","coordinates":[47.47,21.62,112]},"properties":{"stationId":"LHDC","rawText":"LHDC 290737Z 21005KT 2800 BR BKN005 OVC083 M00/M01 Q1006","observationTime":"2019-01-29T07:37:00Z","temp":0,"dewpoint":-1,"windDirection":210,"windSpeed":9.26,"visibility":1.74,"altim":29.704725,"flightCategory":"IFR","metarType":"SPECI","geometry_esri":{"x":47.47,"y":21.62,"z":112}}}