{"type":"Feature","geometry":{"type":"Point","coordinates":[47.42,19.27,185]},"properties":{"stationId":"LHBP","rawText":"LHBP 221830Z 23012KT CAVOK 06/06 Q1014 NOSIG","observationTime":"2018-12-22T18:30:00Z","temp":6,"dewpoint":6,"windDirection":230,"windSpeed":22.224,"visibility":6.21,"altim":29.940945,"flightCategory":"VFR","metarType":"METAR","geometry_esri":{"x":47.42,"y":19.27,"z":185}}}