{"type":"Feature","geometry":{"type":"Point","coordinates":[47.78,13.02,430]},"properties":{"stationId":"LOWS","rawText":"LOWS 031850Z 15008KT 110V180 9999 -RA FEW030 BKN055 03/M00 Q1026 TEMPO 28009KT","observationTime":"2020-01-03T18:50:00Z","temp":3,"dewpoint":0,"windDirection":150,"windSpeed":14.816,"visibility":6.21,"altim":30.295275,"flightCategory":"VFR","metarType":"METAR","geometry_esri":{"x":47.78,"y":13.02,"z":430}}}