{"type":"Feature","geometry":{"type":"Point","coordinates":[47.78,13.02,430]},"properties":{"stationId":"LOWS","rawText":"LOWS 031350Z 33009KT 9999 FEW060 12/M01 Q1015 NOSIG","observationTime":"2020-04-03T13:50:00Z","temp":12,"dewpoint":-1,"windDirection":330,"windSpeed":16.668,"visibility":6.21,"altim":29.970472,"flightCategory":"VFR","metarType":"METAR","geometry_esri":{"x":47.78,"y":13.02,"z":430}}}