{"type":"Feature","geometry":{"type":"Point","coordinates":[46.25,20.1,84]},"properties":{"stationId":"LHUD","rawText":"LHUD 110540Z 33017KT 9999 FEW030 SCT080 BKN083 10/M01 Q1014","observationTime":"2019-03-11T05:40:00Z","temp":10,"dewpoint":-1,"windDirection":330,"windSpeed":31.484,"visibility":6.21,"altim":29.940945,"flightCategory":"VFR","metarType":"SPECI","geometry_esri":{"x":46.25,"y":20.1,"z":84}}}