{"type":"Feature","geometry":{"type":"Point","coordinates":[47.78,13.02,430]},"properties":{"stationId":"LOWS","rawText":"LOWS 071950Z AUTO 18004KT 150V250 9999 NCD 10/02 Q1027","observationTime":"2020-04-07T19:50:00Z","temp":10,"dewpoint":2,"windDirection":180,"windSpeed":7.408,"visibility":6.21,"altim":30.324802,"flightCategory":"VFR","metarType":"METAR","geometry_esri":{"x":47.78,"y":13.02,"z":430}}}