{"type":"Feature","geometry":{"type":"Point","coordinates":[47.42,19.27,185]},"properties":{"stationId":"LHBP","rawText":"LHBP 051230Z 11015KT CAVOK 18/03 Q1005 NOSIG","observationTime":"2019-04-05T12:30:00Z","temp":18,"dewpoint":3,"windDirection":110,"windSpeed":27.78,"visibility":6.21,"altim":29.675198,"flightCategory":"VFR","metarType":"METAR","geometry_esri":{"x":47.42,"y":19.27,"z":185}}}