{"type":"Feature","geometry":{"type":"Point","coordinates":[47.42,19.27,185]},"properties":{"stationId":"LHBP","rawText":"LHBP 091530Z 20004KT 160V240 9999 -RA FEW008 SCT012 BKN040 11/11 Q1005 NOSIG","observationTime":"2019-05-09T15:30:00Z","temp":11,"dewpoint":11,"windDirection":200,"windSpeed":7.408,"visibility":6.21,"altim":29.675198,"flightCategory":"VFR","metarType":"METAR","geometry_esri":{"x":47.42,"y":19.27,"z":185}}}