{"type":"Feature","geometry":{"type":"Point","coordinates":[45.98,18.23,305]},"properties":{"stationId":"LHPP","rawText":"LHPP 041244Z 05009KT 9999 SCT033CB BKN200 24/17 Q1012","observationTime":"2019-06-04T12:44:00Z","temp":24,"dewpoint":17,"windDirection":50,"windSpeed":16.668,"visibility":6.21,"altim":29.88189,"flightCategory":"VFR","metarType":"SPECI","geometry_esri":{"x":45.98,"y":18.23,"z":305}}}