{"type":"Feature","geometry":{"type":"Point","coordinates":[47.42,19.27,185]},"properties":{"stationId":"LHBP","rawText":"LHBP 160230Z 11008KT CAVOK M00/M08 Q1029 NOSIG","observationTime":"2020-03-16T02:30:00Z","temp":0,"dewpoint":-8,"windDirection":110,"windSpeed":14.816,"visibility":6.21,"altim":30.383858,"flightCategory":"VFR","metarType":"METAR","geometry_esri":{"x":47.42,"y":19.27,"z":185}}}