{"type":"Feature","geometry":{"type":"Point","coordinates":[47.42,19.27,185]},"properties":{"stationId":"LHBP","rawText":"LHBP 141430Z 30021KT CAVOK 04/M05 Q0999 NOSIG","observationTime":"2019-01-14T14:30:00Z","temp":4,"dewpoint":-5,"windDirection":300,"windSpeed":38.892,"visibility":6.21,"altim":29.498032,"flightCategory":"VFR","metarType":"METAR","geometry_esri":{"x":47.42,"y":19.27,"z":185}}}