{"type":"Feature","geometry":{"type":"Point","coordinates":[47.42,19.27,185]},"properties":{"stationId":"LHBP","rawText":"LHBP 262230Z 36002KT 3200 BR BKN005 OVC060 M00/M01 Q1021 NOSIG","observationTime":"2020-01-26T22:30:00Z","temp":0,"dewpoint":-1,"windDirection":360,"windSpeed":3.704,"visibility":1.99,"altim":30.147638,"flightCategory":"IFR","metarType":"METAR","geometry_esri":{"x":47.42,"y":19.27,"z":185}}}