{"type":"Feature","geometry":{"type":"Point","coordinates":[47.42,19.27,185]},"properties":{"stationId":"LHBP","rawText":"LHBP 121930Z 11004KT 3200 -RA BR BKN003 03/03 Q1004 NOSIG","observationTime":"2019-12-12T19:30:00Z","temp":3,"dewpoint":3,"windDirection":110,"windSpeed":7.408,"visibility":1.99,"altim":29.64567,"flightCategory":"LIFR","metarType":"METAR","geometry_esri":{"x":47.42,"y":19.27,"z":185}}}