{"type":"Feature","geometry":{"type":"Point","coordinates":[47.42,19.27,185]},"properties":{"stationId":"LHBP","rawText":"LHBP 202030Z VRB02KT CAVOK 08/04 Q1027 NOSIG","observationTime":"2019-09-20T20:30:00Z","temp":8,"dewpoint":4,"windDirection":0,"windSpeed":3.704,"visibility":6.21,"altim":30.324802,"flightCategory":"VFR","metarType":"METAR","geometry_esri":{"x":47.42,"y":19.27,"z":185}}}