{"type":"Feature","geometry":{"type":"Point","coordinates":[47.42,19.27,185]},"properties":{"stationId":"LHBP","rawText":"LHBP 070430Z 05002KT CAVOK 02/M05 Q1034 NOSIG","observationTime":"2020-04-07T04:30:00Z","temp":2,"dewpoint":-5,"windDirection":50,"windSpeed":3.704,"visibility":6.21,"altim":30.531496,"flightCategory":"VFR","metarType":"METAR","geometry_esri":{"x":47.42,"y":19.27,"z":185}}}