{"type":"Feature","geometry":{"type":"Point","coordinates":[47.47,21.62,112]},"properties":{"stationId":"LHDC","rawText":"LHDC 210447Z AUTO VRB03KT 5000 BR NSC 21/20 Q1014","observationTime":"2019-06-21T04:47:00Z","temp":21,"dewpoint":20,"windDirection":0,"windSpeed":5.556,"visibility":3.11,"altim":29.940945,"flightCategory":"MVFR","metarType":"SPECI","geometry_esri":{"x":47.47,"y":21.62,"z":112}}}