{"type":"Feature","geometry":{"type":"Point","coordinates":[47.78,13.02,430]},"properties":{"stationId":"LOWS","rawText":"LOWS 231650Z 03003KT 360V060 7000 FEW016 BKN018 M03/M07 Q0996 NOSIG","observationTime":"2019-01-23T16:50:00Z","temp":-3,"dewpoint":-7,"windDirection":30,"windSpeed":5.556,"visibility":4.35,"altim":29.409449,"flightCategory":"MVFR","metarType":"METAR","geometry_esri":{"x":47.78,"y":13.02,"z":430}}}