{"type":"Feature","geometry":{"type":"Point","coordinates":[47.42,19.27,185]},"properties":{"stationId":"LHBP","rawText":"LHBP 062145Z 09006KT 050V120 9999 -SN SCT012 BKN038 M03/M05 Q1024 R88/25//95 NOSIG","observationTime":"2019-01-06T21:45:00Z","temp":-3,"dewpoint":-5,"windDirection":90,"windSpeed":11.112,"visibility":6.21,"altim":30.236221,"flightCategory":"VFR","metarType":"SPECI","geometry_esri":{"x":47.42,"y":19.27,"z":185}}}