{"type":"Feature","geometry":{"type":"Point","coordinates":[47.78,13.02,430]},"properties":{"stationId":"LOWS","rawText":"LOWS 190750Z 16004KT 9999 FEW008 SCT028 BKN045 03/01 Q1026 NOSIG","observationTime":"2019-03-19T07:50:00Z","temp":3,"dewpoint":1,"windDirection":160,"windSpeed":7.408,"visibility":6.21,"altim":30.295275,"flightCategory":"VFR","metarType":"METAR","geometry_esri":{"x":47.78,"y":13.02,"z":430}}}