{"type":"Feature","geometry":{"type":"Point","coordinates":[47.42,19.27,185]},"properties":{"stationId":"LHBP","rawText":"LHBP 100930Z 08006KT 020V140 CAVOK 19/08 Q1007 NOSIG","observationTime":"2019-04-10T09:30:00Z","temp":19,"dewpoint":8,"windDirection":80,"windSpeed":11.112,"visibility":6.21,"altim":29.734253,"flightCategory":"VFR","metarType":"METAR","geometry_esri":{"x":47.42,"y":19.27,"z":185}}}