{"type":"Feature","geometry":{"type":"Point","coordinates":[47.42,19.27,185]},"properties":{"stationId":"LHBP","rawText":"LHBP 312030Z 34006KT CAVOK 16/16 Q1021 NOSIG","observationTime":"2019-05-31T20:30:00Z","temp":16,"dewpoint":16,"windDirection":340,"windSpeed":11.112,"visibility":6.21,"altim":30.147638,"flightCategory":"VFR","metarType":"METAR","geometry_esri":{"x":47.42,"y":19.27,"z":185}}}