{"type":"Feature","geometry":{"type":"Point","coordinates":[47.78,13.02,430]},"properties":{"stationId":"LOWS","rawText":"LOWS 120350Z AUTO 29009KT 260V320 9999 FEW020 BKN060 01/M02 Q1028","observationTime":"2019-02-12T03:50:00Z","temp":1,"dewpoint":-2,"windDirection":290,"windSpeed":16.668,"visibility":6.21,"altim":30.35433,"flightCategory":"VFR","metarType":"METAR","geometry_esri":{"x":47.78,"y":13.02,"z":430}}}