{"type":"Feature","geometry":{"type":"Point","coordinates":[47.42,19.27,185]},"properties":{"stationId":"LHBP","rawText":"LHBP 311830Z 31012KT CAVOK 14/07 Q1011 NOSIG","observationTime":"2020-01-31T18:30:00Z","temp":14,"dewpoint":7,"windDirection":310,"windSpeed":22.224,"visibility":6.21,"altim":29.852362,"flightCategory":"VFR","metarType":"METAR","geometry_esri":{"x":47.42,"y":19.27,"z":185}}}