{"type":"Feature","geometry":{"type":"Point","coordinates":[47.42,19.27,185]},"properties":{"stationId":"LHBP","rawText":"LHBP 072230Z 24014KT CAVOK 25/19 Q1010 NOSIG","observationTime":"2019-08-07T22:30:00Z","temp":25,"dewpoint":19,"windDirection":240,"windSpeed":25.928,"visibility":6.21,"altim":29.822834,"flightCategory":"VFR","metarType":"METAR","geometry_esri":{"x":47.42,"y":19.27,"z":185}}}