{"type":"Feature","geometry":{"type":"Point","coordinates":[47.78,13.02,430]},"properties":{"stationId":"LOWS","rawText":"LOWS 152250Z AUTO 23011G21KT 180V290 9999 -RA FEW026 BKN050 09/06 Q1011","observationTime":"2019-03-15T22:50:00Z","temp":9,"dewpoint":6,"windDirection":230,"windSpeed":20.372,"visibility":6.21,"altim":29.852362,"flightCategory":"VFR","metarType":"METAR","geometry_esri":{"x":47.78,"y":13.02,"z":430}}}