{"type":"Feature","geometry":{"type":"Point","coordinates":[47.78,13.02,430]},"properties":{"stationId":"LOWS","rawText":"LOWS 120050Z AUTO 14004KT 7000 -SHRA FEW032 SCT042 BKN060 14/14 Q1016","observationTime":"2019-07-12T00:50:00Z","temp":14,"dewpoint":14,"windDirection":140,"windSpeed":7.408,"visibility":4.35,"altim":30,"flightCategory":"MVFR","metarType":"METAR","geometry_esri":{"x":47.78,"y":13.02,"z":430}}}