{"type":"Feature","geometry":{"type":"Point","coordinates":[47.78,13.02,430]},"properties":{"stationId":"LOWS","rawText":"LOWS 092050Z 31007KT CAVOK 21/14 Q1018","observationTime":"2019-06-09T20:50:00Z","temp":21,"dewpoint":14,"windDirection":310,"windSpeed":12.964,"visibility":6.21,"altim":30.059055,"flightCategory":"VFR","metarType":"METAR","geometry_esri":{"x":47.78,"y":13.02,"z":430}}}