{"type":"Feature","geometry":{"type":"Point","coordinates":[47.42,19.27,185]},"properties":{"stationId":"LHBP","rawText":"LHBP 281141Z 00000KT 3000 -SN BR BKN004 OVC012 01/01 Q0996 RESN R13L/590395 R13R/690395 BECMG BKN005 OVC015","observationTime":"2019-01-28T11:41:00Z","temp":1,"dewpoint":1,"windDirection":0,"windSpeed":0,"visibility":1.86,"altim":29.409449,"flightCategory":"LIFR","metarType":"SPECI","geometry_esri":{"x":47.42,"y":19.27,"z":185}}}