{"type":"Feature","geometry":{"type":"Point","coordinates":[47.42,19.27,185]},"properties":{"stationId":"LHBP","rawText":"LHBP 240630Z 31021KT 9999 -SHRA FEW025 BKN100 06/02 Q1009 NOSIG","observationTime":"2019-12-24T06:30:00Z","temp":6,"dewpoint":2,"windDirection":310,"windSpeed":38.892,"visibility":6.21,"altim":29.793306,"flightCategory":"VFR","metarType":"METAR","geometry_esri":{"x":47.42,"y":19.27,"z":185}}}