{"type":"Feature","geometry":{"type":"Point","coordinates":[47.47,21.62,112]},"properties":{"stationId":"LHDC","rawText":"LHDC 182350Z AUTO 21004KT 3400 BR BKN003 BKN027 BKN037 M02/M02 Q1026","observationTime":"2020-01-18T23:50:00Z","temp":-2,"dewpoint":-2,"windDirection":210,"windSpeed":7.408,"visibility":2.11,"altim":30.295275,"flightCategory":"LIFR","metarType":"SPECI","geometry_esri":{"x":47.47,"y":21.62,"z":112}}}