{"type":"Feature","geometry":{"type":"Point","coordinates":[47.78,13.02,430]},"properties":{"stationId":"LOWS","rawText":"LOWS 291050Z 17006KT 150V210 9999 FEW030 SCT040 BKN060 08/05 Q1008 NOSIG","observationTime":"2019-11-29T10:50:00Z","temp":8,"dewpoint":5,"windDirection":170,"windSpeed":11.112,"visibility":6.21,"altim":29.763779,"flightCategory":"VFR","metarType":"METAR","geometry_esri":{"x":47.78,"y":13.02,"z":430}}}