{"type":"Feature","geometry":{"type":"Point","coordinates":[47.42,19.27,185]},"properties":{"stationId":"LHBP","rawText":"LHBP 210830Z VRB01KT 1400 R13R/P1500N BR BKN004 M03/M04 Q1026 R88/29//95 NOSIG","observationTime":"2018-12-21T08:30:00Z","temp":-3,"dewpoint":-4,"windDirection":0,"windSpeed":1.852,"visibility":0.87,"altim":30.295275,"flightCategory":"LIFR","metarType":"SPECI","geometry_esri":{"x":47.42,"y":19.27,"z":185}}}