{"type":"Feature","geometry":{"type":"Point","coordinates":[47.42,19.27,185]},"properties":{"stationId":"LHBP","rawText":"LHBP 221630Z VRB03KT CAVOK 16/12 Q1022 NOSIG","observationTime":"2019-10-22T16:30:00Z","temp":16,"dewpoint":12,"windDirection":0,"windSpeed":5.556,"visibility":6.21,"altim":30.177166,"flightCategory":"VFR","metarType":"METAR","geometry_esri":{"x":47.42,"y":19.27,"z":185}}}