{"type":"Feature","geometry":{"type":"Point","coordinates":[47.42,19.27,185]},"properties":{"stationId":"LHBP","rawText":"LHBP 110730Z 34004KT 300V010 CAVOK 19/14 Q1023 NOSIG","observationTime":"2019-09-11T07:30:00Z","temp":19,"dewpoint":14,"windDirection":340,"windSpeed":7.408,"visibility":6.21,"altim":30.206694,"flightCategory":"VFR","metarType":"METAR","geometry_esri":{"x":47.42,"y":19.27,"z":185}}}