{"type":"Feature","geometry":{"type":"Point","coordinates":[47.42,19.27,185]},"properties":{"stationId":"LHBP","rawText":"LHBP 161030Z 28019KT 250V310 9999 SCT035 10/03 Q1012 NOSIG","observationTime":"2019-03-16T10:30:00Z","temp":10,"dewpoint":3,"windDirection":280,"windSpeed":35.188,"visibility":6.21,"altim":29.88189,"flightCategory":"VFR","metarType":"METAR","geometry_esri":{"x":47.42,"y":19.27,"z":185}}}