{"type":"Feature","geometry":{"type":"Point","coordinates":[47.42,19.27,185]},"properties":{"stationId":"LHBP","rawText":"LHBP 061030Z 12009KT 5000 -RA BR SCT004 OVC042 05/04 Q1001 NOSIG","observationTime":"2020-03-06T10:30:00Z","temp":5,"dewpoint":4,"windDirection":120,"windSpeed":16.668,"visibility":3.11,"altim":29.557087,"flightCategory":"MVFR","metarType":"METAR","geometry_esri":{"x":47.42,"y":19.27,"z":185}}}