{"type":"Feature","geometry":{"type":"Point","coordinates":[47.42,19.27,185]},"properties":{"stationId":"LHBP","rawText":"LHBP 201130Z VRB01KT 3500 BR FEW006 BKN053 03/02 Q1044 NOSIG","observationTime":"2020-01-20T11:30:00Z","temp":3,"dewpoint":2,"windDirection":0,"windSpeed":1.852,"visibility":2.17,"altim":30.82677,"flightCategory":"IFR","metarType":"METAR","geometry_esri":{"x":47.42,"y":19.27,"z":185}}}