{"type":"Feature","geometry":{"type":"Point","coordinates":[47.42,19.27,185]},"properties":{"stationId":"LHBP","rawText":"LHBP 202330Z AUTO 02004KT 350V070 9999 NCD 08/M05 Q1021 NOSIG","observationTime":"2020-04-20T23:30:00Z","temp":8,"dewpoint":-5,"windDirection":20,"windSpeed":7.408,"visibility":6.21,"altim":30.147638,"flightCategory":"VFR","metarType":"METAR","geometry_esri":{"x":47.42,"y":19.27,"z":185}}}