{"type":"Feature","geometry":{"type":"Point","coordinates":[47.78,13.02,430]},"properties":{"stationId":"LOWS","rawText":"LOWS 222150Z 27010KT 220V320 9999 -RA FEW028 SCT036 BKN048 07/02 Q0997","observationTime":"2019-12-22T21:50:00Z","temp":7,"dewpoint":2,"windDirection":270,"windSpeed":18.52,"visibility":6.21,"altim":29.438976,"flightCategory":"VFR","metarType":"METAR","geometry_esri":{"x":47.78,"y":13.02,"z":430}}}