{"type":"Feature","geometry":{"type":"Point","coordinates":[47.42,19.27,185]},"properties":{"stationId":"LHBP","rawText":"LHBP 141730Z 31005KT CAVOK 18/08 Q1012 NOSIG","observationTime":"2020-05-14T17:30:00Z","temp":18,"dewpoint":8,"windDirection":310,"windSpeed":9.26,"visibility":6.21,"altim":29.88189,"flightCategory":"VFR","metarType":"METAR","geometry_esri":{"x":47.42,"y":19.27,"z":185}}}