{"type":"Feature","geometry":{"type":"Point","coordinates":[47.78,13.02,430]},"properties":{"stationId":"LOWS","rawText":"LOWS 250750Z 14005KT 9999 -RA FEW005 SCT018 BKN028 04/03 Q1015 RERA TEMPO 28015G25KT RA","observationTime":"2019-12-25T07:50:00Z","temp":4,"dewpoint":3,"windDirection":140,"windSpeed":9.26,"visibility":6.21,"altim":29.970472,"flightCategory":"MVFR","metarType":"SPECI","geometry_esri":{"x":47.78,"y":13.02,"z":430}}}