{"type":"Feature","geometry":{"type":"Point","coordinates":[47.78,13.02,430]},"properties":{"stationId":"LOWS","rawText":"LOWS 291550Z 27007KT 230V310 9999 FEW024 SCT035 BKN050 08/03 Q1011 TEMPO SHRA","observationTime":"2019-11-29T15:50:00Z","temp":8,"dewpoint":3,"windDirection":270,"windSpeed":12.964,"visibility":6.21,"altim":29.852362,"flightCategory":"VFR","metarType":"METAR","geometry_esri":{"x":47.78,"y":13.02,"z":430}}}