{"type":"Feature","geometry":{"type":"Point","coordinates":[47.78,13.02,430]},"properties":{"stationId":"LOWS","rawText":"LOWS 261350Z 01004KT 300V040 9999 -RA FEW020 BKN050 18/12 Q1016 NOSIG","observationTime":"2019-09-26T13:50:00Z","temp":18,"dewpoint":12,"windDirection":10,"windSpeed":7.408,"visibility":6.21,"altim":30,"flightCategory":"VFR","metarType":"METAR","geometry_esri":{"x":47.78,"y":13.02,"z":430}}}