{"type":"Feature","geometry":{"type":"Point","coordinates":[47.42,19.27,185]},"properties":{"stationId":"LHBP","rawText":"LHBP 161630Z 34004KT 7000 BKN041 05/04 Q1018 TEMPO 2500 BR","observationTime":"2019-12-16T16:30:00Z","temp":5,"dewpoint":4,"windDirection":340,"windSpeed":7.408,"visibility":4.35,"altim":30.059055,"flightCategory":"MVFR","metarType":"SPECI","geometry_esri":{"x":47.42,"y":19.27,"z":185}}}