{"type":"Feature","geometry":{"type":"Point","coordinates":[47.42,19.27,185]},"properties":{"stationId":"LHBP","rawText":"LHBP 141130Z 21005KT 150V270 CAVOK 31/16 Q1017 NOSIG","observationTime":"2019-06-14T11:30:00Z","temp":31,"dewpoint":16,"windDirection":210,"windSpeed":9.26,"visibility":6.21,"altim":30.029528,"flightCategory":"VFR","metarType":"METAR","geometry_esri":{"x":47.42,"y":19.27,"z":185}}}