{"type":"Feature","geometry":{"type":"Point","coordinates":[47.78,13.02,430]},"properties":{"stationId":"LOWS","rawText":"LOWS 060050Z AUTO VRB01KT 0450 R15/0600N R33/0650D FZFG BKN001 M07/M07 Q1029","observationTime":"2019-02-06T00:50:00Z","temp":-7,"dewpoint":-7,"windDirection":0,"windSpeed":1.852,"visibility":0.28,"altim":30.383858,"flightCategory":"LIFR","metarType":"METAR","geometry_esri":{"x":47.78,"y":13.02,"z":430}}}