{"type":"Feature","geometry":{"type":"Point","coordinates":[47.78,13.02,430]},"properties":{"stationId":"LOWS","rawText":"LOWS 271450Z 01003KT 310V070 CAVOK 16/01 Q1025 NOSIG","observationTime":"2019-02-27T14:50:00Z","temp":16,"dewpoint":1,"windDirection":10,"windSpeed":5.556,"visibility":6.21,"altim":30.265747,"flightCategory":"VFR","metarType":"METAR","geometry_esri":{"x":47.78,"y":13.02,"z":430}}}