{"type":"Feature","geometry":{"type":"Point","coordinates":[47.78,13.02,430]},"properties":{"stationId":"LOWS","rawText":"LOWS 082350Z AUTO 28017G31KT 250V310 9999 FEW008 SCT020 BKN030 03/M01 Q1009","observationTime":"2019-01-08T23:50:00Z","temp":3,"dewpoint":-1,"windDirection":280,"windSpeed":31.484,"visibility":6.21,"altim":29.793306,"flightCategory":"MVFR","metarType":"METAR","geometry_esri":{"x":47.78,"y":13.02,"z":430}}}