{"type":"Feature","geometry":{"type":"Point","coordinates":[47.42,19.27,185]},"properties":{"stationId":"LHBP","rawText":"LHBP 070230Z 33008KT 1800 BR BKN002 04/04 Q1005 NOSIG","observationTime":"2020-03-07T02:30:00Z","temp":4,"dewpoint":4,"windDirection":330,"windSpeed":14.816,"visibility":1.12,"altim":29.675198,"flightCategory":"LIFR","metarType":"METAR","geometry_esri":{"x":47.42,"y":19.27,"z":185}}}