{"type":"Feature","geometry":{"type":"Point","coordinates":[47.42,19.27,185]},"properties":{"stationId":"LHBP","rawText":"LHBP 152030Z 15006KT 9999 FEW014 OVC034 10/10 Q1014 NOSIG","observationTime":"2019-05-15T20:30:00Z","temp":10,"dewpoint":10,"windDirection":150,"windSpeed":11.112,"visibility":6.21,"altim":29.940945,"flightCategory":"VFR","metarType":"METAR","geometry_esri":{"x":47.42,"y":19.27,"z":185}}}