{"type":"Feature","geometry":{"type":"Point","coordinates":[47.78,13.02,430]},"properties":{"stationId":"LOWS","rawText":"LOWS 022050Z 29009KT 9999 R15/P1500U R33/P1500U FEW020 SCT040 BKN070 M01/M07 Q1030 R15/29//95 TEMPO 4000 SHSN","observationTime":"2019-01-02T20:50:00Z","temp":-1,"dewpoint":-7,"windDirection":290,"windSpeed":16.668,"visibility":6.21,"altim":30.413385,"flightCategory":"VFR","metarType":"METAR","geometry_esri":{"x":47.78,"y":13.02,"z":430}}}