{"type":"Feature","geometry":{"type":"Point","coordinates":[47.78,13.02,430]},"properties":{"stationId":"LOWS","rawText":"LOWS 291250Z 34006KT 300V020 9999 FEW045 BKN075 10/01 Q1016 NOSIG","observationTime":"2020-03-29T12:50:00Z","temp":10,"dewpoint":1,"windDirection":340,"windSpeed":11.112,"visibility":6.21,"altim":30,"flightCategory":"VFR","metarType":"METAR","geometry_esri":{"x":47.78,"y":13.02,"z":430}}}