{"type":"Feature","geometry":{"type":"Point","coordinates":[47.42,19.27,185]},"properties":{"stationId":"LHBP","rawText":"LHBP 280730Z 34004KT 290V030 CAVOK 07/M06 Q1031 NOSIG","observationTime":"2019-03-28T07:30:00Z","temp":7,"dewpoint":-6,"windDirection":340,"windSpeed":7.408,"visibility":6.21,"altim":30.442913,"flightCategory":"VFR","metarType":"METAR","geometry_esri":{"x":47.42,"y":19.27,"z":185}}}