{"type":"Feature","geometry":{"type":"Point","coordinates":[47.42,19.27,185]},"properties":{"stationId":"LHBP","rawText":"LHBP 031530Z 30003KT CAVOK 00/M02 Q1026 R13L/CLRD// NOSIG","observationTime":"2019-12-03T15:30:00Z","temp":0,"dewpoint":-2,"windDirection":300,"windSpeed":5.556,"visibility":6.21,"altim":30.295275,"flightCategory":"VFR","metarType":"SPECI","geometry_esri":{"x":47.42,"y":19.27,"z":185}}}