{"type":"Feature","geometry":{"type":"Point","coordinates":[47.42,19.27,185]},"properties":{"stationId":"LHBP","rawText":"LHBP 160930Z 19010KT CAVOK 08/M04 Q1030 NOSIG","observationTime":"2020-03-16T09:30:00Z","temp":8,"dewpoint":-4,"windDirection":190,"windSpeed":18.52,"visibility":6.21,"altim":30.413385,"flightCategory":"VFR","metarType":"METAR","geometry_esri":{"x":47.42,"y":19.27,"z":185}}}