{"type":"Feature","geometry":{"type":"Point","coordinates":[47.42,19.27,185]},"properties":{"stationId":"LHBP","rawText":"LHBP 261951Z 25008G27KT 200V280 9999 SQ FEW041CB BKN100 22/08 Q1012 TEMPO TSRA SCT045CB BKN100","observationTime":"2019-04-26T19:51:00Z","temp":22,"dewpoint":8,"windDirection":250,"windSpeed":14.816,"visibility":6.21,"altim":29.88189,"flightCategory":"VFR","metarType":"SPECI","geometry_esri":{"x":47.42,"y":19.27,"z":185}}}