{"type":"Feature","geometry":{"type":"Point","coordinates":[47.47,21.62,112]},"properties":{"stationId":"LHDC","rawText":"LHDC 091047Z AUTO VRB03KT 9999 TS BKN066 //////CB 21/16 Q1013 RESHRA","observationTime":"2019-09-09T10:47:00Z","temp":21,"dewpoint":16,"windDirection":0,"windSpeed":5.556,"visibility":6.21,"altim":29.911417,"flightCategory":"VFR","metarType":"SPECI","geometry_esri":{"x":47.47,"y":21.62,"z":112}}}