{"type":"Feature","geometry":{"type":"Point","coordinates":[47.42,19.27,185]},"properties":{"stationId":"LHBP","rawText":"LHBP 091249Z 22006KT 5000 -TSRA SCT009 FEW021CB SCT035 OVC069 18/18 Q1011 TEMPO 3000 TSRA","observationTime":"2019-09-09T12:49:00Z","temp":18,"dewpoint":18,"windDirection":220,"windSpeed":11.112,"visibility":3.11,"altim":29.852362,"flightCategory":"MVFR","metarType":"SPECI","geometry_esri":{"x":47.42,"y":19.27,"z":185}}}