{"type":"Feature","geometry":{"type":"Point","coordinates":[47.42,19.27,185]},"properties":{"stationId":"LHBP","rawText":"LHBP 171730Z 11007KT 1100 R13R/1600U R13L/1300N -FZDZ BCFG OVC002 M03/M03 Q1028 NOSIG","observationTime":"2020-01-17T17:30:00Z","temp":-3,"dewpoint":-3,"windDirection":110,"windSpeed":12.964,"visibility":0.68,"altim":30.35433,"flightCategory":"LIFR","metarType":"SPECI","geometry_esri":{"x":47.42,"y":19.27,"z":185}}}