{"type":"Feature","geometry":{"type":"Point","coordinates":[47.78,13.02,430]},"properties":{"stationId":"LOWS","rawText":"LOWS 270950Z 15003KT 5000 -RA BR FEW003 SCT012 BKN024 02/01 Q1024 TEMPO 4000 RA BKN012","observationTime":"2019-12-27T09:50:00Z","temp":2,"dewpoint":1,"windDirection":150,"windSpeed":5.556,"visibility":3.11,"altim":30.236221,"flightCategory":"MVFR","metarType":"METAR","geometry_esri":{"x":47.78,"y":13.02,"z":430}}}