{"type":"Feature","geometry":{"type":"Point","coordinates":[47.78,13.02,430]},"properties":{"stationId":"LOWS","rawText":"LOWS 202250Z AUTO 16011KT 9999 NSC 01/M01 Q1019","observationTime":"2020-02-20T22:50:00Z","temp":1,"dewpoint":-1,"windDirection":160,"windSpeed":20.372,"visibility":6.21,"altim":30.088583,"flightCategory":"VFR","metarType":"METAR","geometry_esri":{"x":47.78,"y":13.02,"z":430}}}