{"type":"Feature","geometry":{"type":"Point","coordinates":[47.42,19.27,185]},"properties":{"stationId":"LHBP","rawText":"LHBP 031430Z 27003KT 230V300 2500 BR OVC002 M02/M03 Q1027 NOSIG","observationTime":"2020-01-03T14:30:00Z","temp":-2,"dewpoint":-3,"windDirection":270,"windSpeed":5.556,"visibility":1.55,"altim":30.324802,"flightCategory":"LIFR","metarType":"METAR","geometry_esri":{"x":47.42,"y":19.27,"z":185}}}