{"type":"Feature","geometry":{"type":"Point","coordinates":[47.78,13.02,430]},"properties":{"stationId":"LOWS","rawText":"LOWS 071750Z 15006KT 9999 FEW045 BKN060 04/03 Q1019 R15/29//95 NOSIG","observationTime":"2019-12-07T17:50:00Z","temp":4,"dewpoint":3,"windDirection":150,"windSpeed":11.112,"visibility":6.21,"altim":30.088583,"flightCategory":"VFR","metarType":"METAR","geometry_esri":{"x":47.78,"y":13.02,"z":430}}}