{"type":"Feature","geometry":{"type":"Point","coordinates":[47.42,19.27,185]},"properties":{"stationId":"LHBP","rawText":"LHBP 210730Z 13006KT CAVOK 17/15 Q1021 NOSIG","observationTime":"2019-10-21T07:30:00Z","temp":17,"dewpoint":15,"windDirection":130,"windSpeed":11.112,"visibility":6.21,"altim":30.147638,"flightCategory":"VFR","metarType":"METAR","geometry_esri":{"x":47.42,"y":19.27,"z":185}}}