{"type":"Feature","geometry":{"type":"Point","coordinates":[47.47,21.62,112]},"properties":{"stationId":"LHDC","rawText":"LHDC 111736Z AUTO 07003KT 5000 BR NCD 05/04 Q1018","observationTime":"2019-11-11T17:36:00Z","temp":5,"dewpoint":4,"windDirection":70,"windSpeed":5.556,"visibility":3.11,"altim":30.059055,"flightCategory":"MVFR","metarType":"SPECI","geometry_esri":{"x":47.47,"y":21.62,"z":112}}}