{"type":"Feature","geometry":{"type":"Point","coordinates":[47.78,13.02,430]},"properties":{"stationId":"LOWS","rawText":"LOWS 140450Z 15013KT CAVOK 00/M07 Q1018 NOSIG","observationTime":"2020-01-14T04:50:00Z","temp":0,"dewpoint":-7,"windDirection":150,"windSpeed":24.076,"visibility":6.21,"altim":30.059055,"flightCategory":"VFR","metarType":"METAR","geometry_esri":{"x":47.78,"y":13.02,"z":430}}}