{"type":"Feature","geometry":{"type":"Point","coordinates":[47.78,13.02,430]},"properties":{"stationId":"LOWS","rawText":"LOWS 120250Z AUTO 14005KT 9999 -SHRA FEW032 SCT042 BKN050 03/02 Q1010","observationTime":"2019-11-12T02:50:00Z","temp":3,"dewpoint":2,"windDirection":140,"windSpeed":9.26,"visibility":6.21,"altim":29.822834,"flightCategory":"VFR","metarType":"METAR","geometry_esri":{"x":47.78,"y":13.02,"z":430}}}