{"type":"Feature","geometry":{"type":"Point","coordinates":[47.42,19.27,185]},"properties":{"stationId":"LHBP","rawText":"LHBP 310630Z VRB02KT 3000 BR OVC035 M02/M02 Q1003 R88/29//95 NOSIG","observationTime":"2019-01-31T06:30:00Z","temp":-2,"dewpoint":-2,"windDirection":0,"windSpeed":3.704,"visibility":1.86,"altim":29.616142,"flightCategory":"IFR","metarType":"METAR","geometry_esri":{"x":47.42,"y":19.27,"z":185}}}