{"type":"Feature","geometry":{"type":"Point","coordinates":[47.42,19.27,185]},"properties":{"stationId":"LHBP","rawText":"LHBP 051830Z 14007KT 9999 FEW043 19/19 Q1011 NOSIG","observationTime":"2019-06-05T18:30:00Z","temp":19,"dewpoint":19,"windDirection":140,"windSpeed":12.964,"visibility":6.21,"altim":29.852362,"flightCategory":"VFR","metarType":"METAR","geometry_esri":{"x":47.42,"y":19.27,"z":185}}}