{"type":"Feature","geometry":{"type":"Point","coordinates":[47.78,13.02,430]},"properties":{"stationId":"LOWS","rawText":"LOWS 212150Z 18005KT 4500 BR FEW003 BKN004 M03/M03 Q1037 R15/19//95 NOSIG","observationTime":"2020-01-21T21:50:00Z","temp":-3,"dewpoint":-3,"windDirection":180,"windSpeed":9.26,"visibility":2.8,"altim":30.620079,"flightCategory":"LIFR","metarType":"METAR","geometry_esri":{"x":47.78,"y":13.02,"z":430}}}