{"type":"Feature","geometry":{"type":"Point","coordinates":[47.42,19.27,185]},"properties":{"stationId":"LHBP","rawText":"LHBP 060442Z 24008KT 5000 BR FEW005 SCT014 OVC028 10/10 Q1001 BECMG 6000 NSW","observationTime":"2019-11-06T04:42:00Z","temp":10,"dewpoint":10,"windDirection":240,"windSpeed":14.816,"visibility":3.11,"altim":29.557087,"flightCategory":"MVFR","metarType":"SPECI","geometry_esri":{"x":47.42,"y":19.27,"z":185}}}