{"type":"Feature","geometry":{"type":"Point","coordinates":[47.78,13.02,430]},"properties":{"stationId":"LOWS","rawText":"LOWS 221650Z 05011KT CAVOK 18/02 Q1015 NOSIG","observationTime":"2020-04-22T16:50:00Z","temp":18,"dewpoint":2,"windDirection":50,"windSpeed":20.372,"visibility":6.21,"altim":29.970472,"flightCategory":"VFR","metarType":"METAR","geometry_esri":{"x":47.78,"y":13.02,"z":430}}}