{"type":"Feature","geometry":{"type":"Point","coordinates":[47.42,19.27,185]},"properties":{"stationId":"LHBP","rawText":"LHBP 101130Z 33010KT CAVOK 07/04 Q1017 NOSIG","observationTime":"2019-12-10T11:30:00Z","temp":7,"dewpoint":4,"windDirection":330,"windSpeed":18.52,"visibility":6.21,"altim":30.029528,"flightCategory":"VFR","metarType":"METAR","geometry_esri":{"x":47.42,"y":19.27,"z":185}}}