{"type":"Feature","geometry":{"type":"Point","coordinates":[47.42,19.27,185]},"properties":{"stationId":"LHBP","rawText":"LHBP 241630Z 12003KT 5000 BR OVC006 M02/M03 Q1026 NOSIG","observationTime":"2020-01-24T16:30:00Z","temp":-2,"dewpoint":-3,"windDirection":120,"windSpeed":5.556,"visibility":3.11,"altim":30.295275,"flightCategory":"IFR","metarType":"METAR","geometry_esri":{"x":47.42,"y":19.27,"z":185}}}