{"type":"Feature","geometry":{"type":"Point","coordinates":[47.78,13.02,430]},"properties":{"stationId":"LOWS","rawText":"LOWS 091350Z 31007KT 270V340 9999 FEW042 SCT050 BKN060 19/09 Q1017 NOSIG","observationTime":"2019-07-09T13:50:00Z","temp":19,"dewpoint":9,"windDirection":310,"windSpeed":12.964,"visibility":6.21,"altim":30.029528,"flightCategory":"VFR","metarType":"METAR","geometry_esri":{"x":47.78,"y":13.02,"z":430}}}