{"type":"Feature","geometry":{"type":"Point","coordinates":[47.42,19.27,185]},"properties":{"stationId":"LHBP","rawText":"LHBP 060430Z 12005KT 090V200 4000 BR SCT002 16/16 Q1012 BECMG 5000","observationTime":"2019-06-06T04:30:00Z","temp":16,"dewpoint":16,"windDirection":120,"windSpeed":9.26,"visibility":2.49,"altim":29.88189,"flightCategory":"IFR","metarType":"SPECI","geometry_esri":{"x":47.42,"y":19.27,"z":185}}}