{"type":"Feature","geometry":{"type":"Point","coordinates":[47.78,13.02,430]},"properties":{"stationId":"LOWS","rawText":"LOWS 031050Z 21004KT 160V260 9999 VCTS FEW030 FEW040CB SCT048 23/15 Q1014 TEMPO 32015G30KT 2000 TSRA","observationTime":"2019-08-03T10:50:00Z","temp":23,"dewpoint":15,"windDirection":210,"windSpeed":7.408,"visibility":6.21,"altim":29.940945,"flightCategory":"VFR","metarType":"METAR","geometry_esri":{"x":47.78,"y":13.02,"z":430}}}