{"type":"Feature","geometry":{"type":"Point","coordinates":[47.78,13.02,430]},"properties":{"stationId":"LOWS","rawText":"LOWS 281950Z 26004KT 220V300 9999 SCT040 BKN055 01/M03 Q1001 TEMPO 28015G30KT 4000 SHSN","observationTime":"2019-01-28T19:50:00Z","temp":1,"dewpoint":-3,"windDirection":260,"windSpeed":7.408,"visibility":6.21,"altim":29.557087,"flightCategory":"VFR","metarType":"METAR","geometry_esri":{"x":47.78,"y":13.02,"z":430}}}