{"type":"Feature","geometry":{"type":"Point","coordinates":[47.78,13.02,430]},"properties":{"stationId":"LOWS","rawText":"LOWS 202150Z AUTO 20011KT 170V230 9999 RA FEW034 SCT038 BKN046 10/09 Q1004","observationTime":"2019-05-20T21:50:00Z","temp":10,"dewpoint":9,"windDirection":200,"windSpeed":20.372,"visibility":6.21,"altim":29.64567,"flightCategory":"VFR","metarType":"METAR","geometry_esri":{"x":47.78,"y":13.02,"z":430}}}