{"type":"Feature","geometry":{"type":"Point","coordinates":[47.42,19.27,185]},"properties":{"stationId":"LHBP","rawText":"LHBP 171330Z VRB03KT 9999 BKN047 21/10 Q1018 NOSIG","observationTime":"2019-10-17T13:30:00Z","temp":21,"dewpoint":10,"windDirection":0,"windSpeed":5.556,"visibility":6.21,"altim":30.059055,"flightCategory":"VFR","metarType":"METAR","geometry_esri":{"x":47.42,"y":19.27,"z":185}}}