{"type":"Feature","geometry":{"type":"Point","coordinates":[47.78,13.02,430]},"properties":{"stationId":"LOWS","rawText":"LOWS 050350Z AUTO 28017KT 9999 FEW020 BKN050 02/M02 Q1019","observationTime":"2020-02-05T03:50:00Z","temp":2,"dewpoint":-2,"windDirection":280,"windSpeed":31.484,"visibility":6.21,"altim":30.088583,"flightCategory":"VFR","metarType":"METAR","geometry_esri":{"x":47.78,"y":13.02,"z":430}}}