{"type":"Feature","geometry":{"type":"Point","coordinates":[47.78,13.02,430]},"properties":{"stationId":"LOWS","rawText":"LOWS 231150Z 33004KT 290V040 9999 FEW016 BKN037 21/16 Q1025 NOSIG","observationTime":"2019-08-23T11:50:00Z","temp":21,"dewpoint":16,"windDirection":330,"windSpeed":7.408,"visibility":6.21,"altim":30.265747,"flightCategory":"VFR","metarType":"METAR","geometry_esri":{"x":47.78,"y":13.02,"z":430}}}