{"type":"Feature","geometry":{"type":"Point","coordinates":[47.42,19.27,185]},"properties":{"stationId":"LHBP","rawText":"LHBP 271430Z 30016KT 9999 VCSH SCT055TCU 32/22 Q1014 TEMPO SHRA FEW050CB SCT055","observationTime":"2019-06-27T14:30:00Z","temp":32,"dewpoint":22,"windDirection":300,"windSpeed":29.632,"visibility":6.21,"altim":29.940945,"flightCategory":"VFR","metarType":"SPECI","geometry_esri":{"x":47.42,"y":19.27,"z":185}}}