{"type":"Feature","geometry":{"type":"Point","coordinates":[47.42,19.27,185]},"properties":{"stationId":"LHBP","rawText":"LHBP 051930Z 10005KT 080V150 4000 SHRA BR SCT005 FEW025CB OVC065 13/13 Q0997 TEMPO 2500 +SHRA","observationTime":"2019-11-05T19:30:00Z","temp":13,"dewpoint":13,"windDirection":100,"windSpeed":9.26,"visibility":2.49,"altim":29.438976,"flightCategory":"IFR","metarType":"SPECI","geometry_esri":{"x":47.42,"y":19.27,"z":185}}}