{"type":"Feature","geometry":{"type":"Point","coordinates":[47.42,19.27,185]},"properties":{"stationId":"LHBP","rawText":"LHBP 090330Z 01002KT CAVOK 08/06 Q1015 NOSIG","observationTime":"2020-05-09T03:30:00Z","temp":8,"dewpoint":6,"windDirection":10,"windSpeed":3.704,"visibility":6.21,"altim":29.970472,"flightCategory":"VFR","metarType":"METAR","geometry_esri":{"x":47.42,"y":19.27,"z":185}}}