{"type":"Feature","geometry":{"type":"Point","coordinates":[47.78,13.02,430]},"properties":{"stationId":"LOWS","rawText":"LOWS 261650Z 13005KT 5000 -RA BR FEW015 BKN030 BKN045 14/13 Q1017 TEMPO RA","observationTime":"2019-09-26T16:50:00Z","temp":14,"dewpoint":13,"windDirection":130,"windSpeed":9.26,"visibility":3.11,"altim":30.029528,"flightCategory":"MVFR","metarType":"METAR","geometry_esri":{"x":47.78,"y":13.02,"z":430}}}