{"type":"Feature","geometry":{"type":"Point","coordinates":[47.42,19.27,185]},"properties":{"stationId":"LHBP","rawText":"LHBP 041630Z 10005KT 3300 -SG BR BKN004 OVC010 M02/M03 Q1031 NOSIG","observationTime":"2019-12-04T16:30:00Z","temp":-2,"dewpoint":-3,"windDirection":100,"windSpeed":9.26,"visibility":2.05,"altim":30.442913,"flightCategory":"LIFR","metarType":"METAR","geometry_esri":{"x":47.42,"y":19.27,"z":185}}}