{"type":"Feature","geometry":{"type":"Point","coordinates":[47.78,13.02,430]},"properties":{"stationId":"LOWS","rawText":"LOWS 290350Z AUTO 31004KT 4200 -RA BR FEW003 SCT004 BKN008 07/07 Q1017","observationTime":"2019-10-29T03:50:00Z","temp":7,"dewpoint":7,"windDirection":310,"windSpeed":7.408,"visibility":2.61,"altim":30.029528,"flightCategory":"IFR","metarType":"METAR","geometry_esri":{"x":47.78,"y":13.02,"z":430}}}