{"type":"Feature","geometry":{"type":"Point","coordinates":[47.42,19.27,185]},"properties":{"stationId":"LHBP","rawText":"LHBP 061130Z 13006KT 090V170 9999 -SHRA FEW016 FEW021CB SCT026 BKN065 12/08 Q1009 TEMPO 4000 SHRA","observationTime":"2019-04-06T11:30:00Z","temp":12,"dewpoint":8,"windDirection":130,"windSpeed":11.112,"visibility":6.21,"altim":29.793306,"flightCategory":"VFR","metarType":"SPECI","geometry_esri":{"x":47.42,"y":19.27,"z":185}}}