{"type":"Feature","geometry":{"type":"Point","coordinates":[47.78,13.02,430]},"properties":{"stationId":"LOWS","rawText":"LOWS 080650Z 36003KT 7000 FEW004 BKN012 BKN036 15/13 Q1017 TEMPO SHRA SCT012 BKN040","observationTime":"2019-07-08T06:50:00Z","temp":15,"dewpoint":13,"windDirection":360,"windSpeed":5.556,"visibility":4.35,"altim":30.029528,"flightCategory":"MVFR","metarType":"METAR","geometry_esri":{"x":47.78,"y":13.02,"z":430}}}