{"type":"Feature","geometry":{"type":"Point","coordinates":[47.78,13.02,430]},"properties":{"stationId":"LOWS","rawText":"LOWS 070450Z VRB02KT 8000 -RA FEW007 SCT012 BKN018 02/00 Q1029 R15/29//95 TEMPO 4000 RASN","observationTime":"2019-01-07T04:50:00Z","temp":2,"dewpoint":0,"windDirection":0,"windSpeed":3.704,"visibility":4.97,"altim":30.383858,"flightCategory":"MVFR","metarType":"METAR","geometry_esri":{"x":47.78,"y":13.02,"z":430}}}