{"type":"Feature","geometry":{"type":"Point","coordinates":[47.42,19.27,185]},"properties":{"stationId":"LHBP","rawText":"LHBP 172230Z VRB02KT 8000 NSC 01/00 Q1018 NOSIG","observationTime":"2020-02-17T22:30:00Z","temp":1,"dewpoint":0,"windDirection":0,"windSpeed":3.704,"visibility":4.97,"altim":30.059055,"flightCategory":"MVFR","metarType":"METAR","geometry_esri":{"x":47.42,"y":19.27,"z":185}}}