{"type":"Feature","geometry":{"type":"Point","coordinates":[47.78,13.02,430]},"properties":{"stationId":"LOWS","rawText":"LOWS 110950Z 29012KT 250V310 0900 R33/1200D SHSN FEW004 SCT007 BKN010 00/M01 Q1019 R15/590195 TEMPO 3000 -SHSN SCT012 BKN020","observationTime":"2019-03-11T09:50:00Z","temp":0,"dewpoint":-1,"windDirection":290,"windSpeed":22.224,"visibility":0.56,"altim":30.088583,"flightCategory":"LIFR","metarType":"METAR","geometry_esri":{"x":47.78,"y":13.02,"z":430}}}