{"type":"Feature","geometry":{"type":"Point","coordinates":[47.42,19.27,185]},"properties":{"stationId":"LHBP","rawText":"LHBP 271430Z 31013KT 9999 FEW036 BKN150 15/08 Q1011 NOSIG","observationTime":"2019-04-27T14:30:00Z","temp":15,"dewpoint":8,"windDirection":310,"windSpeed":24.076,"visibility":6.21,"altim":29.852362,"flightCategory":"VFR","metarType":"METAR","geometry_esri":{"x":47.42,"y":19.27,"z":185}}}