{"type":"Feature","geometry":{"type":"Point","coordinates":[47.42,19.27,185]},"properties":{"stationId":"LHBP","rawText":"LHBP 270230Z 11004KT 4200 BR FEW034 05/05 Q1010 NOSIG","observationTime":"2019-11-27T02:30:00Z","temp":5,"dewpoint":5,"windDirection":110,"windSpeed":7.408,"visibility":2.61,"altim":29.822834,"flightCategory":"IFR","metarType":"METAR","geometry_esri":{"x":47.42,"y":19.27,"z":185}}}