{"type":"Feature","geometry":{"type":"Point","coordinates":[47.78,13.02,430]},"properties":{"stationId":"LOWS","rawText":"LOWS 281250Z 30008KT 240V340 9999 FEW025 BKN050 04/M04 Q1020 R15/19//95 TEMPO -SHSN","observationTime":"2020-02-28T12:50:00Z","temp":4,"dewpoint":-4,"windDirection":300,"windSpeed":14.816,"visibility":6.21,"altim":30.11811,"flightCategory":"VFR","metarType":"SPECI","geometry_esri":{"x":47.78,"y":13.02,"z":430}}}