{"type":"Feature","geometry":{"type":"Point","coordinates":[47.78,13.02,430]},"properties":{"stationId":"LOWS","rawText":"LOWS 100850Z 34006KT 310V010 9999 -SHRASN FEW009 BKN016 02/00 Q1026 NOSIG","observationTime":"2019-12-10T08:50:00Z","temp":2,"dewpoint":0,"windDirection":340,"windSpeed":11.112,"visibility":6.21,"altim":30.295275,"flightCategory":"MVFR","metarType":"METAR","geometry_esri":{"x":47.78,"y":13.02,"z":430}}}