{"type":"Feature","geometry":{"type":"Point","coordinates":[47.78,13.02,430]},"properties":{"stationId":"LOWS","rawText":"LOWS 230350Z AUTO 24009KT 210V270 9999 -RA FEW018 BKN032 06/04 Q1024","observationTime":"2018-12-23T03:50:00Z","temp":6,"dewpoint":4,"windDirection":240,"windSpeed":16.668,"visibility":6.21,"altim":30.236221,"flightCategory":"VFR","metarType":"METAR","geometry_esri":{"x":47.78,"y":13.02,"z":430}}}