{"type":"Feature","geometry":{"type":"Point","coordinates":[47.42,19.27,185]},"properties":{"stationId":"LHBP","rawText":"LHBP 151430Z 28004KT 240V320 9999 SCT046 10/02 Q1033 NOSIG","observationTime":"2019-02-15T14:30:00Z","temp":10,"dewpoint":2,"windDirection":280,"windSpeed":7.408,"visibility":6.21,"altim":30.501968,"flightCategory":"VFR","metarType":"METAR","geometry_esri":{"x":47.42,"y":19.27,"z":185}}}