{"type":"Feature","geometry":{"type":"Point","coordinates":[47.47,21.62,112]},"properties":{"stationId":"LHDC","rawText":"LHDC 062052Z AUTO 17002KT 3200 BR SCT003 BKN013 M01/M01 Q1022","observationTime":"2019-12-06T20:52:00Z","temp":-1,"dewpoint":-1,"windDirection":170,"windSpeed":3.704,"visibility":1.99,"altim":30.177166,"flightCategory":"IFR","metarType":"SPECI","geometry_esri":{"x":47.47,"y":21.62,"z":112}}}