{"type":"Feature","geometry":{"type":"Point","coordinates":[47.78,13.02,430]},"properties":{"stationId":"LOWS","rawText":"LOWS 250250Z AUTO 16003KT 130V190 9999 NSC 08/08 Q1020","observationTime":"2019-10-25T02:50:00Z","temp":8,"dewpoint":8,"windDirection":160,"windSpeed":5.556,"visibility":6.21,"altim":30.11811,"flightCategory":"VFR","metarType":"METAR","geometry_esri":{"x":47.78,"y":13.02,"z":430}}}