{"type":"Feature","geometry":{"type":"Point","coordinates":[47.78,13.02,430]},"properties":{"stationId":"LOWS","rawText":"LOWS 311650Z 23003KT CAVOK M02/M06 Q0998 NOSIG","observationTime":"2019-01-31T16:50:00Z","temp":-2,"dewpoint":-6,"windDirection":230,"windSpeed":5.556,"visibility":6.21,"altim":29.468504,"flightCategory":"VFR","metarType":"METAR","geometry_esri":{"x":47.78,"y":13.02,"z":430}}}