{"type":"Feature","geometry":{"type":"Point","coordinates":[47.42,19.27,185]},"properties":{"stationId":"LHBP","rawText":"LHBP 202330Z VRB02KT 1200 R13R/P1500N R31L/P1500N -FZDZ BR OVC002 M04/M04 Q1026 R88/510195 TEMPO FZDZ FZBCFG","observationTime":"2018-12-20T23:30:00Z","temp":-4,"dewpoint":-4,"windDirection":0,"windSpeed":3.704,"visibility":0.75,"altim":30.295275,"flightCategory":"LIFR","metarType":"METAR","geometry_esri":{"x":47.42,"y":19.27,"z":185}}}