{"type":"Feature","geometry":{"type":"Point","coordinates":[47.42,19.27,185]},"properties":{"stationId":"LHBP","rawText":"LHBP 291430Z 27008KT 9999 BKN016 BKN025 04/02 Q1009 NOSIG","observationTime":"2020-01-29T14:30:00Z","temp":4,"dewpoint":2,"windDirection":270,"windSpeed":14.816,"visibility":6.21,"altim":29.793306,"flightCategory":"MVFR","metarType":"METAR","geometry_esri":{"x":47.42,"y":19.27,"z":185}}}