{"type":"Feature","geometry":{"type":"Point","coordinates":[47.47,21.62,112]},"properties":{"stationId":"LHDC","rawText":"LHDC 090232Z AUTO 14004KT 5000 BR NCD 08/08 Q1010","observationTime":"2019-11-09T02:32:00Z","temp":8,"dewpoint":8,"windDirection":140,"windSpeed":7.408,"visibility":3.11,"altim":29.822834,"flightCategory":"MVFR","metarType":"SPECI","geometry_esri":{"x":47.47,"y":21.62,"z":112}}}