{"type":"Feature","geometry":{"type":"Point","coordinates":[47.42,19.27,185]},"properties":{"stationId":"LHBP","rawText":"LHBP 170730Z 19012KT CAVOK 11/06 Q1017 NOSIG","observationTime":"2019-12-17T07:30:00Z","temp":11,"dewpoint":6,"windDirection":190,"windSpeed":22.224,"visibility":6.21,"altim":30.029528,"flightCategory":"VFR","metarType":"METAR","geometry_esri":{"x":47.42,"y":19.27,"z":185}}}