{"type":"Feature","geometry":{"type":"Point","coordinates":[47.42,19.27,185]},"properties":{"stationId":"LHBP","rawText":"LHBP 270030Z 00000KT 2200 BCFG BR NSC 05/04 Q1022 BECMG 1400","observationTime":"2019-10-27T00:30:00Z","temp":5,"dewpoint":4,"windDirection":0,"windSpeed":0,"visibility":1.37,"altim":30.177166,"flightCategory":"IFR","metarType":"METAR","geometry_esri":{"x":47.42,"y":19.27,"z":185}}}