{"type":"Feature","geometry":{"type":"Point","coordinates":[47.42,19.27,185]},"properties":{"stationId":"LHBP","rawText":"LHBP 100230Z 08006KT 2700 BR BKN002 M01/M01 Q1023 NOSIG","observationTime":"2020-01-10T02:30:00Z","temp":-1,"dewpoint":-1,"windDirection":80,"windSpeed":11.112,"visibility":1.68,"altim":30.206694,"flightCategory":"LIFR","metarType":"METAR","geometry_esri":{"x":47.42,"y":19.27,"z":185}}}