{"type":"Feature","geometry":{"type":"Point","coordinates":[47.42,19.27,185]},"properties":{"stationId":"LHBP","rawText":"LHBP 222230Z 33005KT CAVOK 20/13 Q1020 NOSIG","observationTime":"2019-07-22T22:30:00Z","temp":20,"dewpoint":13,"windDirection":330,"windSpeed":9.26,"visibility":6.21,"altim":30.11811,"flightCategory":"VFR","metarType":"METAR","geometry_esri":{"x":47.42,"y":19.27,"z":185}}}