{"type":"Feature","geometry":{"type":"Point","coordinates":[47.42,19.27,185]},"properties":{"stationId":"LHBP","rawText":"LHBP 171630Z 24004KT CAVOK 14/M00 Q1027 NOSIG","observationTime":"2020-03-17T16:30:00Z","temp":14,"dewpoint":0,"windDirection":240,"windSpeed":7.408,"visibility":6.21,"altim":30.324802,"flightCategory":"VFR","metarType":"METAR","geometry_esri":{"x":47.42,"y":19.27,"z":185}}}