{"type":"Feature","geometry":{"type":"Point","coordinates":[47.78,13.02,430]},"properties":{"stationId":"LOWS","rawText":"LOWS 300750Z 01008KT 8000 -SN FEW006 SCT018 BKN024 00/M01 Q1023 TEMPO 3500","observationTime":"2020-03-30T07:50:00Z","temp":0,"dewpoint":-1,"windDirection":10,"windSpeed":14.816,"visibility":4.97,"altim":30.206694,"flightCategory":"MVFR","metarType":"METAR","geometry_esri":{"x":47.78,"y":13.02,"z":430}}}