{"type":"Feature","geometry":{"type":"Point","coordinates":[47.42,19.27,185]},"properties":{"stationId":"LHBP","rawText":"LHBP 250930Z 08007KT 030V130 CAVOK 29/20 Q1020 NOSIG","observationTime":"2019-08-25T09:30:00Z","temp":29,"dewpoint":20,"windDirection":80,"windSpeed":12.964,"visibility":6.21,"altim":30.11811,"flightCategory":"VFR","metarType":"METAR","geometry_esri":{"x":47.42,"y":19.27,"z":185}}}