{"type":"Feature","geometry":{"type":"Point","coordinates":[47.78,13.02,430]},"properties":{"stationId":"LOWS","rawText":"LOWS 110950Z 35004KT 290V050 9999 FEW070 18/05 Q1024 NOSIG","observationTime":"2020-04-11T09:50:00Z","temp":18,"dewpoint":5,"windDirection":350,"windSpeed":7.408,"visibility":6.21,"altim":30.236221,"flightCategory":"VFR","metarType":"METAR","geometry_esri":{"x":47.78,"y":13.02,"z":430}}}