{"type":"Feature","geometry":{"type":"Point","coordinates":[47.42,19.27,185]},"properties":{"stationId":"LHBP","rawText":"LHBP 250930Z 09014KT 9999 SCT026 BKN036 02/M05 Q1029 NOSIG","observationTime":"2020-03-25T09:30:00Z","temp":2,"dewpoint":-5,"windDirection":90,"windSpeed":25.928,"visibility":6.21,"altim":30.383858,"flightCategory":"VFR","metarType":"METAR","geometry_esri":{"x":47.42,"y":19.27,"z":185}}}