{"type":"Feature","geometry":{"type":"Point","coordinates":[47.42,19.27,185]},"properties":{"stationId":"LHBP","rawText":"LHBP 172130Z 20010KT 170V230 CAVOK 12/07 Q1019 WS ALL RWY NOSIG","observationTime":"2019-12-17T21:30:00Z","temp":12,"dewpoint":7,"windDirection":200,"windSpeed":18.52,"visibility":6.21,"altim":30.088583,"flightCategory":"VFR","metarType":"METAR","geometry_esri":{"x":47.42,"y":19.27,"z":185}}}