{"type":"Feature","geometry":{"type":"Point","coordinates":[47.42,19.27,185]},"properties":{"stationId":"LHBP","rawText":"LHBP 022330Z 28013KT CAVOK 14/13 Q1005 NOSIG","observationTime":"2019-10-02T23:30:00Z","temp":14,"dewpoint":13,"windDirection":280,"windSpeed":24.076,"visibility":6.21,"altim":29.675198,"flightCategory":"VFR","metarType":"METAR","geometry_esri":{"x":47.42,"y":19.27,"z":185}}}