{"type":"Feature","geometry":{"type":"Point","coordinates":[47.47,21.62,112]},"properties":{"stationId":"LHDC","rawText":"LHDC 060941Z AUTO 35007KT 320V020 8000 -SHRA OVC051TCU 10/10 Q1010","observationTime":"2019-04-06T09:41:00Z","temp":10,"dewpoint":10,"windDirection":350,"windSpeed":12.964,"visibility":4.97,"altim":29.822834,"flightCategory":"MVFR","metarType":"SPECI","geometry_esri":{"x":47.47,"y":21.62,"z":112}}}