{"type":"Feature","geometry":{"type":"Point","coordinates":[47.42,19.27,185]},"properties":{"stationId":"LHBP","rawText":"LHBP 050230Z 20006KT 3000 -SN BKN006 OVC020 M03/M03 Q1022 R13L/590195 R13R/590195 NOSIG","observationTime":"2019-01-05T02:30:00Z","temp":-3,"dewpoint":-3,"windDirection":200,"windSpeed":11.112,"visibility":1.86,"altim":30.177166,"flightCategory":"IFR","metarType":"SPECI","geometry_esri":{"x":47.42,"y":19.27,"z":185}}}