{"type":"Feature","geometry":{"type":"Point","coordinates":[47.42,19.27,185]},"properties":{"stationId":"LHBP","rawText":"LHBP 201130Z 06005KT 350V110 CAVOK 15/M04 Q1021 NOSIG","observationTime":"2020-04-20T11:30:00Z","temp":15,"dewpoint":-4,"windDirection":60,"windSpeed":9.26,"visibility":6.21,"altim":30.147638,"flightCategory":"VFR","metarType":"METAR","geometry_esri":{"x":47.42,"y":19.27,"z":185}}}