{"type":"Feature","geometry":{"type":"Point","coordinates":[47.42,19.27,185]},"properties":{"stationId":"LHBP","rawText":"LHBP 110230Z 27029G40KT CAVOK 11/M02 Q1010 NOSIG","observationTime":"2019-03-11T02:30:00Z","temp":11,"dewpoint":-2,"windDirection":270,"windSpeed":53.708000000000006,"visibility":6.21,"altim":29.822834,"flightCategory":"VFR","metarType":"METAR","geometry_esri":{"x":47.42,"y":19.27,"z":185}}}