{"type":"Feature","geometry":{"type":"Point","coordinates":[47.42,19.27,185]},"properties":{"stationId":"LHBP","rawText":"LHBP 080330Z 31007KT CAVOK 17/14 Q1011 NOSIG","observationTime":"2019-07-08T03:30:00Z","temp":17,"dewpoint":14,"windDirection":310,"windSpeed":12.964,"visibility":6.21,"altim":29.852362,"flightCategory":"VFR","metarType":"METAR","geometry_esri":{"x":47.42,"y":19.27,"z":185}}}