{"type":"Feature","geometry":{"type":"Point","coordinates":[47.42,19.27,185]},"properties":{"stationId":"LHBP","rawText":"LHBP 082330Z 00000KT 9000 NSC M01/M01 Q1017 NOSIG","observationTime":"2020-03-08T23:30:00Z","temp":-1,"dewpoint":-1,"windDirection":0,"windSpeed":0,"visibility":5.59,"altim":30.029528,"flightCategory":"VFR","metarType":"METAR","geometry_esri":{"x":47.42,"y":19.27,"z":185}}}