{"type":"Feature","geometry":{"type":"Point","coordinates":[47.47,21.62,112]},"properties":{"stationId":"LHDC","rawText":"LHDC 241747Z AUTO 31003KT 270V360 0450 R04/0500N -SHSN FZFG VV001 M03/M03 Q1026","observationTime":"2020-01-24T17:47:00Z","temp":-3,"dewpoint":-3,"windDirection":310,"windSpeed":5.556,"visibility":0.28,"altim":30.295275,"flightCategory":"LIFR","metarType":"SPECI","geometry_esri":{"x":47.47,"y":21.62,"z":112}}}