{"type":"Feature","geometry":{"type":"Point","coordinates":[47.42,19.27,185]},"properties":{"stationId":"LHBP","rawText":"LHBP 131230Z 02007KT 340V080 CAVOK 21/12 Q1020 NOSIG","observationTime":"2019-05-13T12:30:00Z","temp":21,"dewpoint":12,"windDirection":20,"windSpeed":12.964,"visibility":6.21,"altim":30.11811,"flightCategory":"VFR","metarType":"METAR","geometry_esri":{"x":47.42,"y":19.27,"z":185}}}