{"type":"Feature","geometry":{"type":"Point","coordinates":[47.42,19.27,185]},"properties":{"stationId":"LHBP","rawText":"LHBP 290430Z 34006KT CAVOK 01/M01 Q1032 NOSIG","observationTime":"2019-03-29T04:30:00Z","temp":1,"dewpoint":-1,"windDirection":340,"windSpeed":11.112,"visibility":6.21,"altim":30.47244,"flightCategory":"VFR","metarType":"METAR","geometry_esri":{"x":47.42,"y":19.27,"z":185}}}