{"type":"Feature","geometry":{"type":"Point","coordinates":[47.42,19.27,185]},"properties":{"stationId":"LHBP","rawText":"LHBP 110530Z 34002KT CAVOK 07/M02 Q1023 NOSIG","observationTime":"2020-04-11T05:30:00Z","temp":7,"dewpoint":-2,"windDirection":340,"windSpeed":3.704,"visibility":6.21,"altim":30.206694,"flightCategory":"VFR","metarType":"METAR","geometry_esri":{"x":47.42,"y":19.27,"z":185}}}