{"type":"Feature","geometry":{"type":"Point","coordinates":[47.78,13.02,430]},"properties":{"stationId":"LOWS","rawText":"LOWS 211550Z 03012KT CAVOK 22/02 Q1016 NOSIG","observationTime":"2019-04-21T15:50:00Z","temp":22,"dewpoint":2,"windDirection":30,"windSpeed":22.224,"visibility":6.21,"altim":30,"flightCategory":"VFR","metarType":"METAR","geometry_esri":{"x":47.78,"y":13.02,"z":430}}}