{"type":"Feature","geometry":{"type":"Point","coordinates":[47.78,13.02,430]},"properties":{"stationId":"LOWS","rawText":"LOWS 010250Z AUTO 15003KT 5000 BR FEW002 SCT026 BKN044 02/01 Q1031","observationTime":"2019-01-01T02:50:00Z","temp":2,"dewpoint":1,"windDirection":150,"windSpeed":5.556,"visibility":3.11,"altim":30.442913,"flightCategory":"MVFR","metarType":"METAR","geometry_esri":{"x":47.78,"y":13.02,"z":430}}}