{"type":"Feature","geometry":{"type":"Point","coordinates":[47.42,19.27,185]},"properties":{"stationId":"LHBP","rawText":"LHBP 011730Z 13008KT 9999 OVC036 08/05 Q1020 NOSIG","observationTime":"2019-11-01T17:30:00Z","temp":8,"dewpoint":5,"windDirection":130,"windSpeed":14.816,"visibility":6.21,"altim":30.11811,"flightCategory":"VFR","metarType":"METAR","geometry_esri":{"x":47.42,"y":19.27,"z":185}}}