{"type":"Feature","geometry":{"type":"Point","coordinates":[47.42,19.27,185]},"properties":{"stationId":"LHBP","rawText":"LHBP 271130Z 12009KT 9999 SCT010 BKN038 08/06 Q1007 NOSIG","observationTime":"2019-11-27T11:30:00Z","temp":8,"dewpoint":6,"windDirection":120,"windSpeed":16.668,"visibility":6.21,"altim":29.734253,"flightCategory":"VFR","metarType":"METAR","geometry_esri":{"x":47.42,"y":19.27,"z":185}}}