{"type":"Feature","geometry":{"type":"Point","coordinates":[47.78,13.02,430]},"properties":{"stationId":"LOWS","rawText":"LOWS 120750Z 33005KT 290V040 9999 FEW030 BKN053 05/M00 Q1018 NOSIG","observationTime":"2019-04-12T07:50:00Z","temp":5,"dewpoint":0,"windDirection":330,"windSpeed":9.26,"visibility":6.21,"altim":30.059055,"flightCategory":"VFR","metarType":"METAR","geometry_esri":{"x":47.78,"y":13.02,"z":430}}}