{"type":"Feature","geometry":{"type":"Point","coordinates":[47.78,13.02,430]},"properties":{"stationId":"LOWS","rawText":"LOWS 271950Z 25003KT 200V340 9999 FEW004 SCT012 BKN030 02/02 Q1031 TEMPO FEW004 BKN010","observationTime":"2019-12-27T19:50:00Z","temp":2,"dewpoint":2,"windDirection":250,"windSpeed":5.556,"visibility":6.21,"altim":30.442913,"flightCategory":"MVFR","metarType":"SPECI","geometry_esri":{"x":47.78,"y":13.02,"z":430}}}