{"type":"Feature","geometry":{"type":"Point","coordinates":[47.42,19.27,185]},"properties":{"stationId":"LHBP","rawText":"LHBP 291730Z VRB02KT CAVOK M01/M01 Q1007 R88/19//95 NOSIG","observationTime":"2019-01-29T17:30:00Z","temp":-1,"dewpoint":-1,"windDirection":0,"windSpeed":3.704,"visibility":6.21,"altim":29.734253,"flightCategory":"VFR","metarType":"SPECI","geometry_esri":{"x":47.42,"y":19.27,"z":185}}}