{"type":"Feature","geometry":{"type":"Point","coordinates":[47.78,13.02,430]},"properties":{"stationId":"LOWS","rawText":"LOWS 091350Z 02008KT 9999 FEW050 SCT065 BKN300 17/06 Q1006 NOSIG","observationTime":"2019-04-09T13:50:00Z","temp":17,"dewpoint":6,"windDirection":20,"windSpeed":14.816,"visibility":6.21,"altim":29.704725,"flightCategory":"VFR","metarType":"METAR","geometry_esri":{"x":47.78,"y":13.02,"z":430}}}