{"type":"Feature","geometry":{"type":"Point","coordinates":[47.42,19.27,185]},"properties":{"stationId":"LHBP","rawText":"LHBP 181930Z VRB02KT 1000 R31L/0225N R31R/0125N FZBCFG BR SCT002 M10/M10 Q1029 BECMG 0600 FZFG SCT001","observationTime":"2018-12-18T19:30:00Z","temp":-10,"dewpoint":-10,"windDirection":0,"windSpeed":3.704,"visibility":0.62,"altim":30.383858,"flightCategory":"LIFR","metarType":"SPECI","geometry_esri":{"x":47.42,"y":19.27,"z":185}}}