{"type":"Feature","geometry":{"type":"Point","coordinates":[47.78,13.02,430]},"properties":{"stationId":"LOWS","rawText":"LOWS 220250Z AUTO 34003KT 7000 FEW013 OVC015 M02/M04 Q1015","observationTime":"2019-01-22T02:50:00Z","temp":-2,"dewpoint":-4,"windDirection":340,"windSpeed":5.556,"visibility":4.35,"altim":29.970472,"flightCategory":"MVFR","metarType":"METAR","geometry_esri":{"x":47.78,"y":13.02,"z":430}}}