{"type":"Feature","geometry":{"type":"Point","coordinates":[47.78,13.02,430]},"properties":{"stationId":"LOWS","rawText":"LOWS 061950Z 15010KT CAVOK 02/M01 Q1017 R15/19//95 NOSIG","observationTime":"2019-12-06T19:50:00Z","temp":2,"dewpoint":-1,"windDirection":150,"windSpeed":18.52,"visibility":6.21,"altim":30.029528,"flightCategory":"VFR","metarType":"METAR","geometry_esri":{"x":47.78,"y":13.02,"z":430}}}