{"type":"Feature","geometry":{"type":"Point","coordinates":[47.47,21.62,112]},"properties":{"stationId":"LHDC","rawText":"LHDC 231137Z AUTO 03013KT 350V070 9999 BKN015 08/07 Q0991","observationTime":"2019-12-23T11:37:00Z","temp":8,"dewpoint":7,"windDirection":30,"windSpeed":24.076,"visibility":6.21,"altim":29.26181,"flightCategory":"MVFR","metarType":"SPECI","geometry_esri":{"x":47.47,"y":21.62,"z":112}}}