{"type":"Feature","geometry":{"type":"Point","coordinates":[47.78,13.02,430]},"properties":{"stationId":"LOWS","rawText":"LOWS 062150Z AUTO VRB01KT 8000 -RA FEW034 BKN038 09/08 Q1011","observationTime":"2019-10-06T21:50:00Z","temp":9,"dewpoint":8,"windDirection":0,"windSpeed":1.852,"visibility":4.97,"altim":29.852362,"flightCategory":"MVFR","metarType":"METAR","geometry_esri":{"x":47.78,"y":13.02,"z":430}}}