{"type":"Feature","geometry":{"type":"Point","coordinates":[47.78,13.02,430]},"properties":{"stationId":"LOWS","rawText":"LOWS 230050Z AUTO VRB01KT 9999 FEW026 BKN028 16/14 Q1026","observationTime":"2019-08-23T00:50:00Z","temp":16,"dewpoint":14,"windDirection":0,"windSpeed":1.852,"visibility":6.21,"altim":30.295275,"flightCategory":"MVFR","metarType":"METAR","geometry_esri":{"x":47.78,"y":13.02,"z":430}}}