{"type":"Feature","geometry":{"type":"Point","coordinates":[47.78,13.02,430]},"properties":{"stationId":"LOWS","rawText":"LOWS 092350Z AUTO 26007KT 220V290 9999 -SHRA FEW022 BKN026 05/02 Q1020","observationTime":"2020-03-09T23:50:00Z","temp":5,"dewpoint":2,"windDirection":260,"windSpeed":12.964,"visibility":6.21,"altim":30.11811,"flightCategory":"MVFR","metarType":"METAR","geometry_esri":{"x":47.78,"y":13.02,"z":430}}}