{"type":"Feature","geometry":{"type":"Point","coordinates":[47.42,19.27,185]},"properties":{"stationId":"LHBP","rawText":"LHBP 110830Z 28011KT 260V320 CAVOK 21/07 Q1013 NOSIG","observationTime":"2019-07-11T08:30:00Z","temp":21,"dewpoint":7,"windDirection":280,"windSpeed":20.372,"visibility":6.21,"altim":29.911417,"flightCategory":"VFR","metarType":"METAR","geometry_esri":{"x":47.42,"y":19.27,"z":185}}}