{"type":"Feature","geometry":{"type":"Point","coordinates":[47.42,19.27,185]},"properties":{"stationId":"LHBP","rawText":"LHBP 201830Z 31006KT CAVOK 02/M04 Q1023 NOSIG","observationTime":"2020-02-20T18:30:00Z","temp":2,"dewpoint":-4,"windDirection":310,"windSpeed":11.112,"visibility":6.21,"altim":30.206694,"flightCategory":"VFR","metarType":"METAR","geometry_esri":{"x":47.42,"y":19.27,"z":185}}}