{"type":"Feature","geometry":{"type":"Point","coordinates":[47.42,19.27,185]},"properties":{"stationId":"LHBP","rawText":"LHBP 090530Z 18004KT 150V210 3000 BR OVC004 02/02 Q1009 TEMPO 4000 SCT004","observationTime":"2019-12-09T05:30:00Z","temp":2,"dewpoint":2,"windDirection":180,"windSpeed":7.408,"visibility":1.86,"altim":29.793306,"flightCategory":"LIFR","metarType":"SPECI","geometry_esri":{"x":47.42,"y":19.27,"z":185}}}