{"type":"Feature","geometry":{"type":"Point","coordinates":[47.47,21.62,112]},"properties":{"stationId":"LHDC","rawText":"LHDC 090536Z AUTO 15003KT 4100 -FZRA BR OVC004 M04/M05 Q1031","observationTime":"2020-01-09T05:36:00Z","temp":-4,"dewpoint":-5,"windDirection":150,"windSpeed":5.556,"visibility":2.55,"altim":30.442913,"flightCategory":"LIFR","metarType":"SPECI","geometry_esri":{"x":47.47,"y":21.62,"z":112}}}