{"type":"Feature","geometry":{"type":"Point","coordinates":[47.78,13.02,430]},"properties":{"stationId":"LOWS","rawText":"LOWS 172250Z AUTO 15004KT 100V200 9999 FEW048 BKN050 04/M02 Q1022","observationTime":"2020-01-17T22:50:00Z","temp":4,"dewpoint":-2,"windDirection":150,"windSpeed":7.408,"visibility":6.21,"altim":30.177166,"flightCategory":"VFR","metarType":"METAR","geometry_esri":{"x":47.78,"y":13.02,"z":430}}}