{"type":"Feature","geometry":{"type":"Point","coordinates":[47.42,19.27,185]},"properties":{"stationId":"LHBP","rawText":"LHBP 191830Z 32007KT CAVOK 11/01 Q1025 NOSIG","observationTime":"2019-09-19T18:30:00Z","temp":11,"dewpoint":1,"windDirection":320,"windSpeed":12.964,"visibility":6.21,"altim":30.265747,"flightCategory":"VFR","metarType":"METAR","geometry_esri":{"x":47.42,"y":19.27,"z":185}}}