{"type":"Feature","geometry":{"type":"Point","coordinates":[47.78,13.02,430]},"properties":{"stationId":"LOWS","rawText":"LOWS 180450Z VRB01KT 9999 -RA FEW003 SCT012 BKN016 02/02 Q1024 TEMPO 28007KT 4500 RA BKN014","observationTime":"2020-01-18T04:50:00Z","temp":2,"dewpoint":2,"windDirection":0,"windSpeed":1.852,"visibility":6.21,"altim":30.236221,"flightCategory":"MVFR","metarType":"METAR","geometry_esri":{"x":47.78,"y":13.02,"z":430}}}