{"type":"Feature","geometry":{"type":"Point","coordinates":[47.78,13.02,430]},"properties":{"stationId":"LOWS","rawText":"LOWS 100650Z 34004KT 280V020 9999 FEW045 14/07 Q1019 NOSIG","observationTime":"2019-07-10T06:50:00Z","temp":14,"dewpoint":7,"windDirection":340,"windSpeed":7.408,"visibility":6.21,"altim":30.088583,"flightCategory":"VFR","metarType":"METAR","geometry_esri":{"x":47.78,"y":13.02,"z":430}}}