{"type":"Feature","geometry":{"type":"Point","coordinates":[46.25,20.1,84]},"properties":{"stationId":"LHUD","rawText":"LHUD 311933Z 21009KT 3000 -DZ OVC003 02/01 Q1007","observationTime":"2019-01-31T19:33:00Z","temp":2,"dewpoint":1,"windDirection":210,"windSpeed":16.668,"visibility":1.86,"altim":29.734253,"flightCategory":"LIFR","metarType":"SPECI","geometry_esri":{"x":46.25,"y":20.1,"z":84}}}