{"type":"Feature","geometry":{"type":"Point","coordinates":[47.78,13.02,430]},"properties":{"stationId":"LOWS","rawText":"LOWS 031150Z 15006KT 9999 FEW045 04/M01 Q1028 R15/15//95 NOSIG","observationTime":"2019-12-03T11:50:00Z","temp":4,"dewpoint":-1,"windDirection":150,"windSpeed":11.112,"visibility":6.21,"altim":30.35433,"flightCategory":"VFR","metarType":"METAR","geometry_esri":{"x":47.78,"y":13.02,"z":430}}}