{"type":"Feature","geometry":{"type":"Point","coordinates":[45.98,18.23,305]},"properties":{"stationId":"LHPP","rawText":"LHPP 121445Z 34005KT 3000 -DZ OVC010 07/05 Q1015","observationTime":"2019-04-12T14:45:00Z","temp":7,"dewpoint":5,"windDirection":340,"windSpeed":9.26,"visibility":1.86,"altim":29.970472,"flightCategory":"IFR","metarType":"SPECI","geometry_esri":{"x":45.98,"y":18.23,"z":305}}}