{"type":"Feature","geometry":{"type":"Point","coordinates":[47.78,13.02,430]},"properties":{"stationId":"LOWS","rawText":"LOWS 191650Z 14011KT 9999 FEW060 SCT300 25/13 Q1011 NOSIG","observationTime":"2019-06-19T16:50:00Z","temp":25,"dewpoint":13,"windDirection":140,"windSpeed":20.372,"visibility":6.21,"altim":29.852362,"flightCategory":"VFR","metarType":"METAR","geometry_esri":{"x":47.78,"y":13.02,"z":430}}}