{"type":"Feature","geometry":{"type":"Point","coordinates":[47.42,19.27,185]},"properties":{"stationId":"LHBP","rawText":"LHBP 092330Z VRB03KT 3600 BR OVC011 M03/M04 Q1008 R88/29//95 NOSIG","observationTime":"2019-01-09T23:30:00Z","temp":-3,"dewpoint":-4,"windDirection":0,"windSpeed":5.556,"visibility":2.24,"altim":29.763779,"flightCategory":"IFR","metarType":"SPECI","geometry_esri":{"x":47.42,"y":19.27,"z":185}}}