{"type":"Feature","geometry":{"type":"Point","coordinates":[47.78,13.02,430]},"properties":{"stationId":"LOWS","rawText":"LOWS 010650Z 16007KT CAVOK 27/16 Q1018 BECMG 33006KT","observationTime":"2019-07-01T06:50:00Z","temp":27,"dewpoint":16,"windDirection":160,"windSpeed":12.964,"visibility":6.21,"altim":30.059055,"flightCategory":"VFR","metarType":"METAR","geometry_esri":{"x":47.78,"y":13.02,"z":430}}}