{"type":"Feature","geometry":{"type":"Point","coordinates":[47.78,13.02,430]},"properties":{"stationId":"LOWS","rawText":"LOWS 301950Z AUTO 11006KT 070V140 3800 +RA FEW017 SCT032 BKN036 07/06 Q1019","observationTime":"2019-04-30T19:50:00Z","temp":7,"dewpoint":6,"windDirection":110,"windSpeed":11.112,"visibility":2.36,"altim":30.088583,"flightCategory":"IFR","metarType":"METAR","geometry_esri":{"x":47.78,"y":13.02,"z":430}}}