{"type":"Feature","geometry":{"type":"Point","coordinates":[47.78,13.02,430]},"properties":{"stationId":"LOWS","rawText":"LOWS 110450Z 11004KT 070V150 9999 FEW044 BKN050 07/05 Q1016 NOSIG","observationTime":"2020-03-11T04:50:00Z","temp":7,"dewpoint":5,"windDirection":110,"windSpeed":7.408,"visibility":6.21,"altim":30,"flightCategory":"VFR","metarType":"METAR","geometry_esri":{"x":47.78,"y":13.02,"z":430}}}