{"type":"Feature","geometry":{"type":"Point","coordinates":[47.42,19.27,185]},"properties":{"stationId":"LHBP","rawText":"LHBP 160830Z 24009KT 190V270 CAVOK 14/M01 Q1022 NOSIG","observationTime":"2020-04-16T08:30:00Z","temp":14,"dewpoint":-1,"windDirection":240,"windSpeed":16.668,"visibility":6.21,"altim":30.177166,"flightCategory":"VFR","metarType":"METAR","geometry_esri":{"x":47.42,"y":19.27,"z":185}}}