{"type":"Feature","geometry":{"type":"Point","coordinates":[47.42,19.27,185]},"properties":{"stationId":"LHBP","rawText":"LHBP 171530Z 10006KT 1000 R13R/P2000N R13L/P2000N BR OVC002 M02/M03 Q1028 NOSIG","observationTime":"2020-01-17T15:30:00Z","temp":-2,"dewpoint":-3,"windDirection":100,"windSpeed":11.112,"visibility":0.62,"altim":30.35433,"flightCategory":"LIFR","metarType":"SPECI","geometry_esri":{"x":47.42,"y":19.27,"z":185}}}