{"type":"Feature","geometry":{"type":"Point","coordinates":[47.78,13.02,430]},"properties":{"stationId":"LOWS","rawText":"LOWS 131350Z 15006KT 9999 FEW050 BKN060 02/M00 Q0986 R15/1///95 NOSIG","observationTime":"2019-12-13T13:50:00Z","temp":2,"dewpoint":0,"windDirection":150,"windSpeed":11.112,"visibility":6.21,"altim":29.114174,"flightCategory":"VFR","metarType":"SPECI","geometry_esri":{"x":47.78,"y":13.02,"z":430}}}