{"type":"Feature","geometry":{"type":"Point","coordinates":[47.42,19.27,185]},"properties":{"stationId":"LHBP","rawText":"LHBP 311630Z VRB01KT 9999 BKN043 06/03 Q1025 NOSIG","observationTime":"2019-10-31T16:30:00Z","temp":6,"dewpoint":3,"windDirection":0,"windSpeed":1.852,"visibility":6.21,"altim":30.265747,"flightCategory":"VFR","metarType":"METAR","geometry_esri":{"x":47.42,"y":19.27,"z":185}}}