{"type":"Feature","geometry":{"type":"Point","coordinates":[47.42,19.27,185]},"properties":{"stationId":"LHBP","rawText":"LHBP 251130Z 30004KT 260V330 CAVOK 23/12 Q1020 NOSIG","observationTime":"2019-10-25T11:30:00Z","temp":23,"dewpoint":12,"windDirection":300,"windSpeed":7.408,"visibility":6.21,"altim":30.11811,"flightCategory":"VFR","metarType":"METAR","geometry_esri":{"x":47.42,"y":19.27,"z":185}}}