{"type":"Feature","geometry":{"type":"Point","coordinates":[47.42,19.27,185]},"properties":{"stationId":"LHBP","rawText":"LHBP 171430Z 19011KT CAVOK 14/07 Q1017 NOSIG","observationTime":"2019-12-17T14:30:00Z","temp":14,"dewpoint":7,"windDirection":190,"windSpeed":20.372,"visibility":6.21,"altim":30.029528,"flightCategory":"VFR","metarType":"METAR","geometry_esri":{"x":47.42,"y":19.27,"z":185}}}