{"type":"Feature","geometry":{"type":"Point","coordinates":[47.78,13.02,430]},"properties":{"stationId":"LOWS","rawText":"LOWS 180750Z 21009KT 9999 FEW038 BKN050 04/00 Q1018 NOSIG","observationTime":"2019-03-18T07:50:00Z","temp":4,"dewpoint":0,"windDirection":210,"windSpeed":16.668,"visibility":6.21,"altim":30.059055,"flightCategory":"VFR","metarType":"METAR","geometry_esri":{"x":47.78,"y":13.02,"z":430}}}