{"type":"Feature","geometry":{"type":"Point","coordinates":[47.78,13.02,430]},"properties":{"stationId":"LOWS","rawText":"LOWS 171650Z 06006KT CAVOK 22/04 Q1013 NOSIG","observationTime":"2020-04-17T16:50:00Z","temp":22,"dewpoint":4,"windDirection":60,"windSpeed":11.112,"visibility":6.21,"altim":29.911417,"flightCategory":"VFR","metarType":"METAR","geometry_esri":{"x":47.78,"y":13.02,"z":430}}}