{"type":"Feature","geometry":{"type":"Point","coordinates":[47.42,19.27,185]},"properties":{"stationId":"LHBP","rawText":"LHBP 051630Z 27007KT CAVOK 11/M02 Q1011 NOSIG","observationTime":"2019-03-05T16:30:00Z","temp":11,"dewpoint":-2,"windDirection":270,"windSpeed":12.964,"visibility":6.21,"altim":29.852362,"flightCategory":"VFR","metarType":"METAR","geometry_esri":{"x":47.42,"y":19.27,"z":185}}}