{"type":"Feature","geometry":{"type":"Point","coordinates":[47.42,19.27,185]},"properties":{"stationId":"LHBP","rawText":"LHBP 040830Z 02004KT 330V120 CAVOK 23/07 Q1021 NOSIG","observationTime":"2019-07-04T08:30:00Z","temp":23,"dewpoint":7,"windDirection":20,"windSpeed":7.408,"visibility":6.21,"altim":30.147638,"flightCategory":"VFR","metarType":"METAR","geometry_esri":{"x":47.42,"y":19.27,"z":185}}}