{"type":"Feature","geometry":{"type":"Point","coordinates":[47.42,19.27,185]},"properties":{"stationId":"LHBP","rawText":"LHBP 241930Z 29011KT CAVOK 01/M04 Q1023 NOSIG","observationTime":"2018-12-24T19:30:00Z","temp":1,"dewpoint":-4,"windDirection":290,"windSpeed":20.372,"visibility":6.21,"altim":30.206694,"flightCategory":"VFR","metarType":"METAR","geometry_esri":{"x":47.42,"y":19.27,"z":185}}}