{"type":"Feature","geometry":{"type":"Point","coordinates":[47.78,13.02,430]},"properties":{"stationId":"LOWS","rawText":"LOWS 050250Z AUTO 12003KT 090V190 9999 NCD M00/M02 Q1025","observationTime":"2020-04-05T02:50:00Z","temp":0,"dewpoint":-2,"windDirection":120,"windSpeed":5.556,"visibility":6.21,"altim":30.265747,"flightCategory":"VFR","metarType":"METAR","geometry_esri":{"x":47.78,"y":13.02,"z":430}}}