{"type":"Feature","geometry":{"type":"Point","coordinates":[47.78,13.02,430]},"properties":{"stationId":"LOWS","rawText":"LOWS 281450Z 36009KT CAVOK 28/11 Q1021 NOSIG","observationTime":"2019-06-28T14:50:00Z","temp":28,"dewpoint":11,"windDirection":360,"windSpeed":16.668,"visibility":6.21,"altim":30.147638,"flightCategory":"VFR","metarType":"METAR","geometry_esri":{"x":47.78,"y":13.02,"z":430}}}