{"type":"Feature","geometry":{"type":"Point","coordinates":[47.42,19.27,185]},"properties":{"stationId":"LHBP","rawText":"LHBP 241630Z 16006KT CAVOK 28/18 Q1016 NOSIG","observationTime":"2019-07-24T16:30:00Z","temp":28,"dewpoint":18,"windDirection":160,"windSpeed":11.112,"visibility":6.21,"altim":30,"flightCategory":"VFR","metarType":"METAR","geometry_esri":{"x":47.42,"y":19.27,"z":185}}}