{"type":"Feature","geometry":{"type":"Point","coordinates":[47.78,13.02,430]},"properties":{"stationId":"LOWS","rawText":"LOWS 251950Z 12003KT 060V150 9999 FEW040 FEW050CB BKN110 20/18 Q1021 RETSRA TEMPO TS","observationTime":"2019-08-25T19:50:00Z","temp":20,"dewpoint":18,"windDirection":120,"windSpeed":5.556,"visibility":6.21,"altim":30.147638,"flightCategory":"VFR","metarType":"METAR","geometry_esri":{"x":47.78,"y":13.02,"z":430}}}