{"type":"Feature","geometry":{"type":"Point","coordinates":[47.78,13.02,430]},"properties":{"stationId":"LOWS","rawText":"LOWS 242350Z AUTO 35003KT 310V050 5000 -SN FEW014 SCT018 BKN030 M03/M05 Q1011","observationTime":"2019-01-24T23:50:00Z","temp":-3,"dewpoint":-5,"windDirection":350,"windSpeed":5.556,"visibility":3.11,"altim":29.852362,"flightCategory":"MVFR","metarType":"METAR","geometry_esri":{"x":47.78,"y":13.02,"z":430}}}