{"type":"Feature","geometry":{"type":"Point","coordinates":[47.42,19.27,185]},"properties":{"stationId":"LHBP","rawText":"LHBP 210830Z 10004KT CAVOK 09/06 Q1001 NOSIG","observationTime":"2019-12-21T08:30:00Z","temp":9,"dewpoint":6,"windDirection":100,"windSpeed":7.408,"visibility":6.21,"altim":29.557087,"flightCategory":"VFR","metarType":"METAR","geometry_esri":{"x":47.42,"y":19.27,"z":185}}}