{"type":"Feature","geometry":{"type":"Point","coordinates":[47.47,21.62,112]},"properties":{"stationId":"LHDC","rawText":"LHDC 070245Z AUTO 09004KT 3000 BR NSC 07/07 Q1008","observationTime":"2019-04-07T02:45:00Z","temp":7,"dewpoint":7,"windDirection":90,"windSpeed":7.408,"visibility":1.86,"altim":29.763779,"flightCategory":"IFR","metarType":"SPECI","geometry_esri":{"x":47.47,"y":21.62,"z":112}}}