{"type":"Feature","geometry":{"type":"Point","coordinates":[47.78,13.02,430]},"properties":{"stationId":"LOWS","rawText":"LOWS 081550Z 25015G25KT 210V300 9999 -SHRA FEW013 SCT020 BKN034 03/M00 Q1012 R15/29//95 NOSIG","observationTime":"2019-01-08T15:50:00Z","temp":3,"dewpoint":0,"windDirection":250,"windSpeed":27.78,"visibility":6.21,"altim":29.88189,"flightCategory":"VFR","metarType":"SPECI","geometry_esri":{"x":47.78,"y":13.02,"z":430}}}