{"type":"Feature","geometry":{"type":"Point","coordinates":[47.78,13.02,430]},"properties":{"stationId":"LOWS","rawText":"LOWS 210150Z AUTO 15005KT 110V200 9999 -RA FEW034 OVC060 02/M01 Q1019","observationTime":"2020-02-21T01:50:00Z","temp":2,"dewpoint":-1,"windDirection":150,"windSpeed":9.26,"visibility":6.21,"altim":30.088583,"flightCategory":"VFR","metarType":"METAR","geometry_esri":{"x":47.78,"y":13.02,"z":430}}}