{"type":"Feature","geometry":{"type":"Point","coordinates":[47.42,19.27,185]},"properties":{"stationId":"LHBP","rawText":"LHBP 060230Z 09011KT CAVOK 08/M05 Q1029 NOSIG","observationTime":"2020-04-06T02:30:00Z","temp":8,"dewpoint":-5,"windDirection":90,"windSpeed":20.372,"visibility":6.21,"altim":30.383858,"flightCategory":"VFR","metarType":"METAR","geometry_esri":{"x":47.42,"y":19.27,"z":185}}}