{"type":"Feature","geometry":{"type":"Point","coordinates":[47.42,19.27,185]},"properties":{"stationId":"LHBP","rawText":"LHBP 200330Z 02008KT CAVOK 07/M06 Q1020 NOSIG","observationTime":"2020-04-20T03:30:00Z","temp":7,"dewpoint":-6,"windDirection":20,"windSpeed":14.816,"visibility":6.21,"altim":30.11811,"flightCategory":"VFR","metarType":"METAR","geometry_esri":{"x":47.42,"y":19.27,"z":185}}}