{"type":"Feature","geometry":{"type":"Point","coordinates":[47.42,19.27,185]},"properties":{"stationId":"LHBP","rawText":"LHBP 141630Z 32010KT CAVOK 09/M02 Q1019 NOSIG","observationTime":"2020-03-14T16:30:00Z","temp":9,"dewpoint":-2,"windDirection":320,"windSpeed":18.52,"visibility":6.21,"altim":30.088583,"flightCategory":"VFR","metarType":"METAR","geometry_esri":{"x":47.42,"y":19.27,"z":185}}}