{"type":"Feature","geometry":{"type":"Point","coordinates":[47.78,13.02,430]},"properties":{"stationId":"LOWS","rawText":"LOWS 050650Z 23003KT 2200 -SN BR FEW004 SCT010 BKN018 M00/M01 Q1025 R15/590295 TEMPO 27010G20KT 1200 SHSN BKN012","observationTime":"2019-01-05T06:50:00Z","temp":0,"dewpoint":-1,"windDirection":230,"windSpeed":5.556,"visibility":1.37,"altim":30.265747,"flightCategory":"IFR","metarType":"METAR","geometry_esri":{"x":47.78,"y":13.02,"z":430}}}