{"type":"Feature","geometry":{"type":"Point","coordinates":[47.42,19.27,185]},"properties":{"stationId":"LHBP","rawText":"LHBP 230349Z 30006KT 4500 -SN BR OVC016 M04/M04 Q1003 NOSIG","observationTime":"2019-01-23T03:49:00Z","temp":-4,"dewpoint":-4,"windDirection":300,"windSpeed":11.112,"visibility":2.8,"altim":29.616142,"flightCategory":"IFR","metarType":"SPECI","geometry_esri":{"x":47.42,"y":19.27,"z":185}}}