{"type":"Feature","geometry":{"type":"Point","coordinates":[47.42,19.27,185]},"properties":{"stationId":"LHBP","rawText":"LHBP 301430Z 21006KT CAVOK 00/M04 Q1036 NOSIG","observationTime":"2019-12-30T14:30:00Z","temp":0,"dewpoint":-4,"windDirection":210,"windSpeed":11.112,"visibility":6.21,"altim":30.590551,"flightCategory":"VFR","metarType":"METAR","geometry_esri":{"x":47.42,"y":19.27,"z":185}}}