{"type":"Feature","geometry":{"type":"Point","coordinates":[47.78,13.02,430]},"properties":{"stationId":"LOWS","rawText":"LOWS 171550Z 18003KT 160V220 9999 FEW044 SCT050 BKN210 03/M02 Q1008 NOSIG","observationTime":"2019-01-17T15:50:00Z","temp":3,"dewpoint":-2,"windDirection":180,"windSpeed":5.556,"visibility":6.21,"altim":29.763779,"flightCategory":"VFR","metarType":"METAR","geometry_esri":{"x":47.78,"y":13.02,"z":430}}}