{"type":"Feature","geometry":{"type":"Point","coordinates":[47.42,19.27,185]},"properties":{"stationId":"LHBP","rawText":"LHBP 311430Z 12007KT CAVOK 33/13 Q1016 NOSIG","observationTime":"2019-08-31T14:30:00Z","temp":33,"dewpoint":13,"windDirection":120,"windSpeed":12.964,"visibility":6.21,"altim":30,"flightCategory":"VFR","metarType":"METAR","geometry_esri":{"x":47.42,"y":19.27,"z":185}}}