{"type":"Feature","geometry":{"type":"Point","coordinates":[47.42,19.27,185]},"properties":{"stationId":"LHBP","rawText":"LHBP 010730Z 36009KT CAVOK 14/04 Q1020 WS ALL RWY NOSIG","observationTime":"2019-04-01T07:30:00Z","temp":14,"dewpoint":4,"windDirection":360,"windSpeed":16.668,"visibility":6.21,"altim":30.11811,"flightCategory":"VFR","metarType":"METAR","geometry_esri":{"x":47.42,"y":19.27,"z":185}}}