{"type":"Feature","geometry":{"type":"Point","coordinates":[47.78,13.02,430]},"properties":{"stationId":"LOWS","rawText":"LOWS 040850Z 13010G22KT 080V160 9999 FEW080 BKN300 15/03 Q0993 NOSIG","observationTime":"2019-04-04T08:50:00Z","temp":15,"dewpoint":3,"windDirection":130,"windSpeed":18.52,"visibility":6.21,"altim":29.320866,"flightCategory":"VFR","metarType":"METAR","geometry_esri":{"x":47.78,"y":13.02,"z":430}}}