{"type":"Feature","geometry":{"type":"Point","coordinates":[47.42,19.27,185]},"properties":{"stationId":"LHBP","rawText":"LHBP 081630Z 15005KT 3500 -SN BR OVC004 M02/M02 Q1009 R13L/SNOCLO R13R/590194 NOSIG","observationTime":"2019-01-08T16:30:00Z","temp":-2,"dewpoint":-2,"windDirection":150,"windSpeed":9.26,"visibility":2.17,"altim":29.793306,"flightCategory":"LIFR","metarType":"SPECI","geometry_esri":{"x":47.42,"y":19.27,"z":185}}}