{"type":"Feature","geometry":{"type":"Point","coordinates":[47.78,13.02,430]},"properties":{"stationId":"LOWS","rawText":"LOWS 250750Z 16012KT 130V210 CAVOK 20/05 Q1012 TEMPO 15015G25KT","observationTime":"2019-04-25T07:50:00Z","temp":20,"dewpoint":5,"windDirection":160,"windSpeed":22.224,"visibility":6.21,"altim":29.88189,"flightCategory":"VFR","metarType":"METAR","geometry_esri":{"x":47.78,"y":13.02,"z":430}}}