{"type":"Feature","geometry":{"type":"Point","coordinates":[47.42,19.27,185]},"properties":{"stationId":"LHBP","rawText":"LHBP 110830Z 31010KT 5000 BR NSC M03/M04 Q1018 R88/19//95 BECMG 7000 NSW","observationTime":"2019-01-11T08:30:00Z","temp":-3,"dewpoint":-4,"windDirection":310,"windSpeed":18.52,"visibility":3.11,"altim":30.059055,"flightCategory":"MVFR","metarType":"SPECI","geometry_esri":{"x":47.42,"y":19.27,"z":185}}}