{"type":"Feature","geometry":{"type":"Point","coordinates":[47.42,19.27,185]},"properties":{"stationId":"LHBP","rawText":"LHBP 241630Z 06004KT CAVOK 07/04 Q1015 NOSIG","observationTime":"2019-11-24T16:30:00Z","temp":7,"dewpoint":4,"windDirection":60,"windSpeed":7.408,"visibility":6.21,"altim":29.970472,"flightCategory":"VFR","metarType":"METAR","geometry_esri":{"x":47.42,"y":19.27,"z":185}}}