{"type":"Feature","geometry":{"type":"Point","coordinates":[47.47,21.62,112]},"properties":{"stationId":"LHDC","rawText":"LHDC 270442Z AUTO 00000KT 0900 R04/1000U FG NCD 08/08 Q1017","observationTime":"2019-09-27T04:42:00Z","temp":8,"dewpoint":8,"windDirection":0,"windSpeed":0,"visibility":0.56,"altim":30.029528,"flightCategory":"LIFR","metarType":"SPECI","geometry_esri":{"x":47.47,"y":21.62,"z":112}}}