{"type":"Feature","geometry":{"type":"Point","coordinates":[47.42,19.27,185]},"properties":{"stationId":"LHBP","rawText":"LHBP 311030Z VRB02KT 5000 BR NSC 03/01 Q1004 R88/29//95 BECMG 8000 NSW","observationTime":"2019-01-31T10:30:00Z","temp":3,"dewpoint":1,"windDirection":0,"windSpeed":3.704,"visibility":3.11,"altim":29.64567,"flightCategory":"MVFR","metarType":"METAR","geometry_esri":{"x":47.42,"y":19.27,"z":185}}}