{"type":"Feature","geometry":{"type":"Point","coordinates":[47.42,19.27,185]},"properties":{"stationId":"LHBP","rawText":"LHBP 061230Z 23004KT 180V280 CAVOK 03/M08 Q1032 NOSIG","observationTime":"2020-01-06T12:30:00Z","temp":3,"dewpoint":-8,"windDirection":230,"windSpeed":7.408,"visibility":6.21,"altim":30.47244,"flightCategory":"VFR","metarType":"METAR","geometry_esri":{"x":47.42,"y":19.27,"z":185}}}