{"type":"Feature","geometry":{"type":"Point","coordinates":[47.78,13.02,430]},"properties":{"stationId":"LOWS","rawText":"LOWS 070950Z 30008KT 9999 -RA FEW006 SCT019 BKN035 13/11 Q1020 TEMPO RA","observationTime":"2019-09-07T09:50:00Z","temp":13,"dewpoint":11,"windDirection":300,"windSpeed":14.816,"visibility":6.21,"altim":30.11811,"flightCategory":"VFR","metarType":"METAR","geometry_esri":{"x":47.78,"y":13.02,"z":430}}}