{"type":"Feature","geometry":{"type":"Point","coordinates":[47.78,13.02,430]},"properties":{"stationId":"LOWS","rawText":"LOWS 220150Z AUTO 16008KT 120V180 9999 -RA FEW015 SCT032 BKN042 06/04 Q1015","observationTime":"2018-12-22T01:50:00Z","temp":6,"dewpoint":4,"windDirection":160,"windSpeed":14.816,"visibility":6.21,"altim":29.970472,"flightCategory":"VFR","metarType":"METAR","geometry_esri":{"x":47.78,"y":13.02,"z":430}}}