{"type":"Feature","geometry":{"type":"Point","coordinates":[47.78,13.02,430]},"properties":{"stationId":"LOWS","rawText":"LOWS 111150Z 29010KT 3000 -SHSN FEW006 BKN012 BKN025 01/M00 Q1016 TEMPO 2000 SN BKN009","observationTime":"2019-02-11T11:50:00Z","temp":1,"dewpoint":0,"windDirection":290,"windSpeed":18.52,"visibility":1.86,"altim":30,"flightCategory":"IFR","metarType":"METAR","geometry_esri":{"x":47.78,"y":13.02,"z":430}}}