{"type":"Feature","geometry":{"type":"Point","coordinates":[47.78,13.02,430]},"properties":{"stationId":"LOWS","rawText":"LOWS 060650Z 31003KT 250V340 0300 R15/0650N R33/1000U FZFG BKN002 M03/M03 Q1022 BECMG 0800","observationTime":"2019-12-06T06:50:00Z","temp":-3,"dewpoint":-3,"windDirection":310,"windSpeed":5.556,"visibility":0.19,"altim":30.177166,"flightCategory":"LIFR","metarType":"METAR","geometry_esri":{"x":47.78,"y":13.02,"z":430}}}