{"type":"Feature","geometry":{"type":"Point","coordinates":[47.42,19.27,185]},"properties":{"stationId":"LHBP","rawText":"LHBP 062230Z VRB03KT CAVOK 22/18 Q1008 NOSIG","observationTime":"2019-07-06T22:30:00Z","temp":22,"dewpoint":18,"windDirection":0,"windSpeed":5.556,"visibility":6.21,"altim":29.763779,"flightCategory":"VFR","metarType":"METAR","geometry_esri":{"x":47.42,"y":19.27,"z":185}}}