{"type":"Feature","geometry":{"type":"Point","coordinates":[47.42,19.27,185]},"properties":{"stationId":"LHBP","rawText":"LHBP 210630Z VRB03KT CAVOK 10/05 Q1028 NOSIG","observationTime":"2019-09-21T06:30:00Z","temp":10,"dewpoint":5,"windDirection":0,"windSpeed":5.556,"visibility":6.21,"altim":30.35433,"flightCategory":"VFR","metarType":"METAR","geometry_esri":{"x":47.42,"y":19.27,"z":185}}}