{"type":"Feature","geometry":{"type":"Point","coordinates":[47.78,13.02,430]},"properties":{"stationId":"LOWS","rawText":"LOWS 130950Z 20003KT 130V280 9999 FEW050 22/14 Q1032 NOSIG","observationTime":"2019-09-13T09:50:00Z","temp":22,"dewpoint":14,"windDirection":200,"windSpeed":5.556,"visibility":6.21,"altim":30.47244,"flightCategory":"VFR","metarType":"METAR","geometry_esri":{"x":47.78,"y":13.02,"z":430}}}