{"type":"Feature","geometry":{"type":"Point","coordinates":[47.78,13.02,430]},"properties":{"stationId":"LOWS","rawText":"LOWS 122150Z 15003KT 8000 -RASN FEW009 SCT013 BKN025 01/00 Q1014 RERA R15/19//95","observationTime":"2019-01-12T21:50:00Z","temp":1,"dewpoint":0,"windDirection":150,"windSpeed":5.556,"visibility":4.97,"altim":29.940945,"flightCategory":"MVFR","metarType":"METAR","geometry_esri":{"x":47.78,"y":13.02,"z":430}}}