{"type":"Feature","geometry":{"type":"Point","coordinates":[47.78,13.02,430]},"properties":{"stationId":"LOWS","rawText":"LOWS 311350Z VRB01KT 2500 R15/P1500D R33/P1500D -RASN BR FEW003 SCT011 BKN014 01/00 Q1032 TEMPO 3000","observationTime":"2018-12-31T13:50:00Z","temp":1,"dewpoint":0,"windDirection":0,"windSpeed":1.852,"visibility":1.55,"altim":30.47244,"flightCategory":"IFR","metarType":"METAR","geometry_esri":{"x":47.78,"y":13.02,"z":430}}}