{"type":"Feature","geometry":{"type":"Point","coordinates":[47.78,13.02,430]},"properties":{"stationId":"LOWS","rawText":"LOWS 311250Z 20003KT 140V310 9999 FEW030 BKN043 16/10 Q1027 NOSIG","observationTime":"2019-05-31T12:50:00Z","temp":16,"dewpoint":10,"windDirection":200,"windSpeed":5.556,"visibility":6.21,"altim":30.324802,"flightCategory":"VFR","metarType":"METAR","geometry_esri":{"x":47.78,"y":13.02,"z":430}}}