{"type":"Feature","geometry":{"type":"Point","coordinates":[47.42,19.27,185]},"properties":{"stationId":"LHBP","rawText":"LHBP 061430Z 10005KT 8000 BKN007 OVC020 06/05 Q1001 NOSIG","observationTime":"2020-03-06T14:30:00Z","temp":6,"dewpoint":5,"windDirection":100,"windSpeed":9.26,"visibility":4.97,"altim":29.557087,"flightCategory":"IFR","metarType":"METAR","geometry_esri":{"x":47.42,"y":19.27,"z":185}}}