{"type":"Feature","geometry":{"type":"Point","coordinates":[47.47,21.62,112]},"properties":{"stationId":"LHDC","rawText":"LHDC 050851Z AUTO 05003KT 020V090 0800 -SHSN FZFG BKN001 M03/M03 Q1032","observationTime":"2019-12-05T08:51:00Z","temp":-3,"dewpoint":-3,"windDirection":50,"windSpeed":5.556,"visibility":0.5,"altim":30.47244,"flightCategory":"LIFR","metarType":"SPECI","geometry_esri":{"x":47.47,"y":21.62,"z":112}}}