{"type":"Feature","geometry":{"type":"Point","coordinates":[47.78,13.02,430]},"properties":{"stationId":"LOWS","rawText":"LOWS 290850Z 01004KT 320V060 9999 FEW060 BKN070 08/02 Q1017 NOSIG","observationTime":"2020-03-29T08:50:00Z","temp":8,"dewpoint":2,"windDirection":10,"windSpeed":7.408,"visibility":6.21,"altim":30.029528,"flightCategory":"VFR","metarType":"METAR","geometry_esri":{"x":47.78,"y":13.02,"z":430}}}