{"type":"Feature","geometry":{"type":"Point","coordinates":[47.78,13.02,430]},"properties":{"stationId":"LOWS","rawText":"LOWS 021250Z 15005KT 130V190 9999 VCSH FEW012 SCT038 BKN050 14/11 Q1007 TEMPO 23009KT","observationTime":"2019-10-02T12:50:00Z","temp":14,"dewpoint":11,"windDirection":150,"windSpeed":9.26,"visibility":6.21,"altim":29.734253,"flightCategory":"VFR","metarType":"METAR","geometry_esri":{"x":47.78,"y":13.02,"z":430}}}