{"type":"Feature","geometry":{"type":"Point","coordinates":[47.42,19.27,185]},"properties":{"stationId":"LHBP","rawText":"LHBP 070830Z 16004KT 090V200 CAVOK 24/23 Q1011 NOSIG","observationTime":"2019-08-07T08:30:00Z","temp":24,"dewpoint":23,"windDirection":160,"windSpeed":7.408,"visibility":6.21,"altim":29.852362,"flightCategory":"VFR","metarType":"METAR","geometry_esri":{"x":47.42,"y":19.27,"z":185}}}