{"type":"Feature","geometry":{"type":"Point","coordinates":[47.42,19.27,185]},"properties":{"stationId":"LHBP","rawText":"LHBP 132330Z AUTO 08004KT 350V130 9999 FEW100/// 09/05 Q1007 NOSIG","observationTime":"2020-05-13T23:30:00Z","temp":9,"dewpoint":5,"windDirection":80,"windSpeed":7.408,"visibility":6.21,"altim":29.734253,"flightCategory":"VFR","metarType":"METAR","geometry_esri":{"x":47.42,"y":19.27,"z":185}}}