{"type":"Feature","geometry":{"type":"Point","coordinates":[47.78,13.02,430]},"properties":{"stationId":"LOWS","rawText":"LOWS 032250Z AUTO 25008KT 200V280 9999 -SHRA FEW032 OVC050 10/06 Q0995","observationTime":"2019-11-03T22:50:00Z","temp":10,"dewpoint":6,"windDirection":250,"windSpeed":14.816,"visibility":6.21,"altim":29.379921,"flightCategory":"VFR","metarType":"METAR","geometry_esri":{"x":47.78,"y":13.02,"z":430}}}