{"type":"Feature","geometry":{"type":"Point","coordinates":[47.78,13.02,430]},"properties":{"stationId":"LOWS","rawText":"LOWS 141350Z 01006KT 340V060 9999 FEW030 BKN300 22/15 Q1029 NOSIG","observationTime":"2019-09-14T13:50:00Z","temp":22,"dewpoint":15,"windDirection":10,"windSpeed":11.112,"visibility":6.21,"altim":30.383858,"flightCategory":"VFR","metarType":"METAR","geometry_esri":{"x":47.78,"y":13.02,"z":430}}}