{"type":"Feature","geometry":{"type":"Point","coordinates":[47.42,19.27,185]},"properties":{"stationId":"LHBP","rawText":"LHBP 111530Z 17004KT 140V200 CAVOK 16/09 Q1023 NOSIG","observationTime":"2019-10-11T15:30:00Z","temp":16,"dewpoint":9,"windDirection":170,"windSpeed":7.408,"visibility":6.21,"altim":30.206694,"flightCategory":"VFR","metarType":"METAR","geometry_esri":{"x":47.42,"y":19.27,"z":185}}}