{"type":"Feature","geometry":{"type":"Point","coordinates":[47.42,19.27,185]},"properties":{"stationId":"LHBP","rawText":"LHBP 261530Z 23007KT 200V260 CAVOK 26/11 Q1013 NOSIG","observationTime":"2019-05-26T15:30:00Z","temp":26,"dewpoint":11,"windDirection":230,"windSpeed":12.964,"visibility":6.21,"altim":29.911417,"flightCategory":"VFR","metarType":"METAR","geometry_esri":{"x":47.42,"y":19.27,"z":185}}}