{"type":"Feature","geometry":{"type":"Point","coordinates":[47.78,13.02,430]},"properties":{"stationId":"LOWS","rawText":"LOWS 141050Z 12004KT 090V160 CAVOK 02/M00 Q1005 NOSIG","observationTime":"2019-11-14T10:50:00Z","temp":2,"dewpoint":0,"windDirection":120,"windSpeed":7.408,"visibility":6.21,"altim":29.675198,"flightCategory":"VFR","metarType":"METAR","geometry_esri":{"x":47.78,"y":13.02,"z":430}}}