{"type":"Feature","geometry":{"type":"Point","coordinates":[47.78,13.02,430]},"properties":{"stationId":"LOWS","rawText":"LOWS 160150Z AUTO 14011KT 9999 SCT250 04/M01 Q1014","observationTime":"2019-12-16T01:50:00Z","temp":4,"dewpoint":-1,"windDirection":140,"windSpeed":20.372,"visibility":6.21,"altim":29.940945,"flightCategory":"VFR","metarType":"METAR","geometry_esri":{"x":47.78,"y":13.02,"z":430}}}