{"type":"Feature","geometry":{"type":"Point","coordinates":[47.42,19.27,185]},"properties":{"stationId":"LHBP","rawText":"LHBP 142038Z 02010KT CAVOK 12/M02 Q1017 WS ALL RWY NOSIG","observationTime":"2019-04-14T20:38:00Z","temp":12,"dewpoint":-2,"windDirection":20,"windSpeed":18.52,"visibility":6.21,"altim":30.029528,"flightCategory":"VFR","metarType":"SPECI","geometry_esri":{"x":47.42,"y":19.27,"z":185}}}