{"type":"Feature","geometry":{"type":"Point","coordinates":[47.47,21.62,112]},"properties":{"stationId":"LHDC","rawText":"LHDC 301831Z AUTO 15002KT 0800 R04/P1500 FG NSC 25/24 Q1007","observationTime":"2019-07-30T18:31:00Z","temp":25,"dewpoint":24,"windDirection":150,"windSpeed":3.704,"visibility":0.5,"altim":29.734253,"flightCategory":"LIFR","metarType":"SPECI","geometry_esri":{"x":47.47,"y":21.62,"z":112}}}