{"type":"Feature","geometry":{"type":"Point","coordinates":[47.78,13.02,430]},"properties":{"stationId":"LOWS","rawText":"LOWS 270050Z AUTO 17007KT 9999 NSC 21/15 Q1023","observationTime":"2019-06-27T00:50:00Z","temp":21,"dewpoint":15,"windDirection":170,"windSpeed":12.964,"visibility":6.21,"altim":30.206694,"flightCategory":"VFR","metarType":"METAR","geometry_esri":{"x":47.78,"y":13.02,"z":430}}}