{"type":"Feature","geometry":{"type":"Point","coordinates":[47.42,19.27,185]},"properties":{"stationId":"LHBP","rawText":"LHBP 151230Z VRB02KT 9999 SCT039 SCT065 20/08 Q1009 NOSIG","observationTime":"2020-05-15T12:30:00Z","temp":20,"dewpoint":8,"windDirection":0,"windSpeed":3.704,"visibility":6.21,"altim":29.793306,"flightCategory":"VFR","metarType":"METAR","geometry_esri":{"x":47.42,"y":19.27,"z":185}}}