{"type":"Feature","geometry":{"type":"Point","coordinates":[47.42,19.27,185]},"properties":{"stationId":"LHBP","rawText":"LHBP 270730Z 00000KT 3200 BR NSC 10/10 Q1021 BECMG 5000 BR","observationTime":"2019-10-27T07:30:00Z","temp":10,"dewpoint":10,"windDirection":0,"windSpeed":0,"visibility":1.99,"altim":30.147638,"flightCategory":"IFR","metarType":"SPECI","geometry_esri":{"x":47.42,"y":19.27,"z":185}}}