{"type":"Feature","geometry":{"type":"Point","coordinates":[47.78,13.02,430]},"properties":{"stationId":"LOWS","rawText":"LOWS 180650Z 16009KT 9999 FEW070 08/05 Q1030 NOSIG","observationTime":"2020-03-18T06:50:00Z","temp":8,"dewpoint":5,"windDirection":160,"windSpeed":16.668,"visibility":6.21,"altim":30.413385,"flightCategory":"VFR","metarType":"METAR","geometry_esri":{"x":47.78,"y":13.02,"z":430}}}