{"type":"Feature","geometry":{"type":"Point","coordinates":[47.42,19.27,185]},"properties":{"stationId":"LHBP","rawText":"LHBP 221530Z 04004KT 360V100 8000 NSC M04/M06 Q1011 NOSIG","observationTime":"2019-01-22T15:30:00Z","temp":-4,"dewpoint":-6,"windDirection":40,"windSpeed":7.408,"visibility":4.97,"altim":29.852362,"flightCategory":"MVFR","metarType":"METAR","geometry_esri":{"x":47.42,"y":19.27,"z":185}}}