{"type":"Feature","geometry":{"type":"Point","coordinates":[47.78,13.02,430]},"properties":{"stationId":"LOWS","rawText":"LOWS 010950Z 02004KT 340V100 9999 FEW060 05/M06 Q1020 NOSIG","observationTime":"2020-04-01T09:50:00Z","temp":5,"dewpoint":-6,"windDirection":20,"windSpeed":7.408,"visibility":6.21,"altim":30.11811,"flightCategory":"VFR","metarType":"METAR","geometry_esri":{"x":47.78,"y":13.02,"z":430}}}