{"type":"Feature","geometry":{"type":"Point","coordinates":[47.78,13.02,430]},"properties":{"stationId":"LOWS","rawText":"LOWS 210250Z AUTO 28002KT 7000 -SHRA FEW003 BKN006 02/02 Q1010","observationTime":"2019-11-21T02:50:00Z","temp":2,"dewpoint":2,"windDirection":280,"windSpeed":3.704,"visibility":4.35,"altim":29.822834,"flightCategory":"IFR","metarType":"METAR","geometry_esri":{"x":47.78,"y":13.02,"z":430}}}