{"type":"Feature","geometry":{"type":"Point","coordinates":[47.42,19.27,185]},"properties":{"stationId":"LHBP","rawText":"LHBP 201930Z VRB02KT 1500 R31L/0450N R31R/0350D FZBCFG BR FEW009 M07/M07 Q1018 R88/29//95 BECMG 1000","observationTime":"2019-01-20T19:30:00Z","temp":-7,"dewpoint":-7,"windDirection":0,"windSpeed":3.704,"visibility":0.93,"altim":30.059055,"flightCategory":"LIFR","metarType":"SPECI","geometry_esri":{"x":47.42,"y":19.27,"z":185}}}