{"type":"Feature","geometry":{"type":"Point","coordinates":[47.42,19.27,185]},"properties":{"stationId":"LHBP","rawText":"LHBP 100930Z 29013KT CAVOK 20/02 Q1022 NOSIG","observationTime":"2020-04-10T09:30:00Z","temp":20,"dewpoint":2,"windDirection":290,"windSpeed":24.076,"visibility":6.21,"altim":30.177166,"flightCategory":"VFR","metarType":"METAR","geometry_esri":{"x":47.42,"y":19.27,"z":185}}}