{"type":"Feature","geometry":{"type":"Point","coordinates":[47.42,19.27,185]},"properties":{"stationId":"LHBP","rawText":"LHBP 170830Z 07005KT 010V150 9999 SCT032 SCT120 25/18 Q1018 NOSIG","observationTime":"2019-06-17T08:30:00Z","temp":25,"dewpoint":18,"windDirection":70,"windSpeed":9.26,"visibility":6.21,"altim":30.059055,"flightCategory":"VFR","metarType":"METAR","geometry_esri":{"x":47.42,"y":19.27,"z":185}}}