{"type":"Feature","geometry":{"type":"Point","coordinates":[47.78,13.02,430]},"properties":{"stationId":"LOWS","rawText":"LOWS 280450Z 14010KT 9999 FEW090 10/06 Q1008 NOSIG","observationTime":"2020-04-28T04:50:00Z","temp":10,"dewpoint":6,"windDirection":140,"windSpeed":18.52,"visibility":6.21,"altim":29.763779,"flightCategory":"VFR","metarType":"METAR","geometry_esri":{"x":47.78,"y":13.02,"z":430}}}