{"type":"Feature","geometry":{"type":"Point","coordinates":[45.98,18.23,305]},"properties":{"stationId":"LHPP","rawText":"LHPP 041046Z 30015G27KT 2000 TSRA BKN013CB 08/07 Q0999 RERA","observationTime":"2020-02-04T10:46:00Z","temp":8,"dewpoint":7,"windDirection":300,"windSpeed":27.78,"visibility":1.24,"altim":29.498032,"flightCategory":"IFR","metarType":"SPECI","geometry_esri":{"x":45.98,"y":18.23,"z":305}}}