{"type":"Feature","geometry":{"type":"Point","coordinates":[47.47,21.62,112]},"properties":{"stationId":"LHDC","rawText":"LHDC 310040Z AUTO VRB02KT 5000 BR NCD 03/M00 Q1021","observationTime":"2019-03-31T00:40:00Z","temp":3,"dewpoint":0,"windDirection":0,"windSpeed":3.704,"visibility":3.11,"altim":30.147638,"flightCategory":"MVFR","metarType":"SPECI","geometry_esri":{"x":47.47,"y":21.62,"z":112}}}