{"type":"Feature","geometry":{"type":"Point","coordinates":[47.42,19.27,185]},"properties":{"stationId":"LHBP","rawText":"LHBP 121930Z 09002KT 4200 BR NSC M04/M05 Q1029 BECMG 2500 BCFG","observationTime":"2020-01-12T19:30:00Z","temp":-4,"dewpoint":-5,"windDirection":90,"windSpeed":3.704,"visibility":2.61,"altim":30.383858,"flightCategory":"IFR","metarType":"SPECI","geometry_esri":{"x":47.42,"y":19.27,"z":185}}}