{"type":"Feature","geometry":{"type":"Point","coordinates":[47.47,21.62,112]},"properties":{"stationId":"LHDC","rawText":"LHDC 181747Z AUTO 06012KT 9999 VCTS FEW045CB BKN108 25/20 Q1015","observationTime":"2019-06-18T17:47:00Z","temp":25,"dewpoint":20,"windDirection":60,"windSpeed":22.224,"visibility":6.21,"altim":29.970472,"flightCategory":"VFR","metarType":"SPECI","geometry_esri":{"x":47.47,"y":21.62,"z":112}}}