{"type":"Feature","geometry":{"type":"Point","coordinates":[47.78,13.02,430]},"properties":{"stationId":"LOWS","rawText":"LOWS 112150Z 14010KT 2600 SN FEW003 BKN013 M04/M04 Q1022 R15/490195 BECMG 4000 -SN","observationTime":"2019-01-11T21:50:00Z","temp":-4,"dewpoint":-4,"windDirection":140,"windSpeed":18.52,"visibility":1.62,"altim":30.177166,"flightCategory":"IFR","metarType":"METAR","geometry_esri":{"x":47.78,"y":13.02,"z":430}}}