{"type":"Feature","geometry":{"type":"Point","coordinates":[47.42,19.27,185]},"properties":{"stationId":"LHBP","rawText":"LHBP 261530Z 14003KT 7000 BKN033 09/07 Q1012 NOSIG","observationTime":"2019-11-26T15:30:00Z","temp":9,"dewpoint":7,"windDirection":140,"windSpeed":5.556,"visibility":4.35,"altim":29.88189,"flightCategory":"MVFR","metarType":"METAR","geometry_esri":{"x":47.42,"y":19.27,"z":185}}}