{"type":"Feature","geometry":{"type":"Point","coordinates":[47.47,21.62,112]},"properties":{"stationId":"LHDC","rawText":"LHDC 172347Z AUTO 09003KT 040V140 3500 BR FEW015 10/10 Q1023","observationTime":"2020-05-17T23:47:00Z","temp":10,"dewpoint":10,"windDirection":90,"windSpeed":5.556,"visibility":2.17,"altim":30.206694,"flightCategory":"IFR","metarType":"SPECI","geometry_esri":{"x":47.47,"y":21.62,"z":112}}}