{"type":"Feature","geometry":{"type":"Point","coordinates":[47.78,13.02,430]},"properties":{"stationId":"LOWS","rawText":"LOWS 221150Z 31004KT 280V350 CAVOK 18/12 Q1013 NOSIG","observationTime":"2019-09-22T11:50:00Z","temp":18,"dewpoint":12,"windDirection":310,"windSpeed":7.408,"visibility":6.21,"altim":29.911417,"flightCategory":"VFR","metarType":"METAR","geometry_esri":{"x":47.78,"y":13.02,"z":430}}}