{"type":"Feature","geometry":{"type":"Point","coordinates":[47.78,13.02,430]},"properties":{"stationId":"LOWS","rawText":"LOWS 031050Z 16006KT 120V230 9999 FEW090 SCT300 12/02 Q1016 NOSIG","observationTime":"2019-03-03T10:50:00Z","temp":12,"dewpoint":2,"windDirection":160,"windSpeed":11.112,"visibility":6.21,"altim":30,"flightCategory":"VFR","metarType":"METAR","geometry_esri":{"x":47.78,"y":13.02,"z":430}}}