{"type":"Feature","geometry":{"type":"Point","coordinates":[46.25,20.1,84]},"properties":{"stationId":"LHUD","rawText":"LHUD 171645Z 32007KT 3600 BR OVC007 M04/M04 Q1026","observationTime":"2018-12-17T16:45:00Z","temp":-4,"dewpoint":-4,"windDirection":320,"windSpeed":12.964,"visibility":2.24,"altim":30.295275,"flightCategory":"IFR","metarType":"METAR","geometry_esri":{"x":46.25,"y":20.1,"z":84}}}