{"type":"Feature","geometry":{"type":"Point","coordinates":[47.42,19.27,185]},"properties":{"stationId":"LHBP","rawText":"LHBP 051430Z 11007KT 9999 -RA FEW036 BKN077 14/14 Q0999 TEMPO 4000 SHRA","observationTime":"2019-11-05T14:30:00Z","temp":14,"dewpoint":14,"windDirection":110,"windSpeed":12.964,"visibility":6.21,"altim":29.498032,"flightCategory":"VFR","metarType":"METAR","geometry_esri":{"x":47.42,"y":19.27,"z":185}}}