{"type":"Feature","geometry":{"type":"Point","coordinates":[47.78,13.02,430]},"properties":{"stationId":"LOWS","rawText":"LOWS 230750Z 21007KT 9999 -RA FEW010 SCT030 BKN040 06/04 Q1025 RERA NOSIG","observationTime":"2018-12-23T07:50:00Z","temp":6,"dewpoint":4,"windDirection":210,"windSpeed":12.964,"visibility":6.21,"altim":30.265747,"flightCategory":"VFR","metarType":"METAR","geometry_esri":{"x":47.78,"y":13.02,"z":430}}}