{"type":"Feature","geometry":{"type":"Point","coordinates":[47.42,19.27,185]},"properties":{"stationId":"LHBP","rawText":"LHBP 110230Z 32001KT 9999 BKN040 OVC045 02/M02 Q1021 NOSIG","observationTime":"2019-12-11T02:30:00Z","temp":2,"dewpoint":-2,"windDirection":320,"windSpeed":1.852,"visibility":6.21,"altim":30.147638,"flightCategory":"VFR","metarType":"METAR","geometry_esri":{"x":47.42,"y":19.27,"z":185}}}