{"type":"Feature","geometry":{"type":"Point","coordinates":[47.42,19.27,185]},"properties":{"stationId":"LHBP","rawText":"LHBP 240830Z 31018KT 9999 FEW017 SCT100 07/02 Q1010 NOSIG","observationTime":"2019-12-24T08:30:00Z","temp":7,"dewpoint":2,"windDirection":310,"windSpeed":33.336,"visibility":6.21,"altim":29.822834,"flightCategory":"VFR","metarType":"METAR","geometry_esri":{"x":47.42,"y":19.27,"z":185}}}