{"type":"Feature","geometry":{"type":"Point","coordinates":[47.42,19.27,185]},"properties":{"stationId":"LHBP","rawText":"LHBP 300230Z VRB01KT 7000 NSC M08/M10 Q1037 NOSIG","observationTime":"2019-12-30T02:30:00Z","temp":-8,"dewpoint":-10,"windDirection":0,"windSpeed":1.852,"visibility":4.35,"altim":30.620079,"flightCategory":"MVFR","metarType":"METAR","geometry_esri":{"x":47.42,"y":19.27,"z":185}}}