{"type":"Feature","geometry":{"type":"Point","coordinates":[47.42,19.27,185]},"properties":{"stationId":"LHBP","rawText":"LHBP 230530Z 35005KT 310V080 CAVOK 21/18 Q1024 NOSIG","observationTime":"2019-08-23T05:30:00Z","temp":21,"dewpoint":18,"windDirection":350,"windSpeed":9.26,"visibility":6.21,"altim":30.236221,"flightCategory":"VFR","metarType":"METAR","geometry_esri":{"x":47.42,"y":19.27,"z":185}}}