{"type":"Feature","geometry":{"type":"Point","coordinates":[47.42,19.27,185]},"properties":{"stationId":"LHBP","rawText":"LHBP 110930Z 32009KT 5000 BR NSC 05/01 Q1028 NOSIG","observationTime":"2020-01-11T09:30:00Z","temp":5,"dewpoint":1,"windDirection":320,"windSpeed":16.668,"visibility":3.11,"altim":30.35433,"flightCategory":"MVFR","metarType":"METAR","geometry_esri":{"x":47.42,"y":19.27,"z":185}}}