{"type":"Feature","geometry":{"type":"Point","coordinates":[45.98,18.23,305]},"properties":{"stationId":"LHPP","rawText":"LHPP 071235Z 20006KT 9999 FEW030CB SCT083 29/18 Q1007","observationTime":"2019-07-07T12:35:00Z","temp":29,"dewpoint":18,"windDirection":200,"windSpeed":11.112,"visibility":6.21,"altim":29.734253,"flightCategory":"VFR","metarType":"METAR","geometry_esri":{"x":45.98,"y":18.23,"z":305}}}