{"type":"Feature","geometry":{"type":"Point","coordinates":[47.78,13.02,430]},"properties":{"stationId":"LOWS","rawText":"LOWS 100050Z AUTO 12004KT 070V170 9999 NSC M00/M01 Q1009","observationTime":"2019-11-10T00:50:00Z","temp":0,"dewpoint":-1,"windDirection":120,"windSpeed":7.408,"visibility":6.21,"altim":29.793306,"flightCategory":"VFR","metarType":"METAR","geometry_esri":{"x":47.78,"y":13.02,"z":430}}}