{"type":"Feature","geometry":{"type":"Point","coordinates":[47.78,13.02,430]},"properties":{"stationId":"LOWS","rawText":"LOWS 030250Z AUTO 36003KT 310V030 9999 -RA FEW018 SCT024 BKN026 05/03 Q0996","observationTime":"2020-03-03T02:50:00Z","temp":5,"dewpoint":3,"windDirection":360,"windSpeed":5.556,"visibility":6.21,"altim":29.409449,"flightCategory":"MVFR","metarType":"METAR","geometry_esri":{"x":47.78,"y":13.02,"z":430}}}