{"type":"Feature","geometry":{"type":"Point","coordinates":[47.78,13.02,430]},"properties":{"stationId":"LOWS","rawText":"LOWS 131450Z 01005KT 330V050 9999 FEW040 BKN060 09/M01 Q1016 NOSIG","observationTime":"2019-04-13T14:50:00Z","temp":9,"dewpoint":-1,"windDirection":10,"windSpeed":9.26,"visibility":6.21,"altim":30,"flightCategory":"VFR","metarType":"METAR","geometry_esri":{"x":47.78,"y":13.02,"z":430}}}