{"type":"Feature","geometry":{"type":"Point","coordinates":[47.42,19.27,185]},"properties":{"stationId":"LHBP","rawText":"LHBP 190930Z 14006KT 050V210 9999 SCT036 27/19 Q1014 TEMPO FEW030CB SCT035","observationTime":"2019-06-19T09:30:00Z","temp":27,"dewpoint":19,"windDirection":140,"windSpeed":11.112,"visibility":6.21,"altim":29.940945,"flightCategory":"VFR","metarType":"METAR","geometry_esri":{"x":47.42,"y":19.27,"z":185}}}