{"type":"Feature","geometry":{"type":"Point","coordinates":[47.78,13.02,430]},"properties":{"stationId":"LOWS","rawText":"LOWS 090150Z AUTO 34003KT 310V010 9999 -RA FEW017 SCT040 BKN042 10/07 Q1005","observationTime":"2019-05-09T01:50:00Z","temp":10,"dewpoint":7,"windDirection":340,"windSpeed":5.556,"visibility":6.21,"altim":29.675198,"flightCategory":"VFR","metarType":"METAR","geometry_esri":{"x":47.78,"y":13.02,"z":430}}}