{"type":"Feature","geometry":{"type":"Point","coordinates":[47.78,13.02,430]},"properties":{"stationId":"LOWS","rawText":"LOWS 030550Z 15004KT 100V190 9999 FEW070 SCT120 16/13 Q1016 NOSIG","observationTime":"2019-08-03T05:50:00Z","temp":16,"dewpoint":13,"windDirection":150,"windSpeed":7.408,"visibility":6.21,"altim":30,"flightCategory":"VFR","metarType":"METAR","geometry_esri":{"x":47.78,"y":13.02,"z":430}}}