{"type":"Feature","geometry":{"type":"Point","coordinates":[47.42,19.27,185]},"properties":{"stationId":"LHBP","rawText":"LHBP 120830Z 36010KT CAVOK 09/05 Q1014 TEMPO FM1000 7000 SHRA BKN035","observationTime":"2019-04-12T08:30:00Z","temp":9,"dewpoint":5,"windDirection":360,"windSpeed":18.52,"visibility":6.21,"altim":29.940945,"flightCategory":"VFR","metarType":"METAR","geometry_esri":{"x":47.42,"y":19.27,"z":185}}}