{"type":"Feature","geometry":{"type":"Point","coordinates":[47.78,13.02,430]},"properties":{"stationId":"LOWS","rawText":"LOWS 011650Z 28003KT 240V300 9999 FEW050 SCT060 FEW060CB BKN130 25/17 Q1013 NOSIG","observationTime":"2019-09-01T16:50:00Z","temp":25,"dewpoint":17,"windDirection":280,"windSpeed":5.556,"visibility":6.21,"altim":29.911417,"flightCategory":"VFR","metarType":"METAR","geometry_esri":{"x":47.78,"y":13.02,"z":430}}}