{"type":"Feature","geometry":{"type":"Point","coordinates":[46.25,20.1,84]},"properties":{"stationId":"LHUD","rawText":"LHUD 181844Z 32015KT 9999 -RA NSC 09/01 Q1018","observationTime":"2019-03-18T18:44:00Z","temp":9,"dewpoint":1,"windDirection":320,"windSpeed":27.78,"visibility":6.21,"altim":30.059055,"flightCategory":"VFR","metarType":"SPECI","geometry_esri":{"x":46.25,"y":20.1,"z":84}}}