{"type":"Feature","geometry":{"type":"Point","coordinates":[47.42,19.27,185]},"properties":{"stationId":"LHBP","rawText":"LHBP 051530Z 10006KT 040V140 5000 BR OVC006 M02/M03 Q1028 NOSIG","observationTime":"2019-12-05T15:30:00Z","temp":-2,"dewpoint":-3,"windDirection":100,"windSpeed":11.112,"visibility":3.11,"altim":30.35433,"flightCategory":"IFR","metarType":"METAR","geometry_esri":{"x":47.42,"y":19.27,"z":185}}}