{"type":"Feature","geometry":{"type":"Point","coordinates":[47.78,13.02,430]},"properties":{"stationId":"LOWS","rawText":"LOWS 232150Z 18002KT 6000 FEW005 M06/M06 Q1025 TEMPO 4000 BR","observationTime":"2020-01-23T21:50:00Z","temp":-6,"dewpoint":-6,"windDirection":180,"windSpeed":3.704,"visibility":3.73,"altim":30.265747,"flightCategory":"MVFR","metarType":"SPECI","geometry_esri":{"x":47.78,"y":13.02,"z":430}}}