{"type":"Feature","geometry":{"type":"Point","coordinates":[47.78,13.02,430]},"properties":{"stationId":"LOWS","rawText":"LOWS 231050Z 18003KT 130V230 9999 FEW009 M01/M04 Q1031 NOSIG","observationTime":"2020-01-23T10:50:00Z","temp":-1,"dewpoint":-4,"windDirection":180,"windSpeed":5.556,"visibility":6.21,"altim":30.442913,"flightCategory":"VFR","metarType":"METAR","geometry_esri":{"x":47.78,"y":13.02,"z":430}}}