{"type":"Feature","geometry":{"type":"Point","coordinates":[47.42,19.27,185]},"properties":{"stationId":"LHBP","rawText":"LHBP 290530Z 25008KT CAVOK 02/M01 Q1007 NOSIG","observationTime":"2020-01-29T05:30:00Z","temp":2,"dewpoint":-1,"windDirection":250,"windSpeed":14.816,"visibility":6.21,"altim":29.734253,"flightCategory":"VFR","metarType":"METAR","geometry_esri":{"x":47.42,"y":19.27,"z":185}}}