{"type":"Feature","geometry":{"type":"Point","coordinates":[47.42,19.27,185]},"properties":{"stationId":"LHBP","rawText":"LHBP 171730Z VRB01KT 1800 0700SE R31L/0175N R31R/0600N FZBCFG BR FEW002 SCT230 M06/M07 Q1025 TEMPO 1000 FZBCFG BR","observationTime":"2018-12-17T17:30:00Z","temp":-6,"dewpoint":-7,"windDirection":0,"windSpeed":1.852,"visibility":1.12,"altim":30.265747,"flightCategory":"IFR","metarType":"SPECI","geometry_esri":{"x":47.42,"y":19.27,"z":185}}}