{"type":"Feature","geometry":{"type":"Point","coordinates":[46.25,20.1,84]},"properties":{"stationId":"LHUD","rawText":"LHUD 231031Z 29016G26KT CAVOK 10/03 Q1022","observationTime":"2018-12-23T10:31:00Z","temp":10,"dewpoint":3,"windDirection":290,"windSpeed":29.632,"visibility":6.21,"altim":30.177166,"flightCategory":"VFR","metarType":"SPECI","geometry_esri":{"x":46.25,"y":20.1,"z":84}}}