{"type":"Feature","geometry":{"type":"Point","coordinates":[47.42,19.27,185]},"properties":{"stationId":"LHBP","rawText":"LHBP 290630Z 34006KT CAVOK M02/M06 Q1033 NOSIG","observationTime":"2019-12-29T06:30:00Z","temp":-2,"dewpoint":-6,"windDirection":340,"windSpeed":11.112,"visibility":6.21,"altim":30.501968,"flightCategory":"VFR","metarType":"METAR","geometry_esri":{"x":47.42,"y":19.27,"z":185}}}