{"type":"Feature","geometry":{"type":"Point","coordinates":[47.42,19.27,185]},"properties":{"stationId":"LHBP","rawText":"LHBP 142130Z 12004KT CAVOK 05/00 Q1006 NOSIG","observationTime":"2019-03-14T21:30:00Z","temp":5,"dewpoint":0,"windDirection":120,"windSpeed":7.408,"visibility":6.21,"altim":29.704725,"flightCategory":"VFR","metarType":"METAR","geometry_esri":{"x":47.42,"y":19.27,"z":185}}}