{"type":"Feature","geometry":{"type":"Point","coordinates":[47.42,19.27,185]},"properties":{"stationId":"LHBP","rawText":"LHBP 030830Z 30017KT 9999 SCT021 SCT067 BKN086 10/06 Q1011 NOSIG","observationTime":"2020-02-03T08:30:00Z","temp":10,"dewpoint":6,"windDirection":300,"windSpeed":31.484,"visibility":6.21,"altim":29.852362,"flightCategory":"VFR","metarType":"METAR","geometry_esri":{"x":47.42,"y":19.27,"z":185}}}