{"type":"Feature","geometry":{"type":"Point","coordinates":[47.78,13.02,430]},"properties":{"stationId":"LOWS","rawText":"LOWS 202150Z 31003KT 270V340 5000 -DZ BR FEW005 BKN007 02/02 Q1012 TEMPO 4000 BR","observationTime":"2019-11-20T21:50:00Z","temp":2,"dewpoint":2,"windDirection":310,"windSpeed":5.556,"visibility":3.11,"altim":29.88189,"flightCategory":"IFR","metarType":"SPECI","geometry_esri":{"x":47.78,"y":13.02,"z":430}}}