{"type":"Feature","geometry":{"type":"Point","coordinates":[47.42,19.27,185]},"properties":{"stationId":"LHBP","rawText":"LHBP 052130Z 30007KT CAVOK M02/M02 Q1027 NOSIG","observationTime":"2019-02-05T21:30:00Z","temp":-2,"dewpoint":-2,"windDirection":300,"windSpeed":12.964,"visibility":6.21,"altim":30.324802,"flightCategory":"VFR","metarType":"METAR","geometry_esri":{"x":47.42,"y":19.27,"z":185}}}