{"type":"Feature","geometry":{"type":"Point","coordinates":[47.42,19.27,185]},"properties":{"stationId":"LHBP","rawText":"LHBP 262230Z VRB01KT CAVOK 10/10 Q1016 NOSIG","observationTime":"2019-09-26T22:30:00Z","temp":10,"dewpoint":10,"windDirection":0,"windSpeed":1.852,"visibility":6.21,"altim":30,"flightCategory":"VFR","metarType":"METAR","geometry_esri":{"x":47.42,"y":19.27,"z":185}}}