{"type":"Feature","geometry":{"type":"Point","coordinates":[47.42,19.27,185]},"properties":{"stationId":"LHBP","rawText":"LHBP 121930Z VRB02KT CAVOK 26/22 Q1011 NOSIG","observationTime":"2019-08-12T19:30:00Z","temp":26,"dewpoint":22,"windDirection":0,"windSpeed":3.704,"visibility":6.21,"altim":29.852362,"flightCategory":"VFR","metarType":"METAR","geometry_esri":{"x":47.42,"y":19.27,"z":185}}}