{"type":"Feature","geometry":{"type":"Point","coordinates":[47.42,19.27,185]},"properties":{"stationId":"LHBP","rawText":"LHBP 291930Z VRB02KT CAVOK M04/M07 Q1036 NOSIG","observationTime":"2019-12-29T19:30:00Z","temp":-4,"dewpoint":-7,"windDirection":0,"windSpeed":3.704,"visibility":6.21,"altim":30.590551,"flightCategory":"VFR","metarType":"METAR","geometry_esri":{"x":47.42,"y":19.27,"z":185}}}