{"type":"Feature","geometry":{"type":"Point","coordinates":[47.42,19.27,185]},"properties":{"stationId":"LHBP","rawText":"LHBP 190830Z 32007KT 260V360 CAVOK 19/03 Q1029 NOSIG","observationTime":"2019-04-19T08:30:00Z","temp":19,"dewpoint":3,"windDirection":320,"windSpeed":12.964,"visibility":6.21,"altim":30.383858,"flightCategory":"VFR","metarType":"METAR","geometry_esri":{"x":47.42,"y":19.27,"z":185}}}