{"type":"Feature","geometry":{"type":"Point","coordinates":[47.78,13.02,430]},"properties":{"stationId":"LOWS","rawText":"LOWS 141950Z AUTO 06007KT 030V100 7000 SHRA FEW016 SCT020 BKN022 10/08 Q1013","observationTime":"2020-05-14T19:50:00Z","temp":10,"dewpoint":8,"windDirection":60,"windSpeed":12.964,"visibility":4.35,"altim":29.911417,"flightCategory":"MVFR","metarType":"METAR","geometry_esri":{"x":47.78,"y":13.02,"z":430}}}