{"type":"Feature","geometry":{"type":"Point","coordinates":[47.42,19.27,185]},"properties":{"stationId":"LHBP","rawText":"LHBP 312032Z 06006KT 030V090 CAVOK 26/14 Q1015 NOSIG RMK 25 KT WIND FROM 060 DEG OBS OVER 100 FT NEAR 13R","observationTime":"2019-08-31T20:32:00Z","temp":26,"dewpoint":14,"windDirection":60,"windSpeed":11.112,"visibility":6.21,"altim":29.970472,"flightCategory":"VFR","metarType":"SPECI","geometry_esri":{"x":47.42,"y":19.27,"z":185}}}