{"type":"Feature","geometry":{"type":"Point","coordinates":[47.78,13.02,430]},"properties":{"stationId":"LOWS","rawText":"LOWS 281950Z 22005KT 190V250 9999 -RA FEW009 SCT022 BKN045 10/09 Q1013 RERA NOSIG","observationTime":"2019-05-28T19:50:00Z","temp":10,"dewpoint":9,"windDirection":220,"windSpeed":9.26,"visibility":6.21,"altim":29.911417,"flightCategory":"VFR","metarType":"METAR","geometry_esri":{"x":47.78,"y":13.02,"z":430}}}