{"type":"Feature","geometry":{"type":"Point","coordinates":[47.78,13.02,430]},"properties":{"stationId":"LOWS","rawText":"LOWS 161650Z 15010KT CAVOK 01/M03 Q1012 NOSIG","observationTime":"2019-01-16T16:50:00Z","temp":1,"dewpoint":-3,"windDirection":150,"windSpeed":18.52,"visibility":6.21,"altim":29.88189,"flightCategory":"VFR","metarType":"METAR","geometry_esri":{"x":47.78,"y":13.02,"z":430}}}