{"type":"Feature","geometry":{"type":"Point","coordinates":[47.78,13.02,430]},"properties":{"stationId":"LOWS","rawText":"LOWS 271450Z 21005KT 170V250 9999 FEW060 BKN080 17/07 Q1010 NOSIG","observationTime":"2020-04-27T14:50:00Z","temp":17,"dewpoint":7,"windDirection":210,"windSpeed":9.26,"visibility":6.21,"altim":29.822834,"flightCategory":"VFR","metarType":"METAR","geometry_esri":{"x":47.78,"y":13.02,"z":430}}}