{"type":"Feature","geometry":{"type":"Point","coordinates":[47.78,13.02,430]},"properties":{"stationId":"LOWS","rawText":"LOWS 271050Z 01005KT 320V050 9999 FEW045 BKN075 26/16 Q1005 NOSIG","observationTime":"2019-07-27T10:50:00Z","temp":26,"dewpoint":16,"windDirection":10,"windSpeed":9.26,"visibility":6.21,"altim":29.675198,"flightCategory":"VFR","metarType":"METAR","geometry_esri":{"x":47.78,"y":13.02,"z":430}}}