{"type":"Feature","geometry":{"type":"Point","coordinates":[47.42,19.27,185]},"properties":{"stationId":"LHBP","rawText":"LHBP 250130Z 32004KT CAVOK 21/20 Q1019 WS ALL RWY NOSIG","observationTime":"2019-08-25T01:30:00Z","temp":21,"dewpoint":20,"windDirection":320,"windSpeed":7.408,"visibility":6.21,"altim":30.088583,"flightCategory":"VFR","metarType":"SPECI","geometry_esri":{"x":47.42,"y":19.27,"z":185}}}