{"type":"Feature","geometry":{"type":"Point","coordinates":[47.78,13.02,430]},"properties":{"stationId":"LOWS","rawText":"LOWS 071950Z 31005KT 290V350 9999 FEW100 BKN160 12/06 Q1005 NOSIG","observationTime":"2019-04-07T19:50:00Z","temp":12,"dewpoint":6,"windDirection":310,"windSpeed":9.26,"visibility":6.21,"altim":29.675198,"flightCategory":"VFR","metarType":"METAR","geometry_esri":{"x":47.78,"y":13.02,"z":430}}}