{"type":"Feature","geometry":{"type":"Point","coordinates":[47.78,13.02,430]},"properties":{"stationId":"LOWS","rawText":"LOWS 210450Z 14004KT 9999 FEW007 SCT045 BKN060 07/05 Q0998 NOSIG","observationTime":"2019-12-21T04:50:00Z","temp":7,"dewpoint":5,"windDirection":140,"windSpeed":7.408,"visibility":6.21,"altim":29.468504,"flightCategory":"VFR","metarType":"METAR","geometry_esri":{"x":47.78,"y":13.02,"z":430}}}