{"type":"Feature","geometry":{"type":"Point","coordinates":[47.42,19.27,185]},"properties":{"stationId":"LHBP","rawText":"LHBP 021930Z 30004KT 8000 NSC M01/M02 Q1022 R88/610195 NOSIG","observationTime":"2019-12-02T19:30:00Z","temp":-1,"dewpoint":-2,"windDirection":300,"windSpeed":7.408,"visibility":4.97,"altim":30.177166,"flightCategory":"MVFR","metarType":"SPECI","geometry_esri":{"x":47.42,"y":19.27,"z":185}}}