{"type":"Feature","geometry":{"type":"Point","coordinates":[47.78,13.02,430]},"properties":{"stationId":"LOWS","rawText":"LOWS 021650Z 29014G24KT 240V330 4000 SHRA VCTS FEW015 BKN030 FEW050CB 08/07 Q1011 BECMG NSW","observationTime":"2020-05-02T16:50:00Z","temp":8,"dewpoint":7,"windDirection":290,"windSpeed":25.928,"visibility":2.49,"altim":29.852362,"flightCategory":"IFR","metarType":"METAR","geometry_esri":{"x":47.78,"y":13.02,"z":430}}}