{"type":"Feature","geometry":{"type":"Point","coordinates":[47.78,13.02,430]},"properties":{"stationId":"LOWS","rawText":"LOWS 111250Z 28003KT 200V340 9999 FEW070 SCT300 26/17 Q1008 TEMPO 15010G20KT","observationTime":"2019-06-11T12:50:00Z","temp":26,"dewpoint":17,"windDirection":280,"windSpeed":5.556,"visibility":6.21,"altim":29.763779,"flightCategory":"VFR","metarType":"METAR","geometry_esri":{"x":47.78,"y":13.02,"z":430}}}