{"type":"Feature","geometry":{"type":"Point","coordinates":[47.42,19.27,185]},"properties":{"stationId":"LHBP","rawText":"LHBP 311430Z 07005KT 030V110 9999 FEW040 08/02 Q1025 NOSIG","observationTime":"2019-10-31T14:30:00Z","temp":8,"dewpoint":2,"windDirection":70,"windSpeed":9.26,"visibility":6.21,"altim":30.265747,"flightCategory":"VFR","metarType":"METAR","geometry_esri":{"x":47.42,"y":19.27,"z":185}}}