{"type":"Feature","geometry":{"type":"Point","coordinates":[47.78,13.02,430]},"properties":{"stationId":"LOWS","rawText":"LOWS 210750Z VRB02KT 0500 R15/0800U R33/0450N FZFG BKN002 M05/M06 Q1041 R15/19//95 BECMG 1200 FZBCFG SCT003","observationTime":"2020-01-21T07:50:00Z","temp":-5,"dewpoint":-6,"windDirection":0,"windSpeed":3.704,"visibility":0.31,"altim":30.73819,"flightCategory":"LIFR","metarType":"METAR","geometry_esri":{"x":47.78,"y":13.02,"z":430}}}