{"type":"Feature","geometry":{"type":"Point","coordinates":[47.42,19.27,185]},"properties":{"stationId":"LHBP","rawText":"LHBP 211630Z 11006KT 0600 R13L/0900N R13R/P1500U FZFG OVC002 M02/M02 Q1020 R88/29//95 TEMPO 0500 FZFG","observationTime":"2018-12-21T16:30:00Z","temp":-2,"dewpoint":-2,"windDirection":110,"windSpeed":11.112,"visibility":0.37,"altim":30.11811,"flightCategory":"LIFR","metarType":"SPECI","geometry_esri":{"x":47.42,"y":19.27,"z":185}}}