{"type":"Feature","geometry":{"type":"Point","coordinates":[47.78,13.02,430]},"properties":{"stationId":"LOWS","rawText":"LOWS 170050Z AUTO 16004KT 9999 FEW070 BKN090 15/12 Q1022","observationTime":"2019-06-17T00:50:00Z","temp":15,"dewpoint":12,"windDirection":160,"windSpeed":7.408,"visibility":6.21,"altim":30.177166,"flightCategory":"VFR","metarType":"METAR","geometry_esri":{"x":47.78,"y":13.02,"z":430}}}