{"type":"Feature","geometry":{"type":"Point","coordinates":[47.78,13.02,430]},"properties":{"stationId":"LOWS","rawText":"LOWS 151150Z 04003KT 340V110 CAVOK 14/M06 Q1024 NOSIG","observationTime":"2020-04-15T11:50:00Z","temp":14,"dewpoint":-6,"windDirection":40,"windSpeed":5.556,"visibility":6.21,"altim":30.236221,"flightCategory":"VFR","metarType":"METAR","geometry_esri":{"x":47.78,"y":13.02,"z":430}}}