{"type":"Feature","geometry":{"type":"Point","coordinates":[47.78,13.02,430]},"properties":{"stationId":"LOWS","rawText":"LOWS 150150Z AUTO 18005KT 130V200 9999 NSC 01/M02 Q1036","observationTime":"2019-02-15T01:50:00Z","temp":1,"dewpoint":-2,"windDirection":180,"windSpeed":9.26,"visibility":6.21,"altim":30.590551,"flightCategory":"VFR","metarType":"METAR","geometry_esri":{"x":47.78,"y":13.02,"z":430}}}