{"type":"Feature","geometry":{"type":"Point","coordinates":[47.47,21.62,112]},"properties":{"stationId":"LHDC","rawText":"LHDC 260638Z AUTO 17004KT 140V200 3100 -SHRA BR FEW014 BKN050 BKN074 15/15 Q1011","observationTime":"2019-09-26T06:38:00Z","temp":15,"dewpoint":15,"windDirection":170,"windSpeed":7.408,"visibility":1.93,"altim":29.852362,"flightCategory":"IFR","metarType":"SPECI","geometry_esri":{"x":47.47,"y":21.62,"z":112}}}