{"type":"Feature","geometry":{"type":"Point","coordinates":[47.78,13.02,430]},"properties":{"stationId":"LOWS","rawText":"LOWS 100750Z 22005KT 190V250 9999 -RA FEW014 SCT032 BKN045 11/07 Q1012 TEMPO SHRA","observationTime":"2019-05-10T07:50:00Z","temp":11,"dewpoint":7,"windDirection":220,"windSpeed":9.26,"visibility":6.21,"altim":29.88189,"flightCategory":"VFR","metarType":"METAR","geometry_esri":{"x":47.78,"y":13.02,"z":430}}}