{"type":"Feature","geometry":{"type":"Point","coordinates":[47.42,19.27,185]},"properties":{"stationId":"LHBP","rawText":"LHBP 080130Z 28008KT CAVOK 21/17 Q1011 NOSIG","observationTime":"2019-08-08T01:30:00Z","temp":21,"dewpoint":17,"windDirection":280,"windSpeed":14.816,"visibility":6.21,"altim":29.852362,"flightCategory":"VFR","metarType":"METAR","geometry_esri":{"x":47.42,"y":19.27,"z":185}}}