{"type":"Feature","geometry":{"type":"Point","coordinates":[47.42,19.27,185]},"properties":{"stationId":"LHBP","rawText":"LHBP 290730Z 00000KT 1500 0500SE R31L/1800U R31R/0650N BCFG BR FEW001 SCT070 06/05 Q1005 BECMG 3000 BR","observationTime":"2019-11-29T07:30:00Z","temp":6,"dewpoint":5,"windDirection":0,"windSpeed":0,"visibility":0.93,"altim":29.675198,"flightCategory":"LIFR","metarType":"METAR","geometry_esri":{"x":47.42,"y":19.27,"z":185}}}