{"type":"Feature","geometry":{"type":"Point","coordinates":[47.42,19.27,185]},"properties":{"stationId":"LHBP","rawText":"LHBP 170830Z 11005KT 0500 R13R/0900U R13L/0900N -FZDZ FZFG OVC002 M04/M04 Q1030 TEMPO 0800","observationTime":"2020-01-17T08:30:00Z","temp":-4,"dewpoint":-4,"windDirection":110,"windSpeed":9.26,"visibility":0.31,"altim":30.413385,"flightCategory":"LIFR","metarType":"METAR","geometry_esri":{"x":47.42,"y":19.27,"z":185}}}