{"type":"Feature","geometry":{"type":"Point","coordinates":[47.78,13.02,430]},"properties":{"stationId":"LOWS","rawText":"LOWS 042150Z VRB02KT CAVOK M04/M05 Q1020 TEMPO 4000","observationTime":"2019-12-04T21:50:00Z","temp":-4,"dewpoint":-5,"windDirection":0,"windSpeed":3.704,"visibility":6.21,"altim":30.11811,"flightCategory":"VFR","metarType":"METAR","geometry_esri":{"x":47.78,"y":13.02,"z":430}}}