{"type":"Feature","geometry":{"type":"Point","coordinates":[47.78,13.02,430]},"properties":{"stationId":"LOWS","rawText":"LOWS 280350Z AUTO VRB01KT 4400 -RA BR FEW009 SCT026 BKN036 12/12 Q1020","observationTime":"2019-10-28T03:50:00Z","temp":12,"dewpoint":12,"windDirection":0,"windSpeed":1.852,"visibility":2.73,"altim":30.11811,"flightCategory":"IFR","metarType":"METAR","geometry_esri":{"x":47.78,"y":13.02,"z":430}}}