{"type":"Feature","geometry":{"type":"Point","coordinates":[47.78,13.02,430]},"properties":{"stationId":"LOWS","rawText":"LOWS 181250Z 15007KT 9999 FEW018 FEW040TCU BKN050 BKN100 04/01 Q1019 TEMPO 29015G25KT 2000 TSSN","observationTime":"2019-03-18T12:50:00Z","temp":4,"dewpoint":1,"windDirection":150,"windSpeed":12.964,"visibility":6.21,"altim":30.088583,"flightCategory":"VFR","metarType":"METAR","geometry_esri":{"x":47.78,"y":13.02,"z":430}}}