{"type":"Feature","geometry":{"type":"Point","coordinates":[47.42,19.27,185]},"properties":{"stationId":"LHBP","rawText":"LHBP 261430Z VRB05KT CAVOK 17/M02 Q1011 NOSIG","observationTime":"2020-04-26T14:30:00Z","temp":17,"dewpoint":-2,"windDirection":0,"windSpeed":9.26,"visibility":6.21,"altim":29.852362,"flightCategory":"VFR","metarType":"METAR","geometry_esri":{"x":47.42,"y":19.27,"z":185}}}