{"type":"Feature","geometry":{"type":"Point","coordinates":[47.42,19.27,185]},"properties":{"stationId":"LHBP","rawText":"LHBP 091430Z 22007KT 6000 -RA SCT007 OVC054 11/11 Q1005 RERA NOSIG","observationTime":"2019-05-09T14:30:00Z","temp":11,"dewpoint":11,"windDirection":220,"windSpeed":12.964,"visibility":3.73,"altim":29.675198,"flightCategory":"MVFR","metarType":"METAR","geometry_esri":{"x":47.42,"y":19.27,"z":185}}}