{"type":"Feature","geometry":{"type":"Point","coordinates":[47.78,13.02,430]},"properties":{"stationId":"LOWS","rawText":"LOWS 240350Z AUTO 16009KT 130V190 9999 SCT250 12/03 Q1003","observationTime":"2019-11-24T03:50:00Z","temp":12,"dewpoint":3,"windDirection":160,"windSpeed":16.668,"visibility":6.21,"altim":29.616142,"flightCategory":"VFR","metarType":"METAR","geometry_esri":{"x":47.78,"y":13.02,"z":430}}}