{"type":"Feature","geometry":{"type":"Point","coordinates":[47.78,13.02,430]},"properties":{"stationId":"LOWS","rawText":"LOWS 192350Z AUTO VRB01KT 4500 BR FEW019 SCT020 BKN030 M00/M00 Q1041","observationTime":"2020-01-19T23:50:00Z","temp":0,"dewpoint":0,"windDirection":0,"windSpeed":1.852,"visibility":2.8,"altim":30.73819,"flightCategory":"IFR","metarType":"METAR","geometry_esri":{"x":47.78,"y":13.02,"z":430}}}