{"type":"Feature","geometry":{"type":"Point","coordinates":[47.78,13.02,430]},"properties":{"stationId":"LOWS","rawText":"LOWS 041750Z 25006KT 210V310 6000 -SN FEW005 SCT013 BKN022 M01/M03 Q1030 R15/690295 TEMPO 2500 SN BKN013","observationTime":"2019-01-04T17:50:00Z","temp":-1,"dewpoint":-3,"windDirection":250,"windSpeed":11.112,"visibility":3.73,"altim":30.413385,"flightCategory":"MVFR","metarType":"METAR","geometry_esri":{"x":47.78,"y":13.02,"z":430}}}