{"type":"Feature","geometry":{"type":"Point","coordinates":[47.78,13.02,430]},"properties":{"stationId":"LOWS","rawText":"LOWS 181650Z 24004KT 9999 FEW070 BKN250 14/11 Q1013 NOSIG","observationTime":"2019-10-18T16:50:00Z","temp":14,"dewpoint":11,"windDirection":240,"windSpeed":7.408,"visibility":6.21,"altim":29.911417,"flightCategory":"VFR","metarType":"METAR","geometry_esri":{"x":47.78,"y":13.02,"z":430}}}