{"type":"Feature","geometry":{"type":"Point","coordinates":[47.78,13.02,430]},"properties":{"stationId":"LOWS","rawText":"LOWS 101750Z AUTO 35004KT 9999 NCD 21/13 Q1006","observationTime":"2020-05-10T17:50:00Z","temp":21,"dewpoint":13,"windDirection":350,"windSpeed":7.408,"visibility":6.21,"altim":29.704725,"flightCategory":"VFR","metarType":"METAR","geometry_esri":{"x":47.78,"y":13.02,"z":430}}}