{"type":"Feature","geometry":{"type":"Point","coordinates":[47.42,19.27,185]},"properties":{"stationId":"LHBP","rawText":"LHBP 301130Z 21012KT 190V250 CAVOK 25/14 Q1007 BECMG 28018G30KT","observationTime":"2019-09-30T11:30:00Z","temp":25,"dewpoint":14,"windDirection":210,"windSpeed":22.224,"visibility":6.21,"altim":29.734253,"flightCategory":"VFR","metarType":"SPECI","geometry_esri":{"x":47.42,"y":19.27,"z":185}}}