{"type":"Feature","geometry":{"type":"Point","coordinates":[47.78,13.02,430]},"properties":{"stationId":"LOWS","rawText":"LOWS 011450Z 16005KT CAVOK 03/M01 Q1032 NOSIG","observationTime":"2020-01-01T14:50:00Z","temp":3,"dewpoint":-1,"windDirection":160,"windSpeed":9.26,"visibility":6.21,"altim":30.47244,"flightCategory":"VFR","metarType":"METAR","geometry_esri":{"x":47.78,"y":13.02,"z":430}}}