{"type":"Feature","geometry":{"type":"Point","coordinates":[47.78,13.02,430]},"properties":{"stationId":"LOWS","rawText":"LOWS 220350Z 15007KT 100V170 9999 FEW045 SCT055 BKN070 05/04 Q1014 NOSIG","observationTime":"2018-12-22T03:50:00Z","temp":5,"dewpoint":4,"windDirection":150,"windSpeed":12.964,"visibility":6.21,"altim":29.940945,"flightCategory":"VFR","metarType":"METAR","geometry_esri":{"x":47.78,"y":13.02,"z":430}}}