{"type":"Feature","geometry":{"type":"Point","coordinates":[47.42,19.27,185]},"properties":{"stationId":"LHBP","rawText":"LHBP 032030Z AUTO 34006KT 9999 NCD 06/M04 Q1016 NOSIG","observationTime":"2020-04-03T20:30:00Z","temp":6,"dewpoint":-4,"windDirection":340,"windSpeed":11.112,"visibility":6.21,"altim":30,"flightCategory":"VFR","metarType":"METAR","geometry_esri":{"x":47.42,"y":19.27,"z":185}}}