{"type":"Feature","geometry":{"type":"Point","coordinates":[47.42,19.27,185]},"properties":{"stationId":"LHBP","rawText":"LHBP 111430Z 31005KT CAVOK M01/M05 Q1018 R88/19//95 NOSIG","observationTime":"2019-01-11T14:30:00Z","temp":-1,"dewpoint":-5,"windDirection":310,"windSpeed":9.26,"visibility":6.21,"altim":30.059055,"flightCategory":"VFR","metarType":"SPECI","geometry_esri":{"x":47.42,"y":19.27,"z":185}}}