{"type":"Feature","geometry":{"type":"Point","coordinates":[47.42,19.27,185]},"properties":{"stationId":"LHBP","rawText":"LHBP 140230Z 36004KT 6000 OVC023 05/04 Q0995 NOSIG","observationTime":"2019-12-14T02:30:00Z","temp":5,"dewpoint":4,"windDirection":360,"windSpeed":7.408,"visibility":3.73,"altim":29.379921,"flightCategory":"MVFR","metarType":"METAR","geometry_esri":{"x":47.42,"y":19.27,"z":185}}}