{"type":"Feature","geometry":{"type":"Point","coordinates":[47.42,19.27,185]},"properties":{"stationId":"LHBP","rawText":"LHBP 292330Z 18005KT CAVOK 16/15 Q1008 NOSIG","observationTime":"2019-09-29T23:30:00Z","temp":16,"dewpoint":15,"windDirection":180,"windSpeed":9.26,"visibility":6.21,"altim":29.763779,"flightCategory":"VFR","metarType":"METAR","geometry_esri":{"x":47.42,"y":19.27,"z":185}}}