{"type":"Feature","geometry":{"type":"Point","coordinates":[47.78,13.02,430]},"properties":{"stationId":"LOWS","rawText":"LOWS 120350Z 13003KT 020V160 9999 FEW009 SCT020 BKN025 M02/M03 Q1022 NOSIG","observationTime":"2019-01-12T03:50:00Z","temp":-2,"dewpoint":-3,"windDirection":130,"windSpeed":5.556,"visibility":6.21,"altim":30.177166,"flightCategory":"MVFR","metarType":"METAR","geometry_esri":{"x":47.78,"y":13.02,"z":430}}}