{"type":"Feature","geometry":{"type":"Point","coordinates":[47.42,19.27,185]},"properties":{"stationId":"LHBP","rawText":"LHBP 092330Z VRB03KT CAVOK 11/10 Q1006 NOSIG","observationTime":"2019-04-09T23:30:00Z","temp":11,"dewpoint":10,"windDirection":0,"windSpeed":5.556,"visibility":6.21,"altim":29.704725,"flightCategory":"VFR","metarType":"METAR","geometry_esri":{"x":47.42,"y":19.27,"z":185}}}