{"type":"Feature","geometry":{"type":"Point","coordinates":[47.42,19.27,185]},"properties":{"stationId":"LHBP","rawText":"LHBP 080439Z 00000KT CAVOK 06/03 Q1022 NOSIG","observationTime":"2020-05-08T04:39:00Z","temp":6,"dewpoint":3,"windDirection":0,"windSpeed":0,"visibility":6.21,"altim":30.177166,"flightCategory":"VFR","metarType":"SPECI","geometry_esri":{"x":47.42,"y":19.27,"z":185}}}