{"type":"Feature","geometry":{"type":"Point","coordinates":[47.42,19.27,185]},"properties":{"stationId":"LHBP","rawText":"LHBP 071130Z 08006KT 030V150 9999 FEW049 BKN067 11/01 Q1018 NOSIG","observationTime":"2019-10-07T11:30:00Z","temp":11,"dewpoint":1,"windDirection":80,"windSpeed":11.112,"visibility":6.21,"altim":30.059055,"flightCategory":"VFR","metarType":"METAR","geometry_esri":{"x":47.42,"y":19.27,"z":185}}}