{"type":"Feature","geometry":{"type":"Point","coordinates":[47.78,13.02,430]},"properties":{"stationId":"LOWS","rawText":"LOWS 050750Z VRB01KT 7000 FEW300 M04/M05 Q1023 NOSIG","observationTime":"2019-12-05T07:50:00Z","temp":-4,"dewpoint":-5,"windDirection":0,"windSpeed":1.852,"visibility":4.35,"altim":30.206694,"flightCategory":"MVFR","metarType":"METAR","geometry_esri":{"x":47.78,"y":13.02,"z":430}}}