{"type":"Feature","geometry":{"type":"Point","coordinates":[47.78,13.02,430]},"properties":{"stationId":"LOWS","rawText":"LOWS 011850Z VRB02KT 9999 FEW080 BKN110 06/03 Q0998 NOSIG","observationTime":"2020-03-01T18:50:00Z","temp":6,"dewpoint":3,"windDirection":0,"windSpeed":3.704,"visibility":6.21,"altim":29.468504,"flightCategory":"VFR","metarType":"METAR","geometry_esri":{"x":47.78,"y":13.02,"z":430}}}