{"type":"Feature","geometry":{"type":"Point","coordinates":[47.42,19.27,185]},"properties":{"stationId":"LHBP","rawText":"LHBP 042130Z 28024KT CAVOK 12/M00 Q1003 NOSIG","observationTime":"2019-03-04T21:30:00Z","temp":12,"dewpoint":0,"windDirection":280,"windSpeed":44.448,"visibility":6.21,"altim":29.616142,"flightCategory":"VFR","metarType":"METAR","geometry_esri":{"x":47.42,"y":19.27,"z":185}}}