{"type":"Feature","geometry":{"type":"Point","coordinates":[47.42,19.27,185]},"properties":{"stationId":"LHBP","rawText":"LHBP 131530Z 31008KT 270V330 CAVOK 25/12 Q1027 NOSIG","observationTime":"2019-09-13T15:30:00Z","temp":25,"dewpoint":12,"windDirection":310,"windSpeed":14.816,"visibility":6.21,"altim":30.324802,"flightCategory":"VFR","metarType":"METAR","geometry_esri":{"x":47.42,"y":19.27,"z":185}}}