{"type":"Feature","geometry":{"type":"Point","coordinates":[47.42,19.27,185]},"properties":{"stationId":"LHBP","rawText":"LHBP 031230Z 11013KT CAVOK 17/M01 Q1011 NOSIG","observationTime":"2019-04-03T12:30:00Z","temp":17,"dewpoint":-1,"windDirection":110,"windSpeed":24.076,"visibility":6.21,"altim":29.852362,"flightCategory":"VFR","metarType":"METAR","geometry_esri":{"x":47.42,"y":19.27,"z":185}}}