{"type":"Feature","geometry":{"type":"Point","coordinates":[47.78,13.02,430]},"properties":{"stationId":"LOWS","rawText":"LOWS 222150Z VRB01KT 0700 R15/0450N R33/1000U BCFG NSC 00/00 Q1006 BECMG 15007KT CAVOK","observationTime":"2019-11-22T21:50:00Z","temp":0,"dewpoint":0,"windDirection":0,"windSpeed":1.852,"visibility":0.43,"altim":29.704725,"flightCategory":"LIFR","metarType":"METAR","geometry_esri":{"x":47.78,"y":13.02,"z":430}}}