{"type":"Feature","geometry":{"type":"Point","coordinates":[47.42,19.27,185]},"properties":{"stationId":"LHBP","rawText":"LHBP 170430Z 17007KT CAVOK 09/06 Q1016 NOSIG","observationTime":"2019-12-17T04:30:00Z","temp":9,"dewpoint":6,"windDirection":170,"windSpeed":12.964,"visibility":6.21,"altim":30,"flightCategory":"VFR","metarType":"METAR","geometry_esri":{"x":47.42,"y":19.27,"z":185}}}