{"type":"Feature","geometry":{"type":"Point","coordinates":[47.78,13.02,430]},"properties":{"stationId":"LOWS","rawText":"LOWS 080850Z 17004KT CAVOK 17/01 Q1026 NOSIG","observationTime":"2020-04-08T08:50:00Z","temp":17,"dewpoint":1,"windDirection":170,"windSpeed":7.408,"visibility":6.21,"altim":30.295275,"flightCategory":"VFR","metarType":"METAR","geometry_esri":{"x":47.78,"y":13.02,"z":430}}}