{"type":"Feature","geometry":{"type":"Point","coordinates":[47.42,19.27,185]},"properties":{"stationId":"LHBP","rawText":"LHBP 231230Z 34004G16KT 9999 -SHRA FEW021TCU SCT040 BKN054 23/20 Q1015 TEMPO 4000 SHRA","observationTime":"2019-06-23T12:30:00Z","temp":23,"dewpoint":20,"windDirection":340,"windSpeed":7.408,"visibility":6.21,"altim":29.970472,"flightCategory":"VFR","metarType":"METAR","geometry_esri":{"x":47.42,"y":19.27,"z":185}}}