{"type":"Feature","geometry":{"type":"Point","coordinates":[47.42,19.27,185]},"properties":{"stationId":"LHBP","rawText":"LHBP 280730Z 31021KT 9999 FEW030 SCT058 OVC100 12/07 Q1013 NOSIG","observationTime":"2019-04-28T07:30:00Z","temp":12,"dewpoint":7,"windDirection":310,"windSpeed":38.892,"visibility":6.21,"altim":29.911417,"flightCategory":"VFR","metarType":"METAR","geometry_esri":{"x":47.42,"y":19.27,"z":185}}}