{"type":"Feature","geometry":{"type":"Point","coordinates":[47.78,13.02,430]},"properties":{"stationId":"LOWS","rawText":"LOWS 070650Z 13005KT 090V160 CAVOK 10/03 Q1025 NOSIG","observationTime":"2020-05-07T06:50:00Z","temp":10,"dewpoint":3,"windDirection":130,"windSpeed":9.26,"visibility":6.21,"altim":30.265747,"flightCategory":"VFR","metarType":"METAR","geometry_esri":{"x":47.78,"y":13.02,"z":430}}}