{"type":"Feature","geometry":{"type":"Point","coordinates":[47.42,19.27,185]},"properties":{"stationId":"LHBP","rawText":"LHBP 252330Z AUTO 03004KT 350V060 9999 OVC067/// 04/M06 Q1026 NOSIG","observationTime":"2020-03-25T23:30:00Z","temp":4,"dewpoint":-6,"windDirection":30,"windSpeed":7.408,"visibility":6.21,"altim":30.295275,"flightCategory":"VFR","metarType":"METAR","geometry_esri":{"x":47.42,"y":19.27,"z":185}}}