{"type":"Feature","geometry":{"type":"Point","coordinates":[47.42,19.27,185]},"properties":{"stationId":"LHBP","rawText":"LHBP 281730Z 06004KT CAVOK 27/18 Q1017 NOSIG","observationTime":"2019-08-28T17:30:00Z","temp":27,"dewpoint":18,"windDirection":60,"windSpeed":7.408,"visibility":6.21,"altim":30.029528,"flightCategory":"VFR","metarType":"METAR","geometry_esri":{"x":47.42,"y":19.27,"z":185}}}