{"type":"Feature","geometry":{"type":"Point","coordinates":[47.42,19.27,185]},"properties":{"stationId":"LHBP","rawText":"LHBP 091730Z 08005KT CAVOK 23/05 Q1012 NOSIG","observationTime":"2020-05-09T17:30:00Z","temp":23,"dewpoint":5,"windDirection":80,"windSpeed":9.26,"visibility":6.21,"altim":29.88189,"flightCategory":"VFR","metarType":"METAR","geometry_esri":{"x":47.42,"y":19.27,"z":185}}}