{"type":"Feature","geometry":{"type":"Point","coordinates":[47.78,13.02,430]},"properties":{"stationId":"LOWS","rawText":"LOWS 190550Z VRB01KT CAVOK 14/06 Q1004 NOSIG","observationTime":"2019-05-19T05:50:00Z","temp":14,"dewpoint":6,"windDirection":0,"windSpeed":1.852,"visibility":6.21,"altim":29.64567,"flightCategory":"VFR","metarType":"METAR","geometry_esri":{"x":47.78,"y":13.02,"z":430}}}