{"type":"Feature","geometry":{"type":"Point","coordinates":[47.42,19.27,185]},"properties":{"stationId":"LHBP","rawText":"LHBP 250542Z 12005KT 1100 R13L///// BCFG BR OVC002 14/14 Q1011 BECMG 1500 BR","observationTime":"2019-09-25T05:42:00Z","temp":14,"dewpoint":14,"windDirection":120,"windSpeed":9.26,"visibility":0.68,"altim":29.852362,"flightCategory":"LIFR","metarType":"SPECI","geometry_esri":{"x":47.42,"y":19.27,"z":185}}}