{"type":"Feature","geometry":{"type":"Point","coordinates":[47.78,13.02,430]},"properties":{"stationId":"LOWS","rawText":"LOWS 250750Z 32004KT 0800 R15/1100U R33/P1500D BCFG SCT002 BKN300 M00/M01 Q1010 TEMPO 0200 BKN002","observationTime":"2019-11-25T07:50:00Z","temp":0,"dewpoint":-1,"windDirection":320,"windSpeed":7.408,"visibility":0.5,"altim":29.822834,"flightCategory":"LIFR","metarType":"SPECI","geometry_esri":{"x":47.78,"y":13.02,"z":430}}}