{"type":"Feature","geometry":{"type":"Point","coordinates":[47.78,13.02,430]},"properties":{"stationId":"LOWS","rawText":"LOWS 011350Z 03008KT 350V080 9999 FEW050 16/05 Q1004 NOSIG","observationTime":"2020-05-01T13:50:00Z","temp":16,"dewpoint":5,"windDirection":30,"windSpeed":14.816,"visibility":6.21,"altim":29.64567,"flightCategory":"VFR","metarType":"METAR","geometry_esri":{"x":47.78,"y":13.02,"z":430}}}