{"type":"Feature","geometry":{"type":"Point","coordinates":[47.42,19.27,185]},"properties":{"stationId":"LHBP","rawText":"LHBP 090030Z AUTO 00000KT 9999 NCD 02/M02 Q1024 NOSIG","observationTime":"2020-04-09T00:30:00Z","temp":2,"dewpoint":-2,"windDirection":0,"windSpeed":0,"visibility":6.21,"altim":30.236221,"flightCategory":"VFR","metarType":"METAR","geometry_esri":{"x":47.42,"y":19.27,"z":185}}}