{"type":"Feature","geometry":{"type":"Point","coordinates":[47.42,19.27,185]},"properties":{"stationId":"LHBP","rawText":"LHBP 081330Z 16007KT 1600 SN BR BKN005 OVC020 M02/M02 Q1011 R88/490194 NOSIG","observationTime":"2019-01-08T13:30:00Z","temp":-2,"dewpoint":-2,"windDirection":160,"windSpeed":12.964,"visibility":0.99,"altim":29.852362,"flightCategory":"LIFR","metarType":"METAR","geometry_esri":{"x":47.42,"y":19.27,"z":185}}}