{"type":"Feature","geometry":{"type":"Point","coordinates":[47.42,19.27,185]},"properties":{"stationId":"LHBP","rawText":"LHBP 191230Z 19007KT 130V250 CAVOK 32/14 Q1017 NOSIG","observationTime":"2019-08-19T12:30:00Z","temp":32,"dewpoint":14,"windDirection":190,"windSpeed":12.964,"visibility":6.21,"altim":30.029528,"flightCategory":"VFR","metarType":"METAR","geometry_esri":{"x":47.42,"y":19.27,"z":185}}}