{"type":"Feature","geometry":{"type":"Point","coordinates":[47.42,19.27,185]},"properties":{"stationId":"LHBP","rawText":"LHBP 021230Z 16003KT 130V200 CAVOK 04/M01 Q1031 NOSIG","observationTime":"2020-01-02T12:30:00Z","temp":4,"dewpoint":-1,"windDirection":160,"windSpeed":5.556,"visibility":6.21,"altim":30.442913,"flightCategory":"VFR","metarType":"METAR","geometry_esri":{"x":47.42,"y":19.27,"z":185}}}