{"type":"Feature","geometry":{"type":"Point","coordinates":[47.42,19.27,185]},"properties":{"stationId":"LHBP","rawText":"LHBP 242230Z 14010KT CAVOK 17/10 Q1017 NOSIG","observationTime":"2019-04-24T22:30:00Z","temp":17,"dewpoint":10,"windDirection":140,"windSpeed":18.52,"visibility":6.21,"altim":30.029528,"flightCategory":"VFR","metarType":"METAR","geometry_esri":{"x":47.42,"y":19.27,"z":185}}}