{"type":"Feature","geometry":{"type":"Point","coordinates":[47.42,19.27,185]},"properties":{"stationId":"LHBP","rawText":"LHBP 071330Z 22008KT CAVOK 03/M06 Q1028 NOSIG","observationTime":"2020-01-07T13:30:00Z","temp":3,"dewpoint":-6,"windDirection":220,"windSpeed":14.816,"visibility":6.21,"altim":30.35433,"flightCategory":"VFR","metarType":"METAR","geometry_esri":{"x":47.42,"y":19.27,"z":185}}}