{"type":"Feature","geometry":{"type":"Point","coordinates":[47.78,13.02,430]},"properties":{"stationId":"LOWS","rawText":"LOWS 270550Z 16006KT 6000 -RA FEW005 SCT012 BKN018 01/01 Q1022 TEMPO 4000 RA BKN012","observationTime":"2019-12-27T05:50:00Z","temp":1,"dewpoint":1,"windDirection":160,"windSpeed":11.112,"visibility":3.73,"altim":30.177166,"flightCategory":"MVFR","metarType":"METAR","geometry_esri":{"x":47.78,"y":13.02,"z":430}}}