{"type":"Feature","geometry":{"type":"Point","coordinates":[47.42,19.27,185]},"properties":{"stationId":"LHBP","rawText":"LHBP 290830Z 23005KT 190V290 CAVOK 23/11 Q1022 NOSIG","observationTime":"2019-06-29T08:30:00Z","temp":23,"dewpoint":11,"windDirection":230,"windSpeed":9.26,"visibility":6.21,"altim":30.177166,"flightCategory":"VFR","metarType":"METAR","geometry_esri":{"x":47.42,"y":19.27,"z":185}}}