{"type":"Feature","geometry":{"type":"Point","coordinates":[47.47,21.62,112]},"properties":{"stationId":"LHDC","rawText":"LHDC 260933Z AUTO 02004KT 350V070 3200 BR BKN004 M02/M02 Q1025","observationTime":"2020-01-26T09:33:00Z","temp":-2,"dewpoint":-2,"windDirection":20,"windSpeed":7.408,"visibility":1.99,"altim":30.265747,"flightCategory":"LIFR","metarType":"SPECI","geometry_esri":{"x":47.47,"y":21.62,"z":112}}}