{"type":"Feature","geometry":{"type":"Point","coordinates":[47.42,19.27,185]},"properties":{"stationId":"LHBP","rawText":"LHBP 091230Z 07003KT 350V130 CAVOK 25/03 Q1014 NOSIG","observationTime":"2020-05-09T12:30:00Z","temp":25,"dewpoint":3,"windDirection":70,"windSpeed":5.556,"visibility":6.21,"altim":29.940945,"flightCategory":"VFR","metarType":"METAR","geometry_esri":{"x":47.42,"y":19.27,"z":185}}}