{"type":"Feature","geometry":{"type":"Point","coordinates":[47.42,19.27,185]},"properties":{"stationId":"LHBP","rawText":"LHBP 211930Z VRB02KT 1200 R13L/P1500N R13R/P1500N BR OVC004 M01/M01 Q1018 R88/29//95 BECMG 1500 BR OVC005","observationTime":"2018-12-21T19:30:00Z","temp":-1,"dewpoint":-1,"windDirection":0,"windSpeed":3.704,"visibility":0.75,"altim":30.059055,"flightCategory":"LIFR","metarType":"SPECI","geometry_esri":{"x":47.42,"y":19.27,"z":185}}}