{"type":"Feature","geometry":{"type":"Point","coordinates":[47.42,19.27,185]},"properties":{"stationId":"LHBP","rawText":"LHBP 162330Z 08005KT CAVOK 09/M04 Q1020 NOSIG","observationTime":"2019-04-16T23:30:00Z","temp":9,"dewpoint":-4,"windDirection":80,"windSpeed":9.26,"visibility":6.21,"altim":30.11811,"flightCategory":"VFR","metarType":"METAR","geometry_esri":{"x":47.42,"y":19.27,"z":185}}}