{"type":"Feature","geometry":{"type":"Point","coordinates":[47.42,19.27,185]},"properties":{"stationId":"LHBP","rawText":"LHBP 101430Z 07007KT 040V100 CAVOK 21/08 Q1005 NOSIG","observationTime":"2019-04-10T14:30:00Z","temp":21,"dewpoint":8,"windDirection":70,"windSpeed":12.964,"visibility":6.21,"altim":29.675198,"flightCategory":"VFR","metarType":"METAR","geometry_esri":{"x":47.42,"y":19.27,"z":185}}}