{"type":"Feature","geometry":{"type":"Point","coordinates":[47.42,19.27,185]},"properties":{"stationId":"LHBP","rawText":"LHBP 181830Z 30007KT CAVOK M00/M03 Q1019 NOSIG","observationTime":"2019-01-18T18:30:00Z","temp":0,"dewpoint":-3,"windDirection":300,"windSpeed":12.964,"visibility":6.21,"altim":30.088583,"flightCategory":"VFR","metarType":"METAR","geometry_esri":{"x":47.42,"y":19.27,"z":185}}}