{"type":"Feature","geometry":{"type":"Point","coordinates":[47.78,13.02,430]},"properties":{"stationId":"LOWS","rawText":"LOWS 191850Z VRB02KT 9999 SCT080 BKN130 17/12 Q1001 NOSIG","observationTime":"2019-05-19T18:50:00Z","temp":17,"dewpoint":12,"windDirection":0,"windSpeed":3.704,"visibility":6.21,"altim":29.557087,"flightCategory":"VFR","metarType":"METAR","geometry_esri":{"x":47.78,"y":13.02,"z":430}}}