{"type":"Feature","geometry":{"type":"Point","coordinates":[45.98,18.23,305]},"properties":{"stationId":"LHPP","rawText":"LHPP 240947Z 12005KT 4000 BR NSC M01/M01 Q1030","observationTime":"2020-01-24T09:47:00Z","temp":-1,"dewpoint":-1,"windDirection":120,"windSpeed":9.26,"visibility":2.49,"altim":30.413385,"flightCategory":"IFR","metarType":"SPECI","geometry_esri":{"x":45.98,"y":18.23,"z":305}}}