{"type":"Feature","geometry":{"type":"Point","coordinates":[47.78,13.02,430]},"properties":{"stationId":"LOWS","rawText":"LOWS 260950Z 34005KT 270V080 9999 FEW070 15/02 Q1011 NOSIG","observationTime":"2020-04-26T09:50:00Z","temp":15,"dewpoint":2,"windDirection":340,"windSpeed":9.26,"visibility":6.21,"altim":29.852362,"flightCategory":"VFR","metarType":"METAR","geometry_esri":{"x":47.78,"y":13.02,"z":430}}}