{"type":"Feature","geometry":{"type":"Point","coordinates":[47.78,13.02,430]},"properties":{"stationId":"LOWS","rawText":"LOWS 120950Z 12009KT 080V150 9999 FEW060 SCT250 30/12 Q1005 NOSIG","observationTime":"2019-06-12T09:50:00Z","temp":30,"dewpoint":12,"windDirection":120,"windSpeed":16.668,"visibility":6.21,"altim":29.675198,"flightCategory":"VFR","metarType":"METAR","geometry_esri":{"x":47.78,"y":13.02,"z":430}}}