{"type":"Feature","geometry":{"type":"Point","coordinates":[47.78,13.02,430]},"properties":{"stationId":"LOWS","rawText":"LOWS 032250Z AUTO 19006KT 150V230 9999 FEW160 BKN240 12/00 Q0999","observationTime":"2019-04-03T22:50:00Z","temp":12,"dewpoint":0,"windDirection":190,"windSpeed":11.112,"visibility":6.21,"altim":29.498032,"flightCategory":"VFR","metarType":"METAR","geometry_esri":{"x":47.78,"y":13.02,"z":430}}}