{"type":"Feature","geometry":{"type":"Point","coordinates":[47.78,13.02,430]},"properties":{"stationId":"LOWS","rawText":"LOWS 232250Z AUTO 21012KT 5000 DZ FEW012 SCT026 BKN034 09/07 Q1014","observationTime":"2018-12-23T22:50:00Z","temp":9,"dewpoint":7,"windDirection":210,"windSpeed":22.224,"visibility":3.11,"altim":29.940945,"flightCategory":"MVFR","metarType":"METAR","geometry_esri":{"x":47.78,"y":13.02,"z":430}}}