{"type":"Feature","geometry":{"type":"Point","coordinates":[47.42,19.27,185]},"properties":{"stationId":"LHBP","rawText":"LHBP 121130Z 30018G30KT 280V340 9999 BKN047 06/M06 Q1020 NOSIG","observationTime":"2019-02-12T11:30:00Z","temp":6,"dewpoint":-6,"windDirection":300,"windSpeed":33.336,"visibility":6.21,"altim":30.11811,"flightCategory":"VFR","metarType":"METAR","geometry_esri":{"x":47.42,"y":19.27,"z":185}}}