{"type":"Feature","geometry":{"type":"Point","coordinates":[47.42,19.27,185]},"properties":{"stationId":"LHBP","rawText":"LHBP 231530Z 07005KT 040V110 9999 BKN046 16/10 Q1014 NOSIG","observationTime":"2019-09-23T15:30:00Z","temp":16,"dewpoint":10,"windDirection":70,"windSpeed":9.26,"visibility":6.21,"altim":29.940945,"flightCategory":"VFR","metarType":"METAR","geometry_esri":{"x":47.42,"y":19.27,"z":185}}}