{"type":"Feature","geometry":{"type":"Point","coordinates":[47.78,13.02,430]},"properties":{"stationId":"LOWS","rawText":"LOWS 092250Z AUTO 30005KT 9999 -RA FEW016 SCT026 BKN032 05/03 Q1013","observationTime":"2019-12-09T22:50:00Z","temp":5,"dewpoint":3,"windDirection":300,"windSpeed":9.26,"visibility":6.21,"altim":29.911417,"flightCategory":"VFR","metarType":"METAR","geometry_esri":{"x":47.78,"y":13.02,"z":430}}}