{"type":"Feature","geometry":{"type":"Point","coordinates":[47.78,13.02,430]},"properties":{"stationId":"LOWS","rawText":"LOWS 130850Z 30005KT 250V360 9999 FEW026 20/13 Q1015 NOSIG","observationTime":"2019-06-13T08:50:00Z","temp":20,"dewpoint":13,"windDirection":300,"windSpeed":9.26,"visibility":6.21,"altim":29.970472,"flightCategory":"VFR","metarType":"METAR","geometry_esri":{"x":47.78,"y":13.02,"z":430}}}