{"type":"Feature","geometry":{"type":"Point","coordinates":[47.42,19.27,185]},"properties":{"stationId":"LHBP","rawText":"LHBP 271030Z 31004KT 2300 BR OVC003 01/01 Q1018 BECMG 3000","observationTime":"2020-01-27T10:30:00Z","temp":1,"dewpoint":1,"windDirection":310,"windSpeed":7.408,"visibility":1.43,"altim":30.059055,"flightCategory":"LIFR","metarType":"METAR","geometry_esri":{"x":47.42,"y":19.27,"z":185}}}