{"type":"Feature","geometry":{"type":"Point","coordinates":[47.42,19.27,185]},"properties":{"stationId":"LHBP","rawText":"LHBP 091830Z VRB03KT 2700 BR FEW010 SCT025 BKN050 M04/M04 Q1006 R88/29//95 BECMG -SN BR TEMPO BKN012 BKN054","observationTime":"2019-01-09T18:30:00Z","temp":-4,"dewpoint":-4,"windDirection":0,"windSpeed":5.556,"visibility":1.68,"altim":29.704725,"flightCategory":"IFR","metarType":"METAR","geometry_esri":{"x":47.42,"y":19.27,"z":185}}}