{"type":"Feature","geometry":{"type":"Point","coordinates":[47.78,13.02,430]},"properties":{"stationId":"LOWS","rawText":"LOWS 030050Z AUTO 30008KT 260V320 9999 -RA FEW016 BKN032 06/04 Q0995","observationTime":"2020-03-03T00:50:00Z","temp":6,"dewpoint":4,"windDirection":300,"windSpeed":14.816,"visibility":6.21,"altim":29.379921,"flightCategory":"VFR","metarType":"METAR","geometry_esri":{"x":47.78,"y":13.02,"z":430}}}