{"type":"Feature","geometry":{"type":"Point","coordinates":[47.78,13.02,430]},"properties":{"stationId":"LOWS","rawText":"LOWS 062050Z 04003KT 0400 R15/0800N R33/0500N FZFG VV003 M06/M06 Q1023 TEMPO VV002","observationTime":"2019-02-06T20:50:00Z","temp":-6,"dewpoint":-6,"windDirection":40,"windSpeed":5.556,"visibility":0.25,"altim":30.206694,"flightCategory":"LIFR","metarType":"METAR","geometry_esri":{"x":47.78,"y":13.02,"z":430}}}