{"type":"Feature","geometry":{"type":"Point","coordinates":[47.42,19.27,185]},"properties":{"stationId":"LHBP","rawText":"LHBP 011530Z 18010KT 150V210 CAVOK 22/09 Q1010 NOSIG","observationTime":"2019-10-01T15:30:00Z","temp":22,"dewpoint":9,"windDirection":180,"windSpeed":18.52,"visibility":6.21,"altim":29.822834,"flightCategory":"VFR","metarType":"METAR","geometry_esri":{"x":47.42,"y":19.27,"z":185}}}