{"type":"Feature","geometry":{"type":"Point","coordinates":[47.42,19.27,185]},"properties":{"stationId":"LHBP","rawText":"LHBP 021230Z 07009KT 040V100 9999 -SHRA FEW051 FEW053TCU 24/14 Q1017 NOSIG","observationTime":"2019-06-02T12:30:00Z","temp":24,"dewpoint":14,"windDirection":70,"windSpeed":16.668,"visibility":6.21,"altim":30.029528,"flightCategory":"VFR","metarType":"METAR","geometry_esri":{"x":47.42,"y":19.27,"z":185}}}