{"type":"Feature","geometry":{"type":"Point","coordinates":[47.42,19.27,185]},"properties":{"stationId":"LHBP","rawText":"LHBP 281030Z 10013KT 060V120 9999 FEW016 SCT100 27/23 Q1002 NOSIG","observationTime":"2019-07-28T10:30:00Z","temp":27,"dewpoint":23,"windDirection":100,"windSpeed":24.076,"visibility":6.21,"altim":29.586615,"flightCategory":"VFR","metarType":"METAR","geometry_esri":{"x":47.42,"y":19.27,"z":185}}}