{"type":"Feature","geometry":{"type":"Point","coordinates":[47.78,13.02,430]},"properties":{"stationId":"LOWS","rawText":"LOWS 250450Z 26010KT 220V310 9999 FEW012 SCT035 BKN045 08/02 Q1014 TEMPO SHRA","observationTime":"2019-12-25T04:50:00Z","temp":8,"dewpoint":2,"windDirection":260,"windSpeed":18.52,"visibility":6.21,"altim":29.940945,"flightCategory":"VFR","metarType":"METAR","geometry_esri":{"x":47.78,"y":13.02,"z":430}}}