{"type":"Feature","geometry":{"type":"Point","coordinates":[47.78,13.02,430]},"properties":{"stationId":"LOWS","rawText":"LOWS 111650Z 26009KT 230V310 9999 VCSH FEW015 SCT030 BKN060 01/M01 Q1020 TEMPO 29015G25KT 4000 SHSN","observationTime":"2019-03-11T16:50:00Z","temp":1,"dewpoint":-1,"windDirection":260,"windSpeed":16.668,"visibility":6.21,"altim":30.11811,"flightCategory":"VFR","metarType":"METAR","geometry_esri":{"x":47.78,"y":13.02,"z":430}}}