{"type":"Feature","geometry":{"type":"Point","coordinates":[47.42,19.27,185]},"properties":{"stationId":"LHBP","rawText":"LHBP 271230Z 09007KT 020V130 CAVOK 11/M05 Q1027 NOSIG","observationTime":"2019-03-27T12:30:00Z","temp":11,"dewpoint":-5,"windDirection":90,"windSpeed":12.964,"visibility":6.21,"altim":30.324802,"flightCategory":"VFR","metarType":"METAR","geometry_esri":{"x":47.42,"y":19.27,"z":185}}}