{"type":"Feature","geometry":{"type":"Point","coordinates":[47.78,13.02,430]},"properties":{"stationId":"LOWS","rawText":"LOWS 060750Z VRB02KT 9999 FEW020 09/05 Q1005 NOSIG","observationTime":"2019-04-06T07:50:00Z","temp":9,"dewpoint":5,"windDirection":0,"windSpeed":3.704,"visibility":6.21,"altim":29.675198,"flightCategory":"VFR","metarType":"METAR","geometry_esri":{"x":47.78,"y":13.02,"z":430}}}