{"type":"Feature","geometry":{"type":"Point","coordinates":[47.42,19.27,185]},"properties":{"stationId":"LHBP","rawText":"LHBP 030730Z 31011KT CAVOK 01/M01 Q1024 R88/610195 NOSIG","observationTime":"2019-12-03T07:30:00Z","temp":1,"dewpoint":-1,"windDirection":310,"windSpeed":20.372,"visibility":6.21,"altim":30.236221,"flightCategory":"VFR","metarType":"SPECI","geometry_esri":{"x":47.42,"y":19.27,"z":185}}}