{"type":"Feature","geometry":{"type":"Point","coordinates":[47.78,13.02,430]},"properties":{"stationId":"LOWS","rawText":"LOWS 082150Z AUTO 19006KT 150V220 9999 FEW070 BKN090 14/06 Q1002","observationTime":"2019-05-08T21:50:00Z","temp":14,"dewpoint":6,"windDirection":190,"windSpeed":11.112,"visibility":6.21,"altim":29.586615,"flightCategory":"VFR","metarType":"METAR","geometry_esri":{"x":47.78,"y":13.02,"z":430}}}