{"type":"Feature","geometry":{"type":"Point","coordinates":[47.42,19.27,185]},"properties":{"stationId":"LHBP","rawText":"LHBP 130630Z 35010KT CAVOK 15/12 Q1021 NOSIG","observationTime":"2019-05-13T06:30:00Z","temp":15,"dewpoint":12,"windDirection":350,"windSpeed":18.52,"visibility":6.21,"altim":30.147638,"flightCategory":"VFR","metarType":"METAR","geometry_esri":{"x":47.42,"y":19.27,"z":185}}}