{"type":"Feature","geometry":{"type":"Point","coordinates":[47.42,19.27,185]},"properties":{"stationId":"LHBP","rawText":"LHBP 111730Z 13007KT CAVOK 29/17 Q1013 NOSIG","observationTime":"2019-06-11T17:30:00Z","temp":29,"dewpoint":17,"windDirection":130,"windSpeed":12.964,"visibility":6.21,"altim":29.911417,"flightCategory":"VFR","metarType":"METAR","geometry_esri":{"x":47.42,"y":19.27,"z":185}}}