{"type":"Feature","geometry":{"type":"Point","coordinates":[47.78,13.02,430]},"properties":{"stationId":"LOWS","rawText":"LOWS 251950Z 16003KT 9999 FEW045 M06/M09 Q1017 NOSIG","observationTime":"2019-01-25T19:50:00Z","temp":-6,"dewpoint":-9,"windDirection":160,"windSpeed":5.556,"visibility":6.21,"altim":30.029528,"flightCategory":"VFR","metarType":"METAR","geometry_esri":{"x":47.78,"y":13.02,"z":430}}}