{"type":"Feature","geometry":{"type":"Point","coordinates":[49.5,11.08,312]},"properties":{"stationId":"EDDN","rawText":"EDDN 061350Z 35005KT 320V020 9999 FEW007 SCT010 BKN016 05/02 Q1028 R28/29//95 NOSIG","observationTime":"2019-01-06T13:50:00Z","temp":5,"dewpoint":2,"windDirection":350,"windSpeed":9.26,"visibility":6.21,"altim":30.35433,"qualityControlFlag":"TRUE","skyCondition1a":"FEW","skyCondition1b":700,"skyCondition2a":"SCT","skyCondition2b":1000,"flightCategory":"MVFR","metarType":"METAR","geometry_esri":{"x":49.5,"y":11.08,"z":312}}}