{"type":"Feature","geometry":{"type":"Point","coordinates":[49.5,11.08,312]},"properties":{"stationId":"EDDN","rawText":"EDDN 191550Z 12007KT 5000 -RA BKN020 OVC030 02/01 Q1016 NOSIG","observationTime":"2018-12-19T15:50:00Z","temp":2,"dewpoint":1,"windDirection":120,"windSpeed":12.964,"visibility":3.11,"altim":30,"qualityControlFlag":"TRUE","skyCondition1a":"BKN","skyCondition1b":2000,"skyCondition2a":"OVC","skyCondition2b":3000,"flightCategory":"MVFR","metarType":"METAR","geometry_esri":{"x":49.5,"y":11.08,"z":312}}}