{"type":"Feature","geometry":{"type":"Point","coordinates":[49.5,11.08,312]},"properties":{"stationId":"EDDN","rawText":"EDDN 121620Z 36006KT 9999 FEW020 BKN043 02/M01 Q1022 R28/19//95 NOSIG","observationTime":"2018-12-12T16:20:00Z","temp":2,"dewpoint":-1,"windDirection":360,"windSpeed":11.112,"visibility":6.21,"altim":30.177166,"qualityControlFlag":"TRUE","skyCondition1a":"FEW","skyCondition1b":2000,"skyCondition2a":"BKN","skyCondition2b":4300,"flightCategory":"VFR","metarType":"SPECI","geometry_esri":{"x":49.5,"y":11.08,"z":312}}}