{"type":"Feature","geometry":{"type":"Point","coordinates":[49.5,11.08,312]},"properties":{"stationId":"EDDN","rawText":"EDDN 270550Z 12002KT 9999 BKN013 BKN034 01/M01 Q1029 NOSIG","observationTime":"2018-12-27T05:50:00Z","temp":1,"dewpoint":-1,"windDirection":120,"windSpeed":3.704,"visibility":6.21,"altim":30.383858,"qualityControlFlag":"TRUE","skyCondition1a":"BKN","skyCondition1b":1300,"skyCondition2a":"BKN","skyCondition2b":3400,"flightCategory":"MVFR","metarType":"METAR","geometry_esri":{"x":49.5,"y":11.08,"z":312}}}