{"type":"Feature","geometry":{"type":"Point","coordinates":[49.5,11.08,312]},"properties":{"stationId":"EDDN","rawText":"EDDN 121320Z 35006KT 310V020 9999 FEW022 BKN033 04/M01 Q1021 R28/19//95 NOSIG","observationTime":"2018-12-12T13:20:00Z","temp":4,"dewpoint":-1,"windDirection":350,"windSpeed":11.112,"visibility":6.21,"altim":30.147638,"qualityControlFlag":"TRUE","skyCondition1a":"FEW","skyCondition1b":2200,"skyCondition2a":"BKN","skyCondition2b":3300,"flightCategory":"VFR","metarType":"METAR","geometry_esri":{"x":49.5,"y":11.08,"z":312}}}