{"type":"Feature","geometry":{"type":"Point","coordinates":[49.5,11.08,312]},"properties":{"stationId":"EDDN","rawText":"EDDN 231350Z 22007KT 9999 -RADZ FEW018 BKN022 08/06 Q1019 NOSIG","observationTime":"2018-12-23T13:50:00Z","temp":8,"dewpoint":6,"windDirection":220,"windSpeed":12.964,"visibility":6.21,"altim":30.088583,"qualityControlFlag":"TRUE","skyCondition1a":"FEW","skyCondition1b":1800,"skyCondition2a":"BKN","skyCondition2b":2200,"flightCategory":"MVFR","metarType":"METAR","geometry_esri":{"x":49.5,"y":11.08,"z":312}}}