{"type":"Feature","geometry":{"type":"Point","coordinates":[49.5,11.08,312]},"properties":{"stationId":"EDDN","rawText":"EDDN 201750Z 19006KT 9999 SCT030 BKN040 05/04 Q1018 NOSIG","observationTime":"2018-12-20T17:50:00Z","temp":5,"dewpoint":4,"windDirection":190,"windSpeed":11.112,"visibility":6.21,"altim":30.059055,"qualityControlFlag":"TRUE","skyCondition1a":"SCT","skyCondition1b":3000,"skyCondition2a":"BKN","skyCondition2b":4000,"flightCategory":"VFR","metarType":"METAR","geometry_esri":{"x":49.5,"y":11.08,"z":312}}}