{"type":"Feature","geometry":{"type":"Point","coordinates":[53.53,9.83,13]},"properties":{"stationId":"EDHI","rawText":"EDHI 260220Z AUTO 23008KT 9999 // FEW047/// SCT210/// 01/00 Q0990","observationTime":"2020-02-26T02:20:00Z","temp":1,"dewpoint":0,"windDirection":230,"windSpeed":14.816,"visibility":6.21,"altim":29.232283,"flightCategory":"VFR","metarType":"METAR","geometry_esri":{"x":53.53,"y":9.83,"z":13}}}