{"type":"Feature","geometry":{"type":"Point","coordinates":[53.53,9.83,13]},"properties":{"stationId":"EDHI","rawText":"EDHI 150820Z 24013KT 9999 BKN013 07/04 Q0998","observationTime":"2019-03-15T08:20:00Z","temp":7,"dewpoint":4,"windDirection":240,"windSpeed":24.076,"visibility":6.21,"altim":29.468504,"flightCategory":"MVFR","metarType":"METAR","geometry_esri":{"x":53.53,"y":9.83,"z":13}}}