{"type":"Feature","geometry":{"type":"Point","coordinates":[53.53,9.83,13]},"properties":{"stationId":"EDHI","rawText":"EDHI 180750Z 17008KT CAVOK 14/12 Q1006","observationTime":"2019-10-18T07:50:00Z","temp":14,"dewpoint":12,"windDirection":170,"windSpeed":14.816,"visibility":6.21,"altim":29.704725,"flightCategory":"VFR","metarType":"METAR","geometry_esri":{"x":53.53,"y":9.83,"z":13}}}