{"type":"Feature","geometry":{"type":"Point","coordinates":[53.53,9.83,13]},"properties":{"stationId":"EDHI","rawText":"EDHI 060020Z AUTO 29003KT 4100 2000 // BKN002/// BKN005/// OVC017/// 06/05 Q1026","observationTime":"2019-01-06T00:20:00Z","temp":6,"dewpoint":5,"windDirection":290,"windSpeed":5.556,"visibility":2.55,"altim":30.295275,"flightCategory":"LIFR","metarType":"METAR","geometry_esri":{"x":53.53,"y":9.83,"z":13}}}