{"type":"Feature","geometry":{"type":"Point","coordinates":[53.53,9.83,13]},"properties":{"stationId":"EDHI","rawText":"EDHI 102150Z AUTO 34011KT 300V360 9999 // SCT041/// OVC120/// 08/M01 Q1009","observationTime":"2020-05-10T21:50:00Z","temp":8,"dewpoint":-1,"windDirection":340,"windSpeed":20.372,"visibility":6.21,"altim":29.793306,"flightCategory":"VFR","metarType":"METAR","geometry_esri":{"x":53.53,"y":9.83,"z":13}}}