{"type":"Feature","geometry":{"type":"Point","coordinates":[53.53,9.83,13]},"properties":{"stationId":"EDHI","rawText":"EDHI 120920Z 26024G34KT 9000 -SHRA BKN016CB 04/01 Q1002","observationTime":"2020-02-12T09:20:00Z","temp":4,"dewpoint":1,"windDirection":260,"windSpeed":44.448,"visibility":5.59,"altim":29.586615,"flightCategory":"MVFR","metarType":"METAR","geometry_esri":{"x":53.53,"y":9.83,"z":13}}}