{"type":"Feature","geometry":{"type":"Point","coordinates":[53.53,9.83,13]},"properties":{"stationId":"EDHI","rawText":"EDHI 220550Z 27011KT 2700 BR OVC003 05/04 Q1032","observationTime":"2020-01-22T05:50:00Z","temp":5,"dewpoint":4,"windDirection":270,"windSpeed":20.372,"visibility":1.68,"altim":30.47244,"flightCategory":"LIFR","metarType":"METAR","geometry_esri":{"x":53.53,"y":9.83,"z":13}}}