{"type":"Feature","geometry":{"type":"Point","coordinates":[53.53,9.83,13]},"properties":{"stationId":"EDHI","rawText":"EDHI 230420Z AUTO 13004KT 070V170 5000 // FEW008/// M05/M07 Q1001","observationTime":"2019-01-23T04:20:00Z","temp":-5,"dewpoint":-7,"windDirection":130,"windSpeed":7.408,"visibility":3.11,"altim":29.557087,"flightCategory":"MVFR","metarType":"METAR","geometry_esri":{"x":53.53,"y":9.83,"z":13}}}