{"type":"Feature","geometry":{"type":"Point","coordinates":[53.53,9.83,13]},"properties":{"stationId":"EDHI","rawText":"EDHI 010350Z AUTO 29004KT 270V350 3400 // FEW020/// 01/01 Q1033","observationTime":"2020-01-01T03:50:00Z","temp":1,"dewpoint":1,"windDirection":290,"windSpeed":7.408,"visibility":2.11,"altim":30.501968,"flightCategory":"IFR","metarType":"METAR","geometry_esri":{"x":53.53,"y":9.83,"z":13}}}