{"type":"Feature","geometry":{"type":"Point","coordinates":[53.53,9.83,13]},"properties":{"stationId":"EDHI","rawText":"EDHI 150720Z 08012KT CAVOK 06/00 Q1030","observationTime":"2019-04-15T07:20:00Z","temp":6,"dewpoint":0,"windDirection":80,"windSpeed":22.224,"visibility":6.21,"altim":30.413385,"flightCategory":"VFR","metarType":"METAR","geometry_esri":{"x":53.53,"y":9.83,"z":13}}}