{"type":"Feature","geometry":{"type":"Point","coordinates":[53.53,9.83,13]},"properties":{"stationId":"EDHI","rawText":"EDHI 220220Z AUTO 27002KT 9999 // NCD 13/11 Q1022","observationTime":"2019-07-22T02:20:00Z","temp":13,"dewpoint":11,"windDirection":270,"windSpeed":3.704,"visibility":6.21,"altim":30.177166,"flightCategory":"VFR","metarType":"METAR","geometry_esri":{"x":53.53,"y":9.83,"z":13}}}