{"type":"Feature","geometry":{"type":"Point","coordinates":[53.53,9.83,13]},"properties":{"stationId":"EDHI","rawText":"EDHI 041120Z 24010KT 1600 BR OVC004 05/05 Q1022","observationTime":"2019-12-04T11:20:00Z","temp":5,"dewpoint":5,"windDirection":240,"windSpeed":18.52,"visibility":0.99,"altim":30.177166,"flightCategory":"LIFR","metarType":"METAR","geometry_esri":{"x":53.53,"y":9.83,"z":13}}}