{"type":"Feature","geometry":{"type":"Point","coordinates":[53.53,9.83,13]},"properties":{"stationId":"EDHI","rawText":"EDHI 152150Z AUTO 03006KT 7000 // FEW160/// 15/13 Q1005","observationTime":"2019-10-15T21:50:00Z","temp":15,"dewpoint":13,"windDirection":30,"windSpeed":11.112,"visibility":4.35,"altim":29.675198,"flightCategory":"MVFR","metarType":"METAR","geometry_esri":{"x":53.53,"y":9.83,"z":13}}}