{"type":"Feature","geometry":{"type":"Point","coordinates":[53.53,9.83,13]},"properties":{"stationId":"EDHI","rawText":"EDHI 150950Z 12005KT 080V160 9000 SCT011 OVC040 00/M02 Q1029","observationTime":"2018-12-15T09:50:00Z","temp":0,"dewpoint":-2,"windDirection":120,"windSpeed":9.26,"visibility":5.59,"altim":30.383858,"flightCategory":"VFR","metarType":"METAR","geometry_esri":{"x":53.53,"y":9.83,"z":13}}}