{"type":"Feature","geometry":{"type":"Point","coordinates":[53.53,9.83,13]},"properties":{"stationId":"EDHI","rawText":"EDHI 072320Z AUTO 16008KT 130V190 9999 // OVC017/// 05/02 Q1024","observationTime":"2020-02-07T23:20:00Z","temp":5,"dewpoint":2,"windDirection":160,"windSpeed":14.816,"visibility":6.21,"altim":30.236221,"flightCategory":"MVFR","metarType":"METAR","geometry_esri":{"x":53.53,"y":9.83,"z":13}}}