{"type":"Feature","geometry":{"type":"Point","coordinates":[53.53,9.83,13]},"properties":{"stationId":"EDHI","rawText":"EDHI 291850Z 05003KT CAVOK 06/00 Q1029","observationTime":"2019-10-29T18:50:00Z","temp":6,"dewpoint":0,"windDirection":50,"windSpeed":5.556,"visibility":6.21,"altim":30.383858,"flightCategory":"VFR","metarType":"METAR","geometry_esri":{"x":53.53,"y":9.83,"z":13}}}