{"type":"Feature","geometry":{"type":"Point","coordinates":[53.53,9.83,13]},"properties":{"stationId":"EDHI","rawText":"EDHI 280450Z AUTO 21007KT 9999 // FEW020/// BKN027/// BKN044/// 14/12 Q1006","observationTime":"2019-09-28T04:50:00Z","temp":14,"dewpoint":12,"windDirection":210,"windSpeed":12.964,"visibility":6.21,"altim":29.704725,"flightCategory":"MVFR","metarType":"METAR","geometry_esri":{"x":53.53,"y":9.83,"z":13}}}