{"type":"Feature","geometry":{"type":"Point","coordinates":[53.53,9.83,13]},"properties":{"stationId":"EDHI","rawText":"EDHI 090320Z AUTO 13003KT 3400 // OVC004/// 08/07 Q1018","observationTime":"2020-01-09T03:20:00Z","temp":8,"dewpoint":7,"windDirection":130,"windSpeed":5.556,"visibility":2.11,"altim":30.059055,"flightCategory":"LIFR","metarType":"METAR","geometry_esri":{"x":53.53,"y":9.83,"z":13}}}