{"type":"Feature","geometry":{"type":"Point","coordinates":[53.53,9.83,13]},"properties":{"stationId":"EDHI","rawText":"EDHI 281920Z AUTO 21016G26KT 180V250 9999 3200 // SCT018/// BKN026/// OVC044/// 14/13 Q1005","observationTime":"2019-09-28T19:20:00Z","temp":14,"dewpoint":13,"windDirection":210,"windSpeed":29.632,"visibility":6.21,"altim":29.675198,"flightCategory":"MVFR","metarType":"METAR","geometry_esri":{"x":53.53,"y":9.83,"z":13}}}