{"type":"Feature","geometry":{"type":"Point","coordinates":[53.53,9.83,13]},"properties":{"stationId":"EDHI","rawText":"EDHI 060050Z AUTO 12009KT 090V150 9999 // NCD 09/M01 Q1021","observationTime":"2020-04-06T00:50:00Z","temp":9,"dewpoint":-1,"windDirection":120,"windSpeed":16.668,"visibility":6.21,"altim":30.147638,"flightCategory":"VFR","metarType":"METAR","geometry_esri":{"x":53.53,"y":9.83,"z":13}}}