{"type":"Feature","geometry":{"type":"Point","coordinates":[53.53,9.83,13]},"properties":{"stationId":"EDHI","rawText":"EDHI 271920Z AUTO 22007KT 8000 // OVC010/// 05/04 Q0983","observationTime":"2019-01-27T19:20:00Z","temp":5,"dewpoint":4,"windDirection":220,"windSpeed":12.964,"visibility":4.97,"altim":29.02559,"flightCategory":"MVFR","metarType":"METAR","geometry_esri":{"x":53.53,"y":9.83,"z":13}}}