{"type":"Feature","geometry":{"type":"Point","coordinates":[53.53,9.83,13]},"properties":{"stationId":"EDHI","rawText":"EDHI 301250Z VRB03KT 9999 VCSH SCT019 BKN028 07/03 Q1024","observationTime":"2020-03-30T12:50:00Z","temp":7,"dewpoint":3,"windDirection":0,"windSpeed":5.556,"visibility":6.21,"altim":30.236221,"flightCategory":"MVFR","metarType":"METAR","geometry_esri":{"x":53.53,"y":9.83,"z":13}}}