{"type":"Feature","geometry":{"type":"Point","coordinates":[53.53,9.83,13]},"properties":{"stationId":"EDHI","rawText":"EDHI 141720Z 25007KT 7000 -RA FEW007 BKN013 06/05 Q0988","observationTime":"2019-03-14T17:20:00Z","temp":6,"dewpoint":5,"windDirection":250,"windSpeed":12.964,"visibility":4.35,"altim":29.17323,"flightCategory":"MVFR","metarType":"METAR","geometry_esri":{"x":53.53,"y":9.83,"z":13}}}