{"type":"Feature","geometry":{"type":"Point","coordinates":[53.53,9.83,13]},"properties":{"stationId":"EDHI","rawText":"EDHI 270620Z 27008KT 9999 BKN008 OVC049 06/05 Q1029","observationTime":"2019-03-27T06:20:00Z","temp":6,"dewpoint":5,"windDirection":270,"windSpeed":14.816,"visibility":6.21,"altim":30.383858,"flightCategory":"IFR","metarType":"METAR","geometry_esri":{"x":53.53,"y":9.83,"z":13}}}