{"type":"Feature","geometry":{"type":"Point","coordinates":[53.53,9.83,13]},"properties":{"stationId":"EDHI","rawText":"EDHI 121850Z 04008KT 9999 FEW013 SCT028 03/01 Q1027","observationTime":"2018-12-12T18:50:00Z","temp":3,"dewpoint":1,"windDirection":40,"windSpeed":14.816,"visibility":6.21,"altim":30.324802,"skyCondition1a":"FEW","skyCondition1b":1300,"skyCondition2a":"SCT","skyCondition2b":2800,"flightCategory":"VFR","metarType":"METAR","geometry_esri":{"x":53.53,"y":9.83,"z":13}}}