{"type":"Feature","geometry":{"type":"Point","coordinates":[53.53,9.83,13]},"properties":{"stationId":"EDHI","rawText":"EDHI 120050Z AUTO 25022KT 9999 4000 // SCT028/// BKN046/// OVC068/// 04/00 Q0999","observationTime":"2020-02-12T00:50:00Z","temp":4,"dewpoint":0,"windDirection":250,"windSpeed":40.744,"visibility":6.21,"altim":29.498032,"flightCategory":"VFR","metarType":"METAR","geometry_esri":{"x":53.53,"y":9.83,"z":13}}}