{"type":"Feature","geometry":{"type":"Point","coordinates":[53.53,9.83,13]},"properties":{"stationId":"EDHI","rawText":"EDHI 150550Z 26006KT 240V300 CAVOK 04/02 Q1022","observationTime":"2020-04-15T05:50:00Z","temp":4,"dewpoint":2,"windDirection":260,"windSpeed":11.112,"visibility":6.21,"altim":30.177166,"flightCategory":"VFR","metarType":"METAR","geometry_esri":{"x":53.53,"y":9.83,"z":13}}}