{"type":"Feature","geometry":{"type":"Point","coordinates":[53.53,9.83,13]},"properties":{"stationId":"EDHI","rawText":"EDHI 190150Z AUTO 27009KT 9999 // SCT040/// BKN046/// BKN070/// 10/08 Q1026","observationTime":"2019-09-19T01:50:00Z","temp":10,"dewpoint":8,"windDirection":270,"windSpeed":16.668,"visibility":6.21,"altim":30.295275,"flightCategory":"VFR","metarType":"METAR","geometry_esri":{"x":53.53,"y":9.83,"z":13}}}