{"type":"Feature","geometry":{"type":"Point","coordinates":[53.53,9.83,13]},"properties":{"stationId":"EDHI","rawText":"EDHI 061450Z 16010KT 130V200 CAVOK 11/05 Q0998","observationTime":"2019-03-06T14:50:00Z","temp":11,"dewpoint":5,"windDirection":160,"windSpeed":18.52,"visibility":6.21,"altim":29.468504,"flightCategory":"VFR","metarType":"METAR","geometry_esri":{"x":53.53,"y":9.83,"z":13}}}