{"type":"Feature","geometry":{"type":"Point","coordinates":[53.53,9.83,13]},"properties":{"stationId":"EDHI","rawText":"EDHI 081250Z 25011KT 2200 -DZ BR OVC004 10/09 Q1018","observationTime":"2020-01-08T12:50:00Z","temp":10,"dewpoint":9,"windDirection":250,"windSpeed":20.372,"visibility":1.37,"altim":30.059055,"flightCategory":"LIFR","metarType":"METAR","geometry_esri":{"x":53.53,"y":9.83,"z":13}}}