{"type":"Feature","geometry":{"type":"Point","coordinates":[53.53,9.83,13]},"properties":{"stationId":"EDHI","rawText":"EDHI 051050Z AUTO 03010KT 350V070 9999 // FEW023/// BKN059/// 11/07 Q1017","observationTime":"2019-10-05T10:50:00Z","temp":11,"dewpoint":7,"windDirection":30,"windSpeed":18.52,"visibility":6.21,"altim":30.029528,"flightCategory":"VFR","metarType":"METAR","geometry_esri":{"x":53.53,"y":9.83,"z":13}}}