{"type":"Feature","geometry":{"type":"Point","coordinates":[53.53,9.83,13]},"properties":{"stationId":"EDHI","rawText":"EDHI 212250Z AUTO 28015KT 3100 // OVC004/// 11/11 Q1011","observationTime":"2019-05-21T22:50:00Z","temp":11,"dewpoint":11,"windDirection":280,"windSpeed":27.78,"visibility":1.93,"altim":29.852362,"flightCategory":"LIFR","metarType":"METAR","geometry_esri":{"x":53.53,"y":9.83,"z":13}}}