{"type":"Feature","geometry":{"type":"Point","coordinates":[53.53,9.83,13]},"properties":{"stationId":"EDHI","rawText":"EDHI 131020Z AUTO 34015KT 290V010 9999 // BKN050/// 08/M05 Q1018","observationTime":"2020-04-13T10:20:00Z","temp":8,"dewpoint":-5,"windDirection":340,"windSpeed":27.78,"visibility":6.21,"altim":30.059055,"flightCategory":"VFR","metarType":"METAR","geometry_esri":{"x":53.53,"y":9.83,"z":13}}}