{"type":"Feature","geometry":{"type":"Point","coordinates":[53.53,9.83,13]},"properties":{"stationId":"EDHI","rawText":"EDHI 262250Z AUTO 18003KT 130V220 3700 1800 // BKN004/// BKN051/// BKN089/// 10/10 Q1013","observationTime":"2019-04-26T22:50:00Z","temp":10,"dewpoint":10,"windDirection":180,"windSpeed":5.556,"visibility":2.3,"altim":29.911417,"flightCategory":"LIFR","metarType":"METAR","geometry_esri":{"x":53.53,"y":9.83,"z":13}}}