{"type":"Feature","geometry":{"type":"Point","coordinates":[53.53,9.83,13]},"properties":{"stationId":"EDHI","rawText":"EDHI 081320Z 29008KT 270V350 9999 -RA SCT024 BKN066 15/10 Q1016","observationTime":"2019-07-08T13:20:00Z","temp":15,"dewpoint":10,"windDirection":290,"windSpeed":14.816,"visibility":6.21,"altim":30,"flightCategory":"VFR","metarType":"METAR","geometry_esri":{"x":53.53,"y":9.83,"z":13}}}