{"type":"Feature","geometry":{"type":"Point","coordinates":[53.53,9.83,13]},"properties":{"stationId":"EDHI","rawText":"EDHI 050720Z AUTO 23004KT 180V270 9999 // NCD 07/02 Q1016","observationTime":"2019-05-05T07:20:00Z","temp":7,"dewpoint":2,"windDirection":230,"windSpeed":7.408,"visibility":6.21,"altim":30,"flightCategory":"VFR","metarType":"METAR","geometry_esri":{"x":53.53,"y":9.83,"z":13}}}