{"type":"Feature","geometry":{"type":"Point","coordinates":[53.53,9.83,13]},"properties":{"stationId":"EDHI","rawText":"EDHI 130950Z 32010KT 290V360 9999 FEW022 SCT045 18/12 Q1029","observationTime":"2019-09-13T09:50:00Z","temp":18,"dewpoint":12,"windDirection":320,"windSpeed":18.52,"visibility":6.21,"altim":30.383858,"flightCategory":"VFR","metarType":"METAR","geometry_esri":{"x":53.53,"y":9.83,"z":13}}}