{"type":"Feature","geometry":{"type":"Point","coordinates":[53.53,9.83,13]},"properties":{"stationId":"EDHI","rawText":"EDHI 212150Z AUTO 24006KT 5000 // OVC005/// M01/M02 Q1016","observationTime":"2019-01-21T21:50:00Z","temp":-1,"dewpoint":-2,"windDirection":240,"windSpeed":11.112,"visibility":3.11,"altim":30,"flightCategory":"IFR","metarType":"METAR","geometry_esri":{"x":53.53,"y":9.83,"z":13}}}