{"type":"Feature","geometry":{"type":"Point","coordinates":[53.53,9.83,13]},"properties":{"stationId":"EDHI","rawText":"EDHI 231020Z 27007KT 240V300 CAVOK 24/13 Q1026","observationTime":"2019-08-23T10:20:00Z","temp":24,"dewpoint":13,"windDirection":270,"windSpeed":12.964,"visibility":6.21,"altim":30.295275,"flightCategory":"VFR","metarType":"METAR","geometry_esri":{"x":53.53,"y":9.83,"z":13}}}