{"type":"Feature","geometry":{"type":"Point","coordinates":[53.53,9.83,13]},"properties":{"stationId":"EDHI","rawText":"EDHI 200320Z AUTO 10003KT 9000 // FEW057/// OVC160/// 05/03 Q1011","observationTime":"2018-12-20T03:20:00Z","temp":5,"dewpoint":3,"windDirection":100,"windSpeed":5.556,"visibility":5.59,"altim":29.852362,"flightCategory":"VFR","metarType":"METAR","geometry_esri":{"x":53.53,"y":9.83,"z":13}}}