{"type":"Feature","geometry":{"type":"Point","coordinates":[53.53,9.83,13]},"properties":{"stationId":"EDHI","rawText":"EDHI 150450Z 25010KT 9999 FEW017 04/01 Q1022","observationTime":"2020-04-15T04:50:00Z","temp":4,"dewpoint":1,"windDirection":250,"windSpeed":18.52,"visibility":6.21,"altim":30.177166,"flightCategory":"VFR","metarType":"METAR","geometry_esri":{"x":53.53,"y":9.83,"z":13}}}