{"type":"Feature","geometry":{"type":"Point","coordinates":[53.53,9.83,13]},"properties":{"stationId":"EDHI","rawText":"EDHI 300720Z AUTO 19009KT 160V220 9999 // OVC061/// 14/08 Q1019","observationTime":"2019-05-30T07:20:00Z","temp":14,"dewpoint":8,"windDirection":190,"windSpeed":16.668,"visibility":6.21,"altim":30.088583,"flightCategory":"VFR","metarType":"METAR","geometry_esri":{"x":53.53,"y":9.83,"z":13}}}