{"type":"Feature","geometry":{"type":"Point","coordinates":[53.53,9.83,13]},"properties":{"stationId":"EDHI","rawText":"EDHI 250950Z 23008KT 4000 BR OVC005 03/02 Q1021","observationTime":"2020-01-25T09:50:00Z","temp":3,"dewpoint":2,"windDirection":230,"windSpeed":14.816,"visibility":2.49,"altim":30.147638,"flightCategory":"IFR","metarType":"METAR","geometry_esri":{"x":53.53,"y":9.83,"z":13}}}