{"type":"Feature","geometry":{"type":"Point","coordinates":[53.53,9.83,13]},"properties":{"stationId":"EDHI","rawText":"EDHI 091350Z AUTO 26017KT 9999 // SCT033/// BKN067/// BKN090/// 10/02 Q1002","observationTime":"2019-03-09T13:50:00Z","temp":10,"dewpoint":2,"windDirection":260,"windSpeed":31.484,"visibility":6.21,"altim":29.586615,"flightCategory":"VFR","metarType":"METAR","geometry_esri":{"x":53.53,"y":9.83,"z":13}}}