{"type":"Feature","geometry":{"type":"Point","coordinates":[53.53,9.83,13]},"properties":{"stationId":"EDHI","rawText":"EDHI 302250Z AUTO 10007KT 060V150 9999 // OVC030/// 01/M02 Q0995","observationTime":"2019-01-30T22:50:00Z","temp":1,"dewpoint":-2,"windDirection":100,"windSpeed":12.964,"visibility":6.21,"altim":29.379921,"flightCategory":"MVFR","metarType":"METAR","geometry_esri":{"x":53.53,"y":9.83,"z":13}}}