{"type":"Feature","geometry":{"type":"Point","coordinates":[53.53,9.83,13]},"properties":{"stationId":"EDHI","rawText":"EDHI 191220Z AUTO 09011KT 060V150 9999 // NCD 21/03 Q1032","observationTime":"2019-04-19T12:20:00Z","temp":21,"dewpoint":3,"windDirection":90,"windSpeed":20.372,"visibility":6.21,"altim":30.47244,"flightCategory":"VFR","metarType":"METAR","geometry_esri":{"x":53.53,"y":9.83,"z":13}}}