{"type":"Feature","geometry":{"type":"Point","coordinates":[53.53,9.83,13]},"properties":{"stationId":"EDHI","rawText":"EDHI 310450Z AUTO 16003KT 120V210 9999 // OVC017/// 00/M02 Q0996","observationTime":"2019-01-31T04:50:00Z","temp":0,"dewpoint":-2,"windDirection":160,"windSpeed":5.556,"visibility":6.21,"altim":29.409449,"flightCategory":"MVFR","metarType":"METAR","geometry_esri":{"x":53.53,"y":9.83,"z":13}}}