{"type":"Feature","geometry":{"type":"Point","coordinates":[53.53,9.83,13]},"properties":{"stationId":"EDHI","rawText":"EDHI 211620Z 14007KT 070V190 6000 -RA BKN005 07/07 Q0993","observationTime":"2018-12-21T16:20:00Z","temp":7,"dewpoint":7,"windDirection":140,"windSpeed":12.964,"visibility":3.73,"altim":29.320866,"flightCategory":"IFR","metarType":"METAR","geometry_esri":{"x":53.53,"y":9.83,"z":13}}}