{"type":"Feature","geometry":{"type":"Point","coordinates":[53.53,9.83,13]},"properties":{"stationId":"EDHI","rawText":"EDHI 240320Z AUTO 01008KT 340V040 9999 // FEW008/// BKN010/// OVC017/// 03/01 Q1019","observationTime":"2018-12-24T03:20:00Z","temp":3,"dewpoint":1,"windDirection":10,"windSpeed":14.816,"visibility":6.21,"altim":30.088583,"flightCategory":"MVFR","metarType":"METAR","geometry_esri":{"x":53.53,"y":9.83,"z":13}}}