{"type":"Feature","geometry":{"type":"Point","coordinates":[53.53,9.83,13]},"properties":{"stationId":"EDHI","rawText":"EDHI 010350Z AUTO 09008KT 060V130 7000 // NCD M01/M03 Q0995","observationTime":"2019-02-01T03:50:00Z","temp":-1,"dewpoint":-3,"windDirection":90,"windSpeed":14.816,"visibility":4.35,"altim":29.379921,"flightCategory":"MVFR","metarType":"METAR","geometry_esri":{"x":53.53,"y":9.83,"z":13}}}