{"type":"Feature","geometry":{"type":"Point","coordinates":[53.53,9.83,13]},"properties":{"stationId":"EDHI","rawText":"EDHI 232350Z AUTO 29004KT 0300 R23/0550N // VV001 01/00 Q1025","observationTime":"2020-01-23T23:50:00Z","temp":1,"dewpoint":0,"windDirection":290,"windSpeed":7.408,"visibility":0.19,"altim":30.265747,"flightCategory":"LIFR","metarType":"METAR","geometry_esri":{"x":53.53,"y":9.83,"z":13}}}