{"type":"Feature","geometry":{"type":"Point","coordinates":[53.53,9.83,13]},"properties":{"stationId":"EDHI","rawText":"EDHI 061720Z 17010G20KT 130V210 9999 -RA FEW045 10/06 Q0996","observationTime":"2019-03-06T17:20:00Z","temp":10,"dewpoint":6,"windDirection":170,"windSpeed":18.52,"visibility":6.21,"altim":29.409449,"flightCategory":"VFR","metarType":"METAR","geometry_esri":{"x":53.53,"y":9.83,"z":13}}}