{"type":"Feature","geometry":{"type":"Point","coordinates":[53.53,9.83,13]},"properties":{"stationId":"EDHI","rawText":"EDHI 120050Z AUTO 21005KT 2400 // OVC001/// 04/04 Q1002","observationTime":"2019-12-12T00:50:00Z","temp":4,"dewpoint":4,"windDirection":210,"windSpeed":9.26,"visibility":1.49,"altim":29.586615,"flightCategory":"LIFR","metarType":"METAR","geometry_esri":{"x":53.53,"y":9.83,"z":13}}}