{"type":"Feature","geometry":{"type":"Point","coordinates":[53.53,9.83,13]},"properties":{"stationId":"EDHI","rawText":"EDHI 051020Z 26004KT 210V300 5000 BR BKN012 09/06 Q1005","observationTime":"2019-04-05T10:20:00Z","temp":9,"dewpoint":6,"windDirection":260,"windSpeed":7.408,"visibility":3.11,"altim":29.675198,"flightCategory":"MVFR","metarType":"METAR","geometry_esri":{"x":53.53,"y":9.83,"z":13}}}