{"type":"Feature","geometry":{"type":"Point","coordinates":[53.53,9.83,13]},"properties":{"stationId":"EDHI","rawText":"EDHI 231620Z 10014G25KT 050V190 9999 FEW048 20/05 Q1003","observationTime":"2019-04-23T16:20:00Z","temp":20,"dewpoint":5,"windDirection":100,"windSpeed":25.928,"visibility":6.21,"altim":29.616142,"flightCategory":"VFR","metarType":"METAR","geometry_esri":{"x":53.53,"y":9.83,"z":13}}}