{"type":"Feature","geometry":{"type":"Point","coordinates":[53.53,9.83,13]},"properties":{"stationId":"EDHI","rawText":"EDHI 061820Z AUTO 31011KT 280V360 9999 // SCT055/// BKN130/// BKN150/// 16/10 Q1014","observationTime":"2019-06-06T18:20:00Z","temp":16,"dewpoint":10,"windDirection":310,"windSpeed":20.372,"visibility":6.21,"altim":29.940945,"flightCategory":"VFR","metarType":"METAR","geometry_esri":{"x":53.53,"y":9.83,"z":13}}}