{"type":"Feature","geometry":{"type":"Point","coordinates":[53.53,9.83,13]},"properties":{"stationId":"EDHI","rawText":"EDHI 071020Z 27005KT 220V300 9999 FEW028 15/08 Q1033","observationTime":"2020-04-07T10:20:00Z","temp":15,"dewpoint":8,"windDirection":270,"windSpeed":9.26,"visibility":6.21,"altim":30.501968,"flightCategory":"VFR","metarType":"METAR","geometry_esri":{"x":53.53,"y":9.83,"z":13}}}