{"type":"Feature","geometry":{"type":"Point","coordinates":[53.53,9.83,13]},"properties":{"stationId":"EDHI","rawText":"EDHI 120920Z 02005KT 350V050 9999 FEW032 BKN055 04/02 Q1026","observationTime":"2018-12-12T09:20:00Z","temp":4,"dewpoint":2,"windDirection":20,"windSpeed":9.26,"visibility":6.21,"altim":30.295275,"skyCondition1a":"FEW","skyCondition1b":3200,"skyCondition2a":"BKN","skyCondition2b":5500,"flightCategory":"VFR","metarType":"METAR","geometry_esri":{"x":53.53,"y":9.83,"z":13}}}