{"type":"Feature","geometry":{"type":"Point","coordinates":[53.53,9.83,13]},"properties":{"stationId":"EDHI","rawText":"EDHI 260850Z 12004KT 080V150 4500 BR SCT005 BKN015 OVC026 05/05 Q1006","observationTime":"2019-11-26T08:50:00Z","temp":5,"dewpoint":5,"windDirection":120,"windSpeed":7.408,"visibility":2.8,"altim":29.704725,"flightCategory":"IFR","metarType":"METAR","geometry_esri":{"x":53.53,"y":9.83,"z":13}}}