{"type":"Feature","geometry":{"type":"Point","coordinates":[53.53,9.83,13]},"properties":{"stationId":"EDHI","rawText":"EDHI 281450Z 25006KT 7000 FEW006 BKN008 OVC032 07/07 Q1026","observationTime":"2018-12-28T14:50:00Z","temp":7,"dewpoint":7,"windDirection":250,"windSpeed":11.112,"visibility":4.35,"altim":30.295275,"flightCategory":"IFR","metarType":"METAR","geometry_esri":{"x":53.53,"y":9.83,"z":13}}}