{"type":"Feature","geometry":{"type":"Point","coordinates":[53.53,9.83,13]},"properties":{"stationId":"EDHI","rawText":"EDHI 071450Z 14007KT 100V180 9999 OVC015 06/03 Q1027","observationTime":"2020-02-07T14:50:00Z","temp":6,"dewpoint":3,"windDirection":140,"windSpeed":12.964,"visibility":6.21,"altim":30.324802,"flightCategory":"MVFR","metarType":"METAR","geometry_esri":{"x":53.53,"y":9.83,"z":13}}}