{"type":"Feature","geometry":{"type":"Point","coordinates":[53.53,9.83,13]},"properties":{"stationId":"EDHI","rawText":"EDHI 020550Z 28016KT 9999 SCT015 BKN025 09/07 Q1007","observationTime":"2019-05-02T05:50:00Z","temp":9,"dewpoint":7,"windDirection":280,"windSpeed":29.632,"visibility":6.21,"altim":29.734253,"flightCategory":"MVFR","metarType":"METAR","geometry_esri":{"x":53.53,"y":9.83,"z":13}}}