{"type":"Feature","geometry":{"type":"Point","coordinates":[53.53,9.83,13]},"properties":{"stationId":"EDHI","rawText":"EDHI 210920Z 28004KT 240V310 CAVOK 16/11 Q1023","observationTime":"2019-09-21T09:20:00Z","temp":16,"dewpoint":11,"windDirection":280,"windSpeed":7.408,"visibility":6.21,"altim":30.206694,"flightCategory":"VFR","metarType":"METAR","geometry_esri":{"x":53.53,"y":9.83,"z":13}}}