{"type":"Feature","geometry":{"type":"Point","coordinates":[53.53,9.83,13]},"properties":{"stationId":"EDHI","rawText":"EDHI 110420Z 34009KT 310V010 CAVOK 06/00 Q1009","observationTime":"2020-05-11T04:20:00Z","temp":6,"dewpoint":0,"windDirection":340,"windSpeed":16.668,"visibility":6.21,"altim":29.793306,"flightCategory":"VFR","metarType":"METAR","geometry_esri":{"x":53.53,"y":9.83,"z":13}}}