{"type":"Feature","geometry":{"type":"Point","coordinates":[53.53,9.83,13]},"properties":{"stationId":"EDHI","rawText":"EDHI 241220Z 19010KT 9999 FEW013 BKN016 06/03 Q1013","observationTime":"2020-02-24T12:20:00Z","temp":6,"dewpoint":3,"windDirection":190,"windSpeed":18.52,"visibility":6.21,"altim":29.911417,"flightCategory":"MVFR","metarType":"METAR","geometry_esri":{"x":53.53,"y":9.83,"z":13}}}