{"type":"Feature","geometry":{"type":"Point","coordinates":[53.53,9.83,13]},"properties":{"stationId":"EDHI","rawText":"EDHI 130820Z 07006KT 020V110 9999 SCT008 BKN010 02/00 Q1025","observationTime":"2018-12-13T08:20:00Z","temp":2,"dewpoint":0,"windDirection":70,"windSpeed":11.112,"visibility":6.21,"altim":30.265747,"skyCondition1a":"SCT","skyCondition1b":800,"skyCondition2a":"BKN","skyCondition2b":1000,"flightCategory":"MVFR","metarType":"METAR","geometry_esri":{"x":53.53,"y":9.83,"z":13}}}