{"type":"Feature","geometry":{"type":"Point","coordinates":[53.53,9.83,13]},"properties":{"stationId":"EDHI","rawText":"EDHI 250450Z 12004KT 080V170 2200 -DZ BR OVC005 05/04 Q1010","observationTime":"2019-11-25T04:50:00Z","temp":5,"dewpoint":4,"windDirection":120,"windSpeed":7.408,"visibility":1.37,"altim":29.822834,"flightCategory":"IFR","metarType":"METAR","geometry_esri":{"x":53.53,"y":9.83,"z":13}}}