{"type":"Feature","geometry":{"type":"Point","coordinates":[53.53,9.83,13]},"properties":{"stationId":"EDHI","rawText":"EDHI 021550Z 13009KT 080V160 CAVOK 14/02 Q1004","observationTime":"2019-04-02T15:50:00Z","temp":14,"dewpoint":2,"windDirection":130,"windSpeed":16.668,"visibility":6.21,"altim":29.64567,"flightCategory":"VFR","metarType":"METAR","geometry_esri":{"x":53.53,"y":9.83,"z":13}}}