{"type":"Feature","geometry":{"type":"Point","coordinates":[53.53,9.83,13]},"properties":{"stationId":"EDHI","rawText":"EDHI 190720Z 17004KT 060V200 CAVOK 11/07 Q1006","observationTime":"2019-10-19T07:20:00Z","temp":11,"dewpoint":7,"windDirection":170,"windSpeed":7.408,"visibility":6.21,"altim":29.704725,"flightCategory":"VFR","metarType":"METAR","geometry_esri":{"x":53.53,"y":9.83,"z":13}}}