{"type":"Feature","geometry":{"type":"Point","coordinates":[53.53,9.83,13]},"properties":{"stationId":"EDHI","rawText":"EDHI 081020Z 30024G39KT 270V330 9999 BKN023 07/05 Q1000","observationTime":"2019-01-08T10:20:00Z","temp":7,"dewpoint":5,"windDirection":300,"windSpeed":44.448,"visibility":6.21,"altim":29.52756,"flightCategory":"MVFR","metarType":"METAR","geometry_esri":{"x":53.53,"y":9.83,"z":13}}}