{"type":"Feature","geometry":{"type":"Point","coordinates":[53.53,9.83,13]},"properties":{"stationId":"EDHI","rawText":"EDHI 111550Z 25010KT 9999 SCT009 BKN028 04/02 Q1011","observationTime":"2019-03-11T15:50:00Z","temp":4,"dewpoint":2,"windDirection":250,"windSpeed":18.52,"visibility":6.21,"altim":29.852362,"flightCategory":"MVFR","metarType":"METAR","geometry_esri":{"x":53.53,"y":9.83,"z":13}}}