{"type":"Feature","geometry":{"type":"Point","coordinates":[53.53,9.83,13]},"properties":{"stationId":"EDHI","rawText":"EDHI 072020Z AUTO 08004KT 050V130 9999 // FEW055/// SCT120/// OVC140/// 20/13 Q1010","observationTime":"2019-06-07T20:20:00Z","temp":20,"dewpoint":13,"windDirection":80,"windSpeed":7.408,"visibility":6.21,"altim":29.822834,"flightCategory":"VFR","metarType":"METAR","geometry_esri":{"x":53.53,"y":9.83,"z":13}}}