{"type":"Feature","geometry":{"type":"Point","coordinates":[53.53,9.83,13]},"properties":{"stationId":"EDHI","rawText":"EDHI 140750Z 13004KT 100V180 CAVOK 03/01 Q1023","observationTime":"2020-03-14T07:50:00Z","temp":3,"dewpoint":1,"windDirection":130,"windSpeed":7.408,"visibility":6.21,"altim":30.206694,"flightCategory":"VFR","metarType":"METAR","geometry_esri":{"x":53.53,"y":9.83,"z":13}}}