{"type":"Feature","geometry":{"type":"Point","coordinates":[53.53,9.83,13]},"properties":{"stationId":"EDHI","rawText":"EDHI 081220Z 32013KT 290V360 9999 SCT021CB BKN027 14/10 Q1016","observationTime":"2019-07-08T12:20:00Z","temp":14,"dewpoint":10,"windDirection":320,"windSpeed":24.076,"visibility":6.21,"altim":30,"flightCategory":"MVFR","metarType":"METAR","geometry_esri":{"x":53.53,"y":9.83,"z":13}}}