{"type":"Feature","geometry":{"type":"Point","coordinates":[53.53,9.83,13]},"properties":{"stationId":"EDHI","rawText":"EDHI 110250Z AUTO 25010KT 7000 // OVC004/// 03/02 Q1020","observationTime":"2019-01-11T02:50:00Z","temp":3,"dewpoint":2,"windDirection":250,"windSpeed":18.52,"visibility":4.35,"altim":30.11811,"flightCategory":"LIFR","metarType":"METAR","geometry_esri":{"x":53.53,"y":9.83,"z":13}}}