{"type":"Feature","geometry":{"type":"Point","coordinates":[53.53,9.83,13]},"properties":{"stationId":"EDHI","rawText":"EDHI 182250Z AUTO 21009KT 7000 // NCD 10/07 Q1006","observationTime":"2019-10-18T22:50:00Z","temp":10,"dewpoint":7,"windDirection":210,"windSpeed":16.668,"visibility":4.35,"altim":29.704725,"flightCategory":"MVFR","metarType":"METAR","geometry_esri":{"x":53.53,"y":9.83,"z":13}}}