{"type":"Feature","geometry":{"type":"Point","coordinates":[53.53,9.83,13]},"properties":{"stationId":"EDHI","rawText":"EDHI 060850Z 23004KT 200V260 9999 FEW020 20/17 Q1007","observationTime":"2019-06-06T08:50:00Z","temp":20,"dewpoint":17,"windDirection":230,"windSpeed":7.408,"visibility":6.21,"altim":29.734253,"flightCategory":"VFR","metarType":"METAR","geometry_esri":{"x":53.53,"y":9.83,"z":13}}}