{"type":"Feature","geometry":{"type":"Point","coordinates":[53.53,9.83,13]},"properties":{"stationId":"EDHI","rawText":"EDHI 232120Z AUTO 17003KT 130V210 9999 // SCT078/// 14/06 Q1014","observationTime":"2019-05-23T21:20:00Z","temp":14,"dewpoint":6,"windDirection":170,"windSpeed":5.556,"visibility":6.21,"altim":29.940945,"flightCategory":"VFR","metarType":"METAR","geometry_esri":{"x":53.53,"y":9.83,"z":13}}}