{"type":"Feature","geometry":{"type":"Point","coordinates":[53.53,9.83,13]},"properties":{"stationId":"EDHI","rawText":"EDHI 301020Z 23004KT 9000 -RASN FEW005 SCT010 BKN018 02/02 Q1025","observationTime":"2020-03-30T10:20:00Z","temp":2,"dewpoint":2,"windDirection":230,"windSpeed":7.408,"visibility":5.59,"altim":30.265747,"flightCategory":"MVFR","metarType":"METAR","geometry_esri":{"x":53.53,"y":9.83,"z":13}}}