{"type":"Feature","geometry":{"type":"Point","coordinates":[53.53,9.83,13]},"properties":{"stationId":"EDHI","rawText":"EDHI 222250Z AUTO 24006KT 9000 // SCT008/// BKN030/// OVC043/// 06/05 Q1015","observationTime":"2018-12-22T22:50:00Z","temp":6,"dewpoint":5,"windDirection":240,"windSpeed":11.112,"visibility":5.59,"altim":29.970472,"flightCategory":"MVFR","metarType":"METAR","geometry_esri":{"x":53.53,"y":9.83,"z":13}}}