{"type":"Feature","geometry":{"type":"Point","coordinates":[53.53,9.83,13]},"properties":{"stationId":"EDHI","rawText":"EDHI 071720Z AUTO 07007KT 030V100 9999 // NCD 17/05 Q1008","observationTime":"2019-04-07T17:20:00Z","temp":17,"dewpoint":5,"windDirection":70,"windSpeed":12.964,"visibility":6.21,"altim":29.763779,"flightCategory":"VFR","metarType":"SPECI","geometry_esri":{"x":53.53,"y":9.83,"z":13}}}