{"type":"Feature","geometry":{"type":"Point","coordinates":[53.53,9.83,13]},"properties":{"stationId":"EDHI","rawText":"EDHI 022150Z AUTO 14008KT 9999 // FEW051/// BKN061/// BKN220/// 11/05 Q1003","observationTime":"2019-04-02T21:50:00Z","temp":11,"dewpoint":5,"windDirection":140,"windSpeed":14.816,"visibility":6.21,"altim":29.616142,"flightCategory":"VFR","metarType":"METAR","geometry_esri":{"x":53.53,"y":9.83,"z":13}}}