{"type":"Feature","geometry":{"type":"Point","coordinates":[53.53,9.83,13]},"properties":{"stationId":"EDHI","rawText":"EDHI 300820Z AUTO 21011KT 190V250 9999 // NCD 29/13 Q1010","observationTime":"2019-06-30T08:20:00Z","temp":29,"dewpoint":13,"windDirection":210,"windSpeed":20.372,"visibility":6.21,"altim":29.822834,"flightCategory":"VFR","metarType":"METAR","geometry_esri":{"x":53.53,"y":9.83,"z":13}}}