{"type":"Feature","geometry":{"type":"Point","coordinates":[53.53,9.83,13]},"properties":{"stationId":"EDHI","rawText":"EDHI 120820Z 24008KT 3700 BR BKN004 OVC016 11/11 Q1007","observationTime":"2019-10-12T08:20:00Z","temp":11,"dewpoint":11,"windDirection":240,"windSpeed":14.816,"visibility":2.3,"altim":29.734253,"flightCategory":"LIFR","metarType":"METAR","geometry_esri":{"x":53.53,"y":9.83,"z":13}}}