{"type":"Feature","geometry":{"type":"Point","coordinates":[53.53,9.83,13]},"properties":{"stationId":"EDHI","rawText":"EDHI 040050Z AUTO 13003KT 090V170 9999 // FEW005/// BKN046/// 08/06 Q1012","observationTime":"2019-10-04T00:50:00Z","temp":8,"dewpoint":6,"windDirection":130,"windSpeed":5.556,"visibility":6.21,"altim":29.88189,"flightCategory":"VFR","metarType":"METAR","geometry_esri":{"x":53.53,"y":9.83,"z":13}}}