{"type":"Feature","geometry":{"type":"Point","coordinates":[53.53,9.83,13]},"properties":{"stationId":"EDHI","rawText":"EDHI 220420Z AUTO 27012KT 9999 // SCT012/// BKN014/// BKN033/// 07/05 Q1002","observationTime":"2018-12-22T04:20:00Z","temp":7,"dewpoint":5,"windDirection":270,"windSpeed":22.224,"visibility":6.21,"altim":29.586615,"flightCategory":"MVFR","metarType":"METAR","geometry_esri":{"x":53.53,"y":9.83,"z":13}}}