{"type":"Feature","geometry":{"type":"Point","coordinates":[53.53,9.83,13]},"properties":{"stationId":"EDHI","rawText":"EDHI 200820Z VRB01KT 0550 R05/0650U FG SCT002 OVC004 03/03 Q1020","observationTime":"2019-11-20T08:20:00Z","temp":3,"dewpoint":3,"windDirection":0,"windSpeed":1.852,"visibility":0.34,"altim":30.11811,"flightCategory":"LIFR","metarType":"METAR","geometry_esri":{"x":53.53,"y":9.83,"z":13}}}