{"type":"Feature","geometry":{"type":"Point","coordinates":[53.53,9.83,13]},"properties":{"stationId":"EDHI","rawText":"EDHI 130720Z AUTO 05011KT 9999 // SCT016/// BKN018/// OVC024/// 03/M01 Q1027","observationTime":"2019-04-13T07:20:00Z","temp":3,"dewpoint":-1,"windDirection":50,"windSpeed":20.372,"visibility":6.21,"altim":30.324802,"flightCategory":"MVFR","metarType":"METAR","geometry_esri":{"x":53.53,"y":9.83,"z":13}}}