{"type":"Feature","geometry":{"type":"Point","coordinates":[53.53,9.83,13]},"properties":{"stationId":"EDHI","rawText":"EDHI 230150Z AUTO 25003KT 7000 // BKN200/// 06/06 Q1018","observationTime":"2019-05-23T01:50:00Z","temp":6,"dewpoint":6,"windDirection":250,"windSpeed":5.556,"visibility":4.35,"altim":30.059055,"flightCategory":"MVFR","metarType":"METAR","geometry_esri":{"x":53.53,"y":9.83,"z":13}}}