{"type":"Feature","geometry":{"type":"Point","coordinates":[53.53,9.83,13]},"properties":{"stationId":"EDHI","rawText":"EDHI 082250Z AUTO 33019G29KT 300V010 9999 // SCT030/// BKN044/// OVC063/// 04/M01 Q1006","observationTime":"2019-01-08T22:50:00Z","temp":4,"dewpoint":-1,"windDirection":330,"windSpeed":35.188,"visibility":6.21,"altim":29.704725,"flightCategory":"VFR","metarType":"METAR","geometry_esri":{"x":53.53,"y":9.83,"z":13}}}