{"type":"Feature","geometry":{"type":"Point","coordinates":[53.53,9.83,13]},"properties":{"stationId":"EDHI","rawText":"EDHI 171550Z 35005KT 300V040 9999 FEW032 20/11 Q1014","observationTime":"2019-07-17T15:50:00Z","temp":20,"dewpoint":11,"windDirection":350,"windSpeed":9.26,"visibility":6.21,"altim":29.940945,"flightCategory":"VFR","metarType":"METAR","geometry_esri":{"x":53.53,"y":9.83,"z":13}}}