{"type":"Feature","geometry":{"type":"Point","coordinates":[53.53,9.83,13]},"properties":{"stationId":"EDHI","rawText":"EDHI 070320Z AUTO 18007KT 150V210 9999 // OVC031/// 11/07 Q0990","observationTime":"2019-03-07T03:20:00Z","temp":11,"dewpoint":7,"windDirection":180,"windSpeed":12.964,"visibility":6.21,"altim":29.232283,"flightCategory":"VFR","metarType":"METAR","geometry_esri":{"x":53.53,"y":9.83,"z":13}}}