{"type":"Feature","geometry":{"type":"Point","coordinates":[53.53,9.83,13]},"properties":{"stationId":"EDHI","rawText":"EDHI 010520Z AUTO 20008KT 9999 // SCT012/// BKN015/// BKN100/// 09/08 Q0998","observationTime":"2020-05-01T05:20:00Z","temp":9,"dewpoint":8,"windDirection":200,"windSpeed":14.816,"visibility":6.21,"altim":29.468504,"flightCategory":"MVFR","metarType":"METAR","geometry_esri":{"x":53.53,"y":9.83,"z":13}}}