{"type":"Feature","geometry":{"type":"Point","coordinates":[53.53,9.83,13]},"properties":{"stationId":"EDHI","rawText":"EDHI 041320Z 35010G20KT 310V030 9999 -SHRA FEW035CB 10/M01 Q1006","observationTime":"2019-05-04T13:20:00Z","temp":10,"dewpoint":-1,"windDirection":350,"windSpeed":18.52,"visibility":6.21,"altim":29.704725,"flightCategory":"VFR","metarType":"METAR","geometry_esri":{"x":53.53,"y":9.83,"z":13}}}