{"type":"Feature","geometry":{"type":"Point","coordinates":[53.53,9.83,13]},"properties":{"stationId":"EDHI","rawText":"EDHI 060850Z 08007KT 7000 NSC 12/08 Q1008","observationTime":"2019-04-06T08:50:00Z","temp":12,"dewpoint":8,"windDirection":80,"windSpeed":12.964,"visibility":4.35,"altim":29.763779,"flightCategory":"MVFR","metarType":"METAR","geometry_esri":{"x":53.53,"y":9.83,"z":13}}}