{"type":"Feature","geometry":{"type":"Point","coordinates":[53.53,9.83,13]},"properties":{"stationId":"EDHI","rawText":"EDHI 231120Z 32005KT 300V010 9999 FEW036 27/17 Q1021","observationTime":"2019-07-23T11:20:00Z","temp":27,"dewpoint":17,"windDirection":320,"windSpeed":9.26,"visibility":6.21,"altim":30.147638,"flightCategory":"VFR","metarType":"METAR","geometry_esri":{"x":53.53,"y":9.83,"z":13}}}