{"type":"Feature","geometry":{"type":"Point","coordinates":[53.53,9.83,13]},"properties":{"stationId":"EDHI","rawText":"EDHI 122050Z AUTO 23009KT 9999 // BKN100/// OVC160/// 05/03 Q1030","observationTime":"2019-02-12T20:50:00Z","temp":5,"dewpoint":3,"windDirection":230,"windSpeed":16.668,"visibility":6.21,"altim":30.413385,"flightCategory":"VFR","metarType":"METAR","geometry_esri":{"x":53.53,"y":9.83,"z":13}}}