{"type":"Feature","geometry":{"type":"Point","coordinates":[53.53,9.83,13]},"properties":{"stationId":"EDHI","rawText":"EDHI 210920Z AUTO 07014KT 040V100 9999 // SCT036/// BKN041/// 05/M04 Q1033","observationTime":"2020-03-21T09:20:00Z","temp":5,"dewpoint":-4,"windDirection":70,"windSpeed":25.928,"visibility":6.21,"altim":30.501968,"flightCategory":"VFR","metarType":"METAR","geometry_esri":{"x":53.53,"y":9.83,"z":13}}}