{"type":"Feature","geometry":{"type":"Point","coordinates":[53.53,9.83,13]},"properties":{"stationId":"EDHI","rawText":"EDHI 190620Z 36005KT 320V040 9999 BKN006 06/05 Q1025","observationTime":"2020-03-19T06:20:00Z","temp":6,"dewpoint":5,"windDirection":360,"windSpeed":9.26,"visibility":6.21,"altim":30.265747,"flightCategory":"IFR","metarType":"METAR","geometry_esri":{"x":53.53,"y":9.83,"z":13}}}