{"type":"Feature","geometry":{"type":"Point","coordinates":[53.53,9.83,13]},"properties":{"stationId":"EDHI","rawText":"EDHI 292320Z AUTO VRB01KT 2300 // NCD 05/05 Q1025","observationTime":"2019-03-29T23:20:00Z","temp":5,"dewpoint":5,"windDirection":0,"windSpeed":1.852,"visibility":1.43,"altim":30.265747,"flightCategory":"IFR","metarType":"METAR","geometry_esri":{"x":53.53,"y":9.83,"z":13}}}