{"type":"Feature","geometry":{"type":"Point","coordinates":[53.53,9.83,13]},"properties":{"stationId":"EDHI","rawText":"EDHI 221620Z AUTO 27018KT //// R23/P2000N // FEW041/// BKN085/// OVC100/// 08/04 Q1010","observationTime":"2020-02-22T16:20:00Z","temp":8,"dewpoint":4,"windDirection":270,"windSpeed":33.336,"visibility":1.24,"altim":29.822834,"flightCategory":"IFR","metarType":"METAR","geometry_esri":{"x":53.53,"y":9.83,"z":13}}}