{"type":"Feature","geometry":{"type":"Point","coordinates":[53.53,9.83,13]},"properties":{"stationId":"EDHI","rawText":"EDHI 172320Z AUTO 20005KT 180V240 4100 // SCT009/// BKN011/// OVC014/// 05/05 Q1021","observationTime":"2018-12-17T23:20:00Z","temp":5,"dewpoint":5,"windDirection":200,"windSpeed":9.26,"visibility":2.55,"altim":30.147638,"flightCategory":"IFR","metarType":"METAR","geometry_esri":{"x":53.53,"y":9.83,"z":13}}}