{"type":"Feature","geometry":{"type":"Point","coordinates":[53.53,9.83,13]},"properties":{"stationId":"EDHI","rawText":"EDHI 070220Z AUTO 27010KT 9999 // FEW023/// BKN026/// OVC054/// 13/10 Q1008","observationTime":"2019-07-07T02:20:00Z","temp":13,"dewpoint":10,"windDirection":270,"windSpeed":18.52,"visibility":6.21,"altim":29.763779,"flightCategory":"MVFR","metarType":"METAR","geometry_esri":{"x":53.53,"y":9.83,"z":13}}}