{"type":"Feature","geometry":{"type":"Point","coordinates":[53.53,9.83,13]},"properties":{"stationId":"EDHI","rawText":"EDHI 212150Z AUTO 17003KT 130V200 4800 // OVC004/// 08/07 Q1008","observationTime":"2019-11-21T21:50:00Z","temp":8,"dewpoint":7,"windDirection":170,"windSpeed":5.556,"visibility":2.98,"altim":29.763779,"flightCategory":"LIFR","metarType":"METAR","geometry_esri":{"x":53.53,"y":9.83,"z":13}}}