{"type":"Feature","geometry":{"type":"Point","coordinates":[53.53,9.83,13]},"properties":{"stationId":"EDHI","rawText":"EDHI 281250Z 22010KT 6000 -RA FEW011 BKN013 09/07 Q0984","observationTime":"2019-11-28T12:50:00Z","temp":9,"dewpoint":7,"windDirection":220,"windSpeed":18.52,"visibility":3.73,"altim":29.055119,"flightCategory":"MVFR","metarType":"METAR","geometry_esri":{"x":53.53,"y":9.83,"z":13}}}