{"type":"Feature","geometry":{"type":"Point","coordinates":[53.53,9.83,13]},"properties":{"stationId":"EDHI","rawText":"EDHI 181120Z 25023KT 9999 SCT033 BKN049 07/01 Q1015","observationTime":"2020-02-18T11:20:00Z","temp":7,"dewpoint":1,"windDirection":250,"windSpeed":42.596000000000004,"visibility":6.21,"altim":29.970472,"flightCategory":"VFR","metarType":"METAR","geometry_esri":{"x":53.53,"y":9.83,"z":13}}}