{"type":"Feature","geometry":{"type":"Point","coordinates":[53.53,9.83,13]},"properties":{"stationId":"EDHI","rawText":"EDHI 290950Z 27005KT 210V330 9999 SCT036 12/05 Q1021","observationTime":"2019-05-29T09:50:00Z","temp":12,"dewpoint":5,"windDirection":270,"windSpeed":9.26,"visibility":6.21,"altim":30.147638,"flightCategory":"VFR","metarType":"METAR","geometry_esri":{"x":53.53,"y":9.83,"z":13}}}