{"type":"Feature","geometry":{"type":"Point","coordinates":[53.53,9.83,13]},"properties":{"stationId":"EDHI","rawText":"EDHI 221020Z 21006KT 170V260 CAVOK 20/12 Q1022","observationTime":"2019-07-22T10:20:00Z","temp":20,"dewpoint":12,"windDirection":210,"windSpeed":11.112,"visibility":6.21,"altim":30.177166,"flightCategory":"VFR","metarType":"SPECI","geometry_esri":{"x":53.53,"y":9.83,"z":13}}}