{"type":"Feature","geometry":{"type":"Point","coordinates":[53.53,9.83,13]},"properties":{"stationId":"EDHI","rawText":"EDHI 280520Z 28008KT 8000 BKN006 07/07 Q1032","observationTime":"2019-03-28T05:20:00Z","temp":7,"dewpoint":7,"windDirection":280,"windSpeed":14.816,"visibility":4.97,"altim":30.47244,"flightCategory":"IFR","metarType":"METAR","geometry_esri":{"x":53.53,"y":9.83,"z":13}}}