{"type":"Feature","geometry":{"type":"Point","coordinates":[53.53,9.83,13]},"properties":{"stationId":"EDHI","rawText":"EDHI 180750Z VRB02KT CAVOK 21/14 Q1012","observationTime":"2019-07-18T07:50:00Z","temp":21,"dewpoint":14,"windDirection":0,"windSpeed":3.704,"visibility":6.21,"altim":29.88189,"flightCategory":"VFR","metarType":"METAR","geometry_esri":{"x":53.53,"y":9.83,"z":13}}}