{"type":"Feature","geometry":{"type":"Point","coordinates":[53.53,9.83,13]},"properties":{"stationId":"EDHI","rawText":"EDHI 011250Z AUTO 21014KT 180V240 9999 // OVC037/// 11/06 Q0999","observationTime":"2020-05-01T12:50:00Z","temp":11,"dewpoint":6,"windDirection":210,"windSpeed":25.928,"visibility":6.21,"altim":29.498032,"flightCategory":"VFR","metarType":"METAR","geometry_esri":{"x":53.53,"y":9.83,"z":13}}}