{"type":"Feature","geometry":{"type":"Point","coordinates":[53.53,9.83,13]},"properties":{"stationId":"EDHI","rawText":"EDHI 052220Z AUTO 09003KT 050V140 9999 3500 // BKN250/// 07/05 Q1022","observationTime":"2019-10-05T22:20:00Z","temp":7,"dewpoint":5,"windDirection":90,"windSpeed":5.556,"visibility":6.21,"altim":30.177166,"flightCategory":"VFR","metarType":"METAR","geometry_esri":{"x":53.53,"y":9.83,"z":13}}}