{"type":"Feature","geometry":{"type":"Point","coordinates":[53.53,9.83,13]},"properties":{"stationId":"EDHI","rawText":"EDHI 100220Z AUTO 27007KT 9999 // BKN022/// 12/10 Q1018","observationTime":"2019-07-10T02:20:00Z","temp":12,"dewpoint":10,"windDirection":270,"windSpeed":12.964,"visibility":6.21,"altim":30.059055,"flightCategory":"MVFR","metarType":"METAR","geometry_esri":{"x":53.53,"y":9.83,"z":13}}}