{"type":"Feature","geometry":{"type":"Point","coordinates":[53.53,9.83,13]},"properties":{"stationId":"EDHI","rawText":"EDHI 281250Z 27005KT 9999 BKN029 08/06 Q1025","observationTime":"2018-12-28T12:50:00Z","temp":8,"dewpoint":6,"windDirection":270,"windSpeed":9.26,"visibility":6.21,"altim":30.265747,"flightCategory":"MVFR","metarType":"METAR","geometry_esri":{"x":53.53,"y":9.83,"z":13}}}