{"type":"Feature","geometry":{"type":"Point","coordinates":[53.53,9.83,13]},"properties":{"stationId":"EDHI","rawText":"EDHI 221120Z 31008KT 280V350 9999 SCT011 BKN015 07/05 Q1033","observationTime":"2020-01-22T11:20:00Z","temp":7,"dewpoint":5,"windDirection":310,"windSpeed":14.816,"visibility":6.21,"altim":30.501968,"flightCategory":"MVFR","metarType":"METAR","geometry_esri":{"x":53.53,"y":9.83,"z":13}}}