{"type":"Feature","geometry":{"type":"Point","coordinates":[53.53,9.83,13]},"properties":{"stationId":"EDHI","rawText":"EDHI 291250Z 25015KT 9000 -SHRA FEW012 SCT014 BKN019 05/04 Q0999","observationTime":"2020-01-29T12:50:00Z","temp":5,"dewpoint":4,"windDirection":250,"windSpeed":27.78,"visibility":5.59,"altim":29.498032,"flightCategory":"MVFR","metarType":"METAR","geometry_esri":{"x":53.53,"y":9.83,"z":13}}}