{"type":"Feature","geometry":{"type":"Point","coordinates":[53.53,9.83,13]},"properties":{"stationId":"EDHI","rawText":"EDHI 240720Z 23005KT 200V270 1300 R23/P2000N BR BKN002 14/14 Q1013","observationTime":"2019-09-24T07:20:00Z","temp":14,"dewpoint":14,"windDirection":230,"windSpeed":9.26,"visibility":0.81,"altim":29.911417,"flightCategory":"LIFR","metarType":"METAR","geometry_esri":{"x":53.53,"y":9.83,"z":13}}}