{"type":"Feature","geometry":{"type":"Point","coordinates":[53.53,9.83,13]},"properties":{"stationId":"EDHI","rawText":"EDHI 061720Z AUTO 29013KT 9999 // FEW036/// SCT041/// BKN230/// 16/10 Q1008","observationTime":"2019-07-06T17:20:00Z","temp":16,"dewpoint":10,"windDirection":290,"windSpeed":24.076,"visibility":6.21,"altim":29.763779,"flightCategory":"VFR","metarType":"METAR","geometry_esri":{"x":53.53,"y":9.83,"z":13}}}