{"type":"Feature","geometry":{"type":"Point","coordinates":[53.53,9.83,13]},"properties":{"stationId":"EDHI","rawText":"EDHI 072350Z AUTO 25007KT 9999 // FEW023/// SCT049/// OVC058/// 12/08 Q1014","observationTime":"2019-07-07T23:50:00Z","temp":12,"dewpoint":8,"windDirection":250,"windSpeed":12.964,"visibility":6.21,"altim":29.940945,"flightCategory":"VFR","metarType":"METAR","geometry_esri":{"x":53.53,"y":9.83,"z":13}}}