{"type":"Feature","geometry":{"type":"Point","coordinates":[53.53,9.83,13]},"properties":{"stationId":"EDHI","rawText":"EDHI 040350Z AUTO 20016KT 9999 // BKN043/// OVC066/// 12/08 Q0989","observationTime":"2019-03-04T03:50:00Z","temp":12,"dewpoint":8,"windDirection":200,"windSpeed":29.632,"visibility":6.21,"altim":29.202755,"flightCategory":"VFR","metarType":"METAR","geometry_esri":{"x":53.53,"y":9.83,"z":13}}}