{"type":"Feature","geometry":{"type":"Point","coordinates":[53.53,9.83,13]},"properties":{"stationId":"EDHI","rawText":"EDHI 100150Z AUTO 26015KT 9999 3500 // FEW020/// SCT200/// BKN240/// 05/02 Q1006","observationTime":"2019-03-10T01:50:00Z","temp":5,"dewpoint":2,"windDirection":260,"windSpeed":27.78,"visibility":6.21,"altim":29.704725,"flightCategory":"VFR","metarType":"METAR","geometry_esri":{"x":53.53,"y":9.83,"z":13}}}