{"type":"Feature","geometry":{"type":"Point","coordinates":[53.53,9.83,13]},"properties":{"stationId":"EDHI","rawText":"EDHI 262250Z AUTO 25012KT 8000 // BKN009/// OVC024/// 14/14 Q1005","observationTime":"2019-05-26T22:50:00Z","temp":14,"dewpoint":14,"windDirection":250,"windSpeed":22.224,"visibility":4.97,"altim":29.675198,"flightCategory":"IFR","metarType":"METAR","geometry_esri":{"x":53.53,"y":9.83,"z":13}}}