{"type":"Feature","geometry":{"type":"Point","coordinates":[53.53,9.83,13]},"properties":{"stationId":"EDHI","rawText":"EDHI 240020Z AUTO 13004KT 090V190 4700 // OVC006/// 13/12 Q1010","observationTime":"2019-10-24T00:20:00Z","temp":13,"dewpoint":12,"windDirection":130,"windSpeed":7.408,"visibility":2.92,"altim":29.822834,"flightCategory":"IFR","metarType":"METAR","geometry_esri":{"x":53.53,"y":9.83,"z":13}}}