{"type":"Feature","geometry":{"type":"Point","coordinates":[53.53,9.83,13]},"properties":{"stationId":"EDHI","rawText":"EDHI 201820Z 30003KT 240V010 9999 VCSH SCT045CB 17/13 Q1023","observationTime":"2019-08-20T18:20:00Z","temp":17,"dewpoint":13,"windDirection":300,"windSpeed":5.556,"visibility":6.21,"altim":30.206694,"flightCategory":"VFR","metarType":"METAR","geometry_esri":{"x":53.53,"y":9.83,"z":13}}}