{"type":"Feature","geometry":{"type":"Point","coordinates":[53.53,9.83,13]},"properties":{"stationId":"EDHI","rawText":"EDHI 262250Z AUTO 27008KT 9999 // SCT013/// BKN017/// OVC130/// 06/05 Q1028","observationTime":"2019-03-26T22:50:00Z","temp":6,"dewpoint":5,"windDirection":270,"windSpeed":14.816,"visibility":6.21,"altim":30.35433,"flightCategory":"MVFR","metarType":"METAR","geometry_esri":{"x":53.53,"y":9.83,"z":13}}}