{"type":"Feature","geometry":{"type":"Point","coordinates":[53.53,9.83,13]},"properties":{"stationId":"EDHI","rawText":"EDHI 131450Z 29015KT 9999 SCT022 BKN026 20/14 Q1015","observationTime":"2019-07-13T14:50:00Z","temp":20,"dewpoint":14,"windDirection":290,"windSpeed":27.78,"visibility":6.21,"altim":29.970472,"flightCategory":"MVFR","metarType":"METAR","geometry_esri":{"x":53.53,"y":9.83,"z":13}}}