{"type":"Feature","geometry":{"type":"Point","coordinates":[53.53,9.83,13]},"properties":{"stationId":"EDHI","rawText":"EDHI 011650Z 02008KT 340V040 9999 SCT008 BKN014 10/08 Q0999","observationTime":"2019-10-01T16:50:00Z","temp":10,"dewpoint":8,"windDirection":20,"windSpeed":14.816,"visibility":6.21,"altim":29.498032,"flightCategory":"MVFR","metarType":"METAR","geometry_esri":{"x":53.53,"y":9.83,"z":13}}}