{"type":"Feature","geometry":{"type":"Point","coordinates":[53.53,9.83,13]},"properties":{"stationId":"EDHI","rawText":"EDHI 130250Z AUTO 25003KT 220V280 9999 // FEW027/// SCT035/// BKN074/// 05/03 Q1012","observationTime":"2020-05-13T02:50:00Z","temp":5,"dewpoint":3,"windDirection":250,"windSpeed":5.556,"visibility":6.21,"altim":29.88189,"flightCategory":"VFR","metarType":"METAR","geometry_esri":{"x":53.53,"y":9.83,"z":13}}}