{"type":"Feature","geometry":{"type":"Point","coordinates":[53.53,9.83,13]},"properties":{"stationId":"EDHI","rawText":"EDHI 200150Z AUTO 06008KT 4800 // OVC003/// 12/11 Q1005","observationTime":"2019-05-20T01:50:00Z","temp":12,"dewpoint":11,"windDirection":60,"windSpeed":14.816,"visibility":2.98,"altim":29.675198,"flightCategory":"LIFR","metarType":"METAR","geometry_esri":{"x":53.53,"y":9.83,"z":13}}}