{"type":"Feature","geometry":{"type":"Point","coordinates":[53.53,9.83,13]},"properties":{"stationId":"EDHI","rawText":"EDHI 031220Z AUTO 30010KT 9999 // FEW027/// BKN046/// 03/M01 Q1017","observationTime":"2019-02-03T12:20:00Z","temp":3,"dewpoint":-1,"windDirection":300,"windSpeed":18.52,"visibility":6.21,"altim":30.029528,"flightCategory":"VFR","metarType":"METAR","geometry_esri":{"x":53.53,"y":9.83,"z":13}}}