{"type":"Feature","geometry":{"type":"Point","coordinates":[53.53,9.83,13]},"properties":{"stationId":"EDHI","rawText":"EDHI 030220Z AUTO VRB02KT 4000 // NCD 14/13 Q1014","observationTime":"2019-08-03T02:20:00Z","temp":14,"dewpoint":13,"windDirection":0,"windSpeed":3.704,"visibility":2.49,"altim":29.940945,"flightCategory":"IFR","metarType":"METAR","geometry_esri":{"x":53.53,"y":9.83,"z":13}}}