{"type":"Feature","geometry":{"type":"Point","coordinates":[53.53,9.83,13]},"properties":{"stationId":"EDHI","rawText":"EDHI 092250Z AUTO 23005KT 9999 R/////// // FEW023/// OVC027/// 12/10 Q1019","observationTime":"2019-07-09T22:50:00Z","temp":12,"dewpoint":10,"windDirection":230,"windSpeed":9.26,"visibility":6.21,"altim":30.088583,"flightCategory":"MVFR","metarType":"METAR","geometry_esri":{"x":53.53,"y":9.83,"z":13}}}