{"type":"Feature","geometry":{"type":"Point","coordinates":[53.53,9.83,13]},"properties":{"stationId":"EDHI","rawText":"EDHI 290220Z AUTO 24002KT 1000 0400 R23/P2000N // SCT004/// 11/10 Q1023","observationTime":"2019-06-29T02:20:00Z","temp":11,"dewpoint":10,"windDirection":240,"windSpeed":3.704,"visibility":0.62,"altim":30.206694,"flightCategory":"LIFR","metarType":"METAR","geometry_esri":{"x":53.53,"y":9.83,"z":13}}}