{"type":"Feature","geometry":{"type":"Point","coordinates":[53.53,9.83,13]},"properties":{"stationId":"EDHI","rawText":"EDHI 010420Z AUTO 10004KT 060V150 8000 // NCD 00/M01 Q1017","observationTime":"2019-11-01T04:20:00Z","temp":0,"dewpoint":-1,"windDirection":100,"windSpeed":7.408,"visibility":4.97,"altim":30.029528,"flightCategory":"MVFR","metarType":"METAR","geometry_esri":{"x":53.53,"y":9.83,"z":13}}}