{"type":"Feature","geometry":{"type":"Point","coordinates":[53.53,9.83,13]},"properties":{"stationId":"EDHI","rawText":"EDHI 181320Z 24015KT 9999 BKN018 BKN024 OVC029 05/03 Q1020","observationTime":"2020-01-18T13:20:00Z","temp":5,"dewpoint":3,"windDirection":240,"windSpeed":27.78,"visibility":6.21,"altim":30.11811,"flightCategory":"MVFR","metarType":"METAR","geometry_esri":{"x":53.53,"y":9.83,"z":13}}}