{"type":"Feature","geometry":{"type":"Point","coordinates":[53.53,9.83,13]},"properties":{"stationId":"EDHI","rawText":"EDHI 181120Z 18008KT 130V220 9999 SCT024 16/12 Q1004","observationTime":"2019-10-18T11:20:00Z","temp":16,"dewpoint":12,"windDirection":180,"windSpeed":14.816,"visibility":6.21,"altim":29.64567,"flightCategory":"VFR","metarType":"METAR","geometry_esri":{"x":53.53,"y":9.83,"z":13}}}