{"type":"Feature","geometry":{"type":"Point","coordinates":[53.53,9.83,13]},"properties":{"stationId":"EDHI","rawText":"EDHI 091650Z AUTO 21003KT 170V260 5000 // SCT017/// 04/03 Q1007","observationTime":"2019-11-09T16:50:00Z","temp":4,"dewpoint":3,"windDirection":210,"windSpeed":5.556,"visibility":3.11,"altim":29.734253,"flightCategory":"MVFR","metarType":"METAR","geometry_esri":{"x":53.53,"y":9.83,"z":13}}}