{"type":"Feature","geometry":{"type":"Point","coordinates":[53.53,9.83,13]},"properties":{"stationId":"EDHI","rawText":"EDHI 102050Z AUTO 32015G25KT 290V350 9999 // OVC008/// 02/01 Q0989","observationTime":"2019-02-10T20:50:00Z","temp":2,"dewpoint":1,"windDirection":320,"windSpeed":27.78,"visibility":6.21,"altim":29.202755,"flightCategory":"IFR","metarType":"METAR","geometry_esri":{"x":53.53,"y":9.83,"z":13}}}