{"type":"Feature","geometry":{"type":"Point","coordinates":[53.53,9.83,13]},"properties":{"stationId":"EDHI","rawText":"EDHI 240350Z AUTO 05005KT 9999 // NCD 16/12 Q1024","observationTime":"2019-08-24T03:50:00Z","temp":16,"dewpoint":12,"windDirection":50,"windSpeed":9.26,"visibility":6.21,"altim":30.236221,"flightCategory":"VFR","metarType":"METAR","geometry_esri":{"x":53.53,"y":9.83,"z":13}}}