{"type":"Feature","geometry":{"type":"Point","coordinates":[53.53,9.83,13]},"properties":{"stationId":"EDHI","rawText":"EDHI 201550Z 08013G23KT 040V130 CAVOK 16/M01 Q1024","observationTime":"2020-04-20T15:50:00Z","temp":16,"dewpoint":-1,"windDirection":80,"windSpeed":24.076,"visibility":6.21,"altim":30.236221,"flightCategory":"VFR","metarType":"METAR","geometry_esri":{"x":53.53,"y":9.83,"z":13}}}