{"type":"Feature","geometry":{"type":"Point","coordinates":[53.53,9.83,13]},"properties":{"stationId":"EDHI","rawText":"EDHI 230820Z 14005KT 100V180 CAVOK M00/M04 Q1042","observationTime":"2019-02-23T08:20:00Z","temp":0,"dewpoint":-4,"windDirection":140,"windSpeed":9.26,"visibility":6.21,"altim":30.767717,"flightCategory":"VFR","metarType":"METAR","geometry_esri":{"x":53.53,"y":9.83,"z":13}}}