{"type":"Feature","geometry":{"type":"Point","coordinates":[53.53,9.83,13]},"properties":{"stationId":"EDHI","rawText":"EDHI 111850Z AUTO 32010KT 290V350 9999 // FEW082/// 09/M01 Q1012","observationTime":"2020-05-11T18:50:00Z","temp":9,"dewpoint":-1,"windDirection":320,"windSpeed":18.52,"visibility":6.21,"altim":29.88189,"flightCategory":"VFR","metarType":"METAR","geometry_esri":{"x":53.53,"y":9.83,"z":13}}}