{"type":"Feature","geometry":{"type":"Point","coordinates":[53.53,9.83,13]},"properties":{"stationId":"EDHI","rawText":"EDHI 150820Z 08005KT 050V120 CAVOK 14/12 Q1005","observationTime":"2019-10-15T08:20:00Z","temp":14,"dewpoint":12,"windDirection":80,"windSpeed":9.26,"visibility":6.21,"altim":29.675198,"flightCategory":"VFR","metarType":"METAR","geometry_esri":{"x":53.53,"y":9.83,"z":13}}}