{"type":"Feature","geometry":{"type":"Point","coordinates":[53.53,9.83,13]},"properties":{"stationId":"EDHI","rawText":"EDHI 210420Z AUTO 23007KT 6000 // SCT009/// 16/15 Q1013","observationTime":"2019-07-21T04:20:00Z","temp":16,"dewpoint":15,"windDirection":230,"windSpeed":12.964,"visibility":3.73,"altim":29.911417,"flightCategory":"MVFR","metarType":"METAR","geometry_esri":{"x":53.53,"y":9.83,"z":13}}}