{"type":"Feature","geometry":{"type":"Point","coordinates":[53.53,9.83,13]},"properties":{"stationId":"EDHI","rawText":"EDHI 020750Z 26009KT 9999 VCSH FEW049CB 10/07 Q1004","observationTime":"2019-10-02T07:50:00Z","temp":10,"dewpoint":7,"windDirection":260,"windSpeed":16.668,"visibility":6.21,"altim":29.64567,"flightCategory":"VFR","metarType":"METAR","geometry_esri":{"x":53.53,"y":9.83,"z":13}}}