{"type":"Feature","geometry":{"type":"Point","coordinates":[53.53,9.83,13]},"properties":{"stationId":"EDHI","rawText":"EDHI 042020Z AUTO 08006KT 040V120 9999 // BKN010/// OVC140/// 09/08 Q1006","observationTime":"2019-10-04T20:20:00Z","temp":9,"dewpoint":8,"windDirection":80,"windSpeed":11.112,"visibility":6.21,"altim":29.704725,"flightCategory":"MVFR","metarType":"METAR","geometry_esri":{"x":53.53,"y":9.83,"z":13}}}