{"type":"Feature","geometry":{"type":"Point","coordinates":[53.53,9.83,13]},"properties":{"stationId":"EDHI","rawText":"EDHI 011920Z 23003KT CAVOK 21/13 Q1015","observationTime":"2019-08-01T19:20:00Z","temp":21,"dewpoint":13,"windDirection":230,"windSpeed":5.556,"visibility":6.21,"altim":29.970472,"flightCategory":"VFR","metarType":"METAR","geometry_esri":{"x":53.53,"y":9.83,"z":13}}}