{"type":"Feature","geometry":{"type":"Point","coordinates":[53.53,9.83,13]},"properties":{"stationId":"EDHI","rawText":"EDHI 291220Z 03008KT 9999 FEW028 09/03 Q1026","observationTime":"2019-10-29T12:20:00Z","temp":9,"dewpoint":3,"windDirection":30,"windSpeed":14.816,"visibility":6.21,"altim":30.295275,"flightCategory":"VFR","metarType":"METAR","geometry_esri":{"x":53.53,"y":9.83,"z":13}}}