{"type":"Feature","geometry":{"type":"Point","coordinates":[53.53,9.83,13]},"properties":{"stationId":"EDHI","rawText":"EDHI 190520Z 10003KT 070V140 CAVOK 20/16 Q1009","observationTime":"2019-06-19T05:20:00Z","temp":20,"dewpoint":16,"windDirection":100,"windSpeed":5.556,"visibility":6.21,"altim":29.793306,"flightCategory":"VFR","metarType":"METAR","geometry_esri":{"x":53.53,"y":9.83,"z":13}}}