{"type":"Feature","geometry":{"type":"Point","coordinates":[53.53,9.83,13]},"properties":{"stationId":"EDHI","rawText":"EDHI 011850Z 24003KT CAVOK 22/12 Q1015","observationTime":"2019-08-01T18:50:00Z","temp":22,"dewpoint":12,"windDirection":240,"windSpeed":5.556,"visibility":6.21,"altim":29.970472,"flightCategory":"VFR","metarType":"METAR","geometry_esri":{"x":53.53,"y":9.83,"z":13}}}