{"type":"Feature","geometry":{"type":"Point","coordinates":[53.53,9.83,13]},"properties":{"stationId":"EDHI","rawText":"EDHI 091820Z 26005KT 230V290 9999 SCT009 BKN046 11/10 Q1002","observationTime":"2019-10-09T18:20:00Z","temp":11,"dewpoint":10,"windDirection":260,"windSpeed":9.26,"visibility":6.21,"altim":29.586615,"flightCategory":"VFR","metarType":"METAR","geometry_esri":{"x":53.53,"y":9.83,"z":13}}}