{"type":"Feature","geometry":{"type":"Point","coordinates":[53.53,9.83,13]},"properties":{"stationId":"EDHI","rawText":"EDHI 201820Z 18004KT 140V210 9999 FEW023 SCT039 BKN053 06/05 Q1010","observationTime":"2018-12-20T18:20:00Z","temp":6,"dewpoint":5,"windDirection":180,"windSpeed":7.408,"visibility":6.21,"altim":29.822834,"flightCategory":"VFR","metarType":"METAR","geometry_esri":{"x":53.53,"y":9.83,"z":13}}}