{"type":"Feature","geometry":{"type":"Point","coordinates":[53.53,9.83,13]},"properties":{"stationId":"EDHI","rawText":"EDHI 260520Z AUTO 20005KT 160V240 5000 // BKN006/// OVC020/// 01/M00 Q1018","observationTime":"2020-01-26T05:20:00Z","temp":1,"dewpoint":0,"windDirection":200,"windSpeed":9.26,"visibility":3.11,"altim":30.059055,"flightCategory":"IFR","metarType":"METAR","geometry_esri":{"x":53.53,"y":9.83,"z":13}}}