{"type":"Feature","geometry":{"type":"Point","coordinates":[53.53,9.83,13]},"properties":{"stationId":"EDHI","rawText":"EDHI 190450Z AUTO 05006KT 9999 // NCD 06/02 Q1022","observationTime":"2020-04-19T04:50:00Z","temp":6,"dewpoint":2,"windDirection":50,"windSpeed":11.112,"visibility":6.21,"altim":30.177166,"flightCategory":"VFR","metarType":"METAR","geometry_esri":{"x":53.53,"y":9.83,"z":13}}}