{"type":"Feature","geometry":{"type":"Point","coordinates":[53.53,9.83,13]},"properties":{"stationId":"EDHI","rawText":"EDHI 270720Z 26011KT 9999 FEW017 SCT023 15/10 Q1006","observationTime":"2019-05-27T07:20:00Z","temp":15,"dewpoint":10,"windDirection":260,"windSpeed":20.372,"visibility":6.21,"altim":29.704725,"flightCategory":"VFR","metarType":"METAR","geometry_esri":{"x":53.53,"y":9.83,"z":13}}}