{"type":"Feature","geometry":{"type":"Point","coordinates":[53.53,9.83,13]},"properties":{"stationId":"EDHI","rawText":"EDHI 080750Z 26010KT 9999 DZ FEW011 SCT017 BKN029 13/11 Q1015","observationTime":"2019-07-08T07:50:00Z","temp":13,"dewpoint":11,"windDirection":260,"windSpeed":18.52,"visibility":6.21,"altim":29.970472,"flightCategory":"MVFR","metarType":"METAR","geometry_esri":{"x":53.53,"y":9.83,"z":13}}}