{"type":"Feature","geometry":{"type":"Point","coordinates":[53.53,9.83,13]},"properties":{"stationId":"EDHI","rawText":"EDHI 302120Z AUTO 11005KT 060V160 9999 // NCD 21/14 Q1012","observationTime":"2019-07-30T21:20:00Z","temp":21,"dewpoint":14,"windDirection":110,"windSpeed":9.26,"visibility":6.21,"altim":29.88189,"flightCategory":"VFR","metarType":"METAR","geometry_esri":{"x":53.53,"y":9.83,"z":13}}}