{"type":"Feature","geometry":{"type":"Point","coordinates":[53.53,9.83,13]},"properties":{"stationId":"EDHI","rawText":"EDHI 130820Z 33008KT 290V030 9999 FEW015 SCT045 17/13 Q1027","observationTime":"2019-09-13T08:20:00Z","temp":17,"dewpoint":13,"windDirection":330,"windSpeed":14.816,"visibility":6.21,"altim":30.324802,"flightCategory":"VFR","metarType":"METAR","geometry_esri":{"x":53.53,"y":9.83,"z":13}}}