{"type":"Feature","geometry":{"type":"Point","coordinates":[53.53,9.83,13]},"properties":{"stationId":"EDHI","rawText":"EDHI 281450Z 34010KT 9999 SCT047 15/05 Q1009","observationTime":"2019-05-28T14:50:00Z","temp":15,"dewpoint":5,"windDirection":340,"windSpeed":18.52,"visibility":6.21,"altim":29.793306,"flightCategory":"VFR","metarType":"METAR","geometry_esri":{"x":53.53,"y":9.83,"z":13}}}