{"type":"Feature","geometry":{"type":"Point","coordinates":[53.53,9.83,13]},"properties":{"stationId":"EDHI","rawText":"EDHI 260450Z 25003KT CAVOK 23/18 Q1018","observationTime":"2019-06-26T04:50:00Z","temp":23,"dewpoint":18,"windDirection":250,"windSpeed":5.556,"visibility":6.21,"altim":30.059055,"flightCategory":"VFR","metarType":"METAR","geometry_esri":{"x":53.53,"y":9.83,"z":13}}}