{"type":"Feature","geometry":{"type":"Point","coordinates":[53.53,9.83,13]},"properties":{"stationId":"EDHI","rawText":"EDHI 120620Z VRB02KT 8000 BKN006 15/14 Q1023","observationTime":"2019-09-12T06:20:00Z","temp":15,"dewpoint":14,"windDirection":0,"windSpeed":3.704,"visibility":4.97,"altim":30.206694,"flightCategory":"IFR","metarType":"METAR","geometry_esri":{"x":53.53,"y":9.83,"z":13}}}