{"type":"Feature","geometry":{"type":"Point","coordinates":[53.53,9.83,13]},"properties":{"stationId":"EDHI","rawText":"EDHI 102020Z 32013G27KT 270V340 9000 -RA SCT021 BKN024 OVC027 06/03 Q1012","observationTime":"2018-12-10T20:20:00Z","temp":6,"dewpoint":3,"windDirection":320,"windSpeed":24.076,"visibility":5.59,"altim":29.88189,"skyCondition1a":"SCT","skyCondition1b":2100,"skyCondition2a":"BKN","skyCondition2b":2400,"flightCategory":"MVFR","metarType":"METAR","geometry_esri":{"x":53.53,"y":9.83,"z":13}}}