{"type":"Feature","geometry":{"type":"Point","coordinates":[53.53,9.83,13]},"properties":{"stationId":"EDHI","rawText":"EDHI 300520Z 31021G32KT 280V340 9999 -RA FEW010 BKN016 13/11 Q0992","observationTime":"2019-09-30T05:20:00Z","temp":13,"dewpoint":11,"windDirection":310,"windSpeed":38.892,"visibility":6.21,"altim":29.291338,"flightCategory":"MVFR","metarType":"METAR","geometry_esri":{"x":53.53,"y":9.83,"z":13}}}