{"type":"Feature","geometry":{"type":"Point","coordinates":[53.53,9.83,13]},"properties":{"stationId":"EDHI","rawText":"EDHI 081750Z 04016KT CAVOK 09/01 Q1013","observationTime":"2019-04-08T17:50:00Z","temp":9,"dewpoint":1,"windDirection":40,"windSpeed":29.632,"visibility":6.21,"altim":29.911417,"flightCategory":"VFR","metarType":"METAR","geometry_esri":{"x":53.53,"y":9.83,"z":13}}}