{"type":"Feature","geometry":{"type":"Point","coordinates":[53.53,9.83,13]},"properties":{"stationId":"EDHI","rawText":"EDHI 052050Z AUTO 21011KT 5000 // OVC007/// 03/02 Q1013","observationTime":"2019-12-05T20:50:00Z","temp":3,"dewpoint":2,"windDirection":210,"windSpeed":20.372,"visibility":3.11,"altim":29.911417,"flightCategory":"IFR","metarType":"METAR","geometry_esri":{"x":53.53,"y":9.83,"z":13}}}