{"type":"Feature","geometry":{"type":"Point","coordinates":[53.53,9.83,13]},"properties":{"stationId":"EDHI","rawText":"EDHI 230850Z 09014G24KT 060V140 CAVOK 16/03 Q1008","observationTime":"2019-04-23T08:50:00Z","temp":16,"dewpoint":3,"windDirection":90,"windSpeed":25.928,"visibility":6.21,"altim":29.763779,"flightCategory":"VFR","metarType":"METAR","geometry_esri":{"x":53.53,"y":9.83,"z":13}}}