{"type":"Feature","geometry":{"type":"Point","coordinates":[53.53,9.83,13]},"properties":{"stationId":"EDHI","rawText":"EDHI 181820Z AUTO 21005KT 190V250 9999 // FEW040/// 17/14 Q1006","observationTime":"2019-08-18T18:20:00Z","temp":17,"dewpoint":14,"windDirection":210,"windSpeed":9.26,"visibility":6.21,"altim":29.704725,"flightCategory":"VFR","metarType":"METAR","geometry_esri":{"x":53.53,"y":9.83,"z":13}}}