{"type":"Feature","geometry":{"type":"Point","coordinates":[53.53,9.83,13]},"properties":{"stationId":"EDHI","rawText":"EDHI 061350Z AUTO 27014KT 7000 // BKN009/// BKN014/// OVC039/// 16/14 Q1007","observationTime":"2019-07-06T13:50:00Z","temp":16,"dewpoint":14,"windDirection":270,"windSpeed":25.928,"visibility":4.35,"altim":29.734253,"flightCategory":"IFR","metarType":"METAR","geometry_esri":{"x":53.53,"y":9.83,"z":13}}}