{"type":"Feature","geometry":{"type":"Point","coordinates":[53.53,9.83,13]},"properties":{"stationId":"EDHI","rawText":"EDHI 102250Z AUTO 05008KT 6000 // FEW008/// SCT045/// OVC051/// 16/15 Q1010","observationTime":"2019-06-10T22:50:00Z","temp":16,"dewpoint":15,"windDirection":50,"windSpeed":14.816,"visibility":3.73,"altim":29.822834,"flightCategory":"MVFR","metarType":"METAR","geometry_esri":{"x":53.53,"y":9.83,"z":13}}}