{"type":"Feature","geometry":{"type":"Point","coordinates":[53.53,9.83,13]},"properties":{"stationId":"EDHI","rawText":"EDHI 020350Z AUTO 25005KT 9000 // SCT079/// BKN250/// 08/07 Q1001","observationTime":"2019-10-02T03:50:00Z","temp":8,"dewpoint":7,"windDirection":250,"windSpeed":9.26,"visibility":5.59,"altim":29.557087,"flightCategory":"VFR","metarType":"METAR","geometry_esri":{"x":53.53,"y":9.83,"z":13}}}