{"type":"Feature","geometry":{"type":"Point","coordinates":[53.53,9.83,13]},"properties":{"stationId":"EDHI","rawText":"EDHI 141520Z 28015KT 9999 FEW037 08/01 Q1023","observationTime":"2020-04-14T15:20:00Z","temp":8,"dewpoint":1,"windDirection":280,"windSpeed":27.78,"visibility":6.21,"altim":30.206694,"flightCategory":"VFR","metarType":"METAR","geometry_esri":{"x":53.53,"y":9.83,"z":13}}}