{"type":"Feature","geometry":{"type":"Point","coordinates":[53.53,9.83,13]},"properties":{"stationId":"EDHI","rawText":"EDHI 180050Z AUTO 19008KT 150V220 9999 3400 // SCT010/// BKN014/// OVC023/// 14/13 Q1008","observationTime":"2019-10-18T00:50:00Z","temp":14,"dewpoint":13,"windDirection":190,"windSpeed":14.816,"visibility":6.21,"altim":29.763779,"flightCategory":"MVFR","metarType":"METAR","geometry_esri":{"x":53.53,"y":9.83,"z":13}}}