{"type":"Feature","geometry":{"type":"Point","coordinates":[53.53,9.83,13]},"properties":{"stationId":"EDHI","rawText":"EDHI 221720Z 29006KT 9999 FEW017 BKN021 06/05 Q1033","observationTime":"2020-01-22T17:20:00Z","temp":6,"dewpoint":5,"windDirection":290,"windSpeed":11.112,"visibility":6.21,"altim":30.501968,"flightCategory":"MVFR","metarType":"METAR","geometry_esri":{"x":53.53,"y":9.83,"z":13}}}