{"type":"Feature","geometry":{"type":"Point","coordinates":[53.53,9.83,13]},"properties":{"stationId":"EDHI","rawText":"EDHI 120120Z AUTO 05015G27KT 3600 // FEW008/// SCT069/// OVC099/// 17/16 Q1009","observationTime":"2019-06-12T01:20:00Z","temp":17,"dewpoint":16,"windDirection":50,"windSpeed":27.78,"visibility":2.24,"altim":29.793306,"flightCategory":"IFR","metarType":"METAR","geometry_esri":{"x":53.53,"y":9.83,"z":13}}}