{"type":"Feature","geometry":{"type":"Point","coordinates":[53.53,9.83,13]},"properties":{"stationId":"EDHI","rawText":"EDHI 210050Z AUTO 21007KT 180V240 9999 // FEW019/// SCT062/// 16/15 Q1012","observationTime":"2019-07-21T00:50:00Z","temp":16,"dewpoint":15,"windDirection":210,"windSpeed":12.964,"visibility":6.21,"altim":29.88189,"flightCategory":"VFR","metarType":"METAR","geometry_esri":{"x":53.53,"y":9.83,"z":13}}}