{"type":"Feature","geometry":{"type":"Point","coordinates":[53.53,9.83,13]},"properties":{"stationId":"EDHI","rawText":"EDHI 310220Z AUTO VRB02KT 3800 // FEW001/// M00/M00 Q1028","observationTime":"2019-10-31T02:20:00Z","temp":0,"dewpoint":0,"windDirection":0,"windSpeed":3.704,"visibility":2.36,"altim":30.35433,"flightCategory":"IFR","metarType":"METAR","geometry_esri":{"x":53.53,"y":9.83,"z":13}}}