{"type":"Feature","geometry":{"type":"Point","coordinates":[53.53,9.83,13]},"properties":{"stationId":"EDHI","rawText":"EDHI 240220Z AUTO 25004KT 9999 // OVC180/// 10/04 Q1012","observationTime":"2020-04-24T02:20:00Z","temp":10,"dewpoint":4,"windDirection":250,"windSpeed":7.408,"visibility":6.21,"altim":29.88189,"flightCategory":"VFR","metarType":"SPECI","geometry_esri":{"x":53.53,"y":9.83,"z":13}}}