{"type":"Feature","geometry":{"type":"Point","coordinates":[53.53,9.83,13]},"properties":{"stationId":"EDHI","rawText":"EDHI 220650Z 29004KT 6000 -DZ FEW006 SCT008 BKN016 06/05 Q1004","observationTime":"2018-12-22T06:50:00Z","temp":6,"dewpoint":5,"windDirection":290,"windSpeed":7.408,"visibility":3.73,"altim":29.64567,"flightCategory":"MVFR","metarType":"METAR","geometry_esri":{"x":53.53,"y":9.83,"z":13}}}