{"type":"Feature","geometry":{"type":"Point","coordinates":[53.53,9.83,13]},"properties":{"stationId":"EDHI","rawText":"EDHI 261520Z AUTO 15005KT 100V180 9000 // BKN006/// OVC100/// 02/02 Q1015","observationTime":"2020-01-26T15:20:00Z","temp":2,"dewpoint":2,"windDirection":150,"windSpeed":9.26,"visibility":5.59,"altim":29.970472,"flightCategory":"IFR","metarType":"METAR","geometry_esri":{"x":53.53,"y":9.83,"z":13}}}