{"type":"Feature","geometry":{"type":"Point","coordinates":[53.53,9.83,13]},"properties":{"stationId":"EDHI","rawText":"EDHI 310120Z AUTO 10003KT 040V180 9999 // FEW062/// OVC071/// 18/17 Q1012","observationTime":"2019-07-31T01:20:00Z","temp":18,"dewpoint":17,"windDirection":100,"windSpeed":5.556,"visibility":6.21,"altim":29.88189,"flightCategory":"VFR","metarType":"METAR","geometry_esri":{"x":53.53,"y":9.83,"z":13}}}