{"type":"Feature","geometry":{"type":"Point","coordinates":[53.53,9.83,13]},"properties":{"stationId":"EDHI","rawText":"EDHI 060420Z AUTO 25003KT 1100 0900 R23/1000D // SCT002/// OVC005/// 05/05 Q1027","observationTime":"2019-01-06T04:20:00Z","temp":5,"dewpoint":5,"windDirection":250,"windSpeed":5.556,"visibility":0.68,"altim":30.324802,"flightCategory":"LIFR","metarType":"METAR","geometry_esri":{"x":53.53,"y":9.83,"z":13}}}