{"type":"Feature","geometry":{"type":"Point","coordinates":[53.53,9.83,13]},"properties":{"stationId":"EDHI","rawText":"EDHI 272020Z AUTO 07008KT 040V100 9999 // BKN095/// 22/15 Q1005","observationTime":"2019-07-27T20:20:00Z","temp":22,"dewpoint":15,"windDirection":70,"windSpeed":14.816,"visibility":6.21,"altim":29.675198,"flightCategory":"VFR","metarType":"METAR","geometry_esri":{"x":53.53,"y":9.83,"z":13}}}