{"type":"Feature","geometry":{"type":"Point","coordinates":[53.53,9.83,13]},"properties":{"stationId":"EDHI","rawText":"EDHI 230420Z AUTO 10012G22KT 070V140 7000 // OVC010/// 08/06 Q1006","observationTime":"2019-11-23T04:20:00Z","temp":8,"dewpoint":6,"windDirection":100,"windSpeed":22.224,"visibility":4.35,"altim":29.704725,"flightCategory":"MVFR","metarType":"METAR","geometry_esri":{"x":53.53,"y":9.83,"z":13}}}