{"type":"Feature","geometry":{"type":"Point","coordinates":[53.53,9.83,13]},"properties":{"stationId":"EDHI","rawText":"EDHI 291050Z AUTO 18007KT 140V240 9999 // OVC010/// 13/12 Q0999","observationTime":"2019-09-29T10:50:00Z","temp":13,"dewpoint":12,"windDirection":180,"windSpeed":12.964,"visibility":6.21,"altim":29.498032,"flightCategory":"MVFR","metarType":"METAR","geometry_esri":{"x":53.53,"y":9.83,"z":13}}}