{"type":"Feature","geometry":{"type":"Point","coordinates":[53.53,9.83,13]},"properties":{"stationId":"EDHI","rawText":"EDHI 010950Z 26011KT 230V290 2200 -RA BR SCT005 OVC007 10/10 Q0998","observationTime":"2020-02-01T09:50:00Z","temp":10,"dewpoint":10,"windDirection":260,"windSpeed":20.372,"visibility":1.37,"altim":29.468504,"flightCategory":"IFR","metarType":"METAR","geometry_esri":{"x":53.53,"y":9.83,"z":13}}}