{"type":"Feature","geometry":{"type":"Point","coordinates":[53.53,9.83,13]},"properties":{"stationId":"EDHI","rawText":"EDHI 120950Z 36005KT 330V040 9999 FEW036 BKN054 04/02 Q1027","observationTime":"2018-12-12T09:50:00Z","temp":4,"dewpoint":2,"windDirection":360,"windSpeed":9.26,"visibility":6.21,"altim":30.324802,"skyCondition1a":"FEW","skyCondition1b":3600,"skyCondition2a":"BKN","skyCondition2b":5400,"flightCategory":"VFR","metarType":"METAR","geometry_esri":{"x":53.53,"y":9.83,"z":13}}}