{"type":"Feature","geometry":{"type":"Point","coordinates":[53.53,9.83,13]},"properties":{"stationId":"EDHI","rawText":"EDHI 160020Z AUTO 06005KT 040V100 5000 // FEW010/// SCT150/// BKN230/// 06/05 Q1004","observationTime":"2019-11-16T00:20:00Z","temp":6,"dewpoint":5,"windDirection":60,"windSpeed":9.26,"visibility":3.11,"altim":29.64567,"flightCategory":"MVFR","metarType":"METAR","geometry_esri":{"x":53.53,"y":9.83,"z":13}}}