{"type":"Feature","geometry":{"type":"Point","coordinates":[53.53,9.83,13]},"properties":{"stationId":"EDHI","rawText":"EDHI 131920Z AUTO 24019KT 2900 // BKN011/// OVC018/// 06/05 Q0994","observationTime":"2019-03-13T19:20:00Z","temp":6,"dewpoint":5,"windDirection":240,"windSpeed":35.188,"visibility":1.8,"altim":29.350393,"flightCategory":"IFR","metarType":"SPECI","geometry_esri":{"x":53.53,"y":9.83,"z":13}}}