{"type":"Feature","geometry":{"type":"Point","coordinates":[53.53,9.83,13]},"properties":{"stationId":"EDHI","rawText":"EDHI 180750Z 20004KT 170V240 7000 FEW009 BKN015 05/04 Q1023","observationTime":"2018-12-18T07:50:00Z","temp":5,"dewpoint":4,"windDirection":200,"windSpeed":7.408,"visibility":4.35,"altim":30.206694,"flightCategory":"MVFR","metarType":"SPECI","geometry_esri":{"x":53.53,"y":9.83,"z":13}}}