{"type":"Feature","geometry":{"type":"Point","coordinates":[53.53,9.83,13]},"properties":{"stationId":"EDHI","rawText":"EDHI 260750Z AUTO 20003KT 140V240 7000 // FEW007/// OVC020/// 01/M00 Q1018","observationTime":"2020-01-26T07:50:00Z","temp":1,"dewpoint":0,"windDirection":200,"windSpeed":5.556,"visibility":4.35,"altim":30.059055,"flightCategory":"MVFR","metarType":"METAR","geometry_esri":{"x":53.53,"y":9.83,"z":13}}}