{"type":"Feature","geometry":{"type":"Point","coordinates":[53.53,9.83,13]},"properties":{"stationId":"EDHI","rawText":"EDHI 142350Z AUTO 22017G28KT 180V240 9999 // BKN029/// OVC065/// 11/08 Q1005","observationTime":"2020-01-14T23:50:00Z","temp":11,"dewpoint":8,"windDirection":220,"windSpeed":31.484,"visibility":6.21,"altim":29.675198,"flightCategory":"MVFR","metarType":"METAR","geometry_esri":{"x":53.53,"y":9.83,"z":13}}}