{"type":"Feature","geometry":{"type":"Point","coordinates":[53.53,9.83,13]},"properties":{"stationId":"EDHI","rawText":"EDHI 251220Z 12004KT 070V160 2600 -RA BR BKN004 OVC007 14/14 Q1005","observationTime":"2019-09-25T12:20:00Z","temp":14,"dewpoint":14,"windDirection":120,"windSpeed":7.408,"visibility":1.62,"altim":29.675198,"flightCategory":"LIFR","metarType":"METAR","geometry_esri":{"x":53.53,"y":9.83,"z":13}}}