{"type":"Feature","geometry":{"type":"Point","coordinates":[53.53,9.83,13]},"properties":{"stationId":"EDHI","rawText":"EDHI 071520Z AUTO 28015KT 9999 // FEW050/// OVC067/// 15/08 Q1013","observationTime":"2019-07-07T15:20:00Z","temp":15,"dewpoint":8,"windDirection":280,"windSpeed":27.78,"visibility":6.21,"altim":29.911417,"flightCategory":"VFR","metarType":"METAR","geometry_esri":{"x":53.53,"y":9.83,"z":13}}}