{"type":"Feature","geometry":{"type":"Point","coordinates":[53.53,9.83,13]},"properties":{"stationId":"EDHI","rawText":"EDHI 180620Z 29010KT CAVOK 11/08 Q1022","observationTime":"2019-09-18T06:20:00Z","temp":11,"dewpoint":8,"windDirection":290,"windSpeed":18.52,"visibility":6.21,"altim":30.177166,"flightCategory":"VFR","metarType":"METAR","geometry_esri":{"x":53.53,"y":9.83,"z":13}}}