{"type":"Feature","geometry":{"type":"Point","coordinates":[53.53,9.83,13]},"properties":{"stationId":"EDHI","rawText":"EDHI 191550Z AUTO 06014KT 030V110 9999 // NCD 13/M03 Q1024","observationTime":"2020-04-19T15:50:00Z","temp":13,"dewpoint":-3,"windDirection":60,"windSpeed":25.928,"visibility":6.21,"altim":30.236221,"flightCategory":"VFR","metarType":"METAR","geometry_esri":{"x":53.53,"y":9.83,"z":13}}}