{"type":"Feature","geometry":{"type":"Point","coordinates":[53.53,9.83,13]},"properties":{"stationId":"EDHI","rawText":"EDHI 191350Z 35004KT 260V050 9999 SCT030 10/03 Q1026","observationTime":"2020-03-19T13:50:00Z","temp":10,"dewpoint":3,"windDirection":350,"windSpeed":7.408,"visibility":6.21,"altim":30.295275,"flightCategory":"VFR","metarType":"METAR","geometry_esri":{"x":53.53,"y":9.83,"z":13}}}