{"type":"Feature","geometry":{"type":"Point","coordinates":[53.53,9.83,13]},"properties":{"stationId":"EDHI","rawText":"EDHI 200850Z 08009KT 050V110 CAVOK 12/M01 Q1027","observationTime":"2020-04-20T08:50:00Z","temp":12,"dewpoint":-1,"windDirection":80,"windSpeed":16.668,"visibility":6.21,"altim":30.324802,"flightCategory":"VFR","metarType":"METAR","geometry_esri":{"x":53.53,"y":9.83,"z":13}}}