{"type":"Feature","geometry":{"type":"Point","coordinates":[53.53,9.83,13]},"properties":{"stationId":"EDHI","rawText":"EDHI 021020Z 25011KT 9999 FEW023 OVC028 05/M01 Q1014","observationTime":"2019-03-02T10:20:00Z","temp":5,"dewpoint":-1,"windDirection":250,"windSpeed":20.372,"visibility":6.21,"altim":29.940945,"flightCategory":"MVFR","metarType":"METAR","geometry_esri":{"x":53.53,"y":9.83,"z":13}}}