{"type":"Feature","geometry":{"type":"Point","coordinates":[53.53,9.83,13]},"properties":{"stationId":"EDHI","rawText":"EDHI 070620Z 27014KT 8000 -DZ OVC008 06/05 Q1028","observationTime":"2019-01-07T06:20:00Z","temp":6,"dewpoint":5,"windDirection":270,"windSpeed":25.928,"visibility":4.97,"altim":30.35433,"flightCategory":"IFR","metarType":"METAR","geometry_esri":{"x":53.53,"y":9.83,"z":13}}}