{"type":"Feature","geometry":{"type":"Point","coordinates":[53.53,9.83,13]},"properties":{"stationId":"EDHI","rawText":"EDHI 211020Z 15008KT 120V190 9999 VCSH SCT011 07/05 Q1001","observationTime":"2018-12-21T10:20:00Z","temp":7,"dewpoint":5,"windDirection":150,"windSpeed":14.816,"visibility":6.21,"altim":29.557087,"flightCategory":"VFR","metarType":"METAR","geometry_esri":{"x":53.53,"y":9.83,"z":13}}}