{"type":"Feature","geometry":{"type":"Point","coordinates":[53.53,9.83,13]},"properties":{"stationId":"EDHI","rawText":"EDHI 270550Z 25007KT 8000 BKN009 14/13 Q1006","observationTime":"2019-09-27T05:50:00Z","temp":14,"dewpoint":13,"windDirection":250,"windSpeed":12.964,"visibility":4.97,"altim":29.704725,"flightCategory":"IFR","metarType":"METAR","geometry_esri":{"x":53.53,"y":9.83,"z":13}}}