{"type":"Feature","geometry":{"type":"Point","coordinates":[53.53,9.83,13]},"properties":{"stationId":"EDHI","rawText":"EDHI 312320Z AUTO 12004KT 090V180 9999 // NCD 01/M01 Q1022","observationTime":"2019-10-31T23:20:00Z","temp":1,"dewpoint":-1,"windDirection":120,"windSpeed":7.408,"visibility":6.21,"altim":30.177166,"flightCategory":"VFR","metarType":"METAR","geometry_esri":{"x":53.53,"y":9.83,"z":13}}}