{"type":"Feature","geometry":{"type":"Point","coordinates":[53.53,9.83,13]},"properties":{"stationId":"EDHI","rawText":"EDHI 010320Z AUTO 25004KT 0300 R23/0325N // VV001 00/M00 Q1022","observationTime":"2019-12-01T03:20:00Z","temp":0,"dewpoint":0,"windDirection":250,"windSpeed":7.408,"visibility":0.19,"altim":30.177166,"flightCategory":"LIFR","metarType":"METAR","geometry_esri":{"x":53.53,"y":9.83,"z":13}}}