{"type":"Feature","geometry":{"type":"Point","coordinates":[53.53,9.83,13]},"properties":{"stationId":"EDHI","rawText":"EDHI 212350Z AUTO 23005KT 3300 // OVC003/// M01/M01 Q1015","observationTime":"2019-01-21T23:50:00Z","temp":-1,"dewpoint":-1,"windDirection":230,"windSpeed":9.26,"visibility":2.05,"altim":29.970472,"flightCategory":"LIFR","metarType":"METAR","geometry_esri":{"x":53.53,"y":9.83,"z":13}}}