{"type":"Feature","geometry":{"type":"Point","coordinates":[53.53,9.83,13]},"properties":{"stationId":"EDHI","rawText":"EDHI 251050Z 11007KT 070V170 CAVOK 33/17 Q1017","observationTime":"2019-07-25T10:50:00Z","temp":33,"dewpoint":17,"windDirection":110,"windSpeed":12.964,"visibility":6.21,"altim":30.029528,"flightCategory":"VFR","metarType":"METAR","geometry_esri":{"x":53.53,"y":9.83,"z":13}}}