{"type":"Feature","geometry":{"type":"Point","coordinates":[53.53,9.83,13]},"properties":{"stationId":"EDHI","rawText":"EDHI 090550Z AUTO 25018KT 9999 3300 // FEW010/// SCT013/// BKN050/// 07/05 Q0999","observationTime":"2019-03-09T05:50:00Z","temp":7,"dewpoint":5,"windDirection":250,"windSpeed":33.336,"visibility":6.21,"altim":29.498032,"flightCategory":"VFR","metarType":"METAR","geometry_esri":{"x":53.53,"y":9.83,"z":13}}}