{"type":"Feature","geometry":{"type":"Point","coordinates":[53.53,9.83,13]},"properties":{"stationId":"EDHI","rawText":"EDHI 070420Z AUTO 24006KT 3500 // OVC005/// 03/03 Q1019","observationTime":"2020-01-07T04:20:00Z","temp":3,"dewpoint":3,"windDirection":240,"windSpeed":11.112,"visibility":2.17,"altim":30.088583,"flightCategory":"IFR","metarType":"METAR","geometry_esri":{"x":53.53,"y":9.83,"z":13}}}