{"type":"Feature","geometry":{"type":"Point","coordinates":[53.53,9.83,13]},"properties":{"stationId":"EDHI","rawText":"EDHI 212050Z AUTO 26025G37KT 9999 // OVC012/// 09/07 Q0994","observationTime":"2018-12-21T20:50:00Z","temp":9,"dewpoint":7,"windDirection":260,"windSpeed":46.300000000000004,"visibility":6.21,"altim":29.350393,"flightCategory":"MVFR","metarType":"METAR","geometry_esri":{"x":53.53,"y":9.83,"z":13}}}