{"type":"Feature","geometry":{"type":"Point","coordinates":[53.53,9.83,13]},"properties":{"stationId":"EDHI","rawText":"EDHI 012350Z AUTO 07006KT 4900 // BKN220/// M01/M02 Q0995","observationTime":"2019-02-01T23:50:00Z","temp":-1,"dewpoint":-2,"windDirection":70,"windSpeed":11.112,"visibility":3.04,"altim":29.379921,"flightCategory":"MVFR","metarType":"METAR","geometry_esri":{"x":53.53,"y":9.83,"z":13}}}