{"type":"Feature","geometry":{"type":"Point","coordinates":[53.53,9.83,13]},"properties":{"stationId":"EDHI","rawText":"EDHI 050850Z 30007KT 4500 BR BKN011 09/06 Q1005","observationTime":"2019-04-05T08:50:00Z","temp":9,"dewpoint":6,"windDirection":300,"windSpeed":12.964,"visibility":2.8,"altim":29.675198,"flightCategory":"IFR","metarType":"METAR","geometry_esri":{"x":53.53,"y":9.83,"z":13}}}