{"type":"Feature","geometry":{"type":"Point","coordinates":[53.53,9.83,13]},"properties":{"stationId":"EDHI","rawText":"EDHI 230550Z 26003KT 210V290 CAVOK 18/17 Q1022","observationTime":"2019-07-23T05:50:00Z","temp":18,"dewpoint":17,"windDirection":260,"windSpeed":5.556,"visibility":6.21,"altim":30.177166,"flightCategory":"VFR","metarType":"METAR","geometry_esri":{"x":53.53,"y":9.83,"z":13}}}