{"type":"Feature","geometry":{"type":"Point","coordinates":[53.53,9.83,13]},"properties":{"stationId":"EDHI","rawText":"EDHI 090650Z AUTO 00000KT 9999 // OVC076/// 12/08 Q1016","observationTime":"2020-05-09T06:50:00Z","temp":12,"dewpoint":8,"windDirection":0,"windSpeed":0,"visibility":6.21,"altim":30,"flightCategory":"VFR","metarType":"METAR","geometry_esri":{"x":53.53,"y":9.83,"z":13}}}