{"type":"Feature","geometry":{"type":"Point","coordinates":[53.53,9.83,13]},"properties":{"stationId":"EDHI","rawText":"EDHI 061320Z 08006KT 060V160 CAVOK 20/10 Q1006","observationTime":"2019-04-06T13:20:00Z","temp":20,"dewpoint":10,"windDirection":80,"windSpeed":11.112,"visibility":6.21,"altim":29.704725,"flightCategory":"VFR","metarType":"METAR","geometry_esri":{"x":53.53,"y":9.83,"z":13}}}