{"type":"Feature","geometry":{"type":"Point","coordinates":[53.53,9.83,13]},"properties":{"stationId":"EDHI","rawText":"EDHI 230920Z 22008KT 190V260 CAVOK 17/06 Q1018","observationTime":"2019-05-23T09:20:00Z","temp":17,"dewpoint":6,"windDirection":220,"windSpeed":14.816,"visibility":6.21,"altim":30.059055,"flightCategory":"VFR","metarType":"METAR","geometry_esri":{"x":53.53,"y":9.83,"z":13}}}