{"type":"Feature","geometry":{"type":"Point","coordinates":[53.53,9.83,13]},"properties":{"stationId":"EDHI","rawText":"EDHI 250950Z 25003KT 220V290 CAVOK 06/01 Q1038","observationTime":"2019-02-25T09:50:00Z","temp":6,"dewpoint":1,"windDirection":250,"windSpeed":5.556,"visibility":6.21,"altim":30.649607,"flightCategory":"VFR","metarType":"METAR","geometry_esri":{"x":53.53,"y":9.83,"z":13}}}