{"type":"Feature","geometry":{"type":"Point","coordinates":[53.53,9.83,13]},"properties":{"stationId":"EDHI","rawText":"EDHI 181620Z 33010KT 290V010 9999 SCT040TCU 14/05 Q1024","observationTime":"2019-09-18T16:20:00Z","temp":14,"dewpoint":5,"windDirection":330,"windSpeed":18.52,"visibility":6.21,"altim":30.236221,"flightCategory":"VFR","metarType":"METAR","geometry_esri":{"x":53.53,"y":9.83,"z":13}}}