{"type":"Feature","geometry":{"type":"Point","coordinates":[53.53,9.83,13]},"properties":{"stationId":"EDHI","rawText":"EDHI 301150Z AUTO 23008KT 190V270 9999 // SCT042/// 17/07 Q1020","observationTime":"2019-03-30T11:50:00Z","temp":17,"dewpoint":7,"windDirection":230,"windSpeed":14.816,"visibility":6.21,"altim":30.11811,"flightCategory":"VFR","metarType":"METAR","geometry_esri":{"x":53.53,"y":9.83,"z":13}}}