{"type":"Feature","geometry":{"type":"Point","coordinates":[53.53,9.83,13]},"properties":{"stationId":"EDHI","rawText":"EDHI 241250Z 19006KT 120V220 9000 BKN014 15/12 Q1007","observationTime":"2019-10-24T12:50:00Z","temp":15,"dewpoint":12,"windDirection":190,"windSpeed":11.112,"visibility":5.59,"altim":29.734253,"flightCategory":"MVFR","metarType":"METAR","geometry_esri":{"x":53.53,"y":9.83,"z":13}}}