{"type":"Feature","geometry":{"type":"Point","coordinates":[53.53,9.83,13]},"properties":{"stationId":"EDHI","rawText":"EDHI 121450Z 27021G32KT 9000 -SHRA FEW013CB BKN018 BKN022 04/02 Q1006","observationTime":"2020-02-12T14:50:00Z","temp":4,"dewpoint":2,"windDirection":270,"windSpeed":38.892,"visibility":5.59,"altim":29.704725,"flightCategory":"MVFR","metarType":"METAR","geometry_esri":{"x":53.53,"y":9.83,"z":13}}}