{"type":"Feature","geometry":{"type":"Point","coordinates":[53.53,9.83,13]},"properties":{"stationId":"EDHI","rawText":"EDHI 131250Z 31015KT 9999 FEW045 18/08 Q1031","observationTime":"2019-09-13T12:50:00Z","temp":18,"dewpoint":8,"windDirection":310,"windSpeed":27.78,"visibility":6.21,"altim":30.442913,"flightCategory":"VFR","metarType":"METAR","geometry_esri":{"x":53.53,"y":9.83,"z":13}}}