{"type":"Feature","geometry":{"type":"Point","coordinates":[53.53,9.83,13]},"properties":{"stationId":"EDHI","rawText":"EDHI 112220Z AUTO 23018KT 8000 2900 // FEW007/// SCT010/// OVC019/// 02/01 Q0999","observationTime":"2020-02-11T22:20:00Z","temp":2,"dewpoint":1,"windDirection":230,"windSpeed":33.336,"visibility":4.97,"altim":29.498032,"flightCategory":"MVFR","metarType":"METAR","geometry_esri":{"x":53.53,"y":9.83,"z":13}}}