{"type":"Feature","geometry":{"type":"Point","coordinates":[53.53,9.83,13]},"properties":{"stationId":"EDHI","rawText":"EDHI 121320Z 27025KT 9999 SCT051CB 08/M00 Q1005","observationTime":"2020-03-12T13:20:00Z","temp":8,"dewpoint":0,"windDirection":270,"windSpeed":46.300000000000004,"visibility":6.21,"altim":29.675198,"flightCategory":"VFR","metarType":"METAR","geometry_esri":{"x":53.53,"y":9.83,"z":13}}}