{"type":"Feature","geometry":{"type":"Point","coordinates":[53.53,9.83,13]},"properties":{"stationId":"EDHI","rawText":"EDHI 161820Z 14003KT 100V170 9999 FEW040 12/10 Q1008","observationTime":"2019-10-16T18:20:00Z","temp":12,"dewpoint":10,"windDirection":140,"windSpeed":5.556,"visibility":6.21,"altim":29.763779,"flightCategory":"VFR","metarType":"METAR","geometry_esri":{"x":53.53,"y":9.83,"z":13}}}