{"type":"Feature","geometry":{"type":"Point","coordinates":[53.53,9.83,13]},"properties":{"stationId":"EDHI","rawText":"EDHI 060650Z 24009KT 9999 -RA STC040 BKN045 15/13 Q1008","observationTime":"2019-07-06T06:50:00Z","temp":15,"dewpoint":13,"windDirection":240,"windSpeed":16.668,"visibility":6.21,"altim":29.763779,"flightCategory":"VFR","metarType":"METAR","geometry_esri":{"x":53.53,"y":9.83,"z":13}}}