{"type":"Feature","geometry":{"type":"Point","coordinates":[53.53,9.83,13]},"properties":{"stationId":"EDHI","rawText":"EDHI 071350Z AUTO 30011KT 270V340 9999 R/////// // SCT046/// OVC059/// 15/08 Q1012","observationTime":"2019-07-07T13:50:00Z","temp":15,"dewpoint":8,"windDirection":300,"windSpeed":20.372,"visibility":6.21,"altim":29.88189,"flightCategory":"VFR","metarType":"METAR","geometry_esri":{"x":53.53,"y":9.83,"z":13}}}