{"type":"Feature","geometry":{"type":"Point","coordinates":[53.53,9.83,13]},"properties":{"stationId":"EDHI","rawText":"EDHI 181720Z 22010KT 9999 FEW037 SCT046 12/08 Q1005","observationTime":"2019-10-18T17:20:00Z","temp":12,"dewpoint":8,"windDirection":220,"windSpeed":18.52,"visibility":6.21,"altim":29.675198,"flightCategory":"VFR","metarType":"METAR","geometry_esri":{"x":53.53,"y":9.83,"z":13}}}