{"type":"Feature","geometry":{"type":"Point","coordinates":[53.53,9.83,13]},"properties":{"stationId":"EDHI","rawText":"EDHI 011820Z AUTO 29021KT 9999 // FEW024/// SCT031/// OVC038/// 05/00 Q1018","observationTime":"2019-01-01T18:20:00Z","temp":5,"dewpoint":0,"windDirection":290,"windSpeed":38.892,"visibility":6.21,"altim":30.059055,"flightCategory":"VFR","metarType":"METAR","geometry_esri":{"x":53.53,"y":9.83,"z":13}}}