{"type":"Feature","geometry":{"type":"Point","coordinates":[53.53,9.83,13]},"properties":{"stationId":"EDHI","rawText":"EDHI 070050Z AUTO 23004KT 190V260 0550 0450 R23/1400D // FEW002/// BKN004/// 03/03 Q1002","observationTime":"2019-11-07T00:50:00Z","temp":3,"dewpoint":3,"windDirection":230,"windSpeed":7.408,"visibility":0.34,"altim":29.586615,"flightCategory":"LIFR","metarType":"METAR","geometry_esri":{"x":53.53,"y":9.83,"z":13}}}