{"type":"Feature","geometry":{"type":"Point","coordinates":[53.53,9.83,13]},"properties":{"stationId":"EDHI","rawText":"EDHI 151020Z 09009KT 060V120 9999 BKN031 20/18 Q1008","observationTime":"2019-06-15T10:20:00Z","temp":20,"dewpoint":18,"windDirection":90,"windSpeed":16.668,"visibility":6.21,"altim":29.763779,"flightCategory":"VFR","metarType":"METAR","geometry_esri":{"x":53.53,"y":9.83,"z":13}}}