{"type":"Feature","geometry":{"type":"Point","coordinates":[53.53,9.83,13]},"properties":{"stationId":"EDHI","rawText":"EDHI 171350Z 11003KT 070V150 3700 BR SCT006 OVC035 03/02 Q1018","observationTime":"2018-12-17T13:50:00Z","temp":3,"dewpoint":2,"windDirection":110,"windSpeed":5.556,"visibility":2.3,"altim":30.059055,"flightCategory":"IFR","metarType":"METAR","geometry_esri":{"x":53.53,"y":9.83,"z":13}}}