{"type":"Feature","geometry":{"type":"Point","coordinates":[53.53,9.83,13]},"properties":{"stationId":"EDHI","rawText":"EDHI 171350Z AUTO 28013KT 9999 // BKN053/// 16/06 Q1020","observationTime":"2020-05-17T13:50:00Z","temp":16,"dewpoint":6,"windDirection":280,"windSpeed":24.076,"visibility":6.21,"altim":30.11811,"flightCategory":"VFR","metarType":"METAR","geometry_esri":{"x":53.53,"y":9.83,"z":13}}}