{"type":"Feature","geometry":{"type":"Point","coordinates":[53.53,9.83,13]},"properties":{"stationId":"EDHI","rawText":"EDHI 132120Z AUTO 17007KT 130V210 9999 // BKN055/// BKN210/// 05/03 Q1010","observationTime":"2020-01-13T21:20:00Z","temp":5,"dewpoint":3,"windDirection":170,"windSpeed":12.964,"visibility":6.21,"altim":29.822834,"flightCategory":"VFR","metarType":"METAR","geometry_esri":{"x":53.53,"y":9.83,"z":13}}}