{"type":"Feature","geometry":{"type":"Point","coordinates":[53.53,9.83,13]},"properties":{"stationId":"EDHI","rawText":"EDHI 272020Z AUTO 31009KT 270V340 9999 // BKN023/// 15/11 Q1026","observationTime":"2019-06-27T20:20:00Z","temp":15,"dewpoint":11,"windDirection":310,"windSpeed":16.668,"visibility":6.21,"altim":30.295275,"flightCategory":"MVFR","metarType":"METAR","geometry_esri":{"x":53.53,"y":9.83,"z":13}}}