{"type":"Feature","geometry":{"type":"Point","coordinates":[53.53,9.83,13]},"properties":{"stationId":"EDHI","rawText":"EDHI 220750Z AUTO 11006KT 060V140 9999 // FEW071/// BKN081/// OVC094/// 03/02 Q0985","observationTime":"2019-12-22T07:50:00Z","temp":3,"dewpoint":2,"windDirection":110,"windSpeed":11.112,"visibility":6.21,"altim":29.084646,"flightCategory":"VFR","metarType":"METAR","geometry_esri":{"x":53.53,"y":9.83,"z":13}}}