{"type":"Feature","geometry":{"type":"Point","coordinates":[53.53,9.83,13]},"properties":{"stationId":"EDHI","rawText":"EDHI 030620Z 20010KT 9999 -RA FEW032 BKN039 13/11 Q1019","observationTime":"2019-09-03T06:20:00Z","temp":13,"dewpoint":11,"windDirection":200,"windSpeed":18.52,"visibility":6.21,"altim":30.088583,"flightCategory":"VFR","metarType":"METAR","geometry_esri":{"x":53.53,"y":9.83,"z":13}}}