{"type":"Feature","geometry":{"type":"Point","coordinates":[53.53,9.83,13]},"properties":{"stationId":"EDHI","rawText":"EDHI 201950Z AUTO 07008KT 9999 // NCD 11/01 Q1025","observationTime":"2020-04-20T19:50:00Z","temp":11,"dewpoint":1,"windDirection":70,"windSpeed":14.816,"visibility":6.21,"altim":30.265747,"flightCategory":"VFR","metarType":"METAR","geometry_esri":{"x":53.53,"y":9.83,"z":13}}}