{"type":"Feature","geometry":{"type":"Point","coordinates":[53.53,9.83,13]},"properties":{"stationId":"EDHI","rawText":"EDHI 051020Z 08006KT 040V120 9999 FEW012 06/03 Q1002","observationTime":"2020-03-05T10:20:00Z","temp":6,"dewpoint":3,"windDirection":80,"windSpeed":11.112,"visibility":6.21,"altim":29.586615,"flightCategory":"VFR","metarType":"METAR","geometry_esri":{"x":53.53,"y":9.83,"z":13}}}