{"type":"Feature","geometry":{"type":"Point","coordinates":[53.53,9.83,13]},"properties":{"stationId":"EDHI","rawText":"EDHI 161150Z 01009KT 340V040 9999 -RA FEW040 BKN047 09/07 Q1018","observationTime":"2019-05-16T11:50:00Z","temp":9,"dewpoint":7,"windDirection":10,"windSpeed":16.668,"visibility":6.21,"altim":30.059055,"flightCategory":"VFR","metarType":"METAR","geometry_esri":{"x":53.53,"y":9.83,"z":13}}}