{"type":"Feature","geometry":{"type":"Point","coordinates":[53.53,9.83,13]},"properties":{"stationId":"EDHI","rawText":"EDHI 011320Z 26012KT 230V300 9999 -DZ SCT029 BKN034 08/02 Q1018","observationTime":"2020-04-01T13:20:00Z","temp":8,"dewpoint":2,"windDirection":260,"windSpeed":22.224,"visibility":6.21,"altim":30.059055,"flightCategory":"VFR","metarType":"METAR","geometry_esri":{"x":53.53,"y":9.83,"z":13}}}