{"type":"Feature","geometry":{"type":"Point","coordinates":[53.53,9.83,13]},"properties":{"stationId":"EDHI","rawText":"EDHI 240450Z AUTO 26006KT 0800 0750 R23/1100D // VV002 00/M00 Q1022","observationTime":"2020-01-24T04:50:00Z","temp":0,"dewpoint":0,"windDirection":260,"windSpeed":11.112,"visibility":0.5,"altim":30.177166,"flightCategory":"LIFR","metarType":"METAR","geometry_esri":{"x":53.53,"y":9.83,"z":13}}}