{"type":"Feature","geometry":{"type":"Point","coordinates":[53.53,9.83,13]},"properties":{"stationId":"EDHI","rawText":"EDHI 060450Z AUTO 26003KT 1300 0900 R23/1000N // BKN002/// OVC006/// 05/05 Q1027","observationTime":"2019-01-06T04:50:00Z","temp":5,"dewpoint":5,"windDirection":260,"windSpeed":5.556,"visibility":0.81,"altim":30.324802,"flightCategory":"LIFR","metarType":"METAR","geometry_esri":{"x":53.53,"y":9.83,"z":13}}}