{"type":"Feature","geometry":{"type":"Point","coordinates":[53.53,9.83,13]},"properties":{"stationId":"EDHI","rawText":"EDHI 191520Z 31008KT 280V020 CAVOK 24/10 Q1013","observationTime":"2019-07-19T15:20:00Z","temp":24,"dewpoint":10,"windDirection":310,"windSpeed":14.816,"visibility":6.21,"altim":29.911417,"flightCategory":"VFR","metarType":"METAR","geometry_esri":{"x":53.53,"y":9.83,"z":13}}}