{"type":"Feature","geometry":{"type":"Point","coordinates":[53.53,9.83,13]},"properties":{"stationId":"EDHI","rawText":"EDHI 200220Z AUTO 23004KT 9999 // BKN063/// 06/06 Q1029","observationTime":"2019-09-20T02:20:00Z","temp":6,"dewpoint":6,"windDirection":230,"windSpeed":7.408,"visibility":6.21,"altim":30.383858,"flightCategory":"VFR","metarType":"METAR","geometry_esri":{"x":53.53,"y":9.83,"z":13}}}