{"type":"Feature","geometry":{"type":"Point","coordinates":[53.53,9.83,13]},"properties":{"stationId":"EDHI","rawText":"EDHI 301550Z 19003KT 130V220 9999 SCT026 05/03 Q1025","observationTime":"2020-03-30T15:50:00Z","temp":5,"dewpoint":3,"windDirection":190,"windSpeed":5.556,"visibility":6.21,"altim":30.265747,"flightCategory":"VFR","metarType":"METAR","geometry_esri":{"x":53.53,"y":9.83,"z":13}}}