{"type":"Feature","geometry":{"type":"Point","coordinates":[53.53,9.83,13]},"properties":{"stationId":"EDHI","rawText":"EDHI 020320Z AUTO 25018KT 2500 // BKN007/// OVC014/// 07/06 Q1003","observationTime":"2020-02-02T03:20:00Z","temp":7,"dewpoint":6,"windDirection":250,"windSpeed":33.336,"visibility":1.55,"altim":29.616142,"flightCategory":"IFR","metarType":"METAR","geometry_esri":{"x":53.53,"y":9.83,"z":13}}}