{"type":"Feature","geometry":{"type":"Point","coordinates":[53.53,9.83,13]},"properties":{"stationId":"EDHI","rawText":"EDHI 102350Z AUTO 14003KT 080V210 7000 // OVC031/// 03/02 Q1013","observationTime":"2019-11-10T23:50:00Z","temp":3,"dewpoint":2,"windDirection":140,"windSpeed":5.556,"visibility":4.35,"altim":29.911417,"flightCategory":"MVFR","metarType":"METAR","geometry_esri":{"x":53.53,"y":9.83,"z":13}}}