{"type":"Feature","geometry":{"type":"Point","coordinates":[53.53,9.83,13]},"properties":{"stationId":"EDHI","rawText":"EDHI 132350Z AUTO 24012KT 3300 // FEW022/// OVC100/// 17/15 Q1008","observationTime":"2019-10-13T23:50:00Z","temp":17,"dewpoint":15,"windDirection":240,"windSpeed":22.224,"visibility":2.05,"altim":29.763779,"flightCategory":"IFR","metarType":"METAR","geometry_esri":{"x":53.53,"y":9.83,"z":13}}}