{"type":"Feature","geometry":{"type":"Point","coordinates":[53.53,9.83,13]},"properties":{"stationId":"EDHI","rawText":"EDHI 221620Z 30007KT 270V330 9999 SCT015 BKN021 06/04 Q1033","observationTime":"2020-01-22T16:20:00Z","temp":6,"dewpoint":4,"windDirection":300,"windSpeed":12.964,"visibility":6.21,"altim":30.501968,"flightCategory":"MVFR","metarType":"METAR","geometry_esri":{"x":53.53,"y":9.83,"z":13}}}