{"type":"Feature","geometry":{"type":"Point","coordinates":[53.53,9.83,13]},"properties":{"stationId":"EDHI","rawText":"EDHI 131220Z 21018KT 9999 -RA BKN016 BKN025 06/04 Q0994","observationTime":"2019-03-13T12:20:00Z","temp":6,"dewpoint":4,"windDirection":210,"windSpeed":33.336,"visibility":6.21,"altim":29.350393,"flightCategory":"MVFR","metarType":"METAR","geometry_esri":{"x":53.53,"y":9.83,"z":13}}}