{"type":"Feature","geometry":{"type":"Point","coordinates":[53.53,9.83,13]},"properties":{"stationId":"EDHI","rawText":"EDHI 281820Z 29009KT CAVOK 20/13 Q1024","observationTime":"2019-06-28T18:20:00Z","temp":20,"dewpoint":13,"windDirection":290,"windSpeed":16.668,"visibility":6.21,"altim":30.236221,"flightCategory":"VFR","metarType":"METAR","geometry_esri":{"x":53.53,"y":9.83,"z":13}}}