{"type":"Feature","geometry":{"type":"Point","coordinates":[53.53,9.83,13]},"properties":{"stationId":"EDHI","rawText":"EDHI 152050Z AUTO 08011KT 040V110 9999 // NCD 07/M01 Q1025","observationTime":"2019-04-15T20:50:00Z","temp":7,"dewpoint":-1,"windDirection":80,"windSpeed":20.372,"visibility":6.21,"altim":30.265747,"flightCategory":"VFR","metarType":"METAR","geometry_esri":{"x":53.53,"y":9.83,"z":13}}}