{"type":"Feature","geometry":{"type":"Point","coordinates":[53.53,9.83,13]},"properties":{"stationId":"EDHI","rawText":"EDHI 242320Z AUTO 24018KT 2300 1300 R23/P2000N // BKN013/// OVC020/// 10/08 Q0995","observationTime":"2020-02-24T23:20:00Z","temp":10,"dewpoint":8,"windDirection":240,"windSpeed":33.336,"visibility":1.43,"altim":29.379921,"flightCategory":"IFR","metarType":"METAR","geometry_esri":{"x":53.53,"y":9.83,"z":13}}}