{"type":"Feature","geometry":{"type":"Point","coordinates":[53.53,9.83,13]},"properties":{"stationId":"EDHI","rawText":"EDHI 060550Z AUTO 29003KT 3200 // FEW001/// BKN006/// OVC008/// 05/05 Q1027","observationTime":"2019-01-06T05:50:00Z","temp":5,"dewpoint":5,"windDirection":290,"windSpeed":5.556,"visibility":1.99,"altim":30.324802,"flightCategory":"IFR","metarType":"METAR","geometry_esri":{"x":53.53,"y":9.83,"z":13}}}