{"type":"Feature","geometry":{"type":"Point","coordinates":[53.53,9.83,13]},"properties":{"stationId":"EDHI","rawText":"EDHI 290520Z AUTO 35019G29KT 9999 // SCT011/// BKN015/// OVC022/// 02/00 Q1023","observationTime":"2020-03-29T05:20:00Z","temp":2,"dewpoint":0,"windDirection":350,"windSpeed":35.188,"visibility":6.21,"altim":30.206694,"flightCategory":"MVFR","metarType":"METAR","geometry_esri":{"x":53.53,"y":9.83,"z":13}}}