{"type":"Feature","geometry":{"type":"Point","coordinates":[53.53,9.83,13]},"properties":{"stationId":"EDHI","rawText":"EDHI 230520Z AUTO 26020KT //// R23/P2000N // BKN028/// BKN052/// OVC096/// 08/03 Q1011","observationTime":"2020-02-23T05:20:00Z","temp":8,"dewpoint":3,"windDirection":260,"windSpeed":37.04,"visibility":1.24,"altim":29.852362,"flightCategory":"IFR","metarType":"METAR","geometry_esri":{"x":53.53,"y":9.83,"z":13}}}