{"type":"Feature","geometry":{"type":"Point","coordinates":[53.53,9.83,13]},"properties":{"stationId":"EDHI","rawText":"EDHI 302350Z AUTO 13005KT 060V190 9999 // BKN023/// OVC026/// 01/M02 Q0995","observationTime":"2019-01-30T23:50:00Z","temp":1,"dewpoint":-2,"windDirection":130,"windSpeed":9.26,"visibility":6.21,"altim":29.379921,"flightCategory":"MVFR","metarType":"METAR","geometry_esri":{"x":53.53,"y":9.83,"z":13}}}