{"type":"Feature","geometry":{"type":"Point","coordinates":[53.53,9.83,13]},"properties":{"stationId":"EDHI","rawText":"EDHI 231350Z 28006KT 230V310 CAVOK 28/17 Q1020","observationTime":"2019-07-23T13:50:00Z","temp":28,"dewpoint":17,"windDirection":280,"windSpeed":11.112,"visibility":6.21,"altim":30.11811,"flightCategory":"VFR","metarType":"METAR","geometry_esri":{"x":53.53,"y":9.83,"z":13}}}