{"type":"Feature","geometry":{"type":"Point","coordinates":[53.53,9.83,13]},"properties":{"stationId":"EDHI","rawText":"EDHI 080420Z 12005KT 050V210 CAVOK 09/01 Q1029","observationTime":"2020-04-08T04:20:00Z","temp":9,"dewpoint":1,"windDirection":120,"windSpeed":9.26,"visibility":6.21,"altim":30.383858,"flightCategory":"VFR","metarType":"METAR","geometry_esri":{"x":53.53,"y":9.83,"z":13}}}