{"type":"Feature","geometry":{"type":"Point","coordinates":[53.53,9.83,13]},"properties":{"stationId":"EDHI","rawText":"EDHI 161250Z 30010KT 280V350 9999 SCT037 16/08 Q1018","observationTime":"2019-09-16T12:50:00Z","temp":16,"dewpoint":8,"windDirection":300,"windSpeed":18.52,"visibility":6.21,"altim":30.059055,"flightCategory":"VFR","metarType":"METAR","geometry_esri":{"x":53.53,"y":9.83,"z":13}}}