{"type":"Feature","geometry":{"type":"Point","coordinates":[53.53,9.83,13]},"properties":{"stationId":"EDHI","rawText":"EDHI 220020Z AUTO 29015KT 3300 // OVC006/// 11/11 Q1011","observationTime":"2019-05-22T00:20:00Z","temp":11,"dewpoint":11,"windDirection":290,"windSpeed":27.78,"visibility":2.05,"altim":29.852362,"flightCategory":"IFR","metarType":"METAR","geometry_esri":{"x":53.53,"y":9.83,"z":13}}}