{"type":"Feature","geometry":{"type":"Point","coordinates":[53.53,9.83,13]},"properties":{"stationId":"EDHI","rawText":"EDHI 171220Z 20010KT 9999 FEW010 SCT015 BKN037 16/13 Q1009","observationTime":"2019-10-17T12:20:00Z","temp":16,"dewpoint":13,"windDirection":200,"windSpeed":18.52,"visibility":6.21,"altim":29.793306,"flightCategory":"VFR","metarType":"METAR","geometry_esri":{"x":53.53,"y":9.83,"z":13}}}