{"type":"Feature","geometry":{"type":"Point","coordinates":[53.53,9.83,13]},"properties":{"stationId":"EDHI","rawText":"EDHI 291220Z 12003KT 070V190 7000 BKN007 OVC009 11/10 Q1004","observationTime":"2020-04-29T12:20:00Z","temp":11,"dewpoint":10,"windDirection":120,"windSpeed":5.556,"visibility":4.35,"altim":29.64567,"flightCategory":"IFR","metarType":"METAR","geometry_esri":{"x":53.53,"y":9.83,"z":13}}}