{"type":"Feature","geometry":{"type":"Point","coordinates":[53.53,9.83,13]},"properties":{"stationId":"EDHI","rawText":"EDHI 270350Z 24012KT 9999 BKN010 15/14 Q1006","observationTime":"2019-09-27T03:50:00Z","temp":15,"dewpoint":14,"windDirection":240,"windSpeed":22.224,"visibility":6.21,"altim":29.704725,"flightCategory":"MVFR","metarType":"METAR","geometry_esri":{"x":53.53,"y":9.83,"z":13}}}