{"type":"Feature","geometry":{"type":"Point","coordinates":[53.53,9.83,13]},"properties":{"stationId":"EDHI","rawText":"EDHI 010620Z 08011KT 6000 FEW008 M02/M03 Q0994","observationTime":"2019-02-01T06:20:00Z","temp":-2,"dewpoint":-3,"windDirection":80,"windSpeed":20.372,"visibility":3.73,"altim":29.350393,"flightCategory":"MVFR","metarType":"METAR","geometry_esri":{"x":53.53,"y":9.83,"z":13}}}