{"type":"Feature","geometry":{"type":"Point","coordinates":[53.53,9.83,13]},"properties":{"stationId":"EDHI","rawText":"EDHI 070150Z AUTO 31010KT 7000 // BKN058/// 04/02 Q1006","observationTime":"2020-03-07T01:50:00Z","temp":4,"dewpoint":2,"windDirection":310,"windSpeed":18.52,"visibility":4.35,"altim":29.704725,"flightCategory":"MVFR","metarType":"METAR","geometry_esri":{"x":53.53,"y":9.83,"z":13}}}