{"type":"Feature","geometry":{"type":"Point","coordinates":[53.53,9.83,13]},"properties":{"stationId":"EDHI","rawText":"EDHI 110550Z 05003KT 010V090 9000 -RA SCT006 BKN008 16/14 Q1009","observationTime":"2019-06-11T05:50:00Z","temp":16,"dewpoint":14,"windDirection":50,"windSpeed":5.556,"visibility":5.59,"altim":29.793306,"flightCategory":"IFR","metarType":"METAR","geometry_esri":{"x":53.53,"y":9.83,"z":13}}}