{"type":"Feature","geometry":{"type":"Point","coordinates":[53.53,9.83,13]},"properties":{"stationId":"EDHI","rawText":"EDHI 081150Z 23019G29KT 9000 -RA BKN012 OVC019 07/06 Q0993","observationTime":"2018-12-08T11:50:00Z","temp":7,"dewpoint":6,"windDirection":230,"windSpeed":35.188,"visibility":5.59,"altim":29.320866,"skyCondition1a":"BKN","skyCondition1b":1200,"skyCondition2a":"OVC","skyCondition2b":1900,"flightCategory":"MVFR","metarType":"METAR","geometry_esri":{"x":53.53,"y":9.83,"z":13}}}