{"type":"Feature","geometry":{"type":"Point","coordinates":[53.53,9.83,13]},"properties":{"stationId":"EDHI","rawText":"EDHI 190420Z AUTO 25015KT 9999 3600 // BKN018/// BKN053/// OVC110/// 05/03 Q1007","observationTime":"2020-02-19T04:20:00Z","temp":5,"dewpoint":3,"windDirection":250,"windSpeed":27.78,"visibility":6.21,"altim":29.734253,"flightCategory":"MVFR","metarType":"METAR","geometry_esri":{"x":53.53,"y":9.83,"z":13}}}