{"type":"Feature","geometry":{"type":"Point","coordinates":[53.53,9.83,13]},"properties":{"stationId":"EDHI","rawText":"EDHI 262150Z AUTO VRB02KT 4100 // FEW240/// 01/00 Q1032","observationTime":"2019-02-26T21:50:00Z","temp":1,"dewpoint":0,"windDirection":0,"windSpeed":3.704,"visibility":2.55,"altim":30.47244,"flightCategory":"IFR","metarType":"METAR","geometry_esri":{"x":53.53,"y":9.83,"z":13}}}