{"type":"Feature","geometry":{"type":"Point","coordinates":[53.53,9.83,13]},"properties":{"stationId":"EDHI","rawText":"EDHI 281020Z 28007KT 9999 BKN008 09/08 Q1034","observationTime":"2019-03-28T10:20:00Z","temp":9,"dewpoint":8,"windDirection":280,"windSpeed":12.964,"visibility":6.21,"altim":30.531496,"flightCategory":"IFR","metarType":"METAR","geometry_esri":{"x":53.53,"y":9.83,"z":13}}}