{"type":"Feature","geometry":{"type":"Point","coordinates":[53.53,9.83,13]},"properties":{"stationId":"EDHI","rawText":"EDHI 011320Z AUTO 24004KT 210V270 1200 1000 R23/1500D // BKN001/// OVC004/// 02/02 Q1021","observationTime":"2019-12-01T13:20:00Z","temp":2,"dewpoint":2,"windDirection":240,"windSpeed":7.408,"visibility":0.75,"altim":30.147638,"flightCategory":"LIFR","metarType":"METAR","geometry_esri":{"x":53.53,"y":9.83,"z":13}}}