{"type":"Feature","geometry":{"type":"Point","coordinates":[53.53,9.83,13]},"properties":{"stationId":"EDHI","rawText":"EDHI 262120Z AUTO 25011KT 4100 // OVC004/// 07/07 Q1026","observationTime":"2018-12-26T21:20:00Z","temp":7,"dewpoint":7,"windDirection":250,"windSpeed":20.372,"visibility":2.55,"altim":30.295275,"flightCategory":"LIFR","metarType":"METAR","geometry_esri":{"x":53.53,"y":9.83,"z":13}}}