{"type":"Feature","geometry":{"type":"Point","coordinates":[53.53,9.83,13]},"properties":{"stationId":"EDHI","rawText":"EDHI 220620Z 14003KT 6000 FEW033 M02/M03 Q1011","observationTime":"2019-01-22T06:20:00Z","temp":-2,"dewpoint":-3,"windDirection":140,"windSpeed":5.556,"visibility":3.73,"altim":29.852362,"flightCategory":"MVFR","metarType":"METAR","geometry_esri":{"x":53.53,"y":9.83,"z":13}}}