{"type":"Feature","geometry":{"type":"Point","coordinates":[53.53,9.83,13]},"properties":{"stationId":"EDHI","rawText":"EDHI 290250Z AUTO 14007KT 100V170 4000 // OVC006/// 02/02 Q0997","observationTime":"2020-02-29T02:50:00Z","temp":2,"dewpoint":2,"windDirection":140,"windSpeed":12.964,"visibility":2.49,"altim":29.438976,"flightCategory":"IFR","metarType":"METAR","geometry_esri":{"x":53.53,"y":9.83,"z":13}}}