{"type":"Feature","geometry":{"type":"Point","coordinates":[53.53,9.83,13]},"properties":{"stationId":"EDHI","rawText":"EDHI 260020Z AUTO 23011KT 170V250 9999 // OVC130/// 18/06 Q1007","observationTime":"2019-04-26T00:20:00Z","temp":18,"dewpoint":6,"windDirection":230,"windSpeed":20.372,"visibility":6.21,"altim":29.734253,"flightCategory":"VFR","metarType":"METAR","geometry_esri":{"x":53.53,"y":9.83,"z":13}}}