{"type":"Feature","geometry":{"type":"Point","coordinates":[53.53,9.83,13]},"properties":{"stationId":"EDHI","rawText":"EDHI 140650Z 22005KT 7000 OVC016 05/03 Q1034","observationTime":"2019-02-14T06:50:00Z","temp":5,"dewpoint":3,"windDirection":220,"windSpeed":9.26,"visibility":4.35,"altim":30.531496,"flightCategory":"MVFR","metarType":"METAR","geometry_esri":{"x":53.53,"y":9.83,"z":13}}}