{"type":"Feature","geometry":{"type":"Point","coordinates":[53.53,9.83,13]},"properties":{"stationId":"EDHI","rawText":"EDHI 221150Z 08008KT 060V120 9999 SCT017 04/M00 Q1039","observationTime":"2019-02-22T11:50:00Z","temp":4,"dewpoint":0,"windDirection":80,"windSpeed":14.816,"visibility":6.21,"altim":30.679134,"flightCategory":"VFR","metarType":"METAR","geometry_esri":{"x":53.53,"y":9.83,"z":13}}}