{"type":"Feature","geometry":{"type":"Point","coordinates":[53.53,9.83,13]},"properties":{"stationId":"EDHI","rawText":"EDHI 112350Z AUTO 22006KT 1300 1200 R23/1700D // BKN001/// BKN003/// OVC005/// 04/04 Q1002","observationTime":"2019-12-11T23:50:00Z","temp":4,"dewpoint":4,"windDirection":220,"windSpeed":11.112,"visibility":0.81,"altim":29.586615,"flightCategory":"LIFR","metarType":"METAR","geometry_esri":{"x":53.53,"y":9.83,"z":13}}}