{"type":"Feature","geometry":{"type":"Point","coordinates":[53.53,9.83,13]},"properties":{"stationId":"EDHI","rawText":"EDHI 041950Z AUTO 30007KT 270V330 9000 // NCD 08/06 Q1002","observationTime":"2019-04-04T19:50:00Z","temp":8,"dewpoint":6,"windDirection":300,"windSpeed":12.964,"visibility":5.59,"altim":29.586615,"flightCategory":"VFR","metarType":"METAR","geometry_esri":{"x":53.53,"y":9.83,"z":13}}}