{"type":"Feature","geometry":{"type":"Point","coordinates":[53.53,9.83,13]},"properties":{"stationId":"EDHI","rawText":"EDHI 042320Z AUTO 30009KT 3400 // OVC003/// 08/07 Q1002","observationTime":"2019-04-04T23:20:00Z","temp":8,"dewpoint":7,"windDirection":300,"windSpeed":16.668,"visibility":2.11,"altim":29.586615,"flightCategory":"LIFR","metarType":"METAR","geometry_esri":{"x":53.53,"y":9.83,"z":13}}}