{"type":"Feature","geometry":{"type":"Point","coordinates":[53.53,9.83,13]},"properties":{"stationId":"EDHI","rawText":"EDHI 251320Z 26020G36KT 9999 VCSH FEW007 FEW021CB 07/03 Q0992","observationTime":"2020-02-25T13:20:00Z","temp":7,"dewpoint":3,"windDirection":260,"windSpeed":37.04,"visibility":6.21,"altim":29.291338,"flightCategory":"VFR","metarType":"METAR","geometry_esri":{"x":53.53,"y":9.83,"z":13}}}