{"type":"Feature","geometry":{"type":"Point","coordinates":[53.53,9.83,13]},"properties":{"stationId":"EDHI","rawText":"EDHI 081150Z AUTO 20015KT 170V230 9999 // FEW031/// BKN170/// 11/04 Q1009","observationTime":"2020-03-08T11:50:00Z","temp":11,"dewpoint":4,"windDirection":200,"windSpeed":27.78,"visibility":6.21,"altim":29.793306,"flightCategory":"VFR","metarType":"METAR","geometry_esri":{"x":53.53,"y":9.83,"z":13}}}