{"type":"Feature","geometry":{"type":"Point","coordinates":[53.53,9.83,13]},"properties":{"stationId":"EDHI","rawText":"EDHI 042020Z AUTO 35003KT 320V030 9000 // BKN061/// 19/12 Q1014","observationTime":"2019-08-04T20:20:00Z","temp":19,"dewpoint":12,"windDirection":350,"windSpeed":5.556,"visibility":5.59,"altim":29.940945,"flightCategory":"VFR","metarType":"METAR","geometry_esri":{"x":53.53,"y":9.83,"z":13}}}