{"type":"Feature","geometry":{"type":"Point","coordinates":[53.53,9.83,13]},"properties":{"stationId":"EDHI","rawText":"EDHI 151050Z AUTO 24028G39KT 9999 // NCD 09/01 Q0992","observationTime":"2019-12-15T10:50:00Z","temp":9,"dewpoint":1,"windDirection":240,"windSpeed":51.856,"visibility":6.21,"altim":29.291338,"flightCategory":"VFR","metarType":"METAR","geometry_esri":{"x":53.53,"y":9.83,"z":13}}}