{"type":"Feature","geometry":{"type":"Point","coordinates":[53.53,9.83,13]},"properties":{"stationId":"EDHI","rawText":"EDHI 291120Z 27008KT 240V320 9999 FEW034 14/06 Q1031","observationTime":"2019-03-29T11:20:00Z","temp":14,"dewpoint":6,"windDirection":270,"windSpeed":14.816,"visibility":6.21,"altim":30.442913,"flightCategory":"VFR","metarType":"METAR","geometry_esri":{"x":53.53,"y":9.83,"z":13}}}