{"type":"Feature","geometry":{"type":"Point","coordinates":[53.53,9.83,13]},"properties":{"stationId":"EDHI","rawText":"EDHI 040550Z 26007KT 1700 -DZ BR BKN002 02/02 Q1032","observationTime":"2019-01-04T05:50:00Z","temp":2,"dewpoint":2,"windDirection":260,"windSpeed":12.964,"visibility":1.06,"altim":30.47244,"flightCategory":"LIFR","metarType":"METAR","geometry_esri":{"x":53.53,"y":9.83,"z":13}}}