{"type":"Feature","geometry":{"type":"Point","coordinates":[53.53,9.83,13]},"properties":{"stationId":"EDHI","rawText":"EDHI 282320Z AUTO 36007KT 310V030 9999 // SCT033/// BKN041/// OVC064/// 07/01 Q1021","observationTime":"2020-03-28T23:20:00Z","temp":7,"dewpoint":1,"windDirection":360,"windSpeed":12.964,"visibility":6.21,"altim":30.147638,"flightCategory":"VFR","metarType":"METAR","geometry_esri":{"x":53.53,"y":9.83,"z":13}}}