{"type":"Feature","geometry":{"type":"Point","coordinates":[53.53,9.83,13]},"properties":{"stationId":"EDHI","rawText":"EDHI 100020Z AUTO 28011KT 9999 // FEW026/// SCT041/// 05/02 Q1005","observationTime":"2018-12-10T00:20:00Z","temp":5,"dewpoint":2,"windDirection":280,"windSpeed":20.372,"visibility":6.21,"altim":29.675198,"skyCondition1a":"FEW","skyCondition1b":2600,"skyCondition2a":"SCT","skyCondition2b":4100,"flightCategory":"VFR","metarType":"METAR","geometry_esri":{"x":53.53,"y":9.83,"z":13}}}