{"type":"Feature","geometry":{"type":"Point","coordinates":[53.53,9.83,13]},"properties":{"stationId":"EDHI","rawText":"EDHI 291620Z AUTO 21010KT 170V230 2600 // BKN009/// OVC014/// 14/13 Q0993","observationTime":"2019-09-29T16:20:00Z","temp":14,"dewpoint":13,"windDirection":210,"windSpeed":18.52,"visibility":1.62,"altim":29.320866,"flightCategory":"IFR","metarType":"METAR","geometry_esri":{"x":53.53,"y":9.83,"z":13}}}