{"type":"Feature","geometry":{"type":"Point","coordinates":[53.53,9.83,13]},"properties":{"stationId":"EDHI","rawText":"EDHI 190350Z AUTO 24015KT 8000 2800 // SCT007/// BKN009/// OVC015/// 07/07 Q1002","observationTime":"2019-11-19T03:50:00Z","temp":7,"dewpoint":7,"windDirection":240,"windSpeed":27.78,"visibility":4.97,"altim":29.586615,"flightCategory":"IFR","metarType":"METAR","geometry_esri":{"x":53.53,"y":9.83,"z":13}}}