{"type":"Feature","geometry":{"type":"Point","coordinates":[53.53,9.83,13]},"properties":{"stationId":"EDHI","rawText":"EDHI 181220Z 17006KT 100V200 9999 SCT069TCU 28/13 Q1014","observationTime":"2019-06-18T12:20:00Z","temp":28,"dewpoint":13,"windDirection":170,"windSpeed":11.112,"visibility":6.21,"altim":29.940945,"flightCategory":"VFR","metarType":"METAR","geometry_esri":{"x":53.53,"y":9.83,"z":13}}}