{"type":"Feature","geometry":{"type":"Point","coordinates":[53.53,9.83,13]},"properties":{"stationId":"EDHI","rawText":"EDHI 071820Z AUTO 30012KT 260V330 9999 // FEW030/// BKN057/// 14/08 Q1013","observationTime":"2019-07-07T18:20:00Z","temp":14,"dewpoint":8,"windDirection":300,"windSpeed":22.224,"visibility":6.21,"altim":29.911417,"flightCategory":"VFR","metarType":"SPECI","geometry_esri":{"x":53.53,"y":9.83,"z":13}}}