{"type":"Feature","geometry":{"type":"Point","coordinates":[53.53,9.83,13]},"properties":{"stationId":"EDHI","rawText":"EDHI 100120Z AUTO 26017KT 9999 3500 // SCT019/// SCT022/// BKN220/// 05/03 Q1006","observationTime":"2019-03-10T01:20:00Z","temp":5,"dewpoint":3,"windDirection":260,"windSpeed":31.484,"visibility":6.21,"altim":29.704725,"flightCategory":"VFR","metarType":"METAR","geometry_esri":{"x":53.53,"y":9.83,"z":13}}}