{"type":"Feature","geometry":{"type":"Point","coordinates":[53.53,9.83,13]},"properties":{"stationId":"EDHI","rawText":"EDHI 231220Z 10009G19KT 050V130 9999 SCT016 09/05 Q1005","observationTime":"2019-11-23T12:20:00Z","temp":9,"dewpoint":5,"windDirection":100,"windSpeed":16.668,"visibility":6.21,"altim":29.675198,"flightCategory":"VFR","metarType":"METAR","geometry_esri":{"x":53.53,"y":9.83,"z":13}}}