{"type":"Feature","geometry":{"type":"Point","coordinates":[53.53,9.83,13]},"properties":{"stationId":"EDHI","rawText":"EDHI 061920Z AUTO 28007KT 9999 // SCT007/// SCT032/// OVC042/// 06/05 Q1029","observationTime":"2019-01-06T19:20:00Z","temp":6,"dewpoint":5,"windDirection":280,"windSpeed":12.964,"visibility":6.21,"altim":30.383858,"flightCategory":"VFR","metarType":"METAR","geometry_esri":{"x":53.53,"y":9.83,"z":13}}}