{"type":"Feature","geometry":{"type":"Point","coordinates":[53.53,9.83,13]},"properties":{"stationId":"EDHI","rawText":"EDHI 070650Z 16006KT 120V210 CAVOK 11/07 Q0988","observationTime":"2019-03-07T06:50:00Z","temp":11,"dewpoint":7,"windDirection":160,"windSpeed":11.112,"visibility":6.21,"altim":29.17323,"flightCategory":"VFR","metarType":"METAR","geometry_esri":{"x":53.53,"y":9.83,"z":13}}}