{"type":"Feature","geometry":{"type":"Point","coordinates":[53.53,9.83,13]},"properties":{"stationId":"EDHI","rawText":"EDHI 102320Z AUTO VRB02KT 7000 // BKN030/// 02/02 Q1013","observationTime":"2019-11-10T23:20:00Z","temp":2,"dewpoint":2,"windDirection":0,"windSpeed":3.704,"visibility":4.35,"altim":29.911417,"flightCategory":"MVFR","metarType":"METAR","geometry_esri":{"x":53.53,"y":9.83,"z":13}}}