{"type":"Feature","geometry":{"type":"Point","coordinates":[53.53,9.83,13]},"properties":{"stationId":"EDHI","rawText":"EDHI 191320Z 20008KT 170V240 8000 -RA BKN009 05/03 Q1012","observationTime":"2018-12-19T13:20:00Z","temp":5,"dewpoint":3,"windDirection":200,"windSpeed":14.816,"visibility":4.97,"altim":29.88189,"flightCategory":"IFR","metarType":"METAR","geometry_esri":{"x":53.53,"y":9.83,"z":13}}}