{"type":"Feature","geometry":{"type":"Point","coordinates":[53.53,9.83,13]},"properties":{"stationId":"EDHI","rawText":"EDHI 051050Z 24007KT CAVOK 03/01 Q1018","observationTime":"2019-12-05T10:50:00Z","temp":3,"dewpoint":1,"windDirection":240,"windSpeed":12.964,"visibility":6.21,"altim":30.059055,"flightCategory":"VFR","metarType":"METAR","geometry_esri":{"x":53.53,"y":9.83,"z":13}}}