{"type":"Feature","geometry":{"type":"Point","coordinates":[53.53,9.83,13]},"properties":{"stationId":"EDHI","rawText":"EDHI 011220Z AUTO 25004KT 210V280 0250 0200 R23/0275N // VV001 M01/M01 Q1032","observationTime":"2020-01-01T12:20:00Z","temp":-1,"dewpoint":-1,"windDirection":250,"windSpeed":7.408,"visibility":0.16,"altim":30.47244,"flightCategory":"LIFR","metarType":"METAR","geometry_esri":{"x":53.53,"y":9.83,"z":13}}}