{"type":"Feature","geometry":{"type":"Point","coordinates":[53.53,9.83,13]},"properties":{"stationId":"EDHI","rawText":"EDHI 281120Z 35007KT 270V030 9999 FEW040 14/05 Q1008","observationTime":"2019-05-28T11:20:00Z","temp":14,"dewpoint":5,"windDirection":350,"windSpeed":12.964,"visibility":6.21,"altim":29.763779,"flightCategory":"VFR","metarType":"METAR","geometry_esri":{"x":53.53,"y":9.83,"z":13}}}