{"type":"Feature","geometry":{"type":"Point","coordinates":[53.53,9.83,13]},"properties":{"stationId":"EDHI","rawText":"EDHI 210820Z 14005KT 120V190 9999 FEW008 OVC029 07/05 Q1004","observationTime":"2018-12-21T08:20:00Z","temp":7,"dewpoint":5,"windDirection":140,"windSpeed":9.26,"visibility":6.21,"altim":29.64567,"flightCategory":"MVFR","metarType":"METAR","geometry_esri":{"x":53.53,"y":9.83,"z":13}}}