{"type":"Feature","geometry":{"type":"Point","coordinates":[53.53,9.83,13]},"properties":{"stationId":"EDHI","rawText":"EDHI 230020Z AUTO 11003KT 070V150 4700 // OVC006/// 05/05 Q0989","observationTime":"2019-12-23T00:20:00Z","temp":5,"dewpoint":5,"windDirection":110,"windSpeed":5.556,"visibility":2.92,"altim":29.202755,"flightCategory":"IFR","metarType":"METAR","geometry_esri":{"x":53.53,"y":9.83,"z":13}}}