{"type":"Feature","geometry":{"type":"Point","coordinates":[53.53,9.83,13]},"properties":{"stationId":"EDHI","rawText":"EDHI 070950Z AUTO 07005KT 030V110 9999 // NCD 16/07 Q1009","observationTime":"2019-04-07T09:50:00Z","temp":16,"dewpoint":7,"windDirection":70,"windSpeed":9.26,"visibility":6.21,"altim":29.793306,"flightCategory":"VFR","metarType":"METAR","geometry_esri":{"x":53.53,"y":9.83,"z":13}}}