{"type":"Feature","geometry":{"type":"Point","coordinates":[53.53,9.83,13]},"properties":{"stationId":"EDHI","rawText":"EDHI 192250Z AUTO 21004KT 9999 // NCD 10/10 Q1007","observationTime":"2019-10-19T22:50:00Z","temp":10,"dewpoint":10,"windDirection":210,"windSpeed":7.408,"visibility":6.21,"altim":29.734253,"flightCategory":"VFR","metarType":"METAR","geometry_esri":{"x":53.53,"y":9.83,"z":13}}}