{"type":"Feature","geometry":{"type":"Point","coordinates":[53.53,9.83,13]},"properties":{"stationId":"EDHI","rawText":"EDHI 062320Z AUTO 06004KT 8000 // NCD 11/07 Q1007","observationTime":"2019-04-06T23:20:00Z","temp":11,"dewpoint":7,"windDirection":60,"windSpeed":7.408,"visibility":4.97,"altim":29.734253,"flightCategory":"MVFR","metarType":"METAR","geometry_esri":{"x":53.53,"y":9.83,"z":13}}}