{"type":"Feature","geometry":{"type":"Point","coordinates":[53.53,9.83,13]},"properties":{"stationId":"EDHI","rawText":"EDHI 172050Z AUTO 15003KT 120V200 9999 // BKN030/// OVC036/// 13/12 Q1010","observationTime":"2019-10-17T20:50:00Z","temp":13,"dewpoint":12,"windDirection":150,"windSpeed":5.556,"visibility":6.21,"altim":29.822834,"flightCategory":"MVFR","metarType":"METAR","geometry_esri":{"x":53.53,"y":9.83,"z":13}}}