{"type":"Feature","geometry":{"type":"Point","coordinates":[53.53,9.83,13]},"properties":{"stationId":"EDHI","rawText":"EDHI 102050Z AUTO 36003KT 9000 // SCT044/// BKN068/// BKN110/// 16/07 Q1016","observationTime":"2019-07-10T20:50:00Z","temp":16,"dewpoint":7,"windDirection":360,"windSpeed":5.556,"visibility":5.59,"altim":30,"flightCategory":"VFR","metarType":"METAR","geometry_esri":{"x":53.53,"y":9.83,"z":13}}}