{"type":"Feature","geometry":{"type":"Point","coordinates":[53.53,9.83,13]},"properties":{"stationId":"EDHI","rawText":"EDHI 090550Z AUTO 25010KT 9999 // SCT012/// BKN048/// BKN093/// 06/05 Q0987","observationTime":"2018-12-09T05:50:00Z","temp":6,"dewpoint":5,"windDirection":250,"windSpeed":18.52,"visibility":6.21,"altim":29.143702,"skyCondition1a":"SCT","skyCondition1b":1200,"skyCondition2a":"BKN","skyCondition2b":4800,"flightCategory":"VFR","metarType":"METAR","geometry_esri":{"x":53.53,"y":9.83,"z":13}}}