{"type":"Feature","geometry":{"type":"Point","coordinates":[53.53,9.83,13]},"properties":{"stationId":"EDHI","rawText":"EDHI 212050Z AUTO 14005KT 100V180 9999 // FEW038/// 04/03 Q0988","observationTime":"2019-12-21T20:50:00Z","temp":4,"dewpoint":3,"windDirection":140,"windSpeed":9.26,"visibility":6.21,"altim":29.17323,"flightCategory":"VFR","metarType":"METAR","geometry_esri":{"x":53.53,"y":9.83,"z":13}}}