{"type":"Feature","geometry":{"type":"Point","coordinates":[53.53,9.83,13]},"properties":{"stationId":"EDHI","rawText":"EDHI 051150Z 26005KT CAVOK 05/M02 Q1034","observationTime":"2020-02-05T11:50:00Z","temp":5,"dewpoint":-2,"windDirection":260,"windSpeed":9.26,"visibility":6.21,"altim":30.531496,"flightCategory":"VFR","metarType":"METAR","geometry_esri":{"x":53.53,"y":9.83,"z":13}}}