{"type":"Feature","geometry":{"type":"Point","coordinates":[53.53,9.83,13]},"properties":{"stationId":"EDHI","rawText":"EDHI 282120Z AUTO 26005KT 230V290 8000 // FEW096/// OVC110/// 20/18 Q1014","observationTime":"2019-08-28T21:20:00Z","temp":20,"dewpoint":18,"windDirection":260,"windSpeed":9.26,"visibility":4.97,"altim":29.940945,"flightCategory":"MVFR","metarType":"METAR","geometry_esri":{"x":53.53,"y":9.83,"z":13}}}