{"type":"Feature","geometry":{"type":"Point","coordinates":[53.53,9.83,13]},"properties":{"stationId":"EDHI","rawText":"EDHI 051920Z 21013KT 5000 BR OVC009 03/01 Q1014","observationTime":"2019-12-05T19:20:00Z","temp":3,"dewpoint":1,"windDirection":210,"windSpeed":24.076,"visibility":3.11,"altim":29.940945,"flightCategory":"IFR","metarType":"METAR","geometry_esri":{"x":53.53,"y":9.83,"z":13}}}