{"type":"Feature","geometry":{"type":"Point","coordinates":[53.53,9.83,13]},"properties":{"stationId":"EDHI","rawText":"EDHI 040520Z 28006KT 2500 -DZ BR BKN003 02/02 Q1032","observationTime":"2019-01-04T05:20:00Z","temp":2,"dewpoint":2,"windDirection":280,"windSpeed":11.112,"visibility":1.55,"altim":30.47244,"flightCategory":"LIFR","metarType":"METAR","geometry_esri":{"x":53.53,"y":9.83,"z":13}}}