{"type":"Feature","geometry":{"type":"Point","coordinates":[53.53,9.83,13]},"properties":{"stationId":"EDHI","rawText":"EDHI 041550Z 29012KT 5000 -DZ BKN005 06/05 Q1026","observationTime":"2019-01-04T15:50:00Z","temp":6,"dewpoint":5,"windDirection":290,"windSpeed":22.224,"visibility":3.11,"altim":30.295275,"flightCategory":"IFR","metarType":"METAR","geometry_esri":{"x":53.53,"y":9.83,"z":13}}}