{"type":"Feature","geometry":{"type":"Point","coordinates":[53.53,9.83,13]},"properties":{"stationId":"EDHI","rawText":"EDHI 030250Z AUTO 18004KT 130V230 9999 // OVC051/// 11/08 Q0987","observationTime":"2019-11-03T02:50:00Z","temp":11,"dewpoint":8,"windDirection":180,"windSpeed":7.408,"visibility":6.21,"altim":29.143702,"flightCategory":"VFR","metarType":"METAR","geometry_esri":{"x":53.53,"y":9.83,"z":13}}}