{"type":"Feature","geometry":{"type":"Point","coordinates":[53.53,9.83,13]},"properties":{"stationId":"EDHI","rawText":"EDHI 141520Z AUTO 23011KT 9999 // FEW022/// BKN027/// OVC050/// 06/02 Q0987","observationTime":"2019-12-14T15:20:00Z","temp":6,"dewpoint":2,"windDirection":230,"windSpeed":20.372,"visibility":6.21,"altim":29.143702,"flightCategory":"MVFR","metarType":"METAR","geometry_esri":{"x":53.53,"y":9.83,"z":13}}}