{"type":"Feature","geometry":{"type":"Point","coordinates":[53.53,9.83,13]},"properties":{"stationId":"EDHI","rawText":"EDHI 031020Z 23007KT 7000 OVC004 06/06 Q1025","observationTime":"2019-12-03T10:20:00Z","temp":6,"dewpoint":6,"windDirection":230,"windSpeed":12.964,"visibility":4.35,"altim":30.265747,"flightCategory":"LIFR","metarType":"METAR","geometry_esri":{"x":53.53,"y":9.83,"z":13}}}