{"type":"Feature","geometry":{"type":"Point","coordinates":[53.53,9.83,13]},"properties":{"stationId":"EDHI","rawText":"EDHI 011220Z 28020KT 9999 FEW046 SCT048 23/12 Q1013","observationTime":"2019-07-01T12:20:00Z","temp":23,"dewpoint":12,"windDirection":280,"windSpeed":37.04,"visibility":6.21,"altim":29.911417,"flightCategory":"VFR","metarType":"METAR","geometry_esri":{"x":53.53,"y":9.83,"z":13}}}