{"type":"Feature","geometry":{"type":"Point","coordinates":[53.53,9.83,13]},"properties":{"stationId":"EDHI","rawText":"EDHI 050220Z AUTO 29005KT 250V310 5000 // NCD 01/00 Q1019","observationTime":"2019-12-05T02:20:00Z","temp":1,"dewpoint":0,"windDirection":290,"windSpeed":9.26,"visibility":3.11,"altim":30.088583,"flightCategory":"MVFR","metarType":"METAR","geometry_esri":{"x":53.53,"y":9.83,"z":13}}}