{"type":"Feature","geometry":{"type":"Point","coordinates":[53.53,9.83,13]},"properties":{"stationId":"EDHI","rawText":"EDHI 061120Z 24012KT 9999 FEW029 BKN033 OVC039 19/15 Q1009","observationTime":"2019-06-06T11:20:00Z","temp":19,"dewpoint":15,"windDirection":240,"windSpeed":22.224,"visibility":6.21,"altim":29.793306,"flightCategory":"VFR","metarType":"METAR","geometry_esri":{"x":53.53,"y":9.83,"z":13}}}