{"type":"Feature","geometry":{"type":"Point","coordinates":[53.53,9.83,13]},"properties":{"stationId":"EDHI","rawText":"EDHI 131450Z AUTO 27018KT 4000 // BKN007/// BKN019/// OVC023/// 08/07 Q0990","observationTime":"2019-01-13T14:50:00Z","temp":8,"dewpoint":7,"windDirection":270,"windSpeed":33.336,"visibility":2.49,"altim":29.232283,"flightCategory":"IFR","metarType":"METAR","geometry_esri":{"x":53.53,"y":9.83,"z":13}}}