{"type":"Feature","geometry":{"type":"Point","coordinates":[53.53,9.83,13]},"properties":{"stationId":"EDHI","rawText":"EDHI 211350Z 13008KT 090V170 5000 -RA BKN008 BKN014 07/06 Q0995","observationTime":"2018-12-21T13:50:00Z","temp":7,"dewpoint":6,"windDirection":130,"windSpeed":14.816,"visibility":3.11,"altim":29.379921,"flightCategory":"IFR","metarType":"METAR","geometry_esri":{"x":53.53,"y":9.83,"z":13}}}