{"type":"Feature","geometry":{"type":"Point","coordinates":[53.53,9.83,13]},"properties":{"stationId":"EDHI","rawText":"EDHI 180520Z 00000KT CAVOK 14/13 Q1012","observationTime":"2019-07-18T05:20:00Z","temp":14,"dewpoint":13,"windDirection":0,"windSpeed":0,"visibility":6.21,"altim":29.88189,"flightCategory":"VFR","metarType":"METAR","geometry_esri":{"x":53.53,"y":9.83,"z":13}}}