{"type":"Feature","geometry":{"type":"Point","coordinates":[53.53,9.83,13]},"properties":{"stationId":"EDHI","rawText":"EDHI 262050Z AUTO 22009KT 8000 // SCT008/// SCT033/// OVC039/// 05/04 Q0995","observationTime":"2019-01-26T20:50:00Z","temp":5,"dewpoint":4,"windDirection":220,"windSpeed":16.668,"visibility":4.97,"altim":29.379921,"flightCategory":"MVFR","metarType":"METAR","geometry_esri":{"x":53.53,"y":9.83,"z":13}}}