{"type":"Feature","geometry":{"type":"Point","coordinates":[53.53,9.83,13]},"properties":{"stationId":"EDHI","rawText":"EDHI 090150Z AUTO 21007KT 180V240 9999 // NCD 12/08 Q1021","observationTime":"2019-06-09T01:50:00Z","temp":12,"dewpoint":8,"windDirection":210,"windSpeed":12.964,"visibility":6.21,"altim":30.147638,"flightCategory":"VFR","metarType":"METAR","geometry_esri":{"x":53.53,"y":9.83,"z":13}}}