{"type":"Feature","geometry":{"type":"Point","coordinates":[53.53,9.83,13]},"properties":{"stationId":"EDHI","rawText":"EDHI 311620Z 12003KT 9999 FEW032 02/M03 Q0998","observationTime":"2019-01-31T16:20:00Z","temp":2,"dewpoint":-3,"windDirection":120,"windSpeed":5.556,"visibility":6.21,"altim":29.468504,"flightCategory":"VFR","metarType":"METAR","geometry_esri":{"x":53.53,"y":9.83,"z":13}}}