{"type":"Feature","geometry":{"type":"Point","coordinates":[53.53,9.83,13]},"properties":{"stationId":"EDHI","rawText":"EDHI 151150Z 09005KT 050V120 9999 BKN021 20/18 Q1008","observationTime":"2019-06-15T11:50:00Z","temp":20,"dewpoint":18,"windDirection":90,"windSpeed":9.26,"visibility":6.21,"altim":29.763779,"flightCategory":"MVFR","metarType":"METAR","geometry_esri":{"x":53.53,"y":9.83,"z":13}}}