{"type":"Feature","geometry":{"type":"Point","coordinates":[53.53,9.83,13]},"properties":{"stationId":"EDHI","rawText":"EDHI 161620Z AUTO 22010KT 3000 1400 R23/P2000N // SCT009/// BKN032/// OVC056/// 05/04 Q1007","observationTime":"2019-11-16T16:20:00Z","temp":5,"dewpoint":4,"windDirection":220,"windSpeed":18.52,"visibility":1.86,"altim":29.734253,"flightCategory":"IFR","metarType":"METAR","geometry_esri":{"x":53.53,"y":9.83,"z":13}}}