{"type":"Feature","geometry":{"type":"Point","coordinates":[53.53,9.83,13]},"properties":{"stationId":"EDHI","rawText":"EDHI 271950Z AUTO 20004KT 170V230 9999 // FEW044/// SCT083/// OVC095/// 14/12 Q1006","observationTime":"2019-09-27T19:50:00Z","temp":14,"dewpoint":12,"windDirection":200,"windSpeed":7.408,"visibility":6.21,"altim":29.704725,"flightCategory":"VFR","metarType":"METAR","geometry_esri":{"x":53.53,"y":9.83,"z":13}}}