{"type":"Feature","geometry":{"type":"Point","coordinates":[53.53,9.83,13]},"properties":{"stationId":"EDHI","rawText":"EDHI 290920Z 23010KT 9999 FEW011 21/18 Q1016","observationTime":"2019-08-29T09:20:00Z","temp":21,"dewpoint":18,"windDirection":230,"windSpeed":18.52,"visibility":6.21,"altim":30,"flightCategory":"VFR","metarType":"METAR","geometry_esri":{"x":53.53,"y":9.83,"z":13}}}