{"type":"Feature","geometry":{"type":"Point","coordinates":[53.53,9.83,13]},"properties":{"stationId":"EDHI","rawText":"EDHI 121250Z 25015KT 9999 VCSH FEW026 SCT037 09/05 Q1014","observationTime":"2020-05-12T12:50:00Z","temp":9,"dewpoint":5,"windDirection":250,"windSpeed":27.78,"visibility":6.21,"altim":29.940945,"flightCategory":"VFR","metarType":"METAR","geometry_esri":{"x":53.53,"y":9.83,"z":13}}}