{"type":"Feature","geometry":{"type":"Point","coordinates":[53.53,9.83,13]},"properties":{"stationId":"EDHI","rawText":"EDHI 090920Z 18007KT 130V220 9999 FEW008 SCT010 BKN018 09/08 Q1012","observationTime":"2020-01-09T09:20:00Z","temp":9,"dewpoint":8,"windDirection":180,"windSpeed":12.964,"visibility":6.21,"altim":29.88189,"flightCategory":"MVFR","metarType":"METAR","geometry_esri":{"x":53.53,"y":9.83,"z":13}}}