{"type":"Feature","geometry":{"type":"Point","coordinates":[53.53,9.83,13]},"properties":{"stationId":"EDHI","rawText":"EDHI 290150Z AUTO 14009KT 110V170 5000 // BKN008/// BKN010/// OVC015/// 02/01 Q0998","observationTime":"2020-02-29T01:50:00Z","temp":2,"dewpoint":1,"windDirection":140,"windSpeed":16.668,"visibility":3.11,"altim":29.468504,"flightCategory":"IFR","metarType":"METAR","geometry_esri":{"x":53.53,"y":9.83,"z":13}}}