{"type":"Feature","geometry":{"type":"Point","coordinates":[53.53,9.83,13]},"properties":{"stationId":"EDHI","rawText":"EDHI 191750Z 30006KT 270V330 CAVOK 06/00 Q1028","observationTime":"2019-03-19T17:50:00Z","temp":6,"dewpoint":0,"windDirection":300,"windSpeed":11.112,"visibility":6.21,"altim":30.35433,"flightCategory":"VFR","metarType":"METAR","geometry_esri":{"x":53.53,"y":9.83,"z":13}}}