{"type":"Feature","geometry":{"type":"Point","coordinates":[53.53,9.83,13]},"properties":{"stationId":"EDHI","rawText":"EDHI 070550Z 27012KT 9999 -DZ OVC007 06/05 Q1028","observationTime":"2019-01-07T05:50:00Z","temp":6,"dewpoint":5,"windDirection":270,"windSpeed":22.224,"visibility":6.21,"altim":30.35433,"flightCategory":"IFR","metarType":"METAR","geometry_esri":{"x":53.53,"y":9.83,"z":13}}}