{"type":"Feature","geometry":{"type":"Point","coordinates":[53.53,9.83,13]},"properties":{"stationId":"EDHI","rawText":"EDHI 310520Z 05003KT CAVOK M02/M04 Q1031","observationTime":"2020-03-31T05:20:00Z","temp":-2,"dewpoint":-4,"windDirection":50,"windSpeed":5.556,"visibility":6.21,"altim":30.442913,"flightCategory":"VFR","metarType":"METAR","geometry_esri":{"x":53.53,"y":9.83,"z":13}}}