{"type":"Feature","geometry":{"type":"Point","coordinates":[53.53,9.83,13]},"properties":{"stationId":"EDHI","rawText":"EDHI 222250Z AUTO 26016G27KT 230V290 //// R23/P2000N // SCT042/// SCT051/// BKN250/// 07/02 Q1012","observationTime":"2020-02-22T22:50:00Z","temp":7,"dewpoint":2,"windDirection":260,"windSpeed":29.632,"visibility":1.24,"altim":29.88189,"flightCategory":"IFR","metarType":"METAR","geometry_esri":{"x":53.53,"y":9.83,"z":13}}}