{"type":"Feature","geometry":{"type":"Point","coordinates":[53.53,9.83,13]},"properties":{"stationId":"EDHI","rawText":"EDHI 170350Z AUTO 25001KT 2800 // SCT004/// 12/12 Q1021","observationTime":"2019-06-17T03:50:00Z","temp":12,"dewpoint":12,"windDirection":250,"windSpeed":1.852,"visibility":1.74,"altim":30.147638,"flightCategory":"IFR","metarType":"METAR","geometry_esri":{"x":53.53,"y":9.83,"z":13}}}