{"type":"Feature","geometry":{"type":"Point","coordinates":[53.53,9.83,13]},"properties":{"stationId":"EDHI","rawText":"EDHI 090820Z AUTO 21008KT 180V260 9999 // FEW170/// 17/10 Q1023","observationTime":"2019-06-09T08:20:00Z","temp":17,"dewpoint":10,"windDirection":210,"windSpeed":14.816,"visibility":6.21,"altim":30.206694,"flightCategory":"VFR","metarType":"METAR","geometry_esri":{"x":53.53,"y":9.83,"z":13}}}