{"type":"Feature","geometry":{"type":"Point","coordinates":[53.53,9.83,13]},"properties":{"stationId":"EDHI","rawText":"EDHI 072150Z AUTO 14004KT 100V190 9999 // FEW037/// OVC160/// 08/04 Q1013","observationTime":"2019-10-07T21:50:00Z","temp":8,"dewpoint":4,"windDirection":140,"windSpeed":7.408,"visibility":6.21,"altim":29.911417,"flightCategory":"VFR","metarType":"METAR","geometry_esri":{"x":53.53,"y":9.83,"z":13}}}