{"type":"Feature","geometry":{"type":"Point","coordinates":[53.53,9.83,13]},"properties":{"stationId":"EDHI","rawText":"EDHI 282220Z AUTO 26017KT 3700 // BKN019/// OVC160/// 04/01 Q0993","observationTime":"2020-01-28T22:20:00Z","temp":4,"dewpoint":1,"windDirection":260,"windSpeed":31.484,"visibility":2.3,"altim":29.320866,"flightCategory":"IFR","metarType":"METAR","geometry_esri":{"x":53.53,"y":9.83,"z":13}}}