{"type":"Feature","geometry":{"type":"Point","coordinates":[53.53,9.83,13]},"properties":{"stationId":"EDHI","rawText":"EDHI 091420Z 07011KT 040V100 9999 SCT042 10/M01 Q1016","observationTime":"2019-04-09T14:20:00Z","temp":10,"dewpoint":-1,"windDirection":70,"windSpeed":20.372,"visibility":6.21,"altim":30,"flightCategory":"VFR","metarType":"METAR","geometry_esri":{"x":53.53,"y":9.83,"z":13}}}