{"type":"Feature","geometry":{"type":"Point","coordinates":[53.53,9.83,13]},"properties":{"stationId":"EDHI","rawText":"EDHI 132350Z AUTO 19005KT 150V220 5000 // SCT005/// SCT009/// OVC021/// 01/01 Q0982","observationTime":"2019-12-13T23:50:00Z","temp":1,"dewpoint":1,"windDirection":190,"windSpeed":9.26,"visibility":3.11,"altim":28.996063,"flightCategory":"MVFR","metarType":"METAR","geometry_esri":{"x":53.53,"y":9.83,"z":13}}}