{"type":"Feature","geometry":{"type":"Point","coordinates":[53.53,9.83,13]},"properties":{"stationId":"EDHI","rawText":"EDHI 260250Z AUTO 08002KT 9999 0650 R23/P2000N // NCD 22/18 Q1017","observationTime":"2019-06-26T02:50:00Z","temp":22,"dewpoint":18,"windDirection":80,"windSpeed":3.704,"visibility":6.21,"altim":30.029528,"flightCategory":"VFR","metarType":"METAR","geometry_esri":{"x":53.53,"y":9.83,"z":13}}}