{"type":"Feature","geometry":{"type":"Point","coordinates":[53.53,9.83,13]},"properties":{"stationId":"EDHI","rawText":"EDHI 091920Z AUTO 19003KT 150V220 4600 // FEW069/// 04/03 Q1007","observationTime":"2019-11-09T19:20:00Z","temp":4,"dewpoint":3,"windDirection":190,"windSpeed":5.556,"visibility":2.86,"altim":29.734253,"flightCategory":"IFR","metarType":"METAR","geometry_esri":{"x":53.53,"y":9.83,"z":13}}}