{"type":"Feature","geometry":{"type":"Point","coordinates":[53.53,9.83,13]},"properties":{"stationId":"EDHI","rawText":"EDHI 251620Z 18007KT 130V220 CAVOK 23/05 Q1008","observationTime":"2019-04-25T16:20:00Z","temp":23,"dewpoint":5,"windDirection":180,"windSpeed":12.964,"visibility":6.21,"altim":29.763779,"flightCategory":"VFR","metarType":"METAR","geometry_esri":{"x":53.53,"y":9.83,"z":13}}}