{"type":"Feature","geometry":{"type":"Point","coordinates":[53.53,9.83,13]},"properties":{"stationId":"EDHI","rawText":"EDHI 301020Z 26011KT 9999 FEW035 22/14 Q1022","observationTime":"2019-08-30T10:20:00Z","temp":22,"dewpoint":14,"windDirection":260,"windSpeed":20.372,"visibility":6.21,"altim":30.177166,"flightCategory":"VFR","metarType":"METAR","geometry_esri":{"x":53.53,"y":9.83,"z":13}}}