{"type":"Feature","geometry":{"type":"Point","coordinates":[53.53,9.83,13]},"properties":{"stationId":"EDHI","rawText":"EDHI 221350Z 25005KT 7000 -DZ FEW007 SCT016 BKN024 07/06 Q1009","observationTime":"2018-12-22T13:50:00Z","temp":7,"dewpoint":6,"windDirection":250,"windSpeed":9.26,"visibility":4.35,"altim":29.793306,"flightCategory":"MVFR","metarType":"METAR","geometry_esri":{"x":53.53,"y":9.83,"z":13}}}