{"type":"Feature","geometry":{"type":"Point","coordinates":[53.53,9.83,13]},"properties":{"stationId":"EDHI","rawText":"EDHI 140220Z AUTO 31015KT 280V340 9999 // BKN032/// BKN039/// 04/M01 Q0998","observationTime":"2019-01-14T02:20:00Z","temp":4,"dewpoint":-1,"windDirection":310,"windSpeed":27.78,"visibility":6.21,"altim":29.468504,"flightCategory":"VFR","metarType":"METAR","geometry_esri":{"x":53.53,"y":9.83,"z":13}}}