{"type":"Feature","geometry":{"type":"Point","coordinates":[53.53,9.83,13]},"properties":{"stationId":"EDHI","rawText":"EDHI 061420Z 21014KT 180V240 3800 -DZ BR OVC005 05/05 Q1003","observationTime":"2019-12-06T14:20:00Z","temp":5,"dewpoint":5,"windDirection":210,"windSpeed":25.928,"visibility":2.36,"altim":29.616142,"flightCategory":"IFR","metarType":"METAR","geometry_esri":{"x":53.53,"y":9.83,"z":13}}}