{"type":"Feature","geometry":{"type":"Point","coordinates":[53.53,9.83,13]},"properties":{"stationId":"EDHI","rawText":"EDHI 100420Z AUTO 07007KT 040V120 9999 // FEW056/// BKN076/// OVC098/// 15/11 Q1016","observationTime":"2019-06-10T04:20:00Z","temp":15,"dewpoint":11,"windDirection":70,"windSpeed":12.964,"visibility":6.21,"altim":30,"flightCategory":"VFR","metarType":"METAR","geometry_esri":{"x":53.53,"y":9.83,"z":13}}}