{"type":"Feature","geometry":{"type":"Point","coordinates":[53.53,9.83,13]},"properties":{"stationId":"EDHI","rawText":"EDHI 270520Z AUTO 19012KT 9999 // SCT009/// BKN023/// OVC039/// 05/03 Q0986","observationTime":"2019-01-27T05:20:00Z","temp":5,"dewpoint":3,"windDirection":190,"windSpeed":22.224,"visibility":6.21,"altim":29.114174,"flightCategory":"MVFR","metarType":"METAR","geometry_esri":{"x":53.53,"y":9.83,"z":13}}}