{"type":"Feature","geometry":{"type":"Point","coordinates":[53.53,9.83,13]},"properties":{"stationId":"EDHI","rawText":"EDHI 021450Z 31013G24KT 270V340 9999 FEW041 17/07 Q1021","observationTime":"2019-07-02T14:50:00Z","temp":17,"dewpoint":7,"windDirection":310,"windSpeed":24.076,"visibility":6.21,"altim":30.147638,"flightCategory":"VFR","metarType":"METAR","geometry_esri":{"x":53.53,"y":9.83,"z":13}}}