{"type":"Feature","geometry":{"type":"Point","coordinates":[53.53,9.83,13]},"properties":{"stationId":"EDHI","rawText":"EDHI 231750Z AUTO 13005KT 100V180 9999 // BKN190/// 05/M04 Q1039","observationTime":"2019-02-23T17:50:00Z","temp":5,"dewpoint":-4,"windDirection":130,"windSpeed":9.26,"visibility":6.21,"altim":30.679134,"flightCategory":"VFR","metarType":"METAR","geometry_esri":{"x":53.53,"y":9.83,"z":13}}}