{"type":"Feature","geometry":{"type":"Point","coordinates":[53.53,9.83,13]},"properties":{"stationId":"EDHI","rawText":"EDHI 301320Z 23008KT 180V260 CAVOK 24/15 Q1022","observationTime":"2019-08-30T13:20:00Z","temp":24,"dewpoint":15,"windDirection":230,"windSpeed":14.816,"visibility":6.21,"altim":30.177166,"flightCategory":"VFR","metarType":"METAR","geometry_esri":{"x":53.53,"y":9.83,"z":13}}}