{"type":"Feature","geometry":{"type":"Point","coordinates":[53.53,9.83,13]},"properties":{"stationId":"EDHI","rawText":"EDHI 011650Z 13005KT 100V160 4800 BR BKN008 04/03 Q1003","observationTime":"2019-11-01T16:50:00Z","temp":4,"dewpoint":3,"windDirection":130,"windSpeed":9.26,"visibility":2.98,"altim":29.616142,"flightCategory":"IFR","metarType":"METAR","geometry_esri":{"x":53.53,"y":9.83,"z":13}}}