{"type":"Feature","geometry":{"type":"Point","coordinates":[53.53,9.83,13]},"properties":{"stationId":"EDHI","rawText":"EDHI 030420Z AUTO VRB02KT 0600 0550 R05/1000U // SCT003/// 12/12 Q1014","observationTime":"2019-08-03T04:20:00Z","temp":12,"dewpoint":12,"windDirection":0,"windSpeed":3.704,"visibility":0.37,"altim":29.940945,"flightCategory":"LIFR","metarType":"METAR","geometry_esri":{"x":53.53,"y":9.83,"z":13}}}