{"type":"Feature","geometry":{"type":"Point","coordinates":[53.53,9.83,13]},"properties":{"stationId":"EDHI","rawText":"EDHI 131520Z 11007KT 070V160 9999 SCT014 OVC016 02/M00 Q0980","observationTime":"2019-12-13T15:20:00Z","temp":2,"dewpoint":0,"windDirection":110,"windSpeed":12.964,"visibility":6.21,"altim":28.937008,"flightCategory":"MVFR","metarType":"METAR","geometry_esri":{"x":53.53,"y":9.83,"z":13}}}