{"type":"Feature","geometry":{"type":"Point","coordinates":[53.53,9.83,13]},"properties":{"stationId":"EDHI","rawText":"EDHI 310020Z AUTO 25019KT 8000 // BKN008/// OVC013/// 09/08 Q0994","observationTime":"2020-01-31T00:20:00Z","temp":9,"dewpoint":8,"windDirection":250,"windSpeed":35.188,"visibility":4.97,"altim":29.350393,"flightCategory":"IFR","metarType":"METAR","geometry_esri":{"x":53.53,"y":9.83,"z":13}}}