{"type":"Feature","geometry":{"type":"Point","coordinates":[53.53,9.83,13]},"properties":{"stationId":"EDHI","rawText":"EDHI 060850Z 22012KT 1600 R23/0900D -RADZ BR OVC005 05/04 Q1006","observationTime":"2019-12-06T08:50:00Z","temp":5,"dewpoint":4,"windDirection":220,"windSpeed":22.224,"visibility":0.99,"altim":29.704725,"flightCategory":"LIFR","metarType":"METAR","geometry_esri":{"x":53.53,"y":9.83,"z":13}}}