{"type":"Feature","geometry":{"type":"Point","coordinates":[53.53,9.83,13]},"properties":{"stationId":"EDHI","rawText":"EDHI 310050Z AUTO 26003KT 5000 // OVC004/// 05/05 Q1029","observationTime":"2018-12-31T00:50:00Z","temp":5,"dewpoint":5,"windDirection":260,"windSpeed":5.556,"visibility":3.11,"altim":30.383858,"flightCategory":"LIFR","metarType":"METAR","geometry_esri":{"x":53.53,"y":9.83,"z":13}}}