{"type":"Feature","geometry":{"type":"Point","coordinates":[53.53,9.83,13]},"properties":{"stationId":"EDHI","rawText":"EDHI 201050Z 09011KT 050V150 CAVOK 14/M02 Q1027","observationTime":"2020-04-20T10:50:00Z","temp":14,"dewpoint":-2,"windDirection":90,"windSpeed":20.372,"visibility":6.21,"altim":30.324802,"flightCategory":"VFR","metarType":"METAR","geometry_esri":{"x":53.53,"y":9.83,"z":13}}}