{"type":"Feature","geometry":{"type":"Point","coordinates":[53.53,9.83,13]},"properties":{"stationId":"EDHI","rawText":"EDHI 230250Z AUTO 26002KT 7000 // NCD 16/16 Q1021","observationTime":"2019-07-23T02:50:00Z","temp":16,"dewpoint":16,"windDirection":260,"windSpeed":3.704,"visibility":4.35,"altim":30.147638,"flightCategory":"MVFR","metarType":"METAR","geometry_esri":{"x":53.53,"y":9.83,"z":13}}}