{"type":"Feature","geometry":{"type":"Point","coordinates":[53.53,9.83,13]},"properties":{"stationId":"EDHI","rawText":"EDHI 161650Z AUTO 21023G41KT 180V240 9999 // OVC043/// 16/08 Q0993","observationTime":"2020-02-16T16:50:00Z","temp":16,"dewpoint":8,"windDirection":210,"windSpeed":42.596000000000004,"visibility":6.21,"altim":29.320866,"flightCategory":"VFR","metarType":"METAR","geometry_esri":{"x":53.53,"y":9.83,"z":13}}}