{"type":"Feature","geometry":{"type":"Point","coordinates":[53.53,9.83,13]},"properties":{"stationId":"EDHI","rawText":"EDHI 241720Z AUTO 29009KT 9999 // FEW037/// BKN140/// 08/03 Q1022","observationTime":"2019-03-24T17:20:00Z","temp":8,"dewpoint":3,"windDirection":290,"windSpeed":16.668,"visibility":6.21,"altim":30.177166,"flightCategory":"VFR","metarType":"SPECI","geometry_esri":{"x":53.53,"y":9.83,"z":13}}}