{"type":"Feature","geometry":{"type":"Point","coordinates":[53.53,9.83,13]},"properties":{"stationId":"EDHI","rawText":"EDHI 230950Z 29007KT 240V340 CAVOK 24/14 Q1026","observationTime":"2019-08-23T09:50:00Z","temp":24,"dewpoint":14,"windDirection":290,"windSpeed":12.964,"visibility":6.21,"altim":30.295275,"flightCategory":"VFR","metarType":"METAR","geometry_esri":{"x":53.53,"y":9.83,"z":13}}}