{"type":"Feature","geometry":{"type":"Point","coordinates":[53.53,9.83,13]},"properties":{"stationId":"EDHI","rawText":"EDHI 022320Z AUTO 14005KT 100V160 9999 // BKN050/// BKN060/// OVC150/// 11/06 Q1002","observationTime":"2019-04-02T23:20:00Z","temp":11,"dewpoint":6,"windDirection":140,"windSpeed":9.26,"visibility":6.21,"altim":29.586615,"flightCategory":"VFR","metarType":"METAR","geometry_esri":{"x":53.53,"y":9.83,"z":13}}}