{"type":"Feature","geometry":{"type":"Point","coordinates":[53.53,9.83,13]},"properties":{"stationId":"EDHI","rawText":"EDHI 012150Z AUTO 25005KT 2700 // OVC003/// 03/03 Q1020","observationTime":"2019-12-01T21:50:00Z","temp":3,"dewpoint":3,"windDirection":250,"windSpeed":9.26,"visibility":1.68,"altim":30.11811,"flightCategory":"LIFR","metarType":"METAR","geometry_esri":{"x":53.53,"y":9.83,"z":13}}}