{"type":"Feature","geometry":{"type":"Point","coordinates":[53.53,9.83,13]},"properties":{"stationId":"EDHI","rawText":"EDHI 162350Z AUTO 19006KT 160V220 9999 // SCT010/// BKN015/// OVC025/// 13/12 Q1007","observationTime":"2019-10-16T23:50:00Z","temp":13,"dewpoint":12,"windDirection":190,"windSpeed":11.112,"visibility":6.21,"altim":29.734253,"flightCategory":"MVFR","metarType":"METAR","geometry_esri":{"x":53.53,"y":9.83,"z":13}}}