{"type":"Feature","geometry":{"type":"Point","coordinates":[53.53,9.83,13]},"properties":{"stationId":"EDHI","rawText":"EDHI 151120Z 08011KT 050V120 9000 OVC013 05/03 Q1005","observationTime":"2019-11-15T11:20:00Z","temp":5,"dewpoint":3,"windDirection":80,"windSpeed":20.372,"visibility":5.59,"altim":29.675198,"flightCategory":"MVFR","metarType":"METAR","geometry_esri":{"x":53.53,"y":9.83,"z":13}}}