{"type":"Feature","geometry":{"type":"Point","coordinates":[53.53,9.83,13]},"properties":{"stationId":"EDHI","rawText":"EDHI 241020Z 30016KT 270V330 CAVOK 17/03 Q1010","observationTime":"2020-04-24T10:20:00Z","temp":17,"dewpoint":3,"windDirection":300,"windSpeed":29.632,"visibility":6.21,"altim":29.822834,"flightCategory":"VFR","metarType":"METAR","geometry_esri":{"x":53.53,"y":9.83,"z":13}}}