{"type":"Feature","geometry":{"type":"Point","coordinates":[53.53,9.83,13]},"properties":{"stationId":"EDHI","rawText":"EDHI 181720Z 19007KT 160V220 7000 -RA BKN007 OVC034 06/05 Q1004","observationTime":"2019-11-18T17:20:00Z","temp":6,"dewpoint":5,"windDirection":190,"windSpeed":12.964,"visibility":4.35,"altim":29.64567,"flightCategory":"IFR","metarType":"METAR","geometry_esri":{"x":53.53,"y":9.83,"z":13}}}