{"type":"Feature","geometry":{"type":"Point","coordinates":[53.53,9.83,13]},"properties":{"stationId":"EDHI","rawText":"EDHI 170120Z AUTO 21013KT 9999 // SCT035/// BKN071/// 10/06 Q0994","observationTime":"2019-03-17T01:20:00Z","temp":10,"dewpoint":6,"windDirection":210,"windSpeed":24.076,"visibility":6.21,"altim":29.350393,"flightCategory":"VFR","metarType":"METAR","geometry_esri":{"x":53.53,"y":9.83,"z":13}}}