{"type":"Feature","geometry":{"type":"Point","coordinates":[53.53,9.83,13]},"properties":{"stationId":"EDHI","rawText":"EDHI 282320Z AUTO 25016KT 8000 2000 // BKN017/// BKN028/// BKN051/// 04/01 Q0993","observationTime":"2020-01-28T23:20:00Z","temp":4,"dewpoint":1,"windDirection":250,"windSpeed":29.632,"visibility":4.97,"altim":29.320866,"flightCategory":"MVFR","metarType":"METAR","geometry_esri":{"x":53.53,"y":9.83,"z":13}}}