{"type":"Feature","geometry":{"type":"Point","coordinates":[53.53,9.83,13]},"properties":{"stationId":"EDHI","rawText":"EDHI 200650Z 26003KT 5000 BR SCT006 BKN019 03/03 Q1045","observationTime":"2020-01-20T06:50:00Z","temp":3,"dewpoint":3,"windDirection":260,"windSpeed":5.556,"visibility":3.11,"altim":30.856298,"flightCategory":"MVFR","metarType":"METAR","geometry_esri":{"x":53.53,"y":9.83,"z":13}}}