{"type":"Feature","geometry":{"type":"Point","coordinates":[53.53,9.83,13]},"properties":{"stationId":"EDHI","rawText":"EDHI 200220Z AUTO 12004KT 090V150 9999 // FEW031/// SCT041/// OVC048/// 05/04 Q1012","observationTime":"2018-12-20T02:20:00Z","temp":5,"dewpoint":4,"windDirection":120,"windSpeed":7.408,"visibility":6.21,"altim":29.88189,"flightCategory":"VFR","metarType":"METAR","geometry_esri":{"x":53.53,"y":9.83,"z":13}}}