{"type":"Feature","geometry":{"type":"Point","coordinates":[53.53,9.83,13]},"properties":{"stationId":"EDHI","rawText":"EDHI 211950Z AUTO 25024KT 9999 2600 // BKN015/// OVC028/// 10/08 Q0993","observationTime":"2018-12-21T19:50:00Z","temp":10,"dewpoint":8,"windDirection":250,"windSpeed":44.448,"visibility":6.21,"altim":29.320866,"flightCategory":"MVFR","metarType":"METAR","geometry_esri":{"x":53.53,"y":9.83,"z":13}}}