{"type":"Feature","geometry":{"type":"Point","coordinates":[53.53,9.83,13]},"properties":{"stationId":"EDHI","rawText":"EDHI 111120Z 13008KT 100V180 CAVOK 06/03 Q1007","observationTime":"2019-11-11T11:20:00Z","temp":6,"dewpoint":3,"windDirection":130,"windSpeed":14.816,"visibility":6.21,"altim":29.734253,"flightCategory":"VFR","metarType":"METAR","geometry_esri":{"x":53.53,"y":9.83,"z":13}}}