{"type":"Feature","geometry":{"type":"Point","coordinates":[53.53,9.83,13]},"properties":{"stationId":"EDHI","rawText":"EDHI 242120Z AUTO 28008KT 9000 3700 // SCT020/// BKN033/// OVC041/// 04/03 Q1031","observationTime":"2018-12-24T21:20:00Z","temp":4,"dewpoint":3,"windDirection":280,"windSpeed":14.816,"visibility":5.59,"altim":30.442913,"flightCategory":"VFR","metarType":"METAR","geometry_esri":{"x":53.53,"y":9.83,"z":13}}}