{"type":"Feature","geometry":{"type":"Point","coordinates":[53.53,9.83,13]},"properties":{"stationId":"EDHI","rawText":"EDHI 190750Z 17006KT 140V200 CAVOK 12/08 Q1006","observationTime":"2019-10-19T07:50:00Z","temp":12,"dewpoint":8,"windDirection":170,"windSpeed":11.112,"visibility":6.21,"altim":29.704725,"flightCategory":"VFR","metarType":"METAR","geometry_esri":{"x":53.53,"y":9.83,"z":13}}}