{"type":"Feature","geometry":{"type":"Point","coordinates":[53.53,9.83,13]},"properties":{"stationId":"EDHI","rawText":"EDHI 240320Z AUTO 11004KT 080V150 9999 // NCD 20/17 Q1018","observationTime":"2019-07-24T03:20:00Z","temp":20,"dewpoint":17,"windDirection":110,"windSpeed":7.408,"visibility":6.21,"altim":30.059055,"flightCategory":"VFR","metarType":"METAR","geometry_esri":{"x":53.53,"y":9.83,"z":13}}}