{"type":"Feature","geometry":{"type":"Point","coordinates":[53.53,9.83,13]},"properties":{"stationId":"EDHI","rawText":"EDHI 210120Z AUTO 03007KT 9999 // NCD 02/M05 Q1031","observationTime":"2020-03-21T01:20:00Z","temp":2,"dewpoint":-5,"windDirection":30,"windSpeed":12.964,"visibility":6.21,"altim":30.442913,"flightCategory":"VFR","metarType":"METAR","geometry_esri":{"x":53.53,"y":9.83,"z":13}}}