{"type":"Feature","geometry":{"type":"Point","coordinates":[53.53,9.83,13]},"properties":{"stationId":"EDHI","rawText":"EDHI 160720Z 29014KT 9000 -DZ SCT006 BKN010 OVC017 15/14 Q1015","observationTime":"2019-07-16T07:20:00Z","temp":15,"dewpoint":14,"windDirection":290,"windSpeed":25.928,"visibility":5.59,"altim":29.970472,"flightCategory":"MVFR","metarType":"METAR","geometry_esri":{"x":53.53,"y":9.83,"z":13}}}