{"type":"Feature","geometry":{"type":"Point","coordinates":[53.53,9.83,13]},"properties":{"stationId":"EDHI","rawText":"EDHI 170220Z AUTO 07007KT 040V100 4500 // OVC004/// 10/09 Q1012","observationTime":"2019-05-17T02:20:00Z","temp":10,"dewpoint":9,"windDirection":70,"windSpeed":12.964,"visibility":2.8,"altim":29.88189,"flightCategory":"LIFR","metarType":"METAR","geometry_esri":{"x":53.53,"y":9.83,"z":13}}}