{"type":"Feature","geometry":{"type":"Point","coordinates":[53.53,9.83,13]},"properties":{"stationId":"EDHI","rawText":"EDHI 260120Z AUTO 24007KT 1600 1100 R23/2000D // OVC002/// 00/00 Q1002","observationTime":"2019-01-26T01:20:00Z","temp":0,"dewpoint":0,"windDirection":240,"windSpeed":12.964,"visibility":0.99,"altim":29.586615,"flightCategory":"LIFR","metarType":"METAR","geometry_esri":{"x":53.53,"y":9.83,"z":13}}}