{"type":"Feature","geometry":{"type":"Point","coordinates":[53.53,9.83,13]},"properties":{"stationId":"EDHI","rawText":"EDHI 030520Z AUTO 33005KT 280V010 8000 // FEW013/// OVC041/// 01/M01 Q1011","observationTime":"2019-02-03T05:20:00Z","temp":1,"dewpoint":-1,"windDirection":330,"windSpeed":9.26,"visibility":4.97,"altim":29.852362,"flightCategory":"MVFR","metarType":"METAR","geometry_esri":{"x":53.53,"y":9.83,"z":13}}}