{"type":"Feature","geometry":{"type":"Point","coordinates":[53.53,9.83,13]},"properties":{"stationId":"EDHI","rawText":"EDHI 170120Z AUTO 24017KT 3600 // OVC009/// 05/04 Q0995","observationTime":"2019-01-17T01:20:00Z","temp":5,"dewpoint":4,"windDirection":240,"windSpeed":31.484,"visibility":2.24,"altim":29.379921,"flightCategory":"IFR","metarType":"METAR","geometry_esri":{"x":53.53,"y":9.83,"z":13}}}