{"type":"Feature","geometry":{"type":"Point","coordinates":[53.53,9.83,13]},"properties":{"stationId":"EDHI","rawText":"EDHI 251420Z 30007KT CAVOK 14/01 Q1036","observationTime":"2019-02-25T14:20:00Z","temp":14,"dewpoint":1,"windDirection":300,"windSpeed":12.964,"visibility":6.21,"altim":30.590551,"flightCategory":"VFR","metarType":"METAR","geometry_esri":{"x":53.53,"y":9.83,"z":13}}}