{"type":"Feature","geometry":{"type":"Point","coordinates":[53.53,9.83,13]},"properties":{"stationId":"EDHI","rawText":"EDHI 042050Z AUTO 31005KT 8000 // FEW006/// 07/06 Q1001","observationTime":"2019-04-04T20:50:00Z","temp":7,"dewpoint":6,"windDirection":310,"windSpeed":9.26,"visibility":4.97,"altim":29.557087,"flightCategory":"MVFR","metarType":"METAR","geometry_esri":{"x":53.53,"y":9.83,"z":13}}}