{"type":"Feature","geometry":{"type":"Point","coordinates":[53.53,9.83,13]},"properties":{"stationId":"EDHI","rawText":"EDHI 291650Z 25006KT CAVOK 15/07 Q1027","observationTime":"2019-03-29T16:50:00Z","temp":15,"dewpoint":7,"windDirection":250,"windSpeed":11.112,"visibility":6.21,"altim":30.324802,"flightCategory":"VFR","metarType":"METAR","geometry_esri":{"x":53.53,"y":9.83,"z":13}}}