{"type":"Feature","geometry":{"type":"Point","coordinates":[53.53,9.83,13]},"properties":{"stationId":"EDHI","rawText":"EDHI 030620Z AUTO 21003KT 150V250 1200 0700 R05/0700N // FEW001/// SCT004/// 16/16 Q1015","observationTime":"2019-08-03T06:20:00Z","temp":16,"dewpoint":16,"windDirection":210,"windSpeed":5.556,"visibility":0.75,"altim":29.970472,"flightCategory":"LIFR","metarType":"METAR","geometry_esri":{"x":53.53,"y":9.83,"z":13}}}