{"type":"Feature","geometry":{"type":"Point","coordinates":[53.53,9.83,13]},"properties":{"stationId":"EDHI","rawText":"EDHI 131320Z 31015KT 9999 FEW047 18/07 Q1031","observationTime":"2019-09-13T13:20:00Z","temp":18,"dewpoint":7,"windDirection":310,"windSpeed":27.78,"visibility":6.21,"altim":30.442913,"flightCategory":"VFR","metarType":"METAR","geometry_esri":{"x":53.53,"y":9.83,"z":13}}}