{"type":"Feature","geometry":{"type":"Point","coordinates":[53.53,9.83,13]},"properties":{"stationId":"EDHI","rawText":"EDHI 050220Z AUTO VRB01KT 6000 // FEW027/// BKN064/// 09/09 Q0992","observationTime":"2019-11-05T02:20:00Z","temp":9,"dewpoint":9,"windDirection":0,"windSpeed":1.852,"visibility":3.73,"altim":29.291338,"flightCategory":"MVFR","metarType":"METAR","geometry_esri":{"x":53.53,"y":9.83,"z":13}}}