{"type":"Feature","geometry":{"type":"Point","coordinates":[53.53,9.83,13]},"properties":{"stationId":"EDHI","rawText":"EDHI 141020Z 23015KT 8000 -RA SCT011 BKN015 04/02 Q0983","observationTime":"2019-12-14T10:20:00Z","temp":4,"dewpoint":2,"windDirection":230,"windSpeed":27.78,"visibility":4.97,"altim":29.02559,"flightCategory":"MVFR","metarType":"METAR","geometry_esri":{"x":53.53,"y":9.83,"z":13}}}