{"type":"Feature","geometry":{"type":"Point","coordinates":[53.53,9.83,13]},"properties":{"stationId":"EDHI","rawText":"EDHI 150150Z AUTO 26010KT 9999 // BKN029/// BKN140/// 05/02 Q1023","observationTime":"2020-04-15T01:50:00Z","temp":5,"dewpoint":2,"windDirection":260,"windSpeed":18.52,"visibility":6.21,"altim":30.206694,"flightCategory":"MVFR","metarType":"METAR","geometry_esri":{"x":53.53,"y":9.83,"z":13}}}