{"type":"Feature","geometry":{"type":"Point","coordinates":[53.53,9.83,13]},"properties":{"stationId":"EDHI","rawText":"EDHI 291820Z AUTO 02003KT 290V070 9999 // NCD 29/13 Q1016","observationTime":"2019-06-29T18:20:00Z","temp":29,"dewpoint":13,"windDirection":20,"windSpeed":5.556,"visibility":6.21,"altim":30,"flightCategory":"VFR","metarType":"METAR","geometry_esri":{"x":53.53,"y":9.83,"z":13}}}