{"type":"Feature","geometry":{"type":"Point","coordinates":[53.53,9.83,13]},"properties":{"stationId":"EDHI","rawText":"EDHI 310750Z VRB02KT 0500 R05/2000U FG BKN002 OVC003 06/06 Q1030","observationTime":"2018-12-31T07:50:00Z","temp":6,"dewpoint":6,"windDirection":0,"windSpeed":3.704,"visibility":0.31,"altim":30.413385,"flightCategory":"LIFR","metarType":"METAR","geometry_esri":{"x":53.53,"y":9.83,"z":13}}}