{"type":"Feature","geometry":{"type":"Point","coordinates":[53.53,9.83,13]},"properties":{"stationId":"EDHI","rawText":"EDHI 102250Z AUTO 25004KT 7000 // SCT029/// 03/01 Q1013","observationTime":"2019-11-10T22:50:00Z","temp":3,"dewpoint":1,"windDirection":250,"windSpeed":7.408,"visibility":4.35,"altim":29.911417,"flightCategory":"MVFR","metarType":"METAR","geometry_esri":{"x":53.53,"y":9.83,"z":13}}}