{"type":"Feature","geometry":{"type":"Point","coordinates":[53.53,9.83,13]},"properties":{"stationId":"EDHI","rawText":"EDHI 140020Z AUTO 21003KT 170V260 5000 // BKN034/// 03/03 Q1002","observationTime":"2019-11-14T00:20:00Z","temp":3,"dewpoint":3,"windDirection":210,"windSpeed":5.556,"visibility":3.11,"altim":29.586615,"flightCategory":"MVFR","metarType":"METAR","geometry_esri":{"x":53.53,"y":9.83,"z":13}}}