{"type":"Feature","geometry":{"type":"Point","coordinates":[53.53,9.83,13]},"properties":{"stationId":"EDHI","rawText":"EDHI 151820Z 27015KT 9999 BKN020 15/11 Q1016","observationTime":"2019-07-15T18:20:00Z","temp":15,"dewpoint":11,"windDirection":270,"windSpeed":27.78,"visibility":6.21,"altim":30,"flightCategory":"MVFR","metarType":"METAR","geometry_esri":{"x":53.53,"y":9.83,"z":13}}}