{"type":"Feature","geometry":{"type":"Point","coordinates":[53.53,9.83,13]},"properties":{"stationId":"EDHI","rawText":"EDHI 091720Z AUTO 28016KT 9999 // SCT024/// BKN028/// 07/04 Q0997","observationTime":"2018-12-09T17:20:00Z","temp":7,"dewpoint":4,"windDirection":280,"windSpeed":29.632,"visibility":6.21,"altim":29.438976,"skyCondition1a":"SCT","skyCondition1b":2400,"skyCondition2a":"BKN","skyCondition2b":2800,"flightCategory":"MVFR","metarType":"METAR","geometry_esri":{"x":53.53,"y":9.83,"z":13}}}