{"type":"Feature","geometry":{"type":"Point","coordinates":[53.53,9.83,13]},"properties":{"stationId":"EDHI","rawText":"EDHI 131450Z 26005KT 210V300 9999 FEW032 11/03 Q1012","observationTime":"2020-05-13T14:50:00Z","temp":11,"dewpoint":3,"windDirection":260,"windSpeed":9.26,"visibility":6.21,"altim":29.88189,"flightCategory":"VFR","metarType":"METAR","geometry_esri":{"x":53.53,"y":9.83,"z":13}}}