{"type":"Feature","geometry":{"type":"Point","coordinates":[53.53,9.83,13]},"properties":{"stationId":"EDHI","rawText":"EDHI 121650Z AUTO 30008KT 270V330 9999 // FEW098/// SCT120/// 18/07 Q1012","observationTime":"2020-04-12T16:50:00Z","temp":18,"dewpoint":7,"windDirection":300,"windSpeed":14.816,"visibility":6.21,"altim":29.88189,"flightCategory":"VFR","metarType":"METAR","geometry_esri":{"x":53.53,"y":9.83,"z":13}}}