{"type":"Feature","geometry":{"type":"Point","coordinates":[53.53,9.83,13]},"properties":{"stationId":"EDHI","rawText":"EDHI 131320Z AUTO 10005KT 050V200 9999 // SCT038/// BKN047/// OVC072/// 05/M02 Q1025","observationTime":"2019-04-13T13:20:00Z","temp":5,"dewpoint":-2,"windDirection":100,"windSpeed":9.26,"visibility":6.21,"altim":30.265747,"flightCategory":"VFR","metarType":"METAR","geometry_esri":{"x":53.53,"y":9.83,"z":13}}}