{"type":"Feature","geometry":{"type":"Point","coordinates":[53.53,9.83,13]},"properties":{"stationId":"EDHI","rawText":"EDHI 070020Z AUTO 23005KT 9999 // FEW240/// 01/M00 Q1018","observationTime":"2020-01-07T00:20:00Z","temp":1,"dewpoint":0,"windDirection":230,"windSpeed":9.26,"visibility":6.21,"altim":30.059055,"flightCategory":"VFR","metarType":"METAR","geometry_esri":{"x":53.53,"y":9.83,"z":13}}}