{"type":"Feature","geometry":{"type":"Point","coordinates":[53.53,9.83,13]},"properties":{"stationId":"EDHI","rawText":"EDHI 281220Z 29013KT CAVOK 11/02 Q1022","observationTime":"2020-03-28T12:20:00Z","temp":11,"dewpoint":2,"windDirection":290,"windSpeed":24.076,"visibility":6.21,"altim":30.177166,"flightCategory":"VFR","metarType":"METAR","geometry_esri":{"x":53.53,"y":9.83,"z":13}}}