{"type":"Feature","geometry":{"type":"Point","coordinates":[53.53,9.83,13]},"properties":{"stationId":"EDHI","rawText":"EDHI 080620Z 27028G41KT 9000 -SHRA SCT014CB BKN020 07/05 Q1000","observationTime":"2019-01-08T06:20:00Z","temp":7,"dewpoint":5,"windDirection":270,"windSpeed":51.856,"visibility":5.59,"altim":29.52756,"flightCategory":"MVFR","metarType":"METAR","geometry_esri":{"x":53.53,"y":9.83,"z":13}}}