{"type":"Feature","geometry":{"type":"Point","coordinates":[53.53,9.83,13]},"properties":{"stationId":"EDHI","rawText":"EDHI 011420Z 09011KT 060V140 CAVOK 10/M04 Q1023","observationTime":"2019-04-01T14:20:00Z","temp":10,"dewpoint":-4,"windDirection":90,"windSpeed":20.372,"visibility":6.21,"altim":30.206694,"flightCategory":"VFR","metarType":"METAR","geometry_esri":{"x":53.53,"y":9.83,"z":13}}}