{"type":"Feature","geometry":{"type":"Point","coordinates":[53.53,9.83,13]},"properties":{"stationId":"EDHI","rawText":"EDHI 182020Z AUTO 31009KT 9999 // BKN058/// 11/05 Q1025","observationTime":"2019-09-18T20:20:00Z","temp":11,"dewpoint":5,"windDirection":310,"windSpeed":16.668,"visibility":6.21,"altim":30.265747,"flightCategory":"VFR","metarType":"METAR","geometry_esri":{"x":53.53,"y":9.83,"z":13}}}