{"type":"Feature","geometry":{"type":"Point","coordinates":[53.53,9.83,13]},"properties":{"stationId":"EDHI","rawText":"EDHI 071450Z AUTO 30012KT 270V340 9999 // FEW031/// OVC042/// 14/08 Q1013","observationTime":"2019-07-07T14:50:00Z","temp":14,"dewpoint":8,"windDirection":300,"windSpeed":22.224,"visibility":6.21,"altim":29.911417,"flightCategory":"VFR","metarType":"METAR","geometry_esri":{"x":53.53,"y":9.83,"z":13}}}