{"type":"Feature","geometry":{"type":"Point","coordinates":[53.53,9.83,13]},"properties":{"stationId":"EDHI","rawText":"EDHI 100520Z 25019KT 9999 -RA BKN026 OVC035 08/05 Q0981","observationTime":"2020-02-10T05:20:00Z","temp":8,"dewpoint":5,"windDirection":250,"windSpeed":35.188,"visibility":6.21,"altim":28.966536,"flightCategory":"MVFR","metarType":"METAR","geometry_esri":{"x":53.53,"y":9.83,"z":13}}}