{"type":"Feature","geometry":{"type":"Point","coordinates":[53.53,9.83,13]},"properties":{"stationId":"EDHI","rawText":"EDHI 211220Z 14003KT 110V180 9999 BKN007 14/13 Q1016","observationTime":"2019-10-21T12:20:00Z","temp":14,"dewpoint":13,"windDirection":140,"windSpeed":5.556,"visibility":6.21,"altim":30,"flightCategory":"IFR","metarType":"METAR","geometry_esri":{"x":53.53,"y":9.83,"z":13}}}