{"type":"Feature","geometry":{"type":"Point","coordinates":[53.53,9.83,13]},"properties":{"stationId":"EDHI","rawText":"EDHI 111720Z 31008KT 9999 FEW027 BKN036 05/01 Q1020","observationTime":"2018-12-11T17:20:00Z","temp":5,"dewpoint":1,"windDirection":310,"windSpeed":14.816,"visibility":6.21,"altim":30.11811,"skyCondition1a":"FEW","skyCondition1b":2700,"skyCondition2a":"BKN","skyCondition2b":3600,"flightCategory":"VFR","metarType":"METAR","geometry_esri":{"x":53.53,"y":9.83,"z":13}}}