{"type":"Feature","geometry":{"type":"Point","coordinates":[53.53,9.83,13]},"properties":{"stationId":"EDHI","rawText":"EDHI 071450Z 10007KT 070V130 9000 OVC009 06/05 Q1001","observationTime":"2019-11-07T14:50:00Z","temp":6,"dewpoint":5,"windDirection":100,"windSpeed":12.964,"visibility":5.59,"altim":29.557087,"flightCategory":"IFR","metarType":"METAR","geometry_esri":{"x":53.53,"y":9.83,"z":13}}}