{"type":"Feature","geometry":{"type":"Point","coordinates":[53.53,9.83,13]},"properties":{"stationId":"EDHI","rawText":"EDHI 040750Z 34004KT 280V030 9999 FEW008 SCT011 BKN015 08/05 Q0999","observationTime":"2019-04-04T07:50:00Z","temp":8,"dewpoint":5,"windDirection":340,"windSpeed":7.408,"visibility":6.21,"altim":29.498032,"flightCategory":"MVFR","metarType":"METAR","geometry_esri":{"x":53.53,"y":9.83,"z":13}}}