{"type":"Feature","geometry":{"type":"Point","coordinates":[53.53,9.83,13]},"properties":{"stationId":"EDHI","rawText":"EDHI 310650Z 15006KT 120V180 4600 -SHSN OVC015 00/M02 Q0996","observationTime":"2019-01-31T06:50:00Z","temp":0,"dewpoint":-2,"windDirection":150,"windSpeed":11.112,"visibility":2.86,"altim":29.409449,"flightCategory":"IFR","metarType":"METAR","geometry_esri":{"x":53.53,"y":9.83,"z":13}}}