{"type":"Feature","geometry":{"type":"Point","coordinates":[53.53,9.83,13]},"properties":{"stationId":"EDHI","rawText":"EDHI 241720Z AUTO 06009KT 040V100 9999 // NCD 26/14 Q1021","observationTime":"2019-08-24T17:20:00Z","temp":26,"dewpoint":14,"windDirection":60,"windSpeed":16.668,"visibility":6.21,"altim":30.147638,"flightCategory":"VFR","metarType":"METAR","geometry_esri":{"x":53.53,"y":9.83,"z":13}}}