{"type":"Feature","geometry":{"type":"Point","coordinates":[53.53,9.83,13]},"properties":{"stationId":"EDHI","rawText":"EDHI 131450Z AUTO 03015KT 9999 // FEW035/// SCT040/// BKN047/// 06/00 Q1025","observationTime":"2019-04-13T14:50:00Z","temp":6,"dewpoint":0,"windDirection":30,"windSpeed":27.78,"visibility":6.21,"altim":30.265747,"flightCategory":"VFR","metarType":"METAR","geometry_esri":{"x":53.53,"y":9.83,"z":13}}}