{"type":"Feature","geometry":{"type":"Point","coordinates":[53.53,9.83,13]},"properties":{"stationId":"EDHI","rawText":"EDHI 130550Z 13009G19KT 090V160 9999 FEW012 01/M01 Q0982","observationTime":"2019-12-13T05:50:00Z","temp":1,"dewpoint":-1,"windDirection":130,"windSpeed":16.668,"visibility":6.21,"altim":28.996063,"flightCategory":"VFR","metarType":"METAR","geometry_esri":{"x":53.53,"y":9.83,"z":13}}}