{"type":"Feature","geometry":{"type":"Point","coordinates":[53.53,9.83,13]},"properties":{"stationId":"EDHI","rawText":"EDHI 260320Z AUTO 26010KT 1500 1300 R23/P2000N // OVC004/// 05/05 Q1027","observationTime":"2018-12-26T03:20:00Z","temp":5,"dewpoint":5,"windDirection":260,"windSpeed":18.52,"visibility":0.93,"altim":30.324802,"flightCategory":"LIFR","metarType":"METAR","geometry_esri":{"x":53.53,"y":9.83,"z":13}}}