{"type":"Feature","geometry":{"type":"Point","coordinates":[53.53,9.83,13]},"properties":{"stationId":"EDHI","rawText":"EDHI 030520Z 26005KT 220V290 9999 FEW028 11/09 Q1022","observationTime":"2019-07-03T05:20:00Z","temp":11,"dewpoint":9,"windDirection":260,"windSpeed":9.26,"visibility":6.21,"altim":30.177166,"flightCategory":"VFR","metarType":"METAR","geometry_esri":{"x":53.53,"y":9.83,"z":13}}}