{"type":"Feature","geometry":{"type":"Point","coordinates":[53.53,9.83,13]},"properties":{"stationId":"EDHI","rawText":"EDHI 140350Z AUTO 32019G31KT 280V350 9999 // SCT019/// BKN029/// BKN061/// 04/M01 Q1000","observationTime":"2019-01-14T03:50:00Z","temp":4,"dewpoint":-1,"windDirection":320,"windSpeed":35.188,"visibility":6.21,"altim":29.52756,"flightCategory":"MVFR","metarType":"METAR","geometry_esri":{"x":53.53,"y":9.83,"z":13}}}