{"type":"Feature","geometry":{"type":"Point","coordinates":[53.53,9.83,13]},"properties":{"stationId":"EDHI","rawText":"EDHI 110250Z AUTO 06009KT 040V100 9000 // BKN006/// OVC015/// 15/14 Q1009","observationTime":"2019-06-11T02:50:00Z","temp":15,"dewpoint":14,"windDirection":60,"windSpeed":16.668,"visibility":5.59,"altim":29.793306,"flightCategory":"IFR","metarType":"METAR","geometry_esri":{"x":53.53,"y":9.83,"z":13}}}