{"type":"Feature","geometry":{"type":"Point","coordinates":[53.53,9.83,13]},"properties":{"stationId":"EDHI","rawText":"EDHI 221220Z 30008KT 270V330 9999 FEW015 SCT022 07/05 Q1033","observationTime":"2020-01-22T12:20:00Z","temp":7,"dewpoint":5,"windDirection":300,"windSpeed":14.816,"visibility":6.21,"altim":30.501968,"flightCategory":"VFR","metarType":"METAR","geometry_esri":{"x":53.53,"y":9.83,"z":13}}}