{"type":"Feature","geometry":{"type":"Point","coordinates":[53.53,9.83,13]},"properties":{"stationId":"EDHI","rawText":"EDHI 200750Z AUTO 10004KT 060V120 1400 1300 R23/P2000N // FEW001/// SCT004/// OVC130/// M04/M04 Q1018","observationTime":"2019-01-20T07:50:00Z","temp":-4,"dewpoint":-4,"windDirection":100,"windSpeed":7.408,"visibility":0.87,"altim":30.059055,"flightCategory":"LIFR","metarType":"METAR","geometry_esri":{"x":53.53,"y":9.83,"z":13}}}