{"type":"Feature","geometry":{"type":"Point","coordinates":[53.53,9.83,13]},"properties":{"stationId":"EDHI","rawText":"EDHI 110820Z 21007KT 180V240 9999 -RA FEW018 SCT023 BKN050 05/03 Q1008","observationTime":"2019-12-11T08:20:00Z","temp":5,"dewpoint":3,"windDirection":210,"windSpeed":12.964,"visibility":6.21,"altim":29.763779,"flightCategory":"VFR","metarType":"METAR","geometry_esri":{"x":53.53,"y":9.83,"z":13}}}