{"type":"Feature","geometry":{"type":"Point","coordinates":[53.53,9.83,13]},"properties":{"stationId":"EDHI","rawText":"EDHI 240150Z AUTO 10006KT 050V130 9999 // NCD 17/12 Q1023","observationTime":"2019-06-24T01:50:00Z","temp":17,"dewpoint":12,"windDirection":100,"windSpeed":11.112,"visibility":6.21,"altim":30.206694,"flightCategory":"VFR","metarType":"METAR","geometry_esri":{"x":53.53,"y":9.83,"z":13}}}