{"type":"Feature","geometry":{"type":"Point","coordinates":[53.53,9.83,13]},"properties":{"stationId":"EDHI","rawText":"EDHI 060350Z AUTO 09011KT 060V120 9000 // SCT021/// BKN032/// OVC042/// 05/02 Q0991","observationTime":"2020-03-06T03:50:00Z","temp":5,"dewpoint":2,"windDirection":90,"windSpeed":20.372,"visibility":5.59,"altim":29.26181,"flightCategory":"VFR","metarType":"METAR","geometry_esri":{"x":53.53,"y":9.83,"z":13}}}