{"type":"Feature","geometry":{"type":"Point","coordinates":[53.53,9.83,13]},"properties":{"stationId":"EDHI","rawText":"EDHI 061850Z AUTO 03004KT 9999 // FEW087/// OVC130/// 17/08 Q1007","observationTime":"2019-04-06T18:50:00Z","temp":17,"dewpoint":8,"windDirection":30,"windSpeed":7.408,"visibility":6.21,"altim":29.734253,"flightCategory":"VFR","metarType":"METAR","geometry_esri":{"x":53.53,"y":9.83,"z":13}}}