{"type":"Feature","geometry":{"type":"Point","coordinates":[53.53,9.83,13]},"properties":{"stationId":"EDHI","rawText":"EDHI 291220Z 23013KT 6000 BKN009 OVC011 08/06 Q1023","observationTime":"2018-12-29T12:20:00Z","temp":8,"dewpoint":6,"windDirection":230,"windSpeed":24.076,"visibility":3.73,"altim":30.206694,"flightCategory":"IFR","metarType":"METAR","geometry_esri":{"x":53.53,"y":9.83,"z":13}}}