{"type":"Feature","geometry":{"type":"Point","coordinates":[53.53,9.83,13]},"properties":{"stationId":"EDHI","rawText":"EDHI 280650Z 27010KT 1600 BR SCT002 OVC003 06/06 Q1024","observationTime":"2018-12-28T06:50:00Z","temp":6,"dewpoint":6,"windDirection":270,"windSpeed":18.52,"visibility":0.99,"altim":30.236221,"flightCategory":"LIFR","metarType":"METAR","geometry_esri":{"x":53.53,"y":9.83,"z":13}}}