{"type":"Feature","geometry":{"type":"Point","coordinates":[53.53,9.83,13]},"properties":{"stationId":"EDHI","rawText":"EDHI 140820Z 11008KT 070V160 CAVOK 22/12 Q1016","observationTime":"2019-06-14T08:20:00Z","temp":22,"dewpoint":12,"windDirection":110,"windSpeed":14.816,"visibility":6.21,"altim":30,"flightCategory":"VFR","metarType":"METAR","geometry_esri":{"x":53.53,"y":9.83,"z":13}}}