{"type":"Feature","geometry":{"type":"Point","coordinates":[53.53,9.83,13]},"properties":{"stationId":"EDHI","rawText":"EDHI 171920Z 25010KT 9999 FEW004 SCT007 BKN028 01/00 Q1000","observationTime":"2019-01-17T19:20:00Z","temp":1,"dewpoint":0,"windDirection":250,"windSpeed":18.52,"visibility":6.21,"altim":29.52756,"flightCategory":"MVFR","metarType":"METAR","geometry_esri":{"x":53.53,"y":9.83,"z":13}}}