{"type":"Feature","geometry":{"type":"Point","coordinates":[53.53,9.83,13]},"properties":{"stationId":"EDHI","rawText":"EDHI 201750Z AUTO 03008KT 9999 // NCD 16/M04 Q1029","observationTime":"2019-04-20T17:50:00Z","temp":16,"dewpoint":-4,"windDirection":30,"windSpeed":14.816,"visibility":6.21,"altim":30.383858,"flightCategory":"VFR","metarType":"METAR","geometry_esri":{"x":53.53,"y":9.83,"z":13}}}