{"type":"Feature","geometry":{"type":"Point","coordinates":[53.53,9.83,13]},"properties":{"stationId":"EDHI","rawText":"EDHI 060020Z AUTO 23016KT 7000 // FEW014/// OVC058/// 03/01 Q1009","observationTime":"2019-12-06T00:20:00Z","temp":3,"dewpoint":1,"windDirection":230,"windSpeed":29.632,"visibility":4.35,"altim":29.793306,"flightCategory":"MVFR","metarType":"SPECI","geometry_esri":{"x":53.53,"y":9.83,"z":13}}}