{"type":"Feature","geometry":{"type":"Point","coordinates":[53.53,9.83,13]},"properties":{"stationId":"EDHI","rawText":"EDHI 092250Z AUTO 22011KT 180V240 9999 // BKN054/// 07/03 Q1003","observationTime":"2019-02-09T22:50:00Z","temp":7,"dewpoint":3,"windDirection":220,"windSpeed":20.372,"visibility":6.21,"altim":29.616142,"flightCategory":"VFR","metarType":"METAR","geometry_esri":{"x":53.53,"y":9.83,"z":13}}}