{"type":"Feature","geometry":{"type":"Point","coordinates":[53.53,9.83,13]},"properties":{"stationId":"EDHI","rawText":"EDHI 291050Z 25014KT 8000 SCT008 BKN010 08/06 Q1024","observationTime":"2018-12-29T10:50:00Z","temp":8,"dewpoint":6,"windDirection":250,"windSpeed":25.928,"visibility":4.97,"altim":30.236221,"flightCategory":"MVFR","metarType":"METAR","geometry_esri":{"x":53.53,"y":9.83,"z":13}}}