{"type":"Feature","geometry":{"type":"Point","coordinates":[53.53,9.83,13]},"properties":{"stationId":"EDHI","rawText":"EDHI 280450Z AUTO 26005KT 9999 // FEW031/// SCT038/// 07/06 Q1018","observationTime":"2019-10-28T04:50:00Z","temp":7,"dewpoint":6,"windDirection":260,"windSpeed":9.26,"visibility":6.21,"altim":30.059055,"flightCategory":"VFR","metarType":"METAR","geometry_esri":{"x":53.53,"y":9.83,"z":13}}}