{"type":"Feature","geometry":{"type":"Point","coordinates":[53.53,9.83,13]},"properties":{"stationId":"EDHI","rawText":"EDHI 262320Z AUTO 26013KT 7000 // SCT009/// BKN026/// OVC032/// 14/13 Q1005","observationTime":"2019-05-26T23:20:00Z","temp":14,"dewpoint":13,"windDirection":260,"windSpeed":24.076,"visibility":4.35,"altim":29.675198,"flightCategory":"MVFR","metarType":"METAR","geometry_esri":{"x":53.53,"y":9.83,"z":13}}}