{"type":"Feature","geometry":{"type":"Point","coordinates":[53.53,9.83,13]},"properties":{"stationId":"EDHI","rawText":"EDHI 220950Z 28003KT 7000 -DZ FEW008 SCT011 BKN016 06/06 Q1007","observationTime":"2018-12-22T09:50:00Z","temp":6,"dewpoint":6,"windDirection":280,"windSpeed":5.556,"visibility":4.35,"altim":29.734253,"flightCategory":"MVFR","metarType":"METAR","geometry_esri":{"x":53.53,"y":9.83,"z":13}}}