{"type":"Feature","geometry":{"type":"Point","coordinates":[53.53,9.83,13]},"properties":{"stationId":"EDHI","rawText":"EDHI 111820Z 08009KT 050V110 9999 FEW033 05/M01 Q1026","observationTime":"2019-04-11T18:20:00Z","temp":5,"dewpoint":-1,"windDirection":80,"windSpeed":16.668,"visibility":6.21,"altim":30.295275,"flightCategory":"VFR","metarType":"METAR","geometry_esri":{"x":53.53,"y":9.83,"z":13}}}