{"type":"Feature","geometry":{"type":"Point","coordinates":[53.53,9.83,13]},"properties":{"stationId":"EDHI","rawText":"EDHI 022050Z AUTO 30008KT 4000 // OVC012/// 01/M00 Q1005","observationTime":"2019-02-02T20:50:00Z","temp":1,"dewpoint":0,"windDirection":300,"windSpeed":14.816,"visibility":2.49,"altim":29.675198,"flightCategory":"IFR","metarType":"METAR","geometry_esri":{"x":53.53,"y":9.83,"z":13}}}