{"type":"Feature","geometry":{"type":"Point","coordinates":[53.53,9.83,13]},"properties":{"stationId":"EDHI","rawText":"EDHI 020850Z AUTO 25008KT 9999 // FEW010/// BKN029/// BKN170/// 06/05 Q1005","observationTime":"2020-02-02T08:50:00Z","temp":6,"dewpoint":5,"windDirection":250,"windSpeed":14.816,"visibility":6.21,"altim":29.675198,"flightCategory":"MVFR","metarType":"METAR","geometry_esri":{"x":53.53,"y":9.83,"z":13}}}