{"type":"Feature","geometry":{"type":"Point","coordinates":[53.53,9.83,13]},"properties":{"stationId":"EDHI","rawText":"EDHI 221050Z AUTO 11010KT 070V170 9999 // NCD 20/00 Q1016","observationTime":"2019-04-22T10:50:00Z","temp":20,"dewpoint":0,"windDirection":110,"windSpeed":18.52,"visibility":6.21,"altim":30,"flightCategory":"VFR","metarType":"METAR","geometry_esri":{"x":53.53,"y":9.83,"z":13}}}