{"type":"Feature","geometry":{"type":"Point","coordinates":[53.53,9.83,13]},"properties":{"stationId":"EDHI","rawText":"EDHI 300150Z AUTO 24009KT 9999 // BKN008/// OVC012/// 15/14 Q0989","observationTime":"2019-09-30T01:50:00Z","temp":15,"dewpoint":14,"windDirection":240,"windSpeed":16.668,"visibility":6.21,"altim":29.202755,"flightCategory":"IFR","metarType":"METAR","geometry_esri":{"x":53.53,"y":9.83,"z":13}}}