{"type":"Feature","geometry":{"type":"Point","coordinates":[53.53,9.83,13]},"properties":{"stationId":"EDHI","rawText":"EDHI 241520Z 23006KT 190V250 2000 -DZ BR OVC004 02/02 Q1020","observationTime":"2020-01-24T15:20:00Z","temp":2,"dewpoint":2,"windDirection":230,"windSpeed":11.112,"visibility":1.24,"altim":30.11811,"flightCategory":"LIFR","metarType":"METAR","geometry_esri":{"x":53.53,"y":9.83,"z":13}}}