{"type":"Feature","geometry":{"type":"Point","coordinates":[53.53,9.83,13]},"properties":{"stationId":"EDHI","rawText":"EDHI 200650Z 04007KT 6000 OVC004 13/12 Q1005","observationTime":"2019-05-20T06:50:00Z","temp":13,"dewpoint":12,"windDirection":40,"windSpeed":12.964,"visibility":3.73,"altim":29.675198,"flightCategory":"LIFR","metarType":"METAR","geometry_esri":{"x":53.53,"y":9.83,"z":13}}}