{"type":"Feature","geometry":{"type":"Point","coordinates":[53.53,9.83,13]},"properties":{"stationId":"EDHI","rawText":"EDHI 280550Z 27007KT 3500 BR BKN008 03/02 Q1012","observationTime":"2019-02-28T05:50:00Z","temp":3,"dewpoint":2,"windDirection":270,"windSpeed":12.964,"visibility":2.17,"altim":29.88189,"flightCategory":"IFR","metarType":"METAR","geometry_esri":{"x":53.53,"y":9.83,"z":13}}}