{"type":"Feature","geometry":{"type":"Point","coordinates":[53.53,9.83,13]},"properties":{"stationId":"EDHI","rawText":"EDHI 252020Z AUTO 09008KT 050V130 9999 // FEW100/// OVC140/// 20/06 Q1008","observationTime":"2019-04-25T20:20:00Z","temp":20,"dewpoint":6,"windDirection":90,"windSpeed":14.816,"visibility":6.21,"altim":29.763779,"flightCategory":"VFR","metarType":"METAR","geometry_esri":{"x":53.53,"y":9.83,"z":13}}}