{"type":"Feature","geometry":{"type":"Point","coordinates":[53.53,9.83,13]},"properties":{"stationId":"EDHI","rawText":"EDHI 022020Z AUTO 20008KT 160V230 2900 // OVC005/// 02/01 Q1020","observationTime":"2020-01-02T20:20:00Z","temp":2,"dewpoint":1,"windDirection":200,"windSpeed":14.816,"visibility":1.8,"altim":30.11811,"flightCategory":"IFR","metarType":"METAR","geometry_esri":{"x":53.53,"y":9.83,"z":13}}}