{"type":"Feature","geometry":{"type":"Point","coordinates":[53.53,9.83,13]},"properties":{"stationId":"EDHI","rawText":"EDHI 160920Z 26009KT 7000 -RA SCT008 BKN013 OVC016 14/13 Q1007","observationTime":"2019-10-16T09:20:00Z","temp":14,"dewpoint":13,"windDirection":260,"windSpeed":16.668,"visibility":4.35,"altim":29.734253,"flightCategory":"MVFR","metarType":"METAR","geometry_esri":{"x":53.53,"y":9.83,"z":13}}}