{"type":"Feature","geometry":{"type":"Point","coordinates":[53.53,9.83,13]},"properties":{"stationId":"EDHI","rawText":"EDHI 280420Z AUTO 19010KT 8000 // SCT011/// BKN013/// OVC019/// 06/05 Q0990","observationTime":"2020-01-28T04:20:00Z","temp":6,"dewpoint":5,"windDirection":190,"windSpeed":18.52,"visibility":4.97,"altim":29.232283,"flightCategory":"MVFR","metarType":"METAR","geometry_esri":{"x":53.53,"y":9.83,"z":13}}}