{"type":"Feature","geometry":{"type":"Point","coordinates":[53.53,9.83,13]},"properties":{"stationId":"EDHI","rawText":"EDHI 290850Z 23009KT 1800 BR BKN003 OVC004 07/07 Q1025","observationTime":"2018-12-29T08:50:00Z","temp":7,"dewpoint":7,"windDirection":230,"windSpeed":16.668,"visibility":1.12,"altim":30.265747,"flightCategory":"LIFR","metarType":"METAR","geometry_esri":{"x":53.53,"y":9.83,"z":13}}}