{"type":"Feature","geometry":{"type":"Point","coordinates":[53.53,9.83,13]},"properties":{"stationId":"EDHI","rawText":"EDHI 260550Z 25006KT CAVOK 24/19 Q1018","observationTime":"2019-06-26T05:50:00Z","temp":24,"dewpoint":19,"windDirection":250,"windSpeed":11.112,"visibility":6.21,"altim":30.059055,"flightCategory":"VFR","metarType":"METAR","geometry_esri":{"x":53.53,"y":9.83,"z":13}}}