{"type":"Feature","geometry":{"type":"Point","coordinates":[53.53,9.83,13]},"properties":{"stationId":"EDHI","rawText":"EDHI 301720Z 21008KT 180V240 9999 BKN022 08/05 Q1000","observationTime":"2020-01-30T17:20:00Z","temp":8,"dewpoint":5,"windDirection":210,"windSpeed":14.816,"visibility":6.21,"altim":29.52756,"flightCategory":"MVFR","metarType":"METAR","geometry_esri":{"x":53.53,"y":9.83,"z":13}}}