{"type":"Feature","geometry":{"type":"Point","coordinates":[53.53,9.83,13]},"properties":{"stationId":"EDHI","rawText":"EDHI 231020Z AUTO 25013KT 9999 // BKN012/// BKN018/// OVC039/// 07/06 Q1015","observationTime":"2018-12-23T10:20:00Z","temp":7,"dewpoint":6,"windDirection":250,"windSpeed":24.076,"visibility":6.21,"altim":29.970472,"flightCategory":"MVFR","metarType":"METAR","geometry_esri":{"x":53.53,"y":9.83,"z":13}}}