{"type":"Feature","geometry":{"type":"Point","coordinates":[53.53,9.83,13]},"properties":{"stationId":"EDHI","rawText":"EDHI 210450Z 35006KT 310V020 9999 FEW009 BKN011 15/14 Q1005","observationTime":"2019-05-21T04:50:00Z","temp":15,"dewpoint":14,"windDirection":350,"windSpeed":11.112,"visibility":6.21,"altim":29.675198,"flightCategory":"MVFR","metarType":"METAR","geometry_esri":{"x":53.53,"y":9.83,"z":13}}}