{"type":"Feature","geometry":{"type":"Point","coordinates":[53.53,9.83,13]},"properties":{"stationId":"EDHI","rawText":"EDHI 191720Z 27012KT 230V290 9999 -SHRA SCT018 BKN026 06/04 Q1015","observationTime":"2020-02-19T17:20:00Z","temp":6,"dewpoint":4,"windDirection":270,"windSpeed":22.224,"visibility":6.21,"altim":29.970472,"flightCategory":"MVFR","metarType":"METAR","geometry_esri":{"x":53.53,"y":9.83,"z":13}}}