{"type":"Feature","geometry":{"type":"Point","coordinates":[53.53,9.83,13]},"properties":{"stationId":"EDHI","rawText":"EDHI 240650Z 10006KT 070V130 CAVOK 19/12 Q1024","observationTime":"2019-08-24T06:50:00Z","temp":19,"dewpoint":12,"windDirection":100,"windSpeed":11.112,"visibility":6.21,"altim":30.236221,"flightCategory":"VFR","metarType":"METAR","geometry_esri":{"x":53.53,"y":9.83,"z":13}}}