{"type":"Feature","geometry":{"type":"Point","coordinates":[53.53,9.83,13]},"properties":{"stationId":"EDHI","rawText":"EDHI 060450Z 24003KT 190V270 7000 FEW027 17/16 Q1008","observationTime":"2019-08-06T04:50:00Z","temp":17,"dewpoint":16,"windDirection":240,"windSpeed":5.556,"visibility":4.35,"altim":29.763779,"flightCategory":"MVFR","metarType":"METAR","geometry_esri":{"x":53.53,"y":9.83,"z":13}}}