{"type":"Feature","geometry":{"type":"Point","coordinates":[53.53,9.83,13]},"properties":{"stationId":"EDHI","rawText":"EDHI 221120Z 21012KT 170V250 CAVOK 25/09 Q1025","observationTime":"2019-08-22T11:20:00Z","temp":25,"dewpoint":9,"windDirection":210,"windSpeed":22.224,"visibility":6.21,"altim":30.265747,"flightCategory":"VFR","metarType":"METAR","geometry_esri":{"x":53.53,"y":9.83,"z":13}}}