{"type":"Feature","geometry":{"type":"Point","coordinates":[53.53,9.83,13]},"properties":{"stationId":"EDHI","rawText":"EDHI 300420Z AUTO VRB04KT 9999 // BKN084/// OVC120/// 12/05 Q1020","observationTime":"2019-05-30T04:20:00Z","temp":12,"dewpoint":5,"windDirection":0,"windSpeed":7.408,"visibility":6.21,"altim":30.11811,"flightCategory":"VFR","metarType":"METAR","geometry_esri":{"x":53.53,"y":9.83,"z":13}}}