{"type":"Feature","geometry":{"type":"Point","coordinates":[53.53,9.83,13]},"properties":{"stationId":"EDHI","rawText":"EDHI 292020Z AUTO 03007KT 9999 // NCD 11/00 Q1022","observationTime":"2019-04-29T20:20:00Z","temp":11,"dewpoint":0,"windDirection":30,"windSpeed":12.964,"visibility":6.21,"altim":30.177166,"flightCategory":"VFR","metarType":"METAR","geometry_esri":{"x":53.53,"y":9.83,"z":13}}}