{"type":"Feature","geometry":{"type":"Point","coordinates":[53.53,9.83,13]},"properties":{"stationId":"EDHI","rawText":"EDHI 071720Z 10008KT 070V150 5000 -RA OVC005 07/06 Q1000","observationTime":"2019-11-07T17:20:00Z","temp":7,"dewpoint":6,"windDirection":100,"windSpeed":14.816,"visibility":3.11,"altim":29.52756,"flightCategory":"IFR","metarType":"METAR","geometry_esri":{"x":53.53,"y":9.83,"z":13}}}