{"type":"Feature","geometry":{"type":"Point","coordinates":[53.53,9.83,13]},"properties":{"stationId":"EDHI","rawText":"EDHI 301150Z VRB02KT 9999 FEW008 SCT011 06/02 Q1024","observationTime":"2020-03-30T11:50:00Z","temp":6,"dewpoint":2,"windDirection":0,"windSpeed":3.704,"visibility":6.21,"altim":30.236221,"flightCategory":"VFR","metarType":"METAR","geometry_esri":{"x":53.53,"y":9.83,"z":13}}}