{"type":"Feature","geometry":{"type":"Point","coordinates":[53.53,9.83,13]},"properties":{"stationId":"EDHI","rawText":"EDHI 010320Z AUTO 23014KT 3300 // BKN008/// OVC014/// 11/10 Q1000","observationTime":"2020-02-01T03:20:00Z","temp":11,"dewpoint":10,"windDirection":230,"windSpeed":25.928,"visibility":2.05,"altim":29.52756,"flightCategory":"IFR","metarType":"METAR","geometry_esri":{"x":53.53,"y":9.83,"z":13}}}