{"type":"Feature","geometry":{"type":"Point","coordinates":[53.53,9.83,13]},"properties":{"stationId":"EDHI","rawText":"EDHI 091350Z 21011KT 180V240 9000 -RADZ BKN007 OVC014 11/10 Q1008","observationTime":"2020-01-09T13:50:00Z","temp":11,"dewpoint":10,"windDirection":210,"windSpeed":20.372,"visibility":5.59,"altim":29.763779,"flightCategory":"IFR","metarType":"METAR","geometry_esri":{"x":53.53,"y":9.83,"z":13}}}