{"type":"Feature","geometry":{"type":"Point","coordinates":[53.53,9.83,13]},"properties":{"stationId":"EDHI","rawText":"EDHI 011420Z 30017KT 9999 FEW042 SCT048 22/12 Q1014","observationTime":"2019-07-01T14:20:00Z","temp":22,"dewpoint":12,"windDirection":300,"windSpeed":31.484,"visibility":6.21,"altim":29.940945,"flightCategory":"VFR","metarType":"METAR","geometry_esri":{"x":53.53,"y":9.83,"z":13}}}