{"type":"Feature","geometry":{"type":"Point","coordinates":[53.53,9.83,13]},"properties":{"stationId":"EDHI","rawText":"EDHI 120850Z AUTO 26005KT 9999 // NCD 15/03 Q1015","observationTime":"2020-04-12T08:50:00Z","temp":15,"dewpoint":3,"windDirection":260,"windSpeed":9.26,"visibility":6.21,"altim":29.970472,"flightCategory":"VFR","metarType":"METAR","geometry_esri":{"x":53.53,"y":9.83,"z":13}}}