{"type":"Feature","geometry":{"type":"Point","coordinates":[53.53,9.83,13]},"properties":{"stationId":"EDHI","rawText":"EDHI 140120Z AUTO 20005KT 8000 // SCT046/// OVC057/// 04/04 Q1002","observationTime":"2019-11-14T01:20:00Z","temp":4,"dewpoint":4,"windDirection":200,"windSpeed":9.26,"visibility":4.97,"altim":29.586615,"flightCategory":"MVFR","metarType":"METAR","geometry_esri":{"x":53.53,"y":9.83,"z":13}}}