{"type":"Feature","geometry":{"type":"Point","coordinates":[53.53,9.83,13]},"properties":{"stationId":"EDHI","rawText":"EDHI 120620Z 25005KT 3300 BR FEW005 OVC008 16/15 Q1009","observationTime":"2019-07-12T06:20:00Z","temp":16,"dewpoint":15,"windDirection":250,"windSpeed":9.26,"visibility":2.05,"altim":29.793306,"flightCategory":"IFR","metarType":"METAR","geometry_esri":{"x":53.53,"y":9.83,"z":13}}}