{"type":"Feature","geometry":{"type":"Point","coordinates":[53.53,9.83,13]},"properties":{"stationId":"EDHI","rawText":"EDHI 020520Z 27009KT CAVOK 08/07 Q1002","observationTime":"2019-10-02T05:20:00Z","temp":8,"dewpoint":7,"windDirection":270,"windSpeed":16.668,"visibility":6.21,"altim":29.586615,"flightCategory":"VFR","metarType":"METAR","geometry_esri":{"x":53.53,"y":9.83,"z":13}}}