{"type":"Feature","geometry":{"type":"Point","coordinates":[53.53,9.83,13]},"properties":{"stationId":"EDHI","rawText":"EDHI 261820Z AUTO 24011KT 2700 // OVC002/// 08/07 Q1027","observationTime":"2018-12-26T18:20:00Z","temp":8,"dewpoint":7,"windDirection":240,"windSpeed":20.372,"visibility":1.68,"altim":30.324802,"flightCategory":"LIFR","metarType":"METAR","geometry_esri":{"x":53.53,"y":9.83,"z":13}}}