{"type":"Feature","geometry":{"type":"Point","coordinates":[53.53,9.83,13]},"properties":{"stationId":"EDHI","rawText":"EDHI 260220Z AUTO 26011KT 1500 1300 R23/P2000N // OVC004/// 05/04 Q1027","observationTime":"2018-12-26T02:20:00Z","temp":5,"dewpoint":4,"windDirection":260,"windSpeed":20.372,"visibility":0.93,"altim":30.324802,"flightCategory":"LIFR","metarType":"METAR","geometry_esri":{"x":53.53,"y":9.83,"z":13}}}