{"type":"Feature","geometry":{"type":"Point","coordinates":[53.53,9.83,13]},"properties":{"stationId":"EDHI","rawText":"EDHI 311020Z 27011KT CAVOK 07/04 Q1030","observationTime":"2019-12-31T10:20:00Z","temp":7,"dewpoint":4,"windDirection":270,"windSpeed":20.372,"visibility":6.21,"altim":30.413385,"flightCategory":"VFR","metarType":"METAR","geometry_esri":{"x":53.53,"y":9.83,"z":13}}}