{"type":"Feature","geometry":{"type":"Point","coordinates":[53.53,9.83,13]},"properties":{"stationId":"EDHI","rawText":"EDHI 251250Z 12004KT 080V170 3500 -RA BR BKN004 BKN008 OVC013 14/14 Q1005","observationTime":"2019-09-25T12:50:00Z","temp":14,"dewpoint":14,"windDirection":120,"windSpeed":7.408,"visibility":2.17,"altim":29.675198,"flightCategory":"LIFR","metarType":"METAR","geometry_esri":{"x":53.53,"y":9.83,"z":13}}}