{"type":"Feature","geometry":{"type":"Point","coordinates":[53.53,9.83,13]},"properties":{"stationId":"EDHI","rawText":"EDHI 260450Z AUTO 14004KT 100V170 6000 // OVC006/// 04/04 Q1006","observationTime":"2019-11-26T04:50:00Z","temp":4,"dewpoint":4,"windDirection":140,"windSpeed":7.408,"visibility":3.73,"altim":29.704725,"flightCategory":"IFR","metarType":"METAR","geometry_esri":{"x":53.53,"y":9.83,"z":13}}}