{"type":"Feature","geometry":{"type":"Point","coordinates":[53.53,9.83,13]},"properties":{"stationId":"EDHI","rawText":"EDHI 011220Z AUTO 25011KT 220V280 9999 // FEW042/// 23/14 Q1020","observationTime":"2019-06-01T12:20:00Z","temp":23,"dewpoint":14,"windDirection":250,"windSpeed":20.372,"visibility":6.21,"altim":30.11811,"flightCategory":"VFR","metarType":"METAR","geometry_esri":{"x":53.53,"y":9.83,"z":13}}}