{"type":"Feature","geometry":{"type":"Point","coordinates":[53.53,9.83,13]},"properties":{"stationId":"EDHI","rawText":"EDHI 310350Z AUTO 28007KT 6000 // FEW004/// BKN015/// OVC021/// 06/05 Q1025","observationTime":"2019-12-31T03:50:00Z","temp":6,"dewpoint":5,"windDirection":280,"windSpeed":12.964,"visibility":3.73,"altim":30.265747,"flightCategory":"MVFR","metarType":"METAR","geometry_esri":{"x":53.53,"y":9.83,"z":13}}}