{"type":"Feature","geometry":{"type":"Point","coordinates":[53.53,9.83,13]},"properties":{"stationId":"EDHI","rawText":"EDHI 070020Z AUTO 19005KT 3800 // FEW005/// OVC017/// 05/05 Q1014","observationTime":"2019-02-07T00:20:00Z","temp":5,"dewpoint":5,"windDirection":190,"windSpeed":9.26,"visibility":2.36,"altim":29.940945,"flightCategory":"IFR","metarType":"METAR","geometry_esri":{"x":53.53,"y":9.83,"z":13}}}