{"type":"Feature","geometry":{"type":"Point","coordinates":[53.53,9.83,13]},"properties":{"stationId":"EDHI","rawText":"EDHI 140320Z AUTO 20006KT 4900 // FEW005/// BKN007/// OVC024/// 04/03 Q0981","observationTime":"2019-12-14T03:20:00Z","temp":4,"dewpoint":3,"windDirection":200,"windSpeed":11.112,"visibility":3.04,"altim":28.966536,"flightCategory":"IFR","metarType":"METAR","geometry_esri":{"x":53.53,"y":9.83,"z":13}}}