{"type":"Feature","geometry":{"type":"Point","coordinates":[53.53,9.83,13]},"properties":{"stationId":"EDHI","rawText":"EDHI 011720Z AUTO 25004KT 220V280 2500 // OVC002/// 03/03 Q1020","observationTime":"2019-12-01T17:20:00Z","temp":3,"dewpoint":3,"windDirection":250,"windSpeed":7.408,"visibility":1.55,"altim":30.11811,"flightCategory":"LIFR","metarType":"METAR","geometry_esri":{"x":53.53,"y":9.83,"z":13}}}