{"type":"Feature","geometry":{"type":"Point","coordinates":[53.53,9.83,13]},"properties":{"stationId":"EDHI","rawText":"EDHI 061720Z AUTO 06007KT 9999 // BKN120/// 18/09 Q1006","observationTime":"2019-04-06T17:20:00Z","temp":18,"dewpoint":9,"windDirection":60,"windSpeed":12.964,"visibility":6.21,"altim":29.704725,"flightCategory":"VFR","metarType":"METAR","geometry_esri":{"x":53.53,"y":9.83,"z":13}}}