{"type":"Feature","geometry":{"type":"Point","coordinates":[53.53,9.83,13]},"properties":{"stationId":"EDHI","rawText":"EDHI 072020Z AUTO 21014G27KT 9999 // FEW039/// 08/03 Q0994","observationTime":"2019-03-07T20:20:00Z","temp":8,"dewpoint":3,"windDirection":210,"windSpeed":25.928,"visibility":6.21,"altim":29.350393,"flightCategory":"VFR","metarType":"METAR","geometry_esri":{"x":53.53,"y":9.83,"z":13}}}