{"type":"Feature","geometry":{"type":"Point","coordinates":[53.53,9.83,13]},"properties":{"stationId":"EDHI","rawText":"EDHI 191520Z 27018KT 9000 -SHRA FEW012 BKN015CB OVC026 05/03 Q1013","observationTime":"2020-02-19T15:20:00Z","temp":5,"dewpoint":3,"windDirection":270,"windSpeed":33.336,"visibility":5.59,"altim":29.911417,"flightCategory":"MVFR","metarType":"METAR","geometry_esri":{"x":53.53,"y":9.83,"z":13}}}