{"type":"Feature","geometry":{"type":"Point","coordinates":[53.53,9.83,13]},"properties":{"stationId":"EDHI","rawText":"EDHI 231750Z 34004KT 300V020 CAVOK 28/16 Q1019","observationTime":"2019-07-23T17:50:00Z","temp":28,"dewpoint":16,"windDirection":340,"windSpeed":7.408,"visibility":6.21,"altim":30.088583,"flightCategory":"VFR","metarType":"METAR","geometry_esri":{"x":53.53,"y":9.83,"z":13}}}