{"type":"Feature","geometry":{"type":"Point","coordinates":[53.53,9.83,13]},"properties":{"stationId":"EDHI","rawText":"EDHI 120650Z 29011KT 9999 SCT025 BKN041 03/01 Q1026","observationTime":"2019-02-12T06:50:00Z","temp":3,"dewpoint":1,"windDirection":290,"windSpeed":20.372,"visibility":6.21,"altim":30.295275,"flightCategory":"VFR","metarType":"METAR","geometry_esri":{"x":53.53,"y":9.83,"z":13}}}