{"type":"Feature","geometry":{"type":"Point","coordinates":[53.53,9.83,13]},"properties":{"stationId":"EDHI","rawText":"EDHI 181820Z AUTO 29010KT 9999 // OVC066/// 15/10 Q1020","observationTime":"2020-05-18T18:20:00Z","temp":15,"dewpoint":10,"windDirection":290,"windSpeed":18.52,"visibility":6.21,"altim":30.11811,"flightCategory":"VFR","metarType":"METAR","geometry_esri":{"x":53.53,"y":9.83,"z":13}}}