{"type":"Feature","geometry":{"type":"Point","coordinates":[53.53,9.83,13]},"properties":{"stationId":"EDHI","rawText":"EDHI 080420Z 24006KT 9000 -RA SCT013 BKN019 OVC022 11/10 Q1014","observationTime":"2019-07-08T04:20:00Z","temp":11,"dewpoint":10,"windDirection":240,"windSpeed":11.112,"visibility":5.59,"altim":29.940945,"flightCategory":"MVFR","metarType":"METAR","geometry_esri":{"x":53.53,"y":9.83,"z":13}}}