{"type":"Feature","geometry":{"type":"Point","coordinates":[53.53,9.83,13]},"properties":{"stationId":"EDHI","rawText":"EDHI 230050Z AUTO VRB02KT 4200 // OVC005/// 06/05 Q0989","observationTime":"2019-12-23T00:50:00Z","temp":6,"dewpoint":5,"windDirection":0,"windSpeed":3.704,"visibility":2.61,"altim":29.202755,"flightCategory":"IFR","metarType":"METAR","geometry_esri":{"x":53.53,"y":9.83,"z":13}}}