{"type":"Feature","geometry":{"type":"Point","coordinates":[53.53,9.83,13]},"properties":{"stationId":"EDHI","rawText":"EDHI 200950Z AUTO 10004KT 060V150 2600 // FEW002/// OVC130/// M03/M03 Q1019","observationTime":"2019-01-20T09:50:00Z","temp":-3,"dewpoint":-3,"windDirection":100,"windSpeed":7.408,"visibility":1.62,"altim":30.088583,"flightCategory":"IFR","metarType":"METAR","geometry_esri":{"x":53.53,"y":9.83,"z":13}}}