{"type":"Feature","geometry":{"type":"Point","coordinates":[53.53,9.83,13]},"properties":{"stationId":"EDHI","rawText":"EDHI 280620Z AUTO 25007KT 8000 // BKN033/// OVC042/// 08/07 Q1015","observationTime":"2019-04-28T06:20:00Z","temp":8,"dewpoint":7,"windDirection":250,"windSpeed":12.964,"visibility":4.97,"altim":29.970472,"flightCategory":"MVFR","metarType":"METAR","geometry_esri":{"x":53.53,"y":9.83,"z":13}}}