{"type":"Feature","geometry":{"type":"Point","coordinates":[53.53,9.83,13]},"properties":{"stationId":"EDHI","rawText":"EDHI 101920Z 04009KT CAVOK 05/M04 Q1021","observationTime":"2019-04-10T19:20:00Z","temp":5,"dewpoint":-4,"windDirection":40,"windSpeed":16.668,"visibility":6.21,"altim":30.147638,"flightCategory":"VFR","metarType":"METAR","geometry_esri":{"x":53.53,"y":9.83,"z":13}}}