{"type":"Feature","geometry":{"type":"Point","coordinates":[53.53,9.83,13]},"properties":{"stationId":"EDHI","rawText":"EDHI 230220Z AUTO 30008KT 0550 0450 R23/0900U // VV002 06/06 Q1025","observationTime":"2019-03-23T02:20:00Z","temp":6,"dewpoint":6,"windDirection":300,"windSpeed":14.816,"visibility":0.34,"altim":30.265747,"flightCategory":"LIFR","metarType":"SPECI","geometry_esri":{"x":53.53,"y":9.83,"z":13}}}