{"type":"Feature","geometry":{"type":"Point","coordinates":[53.53,9.83,13]},"properties":{"stationId":"EDHI","rawText":"EDHI 081220Z AUTO 23017KT 0800 0650 R23/1700N // BKN009/// OVC016/// 09/08 Q0994","observationTime":"2019-12-08T12:20:00Z","temp":9,"dewpoint":8,"windDirection":230,"windSpeed":31.484,"visibility":0.5,"altim":29.350393,"flightCategory":"LIFR","metarType":"METAR","geometry_esri":{"x":53.53,"y":9.83,"z":13}}}