{"type":"Feature","geometry":{"type":"Point","coordinates":[53.53,9.83,13]},"properties":{"stationId":"EDHI","rawText":"EDHI 140620Z AUTO 20009KT 9999 // BKN017/// BKN024/// OVC045/// 05/03 Q0980","observationTime":"2019-12-14T06:20:00Z","temp":5,"dewpoint":3,"windDirection":200,"windSpeed":16.668,"visibility":6.21,"altim":28.937008,"flightCategory":"MVFR","metarType":"METAR","geometry_esri":{"x":53.53,"y":9.83,"z":13}}}