{"type":"Feature","geometry":{"type":"Point","coordinates":[53.53,9.83,13]},"properties":{"stationId":"EDHI","rawText":"EDHI 232020Z AUTO 05009KT 9999 // NCD 20/13 Q1022","observationTime":"2019-06-23T20:20:00Z","temp":20,"dewpoint":13,"windDirection":50,"windSpeed":16.668,"visibility":6.21,"altim":30.177166,"flightCategory":"VFR","metarType":"METAR","geometry_esri":{"x":53.53,"y":9.83,"z":13}}}