{"type":"Feature","geometry":{"type":"Point","coordinates":[53.53,9.83,13]},"properties":{"stationId":"EDHI","rawText":"EDHI 020820Z AUTO 11007KT 070V150 9999 // FEW170/// BKN220/// 22/16 Q1016","observationTime":"2019-06-02T08:20:00Z","temp":22,"dewpoint":16,"windDirection":110,"windSpeed":12.964,"visibility":6.21,"altim":30,"flightCategory":"VFR","metarType":"METAR","geometry_esri":{"x":53.53,"y":9.83,"z":13}}}