{"type":"Feature","geometry":{"type":"Point","coordinates":[53.53,9.83,13]},"properties":{"stationId":"EDHI","rawText":"EDHI 181920Z AUTO 06003KT 9999 // FEW130/// BKN210/// 22/13 Q1010","observationTime":"2019-07-18T19:20:00Z","temp":22,"dewpoint":13,"windDirection":60,"windSpeed":5.556,"visibility":6.21,"altim":29.822834,"flightCategory":"VFR","metarType":"METAR","geometry_esri":{"x":53.53,"y":9.83,"z":13}}}