{"type":"Feature","geometry":{"type":"Point","coordinates":[53.53,9.83,13]},"properties":{"stationId":"EDHI","rawText":"EDHI 181720Z 35009KT 9999 TS VCSH SCT076CB 24/15 Q1012 RETS","observationTime":"2019-06-18T17:20:00Z","temp":24,"dewpoint":15,"windDirection":350,"windSpeed":16.668,"visibility":6.21,"altim":29.88189,"flightCategory":"VFR","metarType":"METAR","geometry_esri":{"x":53.53,"y":9.83,"z":13}}}