{"type":"Feature","geometry":{"type":"Point","coordinates":[53.53,9.83,13]},"properties":{"stationId":"EDHI","rawText":"EDHI 242250Z AUTO 08006KT 9999 // NCD 20/15 Q1021","observationTime":"2019-08-24T22:50:00Z","temp":20,"dewpoint":15,"windDirection":80,"windSpeed":11.112,"visibility":6.21,"altim":30.147638,"flightCategory":"VFR","metarType":"METAR","geometry_esri":{"x":53.53,"y":9.83,"z":13}}}