{"type":"Feature","geometry":{"type":"Point","coordinates":[53.53,9.83,13]},"properties":{"stationId":"EDHI","rawText":"EDHI 091050Z 22012KT 190V250 9999 BKN018 14/10 Q1004","observationTime":"2019-10-09T10:50:00Z","temp":14,"dewpoint":10,"windDirection":220,"windSpeed":22.224,"visibility":6.21,"altim":29.64567,"flightCategory":"MVFR","metarType":"METAR","geometry_esri":{"x":53.53,"y":9.83,"z":13}}}