{"type":"Feature","geometry":{"type":"Point","coordinates":[53.53,9.83,13]},"properties":{"stationId":"EDHI","rawText":"EDHI 221020Z AUTO 11006KT 070V160 9000 // FEW039/// OVC046/// 04/03 Q0985","observationTime":"2019-12-22T10:20:00Z","temp":4,"dewpoint":3,"windDirection":110,"windSpeed":11.112,"visibility":5.59,"altim":29.084646,"flightCategory":"VFR","metarType":"METAR","geometry_esri":{"x":53.53,"y":9.83,"z":13}}}