{"type":"Feature","geometry":{"type":"Point","coordinates":[53.53,9.83,13]},"properties":{"stationId":"EDHI","rawText":"EDHI 301620Z AUTO 30009KT 270V330 9999 // FEW037/// 07/05 Q1028","observationTime":"2018-12-30T16:20:00Z","temp":7,"dewpoint":5,"windDirection":300,"windSpeed":16.668,"visibility":6.21,"altim":30.35433,"flightCategory":"VFR","metarType":"METAR","geometry_esri":{"x":53.53,"y":9.83,"z":13}}}