{"type":"Feature","geometry":{"type":"Point","coordinates":[53.53,9.83,13]},"properties":{"stationId":"EDHI","rawText":"EDHI 110350Z AUTO 05009KT 9000 // BKN006/// OVC012/// 15/14 Q1008","observationTime":"2019-06-11T03:50:00Z","temp":15,"dewpoint":14,"windDirection":50,"windSpeed":16.668,"visibility":5.59,"altim":29.763779,"flightCategory":"IFR","metarType":"METAR","geometry_esri":{"x":53.53,"y":9.83,"z":13}}}