{"type":"Feature","geometry":{"type":"Point","coordinates":[53.53,9.83,13]},"properties":{"stationId":"EDHI","rawText":"EDHI 011920Z AUTO 34005KT 310V010 9999 // SCT009/// BKN014/// OVC033/// 10/08 Q1000","observationTime":"2019-10-01T19:20:00Z","temp":10,"dewpoint":8,"windDirection":340,"windSpeed":9.26,"visibility":6.21,"altim":29.52756,"flightCategory":"MVFR","metarType":"METAR","geometry_esri":{"x":53.53,"y":9.83,"z":13}}}