{"type":"Feature","geometry":{"type":"Point","coordinates":[53.53,9.83,13]},"properties":{"stationId":"EDHI","rawText":"EDHI 120350Z AUTO VRB02KT 4300 // SCT007/// BKN009/// OVC019/// 15/15 Q1009","observationTime":"2019-07-12T03:50:00Z","temp":15,"dewpoint":15,"windDirection":0,"windSpeed":3.704,"visibility":2.67,"altim":29.793306,"flightCategory":"IFR","metarType":"METAR","geometry_esri":{"x":53.53,"y":9.83,"z":13}}}