{"type":"Feature","geometry":{"type":"Point","coordinates":[53.53,9.83,13]},"properties":{"stationId":"EDHI","rawText":"EDHI 190420Z AUTO 06008KT 1500 1200 R05/1600D // OVC002/// 12/11 Q1006","observationTime":"2019-05-19T04:20:00Z","temp":12,"dewpoint":11,"windDirection":60,"windSpeed":14.816,"visibility":0.93,"altim":29.704725,"flightCategory":"LIFR","metarType":"METAR","geometry_esri":{"x":53.53,"y":9.83,"z":13}}}