{"type":"Feature","geometry":{"type":"Point","coordinates":[53.53,9.83,13]},"properties":{"stationId":"EDHI","rawText":"EDHI 020750Z AUTO 10006KT 060V150 9999 // BKN190/// 20/15 Q1016","observationTime":"2019-06-02T07:50:00Z","temp":20,"dewpoint":15,"windDirection":100,"windSpeed":11.112,"visibility":6.21,"altim":30,"flightCategory":"VFR","metarType":"METAR","geometry_esri":{"x":53.53,"y":9.83,"z":13}}}