{"type":"Feature","geometry":{"type":"Point","coordinates":[53.53,9.83,13]},"properties":{"stationId":"EDHI","rawText":"EDHI 111650Z 26027G37KT 9999 -SHRA FEW024CB SCT030 BKN037 05/01 Q0996","observationTime":"2020-02-11T16:50:00Z","temp":5,"dewpoint":1,"windDirection":260,"windSpeed":50.004000000000005,"visibility":6.21,"altim":29.409449,"flightCategory":"VFR","metarType":"METAR","geometry_esri":{"x":53.53,"y":9.83,"z":13}}}