{"type":"Feature","geometry":{"type":"Point","coordinates":[53.53,9.83,13]},"properties":{"stationId":"EDHI","rawText":"EDHI 121420Z AUTO 22013KT 1200 1000 R23/P2000N // BKN007/// OVC014/// 06/05 Q1014","observationTime":"2020-01-12T14:20:00Z","temp":6,"dewpoint":5,"windDirection":220,"windSpeed":24.076,"visibility":0.75,"altim":29.940945,"flightCategory":"LIFR","metarType":"METAR","geometry_esri":{"x":53.53,"y":9.83,"z":13}}}