{"type":"Feature","geometry":{"type":"Point","coordinates":[53.53,9.83,13]},"properties":{"stationId":"EDHI","rawText":"EDHI 111920Z AUTO 07010KT 040V100 9999 // FEW032/// OVC066/// 05/M02 Q1027","observationTime":"2019-04-11T19:20:00Z","temp":5,"dewpoint":-2,"windDirection":70,"windSpeed":18.52,"visibility":6.21,"altim":30.324802,"flightCategory":"VFR","metarType":"METAR","geometry_esri":{"x":53.53,"y":9.83,"z":13}}}