{"type":"Feature","geometry":{"type":"Point","coordinates":[53.53,9.83,13]},"properties":{"stationId":"EDHI","rawText":"EDHI 020120Z AUTO 21004KT 130V240 9999 // FEW065/// SCT083/// OVC120/// 17/14 Q1014","observationTime":"2019-08-02T01:20:00Z","temp":17,"dewpoint":14,"windDirection":210,"windSpeed":7.408,"visibility":6.21,"altim":29.940945,"flightCategory":"VFR","metarType":"METAR","geometry_esri":{"x":53.53,"y":9.83,"z":13}}}