{"type":"Feature","geometry":{"type":"Point","coordinates":[53.53,9.83,13]},"properties":{"stationId":"EDHI","rawText":"EDHI 240150Z AUTO 11008KT 030V160 9999 // SCT079/// BKN110/// 13/07 Q1002","observationTime":"2019-04-24T01:50:00Z","temp":13,"dewpoint":7,"windDirection":110,"windSpeed":14.816,"visibility":6.21,"altim":29.586615,"flightCategory":"VFR","metarType":"METAR","geometry_esri":{"x":53.53,"y":9.83,"z":13}}}