{"type":"Feature","geometry":{"type":"Point","coordinates":[53.53,9.83,13]},"properties":{"stationId":"EDHI","rawText":"EDHI 011150Z 34008KT 9999 FEW004 BKN010 14/12 Q0995","observationTime":"2019-10-01T11:50:00Z","temp":14,"dewpoint":12,"windDirection":340,"windSpeed":14.816,"visibility":6.21,"altim":29.379921,"flightCategory":"MVFR","metarType":"METAR","geometry_esri":{"x":53.53,"y":9.83,"z":13}}}