{"type":"Feature","geometry":{"type":"Point","coordinates":[53.53,9.83,13]},"properties":{"stationId":"EDHI","rawText":"EDHI 070550Z AUTO 32009KT 280V350 5000 // OVC006/// 04/02 Q1010","observationTime":"2020-03-07T05:50:00Z","temp":4,"dewpoint":2,"windDirection":320,"windSpeed":16.668,"visibility":3.11,"altim":29.822834,"flightCategory":"IFR","metarType":"METAR","geometry_esri":{"x":53.53,"y":9.83,"z":13}}}