{"type":"Feature","geometry":{"type":"Point","coordinates":[53.53,9.83,13]},"properties":{"stationId":"EDHI","rawText":"EDHI 022350Z AUTO 21008KT 6000 // BKN010/// OVC017/// 08/06 Q1006","observationTime":"2019-03-02T23:50:00Z","temp":8,"dewpoint":6,"windDirection":210,"windSpeed":14.816,"visibility":3.73,"altim":29.704725,"flightCategory":"MVFR","metarType":"METAR","geometry_esri":{"x":53.53,"y":9.83,"z":13}}}