{"type":"Feature","geometry":{"type":"Point","coordinates":[53.53,9.83,13]},"properties":{"stationId":"EDHI","rawText":"EDHI 030450Z AUTO 24004KT 1200 0900 R23/1400U // SCT001/// OVC005/// 04/03 Q1025","observationTime":"2019-12-03T04:50:00Z","temp":4,"dewpoint":3,"windDirection":240,"windSpeed":7.408,"visibility":0.75,"altim":30.265747,"flightCategory":"LIFR","metarType":"METAR","geometry_esri":{"x":53.53,"y":9.83,"z":13}}}