{"type":"Feature","geometry":{"type":"Point","coordinates":[53.53,9.83,13]},"properties":{"stationId":"EDHI","rawText":"EDHI 031720Z AUTO 00000KT 9999 // NCD 09/06 Q1014","observationTime":"2019-10-03T17:20:00Z","temp":9,"dewpoint":6,"windDirection":0,"windSpeed":0,"visibility":6.21,"altim":29.940945,"flightCategory":"VFR","metarType":"METAR","geometry_esri":{"x":53.53,"y":9.83,"z":13}}}