{"type":"Feature","geometry":{"type":"Point","coordinates":[53.53,9.83,13]},"properties":{"stationId":"EDHI","rawText":"EDHI 181950Z AUTO 21010KT 7000 3400 // NCD 11/07 Q1006","observationTime":"2019-10-18T19:50:00Z","temp":11,"dewpoint":7,"windDirection":210,"windSpeed":18.52,"visibility":4.35,"altim":29.704725,"flightCategory":"MVFR","metarType":"METAR","geometry_esri":{"x":53.53,"y":9.83,"z":13}}}