{"type":"Feature","geometry":{"type":"Point","coordinates":[53.53,9.83,13]},"properties":{"stationId":"EDHI","rawText":"EDHI 110650Z 14005KT 8000 NSC 00/M01 Q1010","observationTime":"2019-11-11T06:50:00Z","temp":0,"dewpoint":-1,"windDirection":140,"windSpeed":9.26,"visibility":4.97,"altim":29.822834,"flightCategory":"MVFR","metarType":"METAR","geometry_esri":{"x":53.53,"y":9.83,"z":13}}}