{"type":"Feature","geometry":{"type":"Point","coordinates":[53.53,9.83,13]},"properties":{"stationId":"EDHI","rawText":"EDHI 181820Z AUTO 06011KT 9999 // NCD 11/M03 Q1018","observationTime":"2020-04-18T18:20:00Z","temp":11,"dewpoint":-3,"windDirection":60,"windSpeed":20.372,"visibility":6.21,"altim":30.059055,"flightCategory":"VFR","metarType":"METAR","geometry_esri":{"x":53.53,"y":9.83,"z":13}}}