{"type":"Feature","geometry":{"type":"Point","coordinates":[53.53,9.83,13]},"properties":{"stationId":"EDHI","rawText":"EDHI 280020Z AUTO 20011KT 9999 // FEW043/// 14/10 Q1006","observationTime":"2019-09-28T00:20:00Z","temp":14,"dewpoint":10,"windDirection":200,"windSpeed":20.372,"visibility":6.21,"altim":29.704725,"flightCategory":"VFR","metarType":"METAR","geometry_esri":{"x":53.53,"y":9.83,"z":13}}}