{"type":"Feature","geometry":{"type":"Point","coordinates":[53.53,9.83,13]},"properties":{"stationId":"EDHI","rawText":"EDHI 271220Z 20007KT 160V260 CAVOK 19/03 Q1006","observationTime":"2020-04-27T12:20:00Z","temp":19,"dewpoint":3,"windDirection":200,"windSpeed":12.964,"visibility":6.21,"altim":29.704725,"flightCategory":"VFR","metarType":"METAR","geometry_esri":{"x":53.53,"y":9.83,"z":13}}}