{"type":"Feature","geometry":{"type":"Point","coordinates":[53.53,9.83,13]},"properties":{"stationId":"EDHI","rawText":"EDHI 161320Z 24016KT 4200 RA BR SCT008 BKN010 04/03 Q1005","observationTime":"2019-11-16T13:20:00Z","temp":4,"dewpoint":3,"windDirection":240,"windSpeed":29.632,"visibility":2.61,"altim":29.675198,"flightCategory":"IFR","metarType":"METAR","geometry_esri":{"x":53.53,"y":9.83,"z":13}}}