{"type":"Feature","geometry":{"type":"Point","coordinates":[53.53,9.83,13]},"properties":{"stationId":"EDHI","rawText":"EDHI 070220Z AUTO 19008KT 160V220 9999 // FEW031/// SCT050/// OVC065/// 11/06 Q0991","observationTime":"2019-03-07T02:20:00Z","temp":11,"dewpoint":6,"windDirection":190,"windSpeed":14.816,"visibility":6.21,"altim":29.26181,"flightCategory":"VFR","metarType":"METAR","geometry_esri":{"x":53.53,"y":9.83,"z":13}}}