{"type":"Feature","geometry":{"type":"Point","coordinates":[53.53,9.83,13]},"properties":{"stationId":"EDHI","rawText":"EDHI 232120Z AUTO 11005KT 070V140 6000 // NCD 12/11 Q1011","observationTime":"2019-10-23T21:20:00Z","temp":12,"dewpoint":11,"windDirection":110,"windSpeed":9.26,"visibility":3.73,"altim":29.852362,"flightCategory":"MVFR","metarType":"METAR","geometry_esri":{"x":53.53,"y":9.83,"z":13}}}