{"type":"Feature","geometry":{"type":"Point","coordinates":[53.53,9.83,13]},"properties":{"stationId":"EDHI","rawText":"EDHI 222120Z AUTO 11004KT 070V150 5000 // BKN012/// BKN016/// OVC039/// 05/04 Q0988","observationTime":"2019-12-22T21:20:00Z","temp":5,"dewpoint":4,"windDirection":110,"windSpeed":7.408,"visibility":3.11,"altim":29.17323,"flightCategory":"MVFR","metarType":"METAR","geometry_esri":{"x":53.53,"y":9.83,"z":13}}}