{"type":"Feature","geometry":{"type":"Point","coordinates":[53.53,9.83,13]},"properties":{"stationId":"EDHI","rawText":"EDHI 201920Z AUTO 26005KT 9999 // OVC033/// 14/11 Q1026","observationTime":"2019-09-20T19:20:00Z","temp":14,"dewpoint":11,"windDirection":260,"windSpeed":9.26,"visibility":6.21,"altim":30.295275,"flightCategory":"VFR","metarType":"METAR","geometry_esri":{"x":53.53,"y":9.83,"z":13}}}