{"type":"Feature","geometry":{"type":"Point","coordinates":[53.53,9.83,13]},"properties":{"stationId":"EDHI","rawText":"EDHI 021450Z 25011KT CAVOK 18/10 Q1021","observationTime":"2019-09-02T14:50:00Z","temp":18,"dewpoint":10,"windDirection":250,"windSpeed":20.372,"visibility":6.21,"altim":30.147638,"flightCategory":"VFR","metarType":"METAR","geometry_esri":{"x":53.53,"y":9.83,"z":13}}}