{"type":"Feature","geometry":{"type":"Point","coordinates":[53.53,9.83,13]},"properties":{"stationId":"EDHI","rawText":"EDHI 302220Z AUTO 10003KT 9000 0350 R05/0400D // NCD 00/M01 Q1029","observationTime":"2019-10-30T22:20:00Z","temp":0,"dewpoint":-1,"windDirection":100,"windSpeed":5.556,"visibility":5.59,"altim":30.383858,"flightCategory":"VFR","metarType":"METAR","geometry_esri":{"x":53.53,"y":9.83,"z":13}}}