{"type":"Feature","geometry":{"type":"Point","coordinates":[53.53,9.83,13]},"properties":{"stationId":"EDHI","rawText":"EDHI 250550Z AUTO 22007KT 3000 1400 R23/P2000N // OVC005/// 02/02 Q1020","observationTime":"2020-01-25T05:50:00Z","temp":2,"dewpoint":2,"windDirection":220,"windSpeed":12.964,"visibility":1.86,"altim":30.11811,"flightCategory":"IFR","metarType":"METAR","geometry_esri":{"x":53.53,"y":9.83,"z":13}}}