{"type":"Feature","geometry":{"type":"Point","coordinates":[53.53,9.83,13]},"properties":{"stationId":"EDHI","rawText":"EDHI 201050Z 26007KT 230V290 9999 FEW024 BKN048 16/11 Q1028","observationTime":"2019-09-20T10:50:00Z","temp":16,"dewpoint":11,"windDirection":260,"windSpeed":12.964,"visibility":6.21,"altim":30.35433,"flightCategory":"VFR","metarType":"METAR","geometry_esri":{"x":53.53,"y":9.83,"z":13}}}