{"type":"Feature","geometry":{"type":"Point","coordinates":[53.53,9.83,13]},"properties":{"stationId":"EDHI","rawText":"EDHI 150220Z AUTO 20010KT 9999 // SCT120/// 03/M00 Q0995","observationTime":"2019-12-15T02:20:00Z","temp":3,"dewpoint":0,"windDirection":200,"windSpeed":18.52,"visibility":6.21,"altim":29.379921,"flightCategory":"VFR","metarType":"METAR","geometry_esri":{"x":53.53,"y":9.83,"z":13}}}