{"type":"Feature","geometry":{"type":"Point","coordinates":[53.53,9.83,13]},"properties":{"stationId":"EDHI","rawText":"EDHI 110050Z AUTO 05004KT 010V090 8000 // BKN006/// OVC025/// 16/15 Q1010","observationTime":"2019-06-11T00:50:00Z","temp":16,"dewpoint":15,"windDirection":50,"windSpeed":7.408,"visibility":4.97,"altim":29.822834,"flightCategory":"IFR","metarType":"METAR","geometry_esri":{"x":53.53,"y":9.83,"z":13}}}