{"type":"Feature","geometry":{"type":"Point","coordinates":[53.53,9.83,13]},"properties":{"stationId":"EDHI","rawText":"EDHI 091320Z 22009KT 190V250 9999 FEW031 14/09 Q1003","observationTime":"2019-10-09T13:20:00Z","temp":14,"dewpoint":9,"windDirection":220,"windSpeed":16.668,"visibility":6.21,"altim":29.616142,"flightCategory":"VFR","metarType":"METAR","geometry_esri":{"x":53.53,"y":9.83,"z":13}}}