{"type":"Feature","geometry":{"type":"Point","coordinates":[53.53,9.83,13]},"properties":{"stationId":"EDHI","rawText":"EDHI 192220Z AUTO 26012KT 8000 3100 // SCT023/// BKN065/// OVC075/// 17/15 Q1009","observationTime":"2019-06-19T22:20:00Z","temp":17,"dewpoint":15,"windDirection":260,"windSpeed":22.224,"visibility":4.97,"altim":29.793306,"flightCategory":"MVFR","metarType":"METAR","geometry_esri":{"x":53.53,"y":9.83,"z":13}}}