{"type":"Feature","geometry":{"type":"Point","coordinates":[53.53,9.83,13]},"properties":{"stationId":"EDHI","rawText":"EDHI 121620Z 27005KT 190V360 9999 FEW021 20/15 Q1009","observationTime":"2019-07-12T16:20:00Z","temp":20,"dewpoint":15,"windDirection":270,"windSpeed":9.26,"visibility":6.21,"altim":29.793306,"flightCategory":"VFR","metarType":"METAR","geometry_esri":{"x":53.53,"y":9.83,"z":13}}}