{"type":"Feature","geometry":{"type":"Point","coordinates":[53.53,9.83,13]},"properties":{"stationId":"EDHI","rawText":"EDHI 061850Z 35007KT 7000 -RA OVC008 04/03 Q0999","observationTime":"2020-03-06T18:50:00Z","temp":4,"dewpoint":3,"windDirection":350,"windSpeed":12.964,"visibility":4.35,"altim":29.498032,"flightCategory":"IFR","metarType":"METAR","geometry_esri":{"x":53.53,"y":9.83,"z":13}}}