{"type":"Feature","geometry":{"type":"Point","coordinates":[53.53,9.83,13]},"properties":{"stationId":"EDHI","rawText":"EDHI 010320Z AUTO 26005KT 1200 0450 R23/P2000N // BKN020/// 00/00 Q1033","observationTime":"2020-01-01T03:20:00Z","temp":0,"dewpoint":0,"windDirection":260,"windSpeed":9.26,"visibility":0.75,"altim":30.501968,"flightCategory":"LIFR","metarType":"METAR","geometry_esri":{"x":53.53,"y":9.83,"z":13}}}