{"type":"Feature","geometry":{"type":"Point","coordinates":[53.53,9.83,13]},"properties":{"stationId":"EDHI","rawText":"EDHI 262350Z AUTO 25010KT 2700 // OVC003/// 06/06 Q1026","observationTime":"2018-12-26T23:50:00Z","temp":6,"dewpoint":6,"windDirection":250,"windSpeed":18.52,"visibility":1.68,"altim":30.295275,"flightCategory":"LIFR","metarType":"METAR","geometry_esri":{"x":53.53,"y":9.83,"z":13}}}