{"type":"Feature","geometry":{"type":"Point","coordinates":[53.53,9.83,13]},"properties":{"stationId":"EDHI","rawText":"EDHI 300350Z AUTO 23008KT 9999 // FEW140/// BKN170/// OVC200/// 05/M06 Q1029","observationTime":"2019-12-30T03:50:00Z","temp":5,"dewpoint":-6,"windDirection":230,"windSpeed":14.816,"visibility":6.21,"altim":30.383858,"flightCategory":"VFR","metarType":"METAR","geometry_esri":{"x":53.53,"y":9.83,"z":13}}}