{"type":"Feature","geometry":{"type":"Point","coordinates":[53.53,9.83,13]},"properties":{"stationId":"EDHI","rawText":"EDHI 210950Z 14007KT 110V180 9999 FEW014 SCT030 OVC048 07/05 Q1002","observationTime":"2018-12-21T09:50:00Z","temp":7,"dewpoint":5,"windDirection":140,"windSpeed":12.964,"visibility":6.21,"altim":29.586615,"flightCategory":"VFR","metarType":"METAR","geometry_esri":{"x":53.53,"y":9.83,"z":13}}}