{"type":"Feature","geometry":{"type":"Point","coordinates":[53.53,9.83,13]},"properties":{"stationId":"EDHI","rawText":"EDHI 211950Z AUTO 07002KT 9999 // NCD 17/12 Q1027","observationTime":"2019-08-21T19:50:00Z","temp":17,"dewpoint":12,"windDirection":70,"windSpeed":3.704,"visibility":6.21,"altim":30.324802,"flightCategory":"VFR","metarType":"METAR","geometry_esri":{"x":53.53,"y":9.83,"z":13}}}