{"type":"Feature","geometry":{"type":"Point","coordinates":[53.53,9.83,13]},"properties":{"stationId":"EDHI","rawText":"EDHI 191520Z AUTO 16006KT 120V210 9999 // FEW051/// OVC078/// 14/11 Q1004","observationTime":"2019-10-19T15:20:00Z","temp":14,"dewpoint":11,"windDirection":160,"windSpeed":11.112,"visibility":6.21,"altim":29.64567,"flightCategory":"VFR","metarType":"METAR","geometry_esri":{"x":53.53,"y":9.83,"z":13}}}