{"type":"Feature","geometry":{"type":"Point","coordinates":[53.53,9.83,13]},"properties":{"stationId":"EDHI","rawText":"EDHI 070020Z AUTO 26007KT 230V290 9999 // BKN021/// 06/05 Q1023","observationTime":"2020-05-07T00:20:00Z","temp":6,"dewpoint":5,"windDirection":260,"windSpeed":12.964,"visibility":6.21,"altim":30.206694,"flightCategory":"MVFR","metarType":"METAR","geometry_esri":{"x":53.53,"y":9.83,"z":13}}}