{"type":"Feature","geometry":{"type":"Point","coordinates":[53.53,9.83,13]},"properties":{"stationId":"EDHI","rawText":"EDHI 082220Z AUTO 06007KT 030V090 9999 // NCD 05/02 Q1015","observationTime":"2019-04-08T22:20:00Z","temp":5,"dewpoint":2,"windDirection":60,"windSpeed":12.964,"visibility":6.21,"altim":29.970472,"flightCategory":"VFR","metarType":"METAR","geometry_esri":{"x":53.53,"y":9.83,"z":13}}}