{"type":"Feature","geometry":{"type":"Point","coordinates":[53.53,9.83,13]},"properties":{"stationId":"EDHI","rawText":"EDHI 052120Z AUTO 08012KT 050V110 9999 // SCT069/// OVC160/// 07/01 Q0993","observationTime":"2020-03-05T21:20:00Z","temp":7,"dewpoint":1,"windDirection":80,"windSpeed":22.224,"visibility":6.21,"altim":29.320866,"flightCategory":"VFR","metarType":"METAR","geometry_esri":{"x":53.53,"y":9.83,"z":13}}}