{"type":"Feature","geometry":{"type":"Point","coordinates":[53.53,9.83,13]},"properties":{"stationId":"EDHI","rawText":"EDHI 162020Z AUTO 14003KT 100V190 4300 // FEW011/// BKN038/// OVC043/// M01/M02 Q1013","observationTime":"2018-12-16T20:20:00Z","temp":-1,"dewpoint":-2,"windDirection":140,"windSpeed":5.556,"visibility":2.67,"altim":29.911417,"flightCategory":"IFR","metarType":"METAR","geometry_esri":{"x":53.53,"y":9.83,"z":13}}}