{"type":"Feature","geometry":{"type":"Point","coordinates":[53.53,9.83,13]},"properties":{"stationId":"EDHI","rawText":"EDHI 192020Z AUTO 11003KT 080V140 9999 // OVC042/// 04/03 Q1012","observationTime":"2018-12-19T20:20:00Z","temp":4,"dewpoint":3,"windDirection":110,"windSpeed":5.556,"visibility":6.21,"altim":29.88189,"flightCategory":"VFR","metarType":"METAR","geometry_esri":{"x":53.53,"y":9.83,"z":13}}}