{"type":"Feature","geometry":{"type":"Point","coordinates":[53.53,9.83,13]},"properties":{"stationId":"EDHI","rawText":"EDHI 231920Z AUTO 06008KT 9999 // NCD 22/14 Q1022","observationTime":"2019-06-23T19:20:00Z","temp":22,"dewpoint":14,"windDirection":60,"windSpeed":14.816,"visibility":6.21,"altim":30.177166,"flightCategory":"VFR","metarType":"METAR","geometry_esri":{"x":53.53,"y":9.83,"z":13}}}