{"type":"Feature","geometry":{"type":"Point","coordinates":[53.53,9.83,13]},"properties":{"stationId":"EDHI","rawText":"EDHI 072150Z AUTO 25019G29KT 9000 // BKN012/// BKN023/// OVC046/// 08/07 Q1011","observationTime":"2019-01-07T21:50:00Z","temp":8,"dewpoint":7,"windDirection":250,"windSpeed":35.188,"visibility":5.59,"altim":29.852362,"flightCategory":"MVFR","metarType":"METAR","geometry_esri":{"x":53.53,"y":9.83,"z":13}}}