{"type":"Feature","geometry":{"type":"Point","coordinates":[53.53,9.83,13]},"properties":{"stationId":"EDHI","rawText":"EDHI 072350Z AUTO 15006KT 120V180 9999 // BKN017/// 04/01 Q1023","observationTime":"2020-02-07T23:50:00Z","temp":4,"dewpoint":1,"windDirection":150,"windSpeed":11.112,"visibility":6.21,"altim":30.206694,"flightCategory":"MVFR","metarType":"METAR","geometry_esri":{"x":53.53,"y":9.83,"z":13}}}