{"type":"Feature","geometry":{"type":"Point","coordinates":[53.53,9.83,13]},"properties":{"stationId":"EDHI","rawText":"EDHI 021150Z 24012KT 210V270 9999 FEW050CB 11/07 Q1006","observationTime":"2019-10-02T11:50:00Z","temp":11,"dewpoint":7,"windDirection":240,"windSpeed":22.224,"visibility":6.21,"altim":29.704725,"flightCategory":"VFR","metarType":"METAR","geometry_esri":{"x":53.53,"y":9.83,"z":13}}}