{"type":"Feature","geometry":{"type":"Point","coordinates":[53.53,9.83,13]},"properties":{"stationId":"EDHI","rawText":"EDHI 221850Z 14007KT 100V170 CAVOK M01/M06 Q1003","observationTime":"2019-01-22T18:50:00Z","temp":-1,"dewpoint":-6,"windDirection":140,"windSpeed":12.964,"visibility":6.21,"altim":29.616142,"flightCategory":"VFR","metarType":"METAR","geometry_esri":{"x":53.53,"y":9.83,"z":13}}}