{"type":"Feature","geometry":{"type":"Point","coordinates":[53.53,9.83,13]},"properties":{"stationId":"EDHI","rawText":"EDHI 091020Z AUTO 26015KT 9999 // SCT017/// BKN020/// BKN039/// 08/06 Q0990","observationTime":"2018-12-09T10:20:00Z","temp":8,"dewpoint":6,"windDirection":260,"windSpeed":27.78,"visibility":6.21,"altim":29.232283,"skyCondition1a":"SCT","skyCondition1b":1700,"skyCondition2a":"BKN","skyCondition2b":2000,"flightCategory":"MVFR","metarType":"METAR","geometry_esri":{"x":53.53,"y":9.83,"z":13}}}