{"type":"Feature","geometry":{"type":"Point","coordinates":[53.53,9.83,13]},"properties":{"stationId":"EDHI","rawText":"EDHI 042120Z AUTO VRB02KT 5000 // NCD 02/01 Q1020","observationTime":"2019-12-04T21:20:00Z","temp":2,"dewpoint":1,"windDirection":0,"windSpeed":3.704,"visibility":3.11,"altim":30.11811,"flightCategory":"MVFR","metarType":"METAR","geometry_esri":{"x":53.53,"y":9.83,"z":13}}}