{"type":"Feature","geometry":{"type":"Point","coordinates":[53.53,9.83,13]},"properties":{"stationId":"EDHI","rawText":"EDHI 021520Z 32006KT 2800 -RA OVC010 02/00 Q1000","observationTime":"2019-02-02T15:20:00Z","temp":2,"dewpoint":0,"windDirection":320,"windSpeed":11.112,"visibility":1.74,"altim":29.52756,"flightCategory":"IFR","metarType":"METAR","geometry_esri":{"x":53.53,"y":9.83,"z":13}}}