{"type":"Feature","geometry":{"type":"Point","coordinates":[53.53,9.83,13]},"properties":{"stationId":"EDHI","rawText":"EDHI 202220Z AUTO 36010KT 9999 // SCT028/// BKN100/// OVC120/// 18/13 Q1004","observationTime":"2019-05-20T22:20:00Z","temp":18,"dewpoint":13,"windDirection":360,"windSpeed":18.52,"visibility":6.21,"altim":29.64567,"flightCategory":"VFR","metarType":"METAR","geometry_esri":{"x":53.53,"y":9.83,"z":13}}}