{"type":"Feature","geometry":{"type":"Point","coordinates":[53.53,9.83,13]},"properties":{"stationId":"EDHI","rawText":"EDHI 271820Z VRB02KT CAVOK 11/M01 Q1018","observationTime":"2019-02-27T18:20:00Z","temp":11,"dewpoint":-1,"windDirection":0,"windSpeed":3.704,"visibility":6.21,"altim":30.059055,"flightCategory":"VFR","metarType":"METAR","geometry_esri":{"x":53.53,"y":9.83,"z":13}}}