{"type":"Feature","geometry":{"type":"Point","coordinates":[53.53,9.83,13]},"properties":{"stationId":"EDHI","rawText":"EDHI 070950Z AUTO 28013KT 9999 // FEW028/// BKN039/// OVC047/// 14/08 Q1011","observationTime":"2019-07-07T09:50:00Z","temp":14,"dewpoint":8,"windDirection":280,"windSpeed":24.076,"visibility":6.21,"altim":29.852362,"flightCategory":"VFR","metarType":"METAR","geometry_esri":{"x":53.53,"y":9.83,"z":13}}}