{"type":"Feature","geometry":{"type":"Point","coordinates":[53.53,9.83,13]},"properties":{"stationId":"EDHI","rawText":"EDHI 140520Z AUTO 21007KT 8000 // FEW011/// OVC049/// 05/03 Q0980","observationTime":"2019-12-14T05:20:00Z","temp":5,"dewpoint":3,"windDirection":210,"windSpeed":12.964,"visibility":4.97,"altim":28.937008,"flightCategory":"MVFR","metarType":"METAR","geometry_esri":{"x":53.53,"y":9.83,"z":13}}}