{"type":"Feature","geometry":{"type":"Point","coordinates":[53.53,9.83,13]},"properties":{"stationId":"EDHI","rawText":"EDHI 060050Z AUTO 25008KT 9999 // BKN014/// BKN021/// 03/01 Q1030","observationTime":"2020-02-06T00:50:00Z","temp":3,"dewpoint":1,"windDirection":250,"windSpeed":14.816,"visibility":6.21,"altim":30.413385,"flightCategory":"MVFR","metarType":"METAR","geometry_esri":{"x":53.53,"y":9.83,"z":13}}}