{"type":"Feature","geometry":{"type":"Point","coordinates":[53.53,9.83,13]},"properties":{"stationId":"EDHI","rawText":"EDHI 171350Z AUTO 23008KT 9999 // OVC031/// 21/16 Q1006","observationTime":"2019-08-17T13:50:00Z","temp":21,"dewpoint":16,"windDirection":230,"windSpeed":14.816,"visibility":6.21,"altim":29.704725,"flightCategory":"VFR","metarType":"METAR","geometry_esri":{"x":53.53,"y":9.83,"z":13}}}