{"type":"Feature","geometry":{"type":"Point","coordinates":[53.53,9.83,13]},"properties":{"stationId":"EDHI","rawText":"EDHI 091520Z AUTO 21004KT 140V250 9999 // NCD 23/07 Q1012","observationTime":"2020-05-09T15:20:00Z","temp":23,"dewpoint":7,"windDirection":210,"windSpeed":7.408,"visibility":6.21,"altim":29.88189,"flightCategory":"VFR","metarType":"METAR","geometry_esri":{"x":53.53,"y":9.83,"z":13}}}