{"type":"Feature","geometry":{"type":"Point","coordinates":[53.53,9.83,13]},"properties":{"stationId":"EDHI","rawText":"EDHI 191520Z AUTO 04014KT 9999 // FEW079/// 23/12 Q1005","observationTime":"2019-05-19T15:20:00Z","temp":23,"dewpoint":12,"windDirection":40,"windSpeed":25.928,"visibility":6.21,"altim":29.675198,"flightCategory":"VFR","metarType":"METAR","geometry_esri":{"x":53.53,"y":9.83,"z":13}}}