{"type":"Feature","geometry":{"type":"Point","coordinates":[53.53,9.83,13]},"properties":{"stationId":"EDHI","rawText":"EDHI 010850Z AUTO 26006KT 0200 R23/0250N // VV002 M02/M02 Q1034","observationTime":"2020-01-01T08:50:00Z","temp":-2,"dewpoint":-2,"windDirection":260,"windSpeed":11.112,"visibility":0.12,"altim":30.531496,"flightCategory":"LIFR","metarType":"METAR","geometry_esri":{"x":53.53,"y":9.83,"z":13}}}