{"type":"Feature","geometry":{"type":"Point","coordinates":[53.53,9.83,13]},"properties":{"stationId":"EDHI","rawText":"EDHI 120450Z AUTO 29010KT 270V330 9999 // FEW030/// SCT041/// BKN052/// 03/01 Q1026","observationTime":"2019-02-12T04:50:00Z","temp":3,"dewpoint":1,"windDirection":290,"windSpeed":18.52,"visibility":6.21,"altim":30.295275,"flightCategory":"VFR","metarType":"METAR","geometry_esri":{"x":53.53,"y":9.83,"z":13}}}