{"type":"Feature","geometry":{"type":"Point","coordinates":[53.53,9.83,13]},"properties":{"stationId":"EDHI","rawText":"EDHI 010520Z 16003KT 130V190 6000 -RA FEW014 SCT018 BKN026 11/11 Q1000","observationTime":"2019-10-01T05:20:00Z","temp":11,"dewpoint":11,"windDirection":160,"windSpeed":5.556,"visibility":3.73,"altim":29.52756,"flightCategory":"MVFR","metarType":"METAR","geometry_esri":{"x":53.53,"y":9.83,"z":13}}}