{"type":"Feature","geometry":{"type":"Point","coordinates":[53.53,9.83,13]},"properties":{"stationId":"EDHI","rawText":"EDHI 210350Z AUTO 00000KT 5000 // FEW100/// M08/M08 Q1022","observationTime":"2019-01-21T03:50:00Z","temp":-8,"dewpoint":-8,"windDirection":0,"windSpeed":0,"visibility":3.11,"altim":30.177166,"flightCategory":"MVFR","metarType":"METAR","geometry_esri":{"x":53.53,"y":9.83,"z":13}}}