{"type":"Feature","geometry":{"type":"Point","coordinates":[53.53,9.83,13]},"properties":{"stationId":"EDHI","rawText":"EDHI 220820Z AUTO 12003KT 070V170 6000 // BKN059/// OVC067/// 03/02 Q0985","observationTime":"2019-12-22T08:20:00Z","temp":3,"dewpoint":2,"windDirection":120,"windSpeed":5.556,"visibility":3.73,"altim":29.084646,"flightCategory":"MVFR","metarType":"METAR","geometry_esri":{"x":53.53,"y":9.83,"z":13}}}