{"type":"Feature","geometry":{"type":"Point","coordinates":[53.53,9.83,13]},"properties":{"stationId":"EDHI","rawText":"EDHI 270650Z 21006KT 110V250 6000 BKN009 14/13 Q1006","observationTime":"2019-09-27T06:50:00Z","temp":14,"dewpoint":13,"windDirection":210,"windSpeed":11.112,"visibility":3.73,"altim":29.704725,"flightCategory":"IFR","metarType":"METAR","geometry_esri":{"x":53.53,"y":9.83,"z":13}}}