{"type":"Feature","geometry":{"type":"Point","coordinates":[53.53,9.83,13]},"properties":{"stationId":"EDHI","rawText":"EDHI 121250Z 21007KT 180V240 9999 SCT011 BKN021 05/04 Q0998","observationTime":"2019-12-12T12:50:00Z","temp":5,"dewpoint":4,"windDirection":210,"windSpeed":12.964,"visibility":6.21,"altim":29.468504,"flightCategory":"MVFR","metarType":"METAR","geometry_esri":{"x":53.53,"y":9.83,"z":13}}}