{"type":"Feature","geometry":{"type":"Point","coordinates":[53.53,9.83,13]},"properties":{"stationId":"EDHI","rawText":"EDHI 130850Z 19010KT 160V230 9999 BKN021 BKN048 04/01 Q0999","observationTime":"2019-11-13T08:50:00Z","temp":4,"dewpoint":1,"windDirection":190,"windSpeed":18.52,"visibility":6.21,"altim":29.498032,"flightCategory":"MVFR","metarType":"METAR","geometry_esri":{"x":53.53,"y":9.83,"z":13}}}