{"type":"Feature","geometry":{"type":"Point","coordinates":[53.53,9.83,13]},"properties":{"stationId":"EDHI","rawText":"EDHI 141650Z 20013KT 9999 -RA BKN022 10/07 Q1005","observationTime":"2020-01-14T16:50:00Z","temp":10,"dewpoint":7,"windDirection":200,"windSpeed":24.076,"visibility":6.21,"altim":29.675198,"flightCategory":"MVFR","metarType":"METAR","geometry_esri":{"x":53.53,"y":9.83,"z":13}}}