{"type":"Feature","geometry":{"type":"Point","coordinates":[53.53,9.83,13]},"properties":{"stationId":"EDHI","rawText":"EDHI 100720Z 05008KT 9999 FEW033 04/M02 Q1019","observationTime":"2019-04-10T07:20:00Z","temp":4,"dewpoint":-2,"windDirection":50,"windSpeed":14.816,"visibility":6.21,"altim":30.088583,"flightCategory":"VFR","metarType":"METAR","geometry_esri":{"x":53.53,"y":9.83,"z":13}}}