{"type":"Feature","geometry":{"type":"Point","coordinates":[53.53,9.83,13]},"properties":{"stationId":"EDHI","rawText":"EDHI 232250Z AUTO 09011KT 060V150 9999 // NCD 14/07 Q1003","observationTime":"2019-04-23T22:50:00Z","temp":14,"dewpoint":7,"windDirection":90,"windSpeed":20.372,"visibility":6.21,"altim":29.616142,"flightCategory":"VFR","metarType":"METAR","geometry_esri":{"x":53.53,"y":9.83,"z":13}}}