{"type":"Feature","geometry":{"type":"Point","coordinates":[53.53,9.83,13]},"properties":{"stationId":"EDHI","rawText":"EDHI 041120Z AUTO 29023G37KT 2800 // FEW014/// BKN016/// OVC023/// 07/05 Q1018","observationTime":"2020-01-04T11:20:00Z","temp":7,"dewpoint":5,"windDirection":290,"windSpeed":42.596000000000004,"visibility":1.74,"altim":30.059055,"flightCategory":"IFR","metarType":"METAR","geometry_esri":{"x":53.53,"y":9.83,"z":13}}}