{"type":"Feature","geometry":{"type":"Point","coordinates":[53.53,9.83,13]},"properties":{"stationId":"EDHI","rawText":"EDHI 220320Z AUTO 29015KT 3100 // OVC006/// 11/11 Q1012","observationTime":"2019-05-22T03:20:00Z","temp":11,"dewpoint":11,"windDirection":290,"windSpeed":27.78,"visibility":1.93,"altim":29.88189,"flightCategory":"IFR","metarType":"METAR","geometry_esri":{"x":53.53,"y":9.83,"z":13}}}