{"type":"Feature","geometry":{"type":"Point","coordinates":[53.53,9.83,13]},"properties":{"stationId":"EDHI","rawText":"EDHI 121550Z AUTO 31010KT 280V340 9999 // BKN072/// BKN100/// 18/08 Q1012","observationTime":"2020-04-12T15:50:00Z","temp":18,"dewpoint":8,"windDirection":310,"windSpeed":18.52,"visibility":6.21,"altim":29.88189,"flightCategory":"VFR","metarType":"METAR","geometry_esri":{"x":53.53,"y":9.83,"z":13}}}