{"type":"Feature","geometry":{"type":"Point","coordinates":[53.53,9.83,13]},"properties":{"stationId":"EDHI","rawText":"EDHI 071250Z AUTO 29013KT 270V330 9999 R/////// // FEW036/// BKN041/// BKN059/// 15/06 Q1012","observationTime":"2019-07-07T12:50:00Z","temp":15,"dewpoint":6,"windDirection":290,"windSpeed":24.076,"visibility":6.21,"altim":29.88189,"flightCategory":"VFR","metarType":"METAR","geometry_esri":{"x":53.53,"y":9.83,"z":13}}}