{"type":"Feature","geometry":{"type":"Point","coordinates":[53.53,9.83,13]},"properties":{"stationId":"EDHI","rawText":"EDHI 170820Z 15006KT 110V180 CAVOK 07/03 Q1016","observationTime":"2020-01-17T08:20:00Z","temp":7,"dewpoint":3,"windDirection":150,"windSpeed":11.112,"visibility":6.21,"altim":30,"flightCategory":"VFR","metarType":"METAR","geometry_esri":{"x":53.53,"y":9.83,"z":13}}}