{"type":"Feature","geometry":{"type":"Point","coordinates":[53.53,9.83,13]},"properties":{"stationId":"EDHI","rawText":"EDHI 200120Z AUTO 05009KT 9999 // NCD 05/M03 Q1026","observationTime":"2020-04-20T01:20:00Z","temp":5,"dewpoint":-3,"windDirection":50,"windSpeed":16.668,"visibility":6.21,"altim":30.295275,"flightCategory":"VFR","metarType":"METAR","geometry_esri":{"x":53.53,"y":9.83,"z":13}}}