{"type":"Feature","geometry":{"type":"Point","coordinates":[53.53,9.83,13]},"properties":{"stationId":"EDHI","rawText":"EDHI 070220Z AUTO 28009KT 2800 // OVC005/// 06/05 Q1029","observationTime":"2019-01-07T02:20:00Z","temp":6,"dewpoint":5,"windDirection":280,"windSpeed":16.668,"visibility":1.74,"altim":30.383858,"flightCategory":"IFR","metarType":"METAR","geometry_esri":{"x":53.53,"y":9.83,"z":13}}}