{"type":"Feature","geometry":{"type":"Point","coordinates":[53.53,9.83,13]},"properties":{"stationId":"EDHI","rawText":"EDHI 121650Z 27007KT CAVOK 20/13 Q1025","observationTime":"2019-09-12T16:50:00Z","temp":20,"dewpoint":13,"windDirection":270,"windSpeed":12.964,"visibility":6.21,"altim":30.265747,"flightCategory":"VFR","metarType":"METAR","geometry_esri":{"x":53.53,"y":9.83,"z":13}}}