{"type":"Feature","geometry":{"type":"Point","coordinates":[53.53,9.83,13]},"properties":{"stationId":"EDHI","rawText":"EDHI 281950Z AUTO 22014KT 9999 3400 // SCT017/// BKN022/// BKN078/// 14/13 Q1005","observationTime":"2019-09-28T19:50:00Z","temp":14,"dewpoint":13,"windDirection":220,"windSpeed":25.928,"visibility":6.21,"altim":29.675198,"flightCategory":"MVFR","metarType":"METAR","geometry_esri":{"x":53.53,"y":9.83,"z":13}}}