{"type":"Feature","geometry":{"type":"Point","coordinates":[53.53,9.83,13]},"properties":{"stationId":"EDHI","rawText":"EDHI 130520Z AUTO 11005KT 080V160 9000 // OVC006/// 11/10 Q1009","observationTime":"2019-10-13T05:20:00Z","temp":11,"dewpoint":10,"windDirection":110,"windSpeed":9.26,"visibility":5.59,"altim":29.793306,"flightCategory":"IFR","metarType":"METAR","geometry_esri":{"x":53.53,"y":9.83,"z":13}}}