{"type":"Feature","geometry":{"type":"Point","coordinates":[53.53,9.83,13]},"properties":{"stationId":"EDHI","rawText":"EDHI 070320Z AUTO 27007KT 4700 // BKN007/// BKN010/// OVC017/// 09/08 Q1028","observationTime":"2020-04-07T03:20:00Z","temp":9,"dewpoint":8,"windDirection":270,"windSpeed":12.964,"visibility":2.92,"altim":30.35433,"flightCategory":"IFR","metarType":"METAR","geometry_esri":{"x":53.53,"y":9.83,"z":13}}}