{"type":"Feature","geometry":{"type":"Point","coordinates":[53.53,9.83,13]},"properties":{"stationId":"EDHI","rawText":"EDHI 220650Z 27010KT 2200 DZ BR OVC002 05/05 Q1032","observationTime":"2020-01-22T06:50:00Z","temp":5,"dewpoint":5,"windDirection":270,"windSpeed":18.52,"visibility":1.37,"altim":30.47244,"flightCategory":"LIFR","metarType":"METAR","geometry_esri":{"x":53.53,"y":9.83,"z":13}}}