{"type":"Feature","geometry":{"type":"Point","coordinates":[53.53,9.83,13]},"properties":{"stationId":"EDHI","rawText":"EDHI 261620Z AUTO 21009KT 170V230 9999 // BKN052/// OVC065/// 19/12 Q1006","observationTime":"2019-05-26T16:20:00Z","temp":19,"dewpoint":12,"windDirection":210,"windSpeed":16.668,"visibility":6.21,"altim":29.704725,"flightCategory":"VFR","metarType":"METAR","geometry_esri":{"x":53.53,"y":9.83,"z":13}}}