{"type":"Feature","geometry":{"type":"Point","coordinates":[53.53,9.83,13]},"properties":{"stationId":"EDHI","rawText":"EDHI 221650Z AUTO 10009G20KT 040V180 9999 // NCD 19/M01 Q1012","observationTime":"2019-04-22T16:50:00Z","temp":19,"dewpoint":-1,"windDirection":100,"windSpeed":16.668,"visibility":6.21,"altim":29.88189,"flightCategory":"VFR","metarType":"METAR","geometry_esri":{"x":53.53,"y":9.83,"z":13}}}