{"type":"Feature","geometry":{"type":"Point","coordinates":[53.53,9.83,13]},"properties":{"stationId":"EDHI","rawText":"EDHI 011850Z AUTO 10004KT 040V200 9999 // NCD 08/M05 Q1021","observationTime":"2019-04-01T18:50:00Z","temp":8,"dewpoint":-5,"windDirection":100,"windSpeed":7.408,"visibility":6.21,"altim":30.147638,"flightCategory":"VFR","metarType":"METAR","geometry_esri":{"x":53.53,"y":9.83,"z":13}}}