{"type":"Feature","geometry":{"type":"Point","coordinates":[53.53,9.83,13]},"properties":{"stationId":"EDHI","rawText":"EDHI 101150Z 28026G38KT 8000 -SHRA SCT017 SCT022CB BKN036 05/04 Q0989 RERASN","observationTime":"2020-02-10T11:50:00Z","temp":5,"dewpoint":4,"windDirection":280,"windSpeed":48.152,"visibility":4.97,"altim":29.202755,"flightCategory":"MVFR","metarType":"METAR","geometry_esri":{"x":53.53,"y":9.83,"z":13}}}