{"type":"Feature","geometry":{"type":"Point","coordinates":[53.53,9.83,13]},"properties":{"stationId":"EDHI","rawText":"EDHI 301120Z AUTO 21011KT 170V240 9999 // SCT025/// BKN032/// OVC037/// 16/11 Q1020","observationTime":"2019-05-30T11:20:00Z","temp":16,"dewpoint":11,"windDirection":210,"windSpeed":20.372,"visibility":6.21,"altim":30.11811,"flightCategory":"VFR","metarType":"METAR","geometry_esri":{"x":53.53,"y":9.83,"z":13}}}