{"type":"Feature","geometry":{"type":"Point","coordinates":[53.53,9.83,13]},"properties":{"stationId":"EDHI","rawText":"EDHI 080120Z AUTO 18005KT 130V240 9999 1600 // SCT019/// BKN032/// OVC100/// 10/06 Q1009","observationTime":"2019-10-08T01:20:00Z","temp":10,"dewpoint":6,"windDirection":180,"windSpeed":9.26,"visibility":6.21,"altim":29.793306,"flightCategory":"VFR","metarType":"METAR","geometry_esri":{"x":53.53,"y":9.83,"z":13}}}