{"type":"Feature","geometry":{"type":"Point","coordinates":[53.53,9.83,13]},"properties":{"stationId":"EDHI","rawText":"EDHI 260820Z AUTO 21005KT 2100 // FEW005/// OVC047/// 02/02 Q1001","observationTime":"2019-01-26T08:20:00Z","temp":2,"dewpoint":2,"windDirection":210,"windSpeed":9.26,"visibility":1.3,"altim":29.557087,"flightCategory":"IFR","metarType":"METAR","geometry_esri":{"x":53.53,"y":9.83,"z":13}}}