{"type":"Feature","geometry":{"type":"Point","coordinates":[53.53,9.83,13]},"properties":{"stationId":"EDHI","rawText":"EDHI 150820Z 09011G22KT 050V130 7000 OVC012 05/02 Q1006","observationTime":"2019-11-15T08:20:00Z","temp":5,"dewpoint":2,"windDirection":90,"windSpeed":20.372,"visibility":4.35,"altim":29.704725,"flightCategory":"MVFR","metarType":"METAR","geometry_esri":{"x":53.53,"y":9.83,"z":13}}}