{"type":"Feature","geometry":{"type":"Point","coordinates":[53.53,9.83,13]},"properties":{"stationId":"EDHI","rawText":"EDHI 171920Z AUTO 22008KT 6000 2600 // OVC009/// 08/07 Q1012","observationTime":"2020-01-17T19:20:00Z","temp":8,"dewpoint":7,"windDirection":220,"windSpeed":14.816,"visibility":3.73,"altim":29.88189,"flightCategory":"IFR","metarType":"METAR","geometry_esri":{"x":53.53,"y":9.83,"z":13}}}