{"type":"Feature","geometry":{"type":"Point","coordinates":[53.53,9.83,13]},"properties":{"stationId":"EDHI","rawText":"EDHI 300120Z AUTO 05002KT 0600 0550 R23/P2000N // FEW009/// 05/04 Q1024","observationTime":"2019-03-30T01:20:00Z","temp":5,"dewpoint":4,"windDirection":50,"windSpeed":3.704,"visibility":0.37,"altim":30.236221,"flightCategory":"LIFR","metarType":"METAR","geometry_esri":{"x":53.53,"y":9.83,"z":13}}}