{"type":"Feature","geometry":{"type":"Point","coordinates":[53.53,9.83,13]},"properties":{"stationId":"EDHI","rawText":"EDHI 050350Z AUTO VRB01KT 7000 // OVC064/// 09/08 Q0992","observationTime":"2019-11-05T03:50:00Z","temp":9,"dewpoint":8,"windDirection":0,"windSpeed":1.852,"visibility":4.35,"altim":29.291338,"flightCategory":"MVFR","metarType":"METAR","geometry_esri":{"x":53.53,"y":9.83,"z":13}}}