{"type":"Feature","geometry":{"type":"Point","coordinates":[53.53,9.83,13]},"properties":{"stationId":"EDHI","rawText":"EDHI 280920Z 12003KT 070V180 CAVOK 27/18 Q1012","observationTime":"2019-08-28T09:20:00Z","temp":27,"dewpoint":18,"windDirection":120,"windSpeed":5.556,"visibility":6.21,"altim":29.88189,"flightCategory":"VFR","metarType":"METAR","geometry_esri":{"x":53.53,"y":9.83,"z":13}}}