{"type":"Feature","geometry":{"type":"Point","coordinates":[53.53,9.83,13]},"properties":{"stationId":"EDHI","rawText":"EDHI 110220Z AUTO 25016KT 9999 3200 // SCT012/// BKN014/// OVC020/// 03/01 Q0989","observationTime":"2020-02-11T02:20:00Z","temp":3,"dewpoint":1,"windDirection":250,"windSpeed":29.632,"visibility":6.21,"altim":29.202755,"flightCategory":"MVFR","metarType":"METAR","geometry_esri":{"x":53.53,"y":9.83,"z":13}}}