{"type":"Feature","geometry":{"type":"Point","coordinates":[53.53,9.83,13]},"properties":{"stationId":"EDHI","rawText":"EDHI 132220Z AUTO 20005KT 160V220 4800 // OVC007/// 02/01 Q0982","observationTime":"2019-12-13T22:20:00Z","temp":2,"dewpoint":1,"windDirection":200,"windSpeed":9.26,"visibility":2.98,"altim":28.996063,"flightCategory":"IFR","metarType":"METAR","geometry_esri":{"x":53.53,"y":9.83,"z":13}}}