{"type":"Feature","geometry":{"type":"Point","coordinates":[53.53,9.83,13]},"properties":{"stationId":"EDHI","rawText":"EDHI 060720Z AUTO 31004KT 270V330 4200 // OVC003/// 05/05 Q1027","observationTime":"2019-01-06T07:20:00Z","temp":5,"dewpoint":5,"windDirection":310,"windSpeed":7.408,"visibility":2.61,"altim":30.324802,"flightCategory":"LIFR","metarType":"METAR","geometry_esri":{"x":53.53,"y":9.83,"z":13}}}