{"type":"Feature","geometry":{"type":"Point","coordinates":[53.53,9.83,13]},"properties":{"stationId":"EDHI","rawText":"EDHI 110520Z 22013KT 8000 -RA BKN022 12/10 Q1007","observationTime":"2019-10-11T05:20:00Z","temp":12,"dewpoint":10,"windDirection":220,"windSpeed":24.076,"visibility":4.97,"altim":29.734253,"flightCategory":"MVFR","metarType":"METAR","geometry_esri":{"x":53.53,"y":9.83,"z":13}}}