{"type":"Feature","geometry":{"type":"Point","coordinates":[53.53,9.83,13]},"properties":{"stationId":"EDHI","rawText":"EDHI 061450Z AUTO 28005KT 2300 // BKN005/// OVC012/// 06/06 Q1028","observationTime":"2019-01-06T14:50:00Z","temp":6,"dewpoint":6,"windDirection":280,"windSpeed":9.26,"visibility":1.43,"altim":30.35433,"flightCategory":"IFR","metarType":"METAR","geometry_esri":{"x":53.53,"y":9.83,"z":13}}}