{"type":"Feature","geometry":{"type":"Point","coordinates":[53.53,9.83,13]},"properties":{"stationId":"EDHI","rawText":"EDHI 141820Z AUTO 29011KT 9999 // FEW014/// BKN016/// OVC023/// 15/12 Q1017","observationTime":"2019-07-14T18:20:00Z","temp":15,"dewpoint":12,"windDirection":290,"windSpeed":20.372,"visibility":6.21,"altim":30.029528,"flightCategory":"MVFR","metarType":"METAR","geometry_esri":{"x":53.53,"y":9.83,"z":13}}}