{"type":"Feature","geometry":{"type":"Point","coordinates":[53.53,9.83,13]},"properties":{"stationId":"EDHI","rawText":"EDHI 282150Z AUTO 32005KT 9999 // BKN220/// 09/06 Q1022","observationTime":"2019-04-28T21:50:00Z","temp":9,"dewpoint":6,"windDirection":320,"windSpeed":9.26,"visibility":6.21,"altim":30.177166,"flightCategory":"VFR","metarType":"METAR","geometry_esri":{"x":53.53,"y":9.83,"z":13}}}