{"type":"Feature","geometry":{"type":"Point","coordinates":[53.53,9.83,13]},"properties":{"stationId":"EDHI","rawText":"EDHI 121620Z AUTO 32008KT 9999 // BKN075/// BKN097/// 18/08 Q1012","observationTime":"2020-04-12T16:20:00Z","temp":18,"dewpoint":8,"windDirection":320,"windSpeed":14.816,"visibility":6.21,"altim":29.88189,"flightCategory":"VFR","metarType":"METAR","geometry_esri":{"x":53.53,"y":9.83,"z":13}}}