{"type":"Feature","geometry":{"type":"Point","coordinates":[53.53,9.83,13]},"properties":{"stationId":"EDHI","rawText":"EDHI 161120Z 21011KT 9000 FEW016 BKN019 OVC026 06/03 Q1003","observationTime":"2019-03-16T11:20:00Z","temp":6,"dewpoint":3,"windDirection":210,"windSpeed":20.372,"visibility":5.59,"altim":29.616142,"flightCategory":"MVFR","metarType":"METAR","geometry_esri":{"x":53.53,"y":9.83,"z":13}}}