{"type":"Feature","geometry":{"type":"Point","coordinates":[53.53,9.83,13]},"properties":{"stationId":"EDHI","rawText":"EDHI 121920Z 18008KT 130V230 9999 -RA FEW049 07/M00 Q0999","observationTime":"2019-03-12T19:20:00Z","temp":7,"dewpoint":0,"windDirection":180,"windSpeed":14.816,"visibility":6.21,"altim":29.498032,"flightCategory":"VFR","metarType":"METAR","geometry_esri":{"x":53.53,"y":9.83,"z":13}}}