{"type":"Feature","geometry":{"type":"Point","coordinates":[53.53,9.83,13]},"properties":{"stationId":"EDHI","rawText":"EDHI 290050Z AUTO 14009KT 100V170 4400 // BKN009/// OVC016/// 01/00 Q1000","observationTime":"2020-02-29T00:50:00Z","temp":1,"dewpoint":0,"windDirection":140,"windSpeed":16.668,"visibility":2.73,"altim":29.52756,"flightCategory":"IFR","metarType":"METAR","geometry_esri":{"x":53.53,"y":9.83,"z":13}}}