{"type":"Feature","geometry":{"type":"Point","coordinates":[53.53,9.83,13]},"properties":{"stationId":"EDHI","rawText":"EDHI 271550Z 29014KT 9999 BKN028 17/12 Q1026","observationTime":"2019-06-27T15:50:00Z","temp":17,"dewpoint":12,"windDirection":290,"windSpeed":25.928,"visibility":6.21,"altim":30.295275,"flightCategory":"MVFR","metarType":"METAR","geometry_esri":{"x":53.53,"y":9.83,"z":13}}}