{"type":"Feature","geometry":{"type":"Point","coordinates":[53.53,9.83,13]},"properties":{"stationId":"EDHI","rawText":"EDHI 240720Z 13004KT 090V170 9000 FEW019 OVC023 M05/M08 Q1011","observationTime":"2019-01-24T07:20:00Z","temp":-5,"dewpoint":-8,"windDirection":130,"windSpeed":7.408,"visibility":5.59,"altim":29.852362,"flightCategory":"MVFR","metarType":"METAR","geometry_esri":{"x":53.53,"y":9.83,"z":13}}}