{"type":"Feature","geometry":{"type":"Point","coordinates":[53.53,9.83,13]},"properties":{"stationId":"EDHI","rawText":"EDHI 141020Z 25013KT 9999 FEW036 19/10 Q1016","observationTime":"2019-08-14T10:20:00Z","temp":19,"dewpoint":10,"windDirection":250,"windSpeed":24.076,"visibility":6.21,"altim":30,"flightCategory":"VFR","metarType":"METAR","geometry_esri":{"x":53.53,"y":9.83,"z":13}}}