{"type":"Feature","geometry":{"type":"Point","coordinates":[53.53,9.83,13]},"properties":{"stationId":"EDHI","rawText":"EDHI 240120Z AUTO 36009KT 9999 // BKN008/// OVC013/// 04/03 Q1016","observationTime":"2018-12-24T01:20:00Z","temp":4,"dewpoint":3,"windDirection":360,"windSpeed":16.668,"visibility":6.21,"altim":30,"flightCategory":"IFR","metarType":"METAR","geometry_esri":{"x":53.53,"y":9.83,"z":13}}}