{"type":"Feature","geometry":{"type":"Point","coordinates":[53.53,9.83,13]},"properties":{"stationId":"EDHI","rawText":"EDHI 060850Z AUTO 22008KT 9000 // BKN009/// BKN017/// OVC022/// 15/13 Q1008","observationTime":"2019-07-06T08:50:00Z","temp":15,"dewpoint":13,"windDirection":220,"windSpeed":14.816,"visibility":5.59,"altim":29.763779,"flightCategory":"IFR","metarType":"METAR","geometry_esri":{"x":53.53,"y":9.83,"z":13}}}