{"type":"Feature","geometry":{"type":"Point","coordinates":[53.53,9.83,13]},"properties":{"stationId":"EDHI","rawText":"EDHI 160950Z 24011KT 3600 RA BR SCT004 OVC005 06/06 Q1003","observationTime":"2019-11-16T09:50:00Z","temp":6,"dewpoint":6,"windDirection":240,"windSpeed":20.372,"visibility":2.24,"altim":29.616142,"flightCategory":"IFR","metarType":"METAR","geometry_esri":{"x":53.53,"y":9.83,"z":13}}}