{"type":"Feature","geometry":{"type":"Point","coordinates":[53.53,9.83,13]},"properties":{"stationId":"EDHI","rawText":"EDHI 130450Z AUTO 21004KT 180V240 9999 // FEW019/// 03/03 Q1018","observationTime":"2020-01-13T04:50:00Z","temp":3,"dewpoint":3,"windDirection":210,"windSpeed":7.408,"visibility":6.21,"altim":30.059055,"flightCategory":"VFR","metarType":"METAR","geometry_esri":{"x":53.53,"y":9.83,"z":13}}}