{"type":"Feature","geometry":{"type":"Point","coordinates":[53.53,9.83,13]},"properties":{"stationId":"EDHI","rawText":"EDHI 181650Z 23015KT 9999 SCT029 07/02 Q1015","observationTime":"2020-02-18T16:50:00Z","temp":7,"dewpoint":2,"windDirection":230,"windSpeed":27.78,"visibility":6.21,"altim":29.970472,"flightCategory":"VFR","metarType":"METAR","geometry_esri":{"x":53.53,"y":9.83,"z":13}}}