{"type":"Feature","geometry":{"type":"Point","coordinates":[53.53,9.83,13]},"properties":{"stationId":"EDHI","rawText":"EDHI 160920Z 23014KT 9999 SCT017 BKN024 OVC033 08/05 Q1005","observationTime":"2019-01-16T09:20:00Z","temp":8,"dewpoint":5,"windDirection":230,"windSpeed":25.928,"visibility":6.21,"altim":29.675198,"flightCategory":"MVFR","metarType":"METAR","geometry_esri":{"x":53.53,"y":9.83,"z":13}}}