{"type":"Feature","geometry":{"type":"Point","coordinates":[53.53,9.83,13]},"properties":{"stationId":"EDHI","rawText":"EDHI 202050Z AUTO 17002KT 1100 0500 R23/P2000N // FEW002/// BKN004/// M05/M06 Q1022","observationTime":"2019-01-20T20:50:00Z","temp":-5,"dewpoint":-6,"windDirection":170,"windSpeed":3.704,"visibility":0.68,"altim":30.177166,"flightCategory":"LIFR","metarType":"METAR","geometry_esri":{"x":53.53,"y":9.83,"z":13}}}