{"type":"Feature","geometry":{"type":"Point","coordinates":[53.53,9.83,13]},"properties":{"stationId":"EDHI","rawText":"EDHI 180750Z 24009KT 9999 BKN048 13/06 Q1020","observationTime":"2020-05-18T07:50:00Z","temp":13,"dewpoint":6,"windDirection":240,"windSpeed":16.668,"visibility":6.21,"altim":30.11811,"flightCategory":"VFR","metarType":"METAR","geometry_esri":{"x":53.53,"y":9.83,"z":13}}}