{"type":"Feature","geometry":{"type":"Point","coordinates":[53.53,9.83,13]},"properties":{"stationId":"EDHI","rawText":"EDHI 060420Z COR 11006KT 080V140 CAVOK 06/M01 Q1020","observationTime":"2020-04-06T04:20:00Z","temp":6,"dewpoint":-1,"windDirection":110,"windSpeed":11.112,"visibility":6.21,"altim":30.11811,"flightCategory":"VFR","metarType":"METAR","geometry_esri":{"x":53.53,"y":9.83,"z":13}}}