{"type":"Feature","geometry":{"type":"Point","coordinates":[53.53,9.83,13]},"properties":{"stationId":"EDHI","rawText":"EDHI 290850Z 03004KT 340V070 CAVOK 06/04 Q1025","observationTime":"2019-10-29T08:50:00Z","temp":6,"dewpoint":4,"windDirection":30,"windSpeed":7.408,"visibility":6.21,"altim":30.265747,"flightCategory":"VFR","metarType":"METAR","geometry_esri":{"x":53.53,"y":9.83,"z":13}}}