{"type":"Feature","geometry":{"type":"Point","coordinates":[53.53,9.83,13]},"properties":{"stationId":"EDHI","rawText":"EDHI 150620Z 08014KT 8000 OVC014 04/01 Q1006","observationTime":"2019-11-15T06:20:00Z","temp":4,"dewpoint":1,"windDirection":80,"windSpeed":25.928,"visibility":4.97,"altim":29.704725,"flightCategory":"MVFR","metarType":"METAR","geometry_esri":{"x":53.53,"y":9.83,"z":13}}}