{"type":"Feature","geometry":{"type":"Point","coordinates":[53.53,9.83,13]},"properties":{"stationId":"EDHI","rawText":"EDHI 280850Z 31004KT 220V010 9999 SCT036 13/05 Q1007","observationTime":"2019-05-28T08:50:00Z","temp":13,"dewpoint":5,"windDirection":310,"windSpeed":7.408,"visibility":6.21,"altim":29.734253,"flightCategory":"VFR","metarType":"METAR","geometry_esri":{"x":53.53,"y":9.83,"z":13}}}