{"type":"Feature","geometry":{"type":"Point","coordinates":[53.53,9.83,13]},"properties":{"stationId":"EDHI","rawText":"EDHI 231450Z 09016G28KT 060V150 CAVOK 20/03 Q1004","observationTime":"2019-04-23T14:50:00Z","temp":20,"dewpoint":3,"windDirection":90,"windSpeed":29.632,"visibility":6.21,"altim":29.64567,"flightCategory":"VFR","metarType":"METAR","geometry_esri":{"x":53.53,"y":9.83,"z":13}}}