{"type":"Feature","geometry":{"type":"Point","coordinates":[53.53,9.83,13]},"properties":{"stationId":"EDHI","rawText":"EDHI 090220Z AUTO 33016KT 290V360 9999 // BKN033/// BKN086/// BKN130/// 03/M02 Q1008","observationTime":"2019-01-09T02:20:00Z","temp":3,"dewpoint":-2,"windDirection":330,"windSpeed":29.632,"visibility":6.21,"altim":29.763779,"flightCategory":"VFR","metarType":"METAR","geometry_esri":{"x":53.53,"y":9.83,"z":13}}}