{"type":"Feature","geometry":{"type":"Point","coordinates":[53.53,9.83,13]},"properties":{"stationId":"EDHI","rawText":"EDHI 271550Z 06010KT CAVOK 14/00 Q1022","observationTime":"2020-03-27T15:50:00Z","temp":14,"dewpoint":0,"windDirection":60,"windSpeed":18.52,"visibility":6.21,"altim":30.177166,"flightCategory":"VFR","metarType":"METAR","geometry_esri":{"x":53.53,"y":9.83,"z":13}}}