{"type":"Feature","geometry":{"type":"Point","coordinates":[53.53,9.83,13]},"properties":{"stationId":"EDHI","rawText":"EDHI 270150Z AUTO 25009KT 9999 // BKN007/// OVC014/// 14/13 Q1004","observationTime":"2019-05-27T01:50:00Z","temp":14,"dewpoint":13,"windDirection":250,"windSpeed":16.668,"visibility":6.21,"altim":29.64567,"flightCategory":"IFR","metarType":"METAR","geometry_esri":{"x":53.53,"y":9.83,"z":13}}}