{"type":"Feature","geometry":{"type":"Point","coordinates":[53.53,9.83,13]},"properties":{"stationId":"EDHI","rawText":"EDHI 212120Z AUTO 26022KT 9999 // OVC010/// 08/07 Q0995","observationTime":"2018-12-21T21:20:00Z","temp":8,"dewpoint":7,"windDirection":260,"windSpeed":40.744,"visibility":6.21,"altim":29.379921,"flightCategory":"MVFR","metarType":"METAR","geometry_esri":{"x":53.53,"y":9.83,"z":13}}}