{"type":"Feature","geometry":{"type":"Point","coordinates":[53.53,9.83,13]},"properties":{"stationId":"EDHI","rawText":"EDHI 232320Z AUTO 28005KT 1100 0400 R23/P2000N // FEW009/// 01/00 Q1026","observationTime":"2020-01-23T23:20:00Z","temp":1,"dewpoint":0,"windDirection":280,"windSpeed":9.26,"visibility":0.68,"altim":30.295275,"flightCategory":"LIFR","metarType":"METAR","geometry_esri":{"x":53.53,"y":9.83,"z":13}}}