{"type":"Feature","geometry":{"type":"Point","coordinates":[53.53,9.83,13]},"properties":{"stationId":"EDHI","rawText":"EDHI 300850Z 27022G32KT 9999 VCSH FEW017 BKN020 OVC031 14/11 Q0999","observationTime":"2019-09-30T08:50:00Z","temp":14,"dewpoint":11,"windDirection":270,"windSpeed":40.744,"visibility":6.21,"altim":29.498032,"flightCategory":"MVFR","metarType":"METAR","geometry_esri":{"x":53.53,"y":9.83,"z":13}}}