{"type":"Feature","geometry":{"type":"Point","coordinates":[53.53,9.83,13]},"properties":{"stationId":"EDHI","rawText":"EDHI 161450Z AUTO 31010KT 270V340 9999 // BKN058/// OVC076/// 15/03 Q1019","observationTime":"2020-05-16T14:50:00Z","temp":15,"dewpoint":3,"windDirection":310,"windSpeed":18.52,"visibility":6.21,"altim":30.088583,"flightCategory":"VFR","metarType":"METAR","geometry_esri":{"x":53.53,"y":9.83,"z":13}}}