{"type":"Feature","geometry":{"type":"Point","coordinates":[53.53,9.83,13]},"properties":{"stationId":"EDHI","rawText":"EDHI 300420Z AUTO VRB02KT 2200 // NCD 03/03 Q1023","observationTime":"2019-03-30T04:20:00Z","temp":3,"dewpoint":3,"windDirection":0,"windSpeed":3.704,"visibility":1.37,"altim":30.206694,"flightCategory":"IFR","metarType":"METAR","geometry_esri":{"x":53.53,"y":9.83,"z":13}}}