{"type":"Feature","geometry":{"type":"Point","coordinates":[53.53,9.83,13]},"properties":{"stationId":"EDHI","rawText":"EDHI 221620Z 11004KT 050V170 CAVOK 06/M02 Q1040","observationTime":"2019-02-22T16:20:00Z","temp":6,"dewpoint":-2,"windDirection":110,"windSpeed":7.408,"visibility":6.21,"altim":30.708662,"flightCategory":"VFR","metarType":"METAR","geometry_esri":{"x":53.53,"y":9.83,"z":13}}}