{"type":"Feature","geometry":{"type":"Point","coordinates":[53.53,9.83,13]},"properties":{"stationId":"EDHI","rawText":"EDHI 301750Z 03013KT 9999 FEW045 05/M05 Q1026","observationTime":"2020-03-30T17:50:00Z","temp":5,"dewpoint":-5,"windDirection":30,"windSpeed":24.076,"visibility":6.21,"altim":30.295275,"flightCategory":"VFR","metarType":"METAR","geometry_esri":{"x":53.53,"y":9.83,"z":13}}}