{"type":"Feature","geometry":{"type":"Point","coordinates":[53.53,9.83,13]},"properties":{"stationId":"EDHI","rawText":"EDHI 011020Z 14006KT 100V180 8000 NSC 02/M00 Q1011","observationTime":"2019-11-01T10:20:00Z","temp":2,"dewpoint":0,"windDirection":140,"windSpeed":11.112,"visibility":4.97,"altim":29.852362,"flightCategory":"MVFR","metarType":"METAR","geometry_esri":{"x":53.53,"y":9.83,"z":13}}}