{"type":"Feature","geometry":{"type":"Point","coordinates":[53.53,9.83,13]},"properties":{"stationId":"EDHI","rawText":"EDHI 071520Z 10008KT 070V140 9000 OVC008 06/05 Q1000","observationTime":"2019-11-07T15:20:00Z","temp":6,"dewpoint":5,"windDirection":100,"windSpeed":14.816,"visibility":5.59,"altim":29.52756,"flightCategory":"IFR","metarType":"METAR","geometry_esri":{"x":53.53,"y":9.83,"z":13}}}