{"type":"Feature","geometry":{"type":"Point","coordinates":[53.53,9.83,13]},"properties":{"stationId":"EDHI","rawText":"EDHI 210820Z 09005KT 060V130 2500 BR OVC003 12/12 Q1015","observationTime":"2019-10-21T08:20:00Z","temp":12,"dewpoint":12,"windDirection":90,"windSpeed":9.26,"visibility":1.55,"altim":29.970472,"flightCategory":"LIFR","metarType":"METAR","geometry_esri":{"x":53.53,"y":9.83,"z":13}}}