{"type":"Feature","geometry":{"type":"Point","coordinates":[53.53,9.83,13]},"properties":{"stationId":"EDHI","rawText":"EDHI 080250Z AUTO 23018G29KT 3300 // FEW011/// OVC013/// 07/05 Q0991","observationTime":"2019-03-08T02:50:00Z","temp":7,"dewpoint":5,"windDirection":230,"windSpeed":33.336,"visibility":2.05,"altim":29.26181,"flightCategory":"IFR","metarType":"METAR","geometry_esri":{"x":53.53,"y":9.83,"z":13}}}