{"type":"Feature","geometry":{"type":"Point","coordinates":[53.53,9.83,13]},"properties":{"stationId":"EDHI","rawText":"EDHI 190220Z AUTO 12009KT 090V160 9999 // FEW009/// OVC180/// 02/00 Q1014","observationTime":"2018-12-19T02:20:00Z","temp":2,"dewpoint":0,"windDirection":120,"windSpeed":16.668,"visibility":6.21,"altim":29.940945,"flightCategory":"VFR","metarType":"METAR","geometry_esri":{"x":53.53,"y":9.83,"z":13}}}