{"type":"Feature","geometry":{"type":"Point","coordinates":[53.53,9.83,13]},"properties":{"stationId":"EDHI","rawText":"EDHI 011850Z 10005KT 060V160 5000 BR OVC042 00/M02 Q0994","observationTime":"2019-02-01T18:50:00Z","temp":0,"dewpoint":-2,"windDirection":100,"windSpeed":9.26,"visibility":3.11,"altim":29.350393,"flightCategory":"MVFR","metarType":"METAR","geometry_esri":{"x":53.53,"y":9.83,"z":13}}}