{"type":"Feature","geometry":{"type":"Point","coordinates":[53.53,9.83,13]},"properties":{"stationId":"EDHI","rawText":"EDHI 202020Z AUTO 05008KT 4500 // FEW009/// BKN014/// OVC031/// 11/10 Q1012","observationTime":"2019-10-20T20:20:00Z","temp":11,"dewpoint":10,"windDirection":50,"windSpeed":14.816,"visibility":2.8,"altim":29.88189,"flightCategory":"IFR","metarType":"METAR","geometry_esri":{"x":53.53,"y":9.83,"z":13}}}