{"type":"Feature","geometry":{"type":"Point","coordinates":[53.53,9.83,13]},"properties":{"stationId":"EDHI","rawText":"EDHI 211750Z 23012KT 9999 -RADZ BKN010 10/10 Q0993","observationTime":"2018-12-21T17:50:00Z","temp":10,"dewpoint":10,"windDirection":230,"windSpeed":22.224,"visibility":6.21,"altim":29.320866,"flightCategory":"MVFR","metarType":"METAR","geometry_esri":{"x":53.53,"y":9.83,"z":13}}}