{"type":"Feature","geometry":{"type":"Point","coordinates":[53.53,9.83,13]},"properties":{"stationId":"EDHI","rawText":"EDHI 201950Z AUTO 33005KT 290V010 9999 // FEW018/// SCT028/// BKN054/// 19/15 Q1012","observationTime":"2019-06-20T19:50:00Z","temp":19,"dewpoint":15,"windDirection":330,"windSpeed":9.26,"visibility":6.21,"altim":29.88189,"flightCategory":"VFR","metarType":"METAR","geometry_esri":{"x":53.53,"y":9.83,"z":13}}}