{"type":"Feature","geometry":{"type":"Point","coordinates":[53.53,9.83,13]},"properties":{"stationId":"EDHI","rawText":"EDHI 262020Z AUTO 31011KT 280V340 9999 // OVC019/// 17/13 Q1025","observationTime":"2019-06-26T20:20:00Z","temp":17,"dewpoint":13,"windDirection":310,"windSpeed":20.372,"visibility":6.21,"altim":30.265747,"flightCategory":"MVFR","metarType":"METAR","geometry_esri":{"x":53.53,"y":9.83,"z":13}}}