{"type":"Feature","geometry":{"type":"Point","coordinates":[53.53,9.83,13]},"properties":{"stationId":"EDHI","rawText":"EDHI 081720Z AUTO 33006KT 270V360 9999 // FEW210/// 18/06 Q1017","observationTime":"2020-05-08T17:20:00Z","temp":18,"dewpoint":6,"windDirection":330,"windSpeed":11.112,"visibility":6.21,"altim":30.029528,"flightCategory":"VFR","metarType":"METAR","geometry_esri":{"x":53.53,"y":9.83,"z":13}}}