{"type":"Feature","geometry":{"type":"Point","coordinates":[53.53,9.83,13]},"properties":{"stationId":"EDHI","rawText":"EDHI 072120Z AUTO 19008KT 9999 // BKN048/// BKN091/// BKN120/// 05/00 Q1016","observationTime":"2020-03-07T21:20:00Z","temp":5,"dewpoint":0,"windDirection":190,"windSpeed":14.816,"visibility":6.21,"altim":30,"flightCategory":"VFR","metarType":"SPECI","geometry_esri":{"x":53.53,"y":9.83,"z":13}}}