{"type":"Feature","geometry":{"type":"Point","coordinates":[53.53,9.83,13]},"properties":{"stationId":"EDHI","rawText":"EDHI 202350Z AUTO 21005KT 170V240 9999 // SCT023/// OVC120/// 09/08 Q0988","observationTime":"2019-12-20T23:50:00Z","temp":9,"dewpoint":8,"windDirection":210,"windSpeed":9.26,"visibility":6.21,"altim":29.17323,"flightCategory":"VFR","metarType":"METAR","geometry_esri":{"x":53.53,"y":9.83,"z":13}}}