{"type":"Feature","geometry":{"type":"Point","coordinates":[53.53,9.83,13]},"properties":{"stationId":"EDHI","rawText":"EDHI 151820Z AUTO 23005KT 9999 // FEW019/// BKN027/// BKN047/// 18/16 Q1009","observationTime":"2019-08-15T18:20:00Z","temp":18,"dewpoint":16,"windDirection":230,"windSpeed":9.26,"visibility":6.21,"altim":29.793306,"flightCategory":"MVFR","metarType":"METAR","geometry_esri":{"x":53.53,"y":9.83,"z":13}}}