{"type":"Feature","geometry":{"type":"Point","coordinates":[53.53,9.83,13]},"properties":{"stationId":"EDHI","rawText":"EDHI 210520Z 23010KT 3700 BR BKN005 02/02 Q1040","observationTime":"2020-01-21T05:20:00Z","temp":2,"dewpoint":2,"windDirection":230,"windSpeed":18.52,"visibility":2.3,"altim":30.708662,"flightCategory":"IFR","metarType":"METAR","geometry_esri":{"x":53.53,"y":9.83,"z":13}}}