{"type":"Feature","geometry":{"type":"Point","coordinates":[53.53,9.83,13]},"properties":{"stationId":"EDHI","rawText":"EDHI 162020Z AUTO 29006KT 9999 // FEW056/// OVC140/// 11/06 Q1019","observationTime":"2020-05-16T20:20:00Z","temp":11,"dewpoint":6,"windDirection":290,"windSpeed":11.112,"visibility":6.21,"altim":30.088583,"flightCategory":"VFR","metarType":"METAR","geometry_esri":{"x":53.53,"y":9.83,"z":13}}}