{"type":"Feature","geometry":{"type":"Point","coordinates":[53.53,9.83,13]},"properties":{"stationId":"EDHI","rawText":"EDHI 231120Z 20009KT 180V250 CAVOK 19/07 Q1018","observationTime":"2019-05-23T11:20:00Z","temp":19,"dewpoint":7,"windDirection":200,"windSpeed":16.668,"visibility":6.21,"altim":30.059055,"flightCategory":"VFR","metarType":"METAR","geometry_esri":{"x":53.53,"y":9.83,"z":13}}}