{"type":"Feature","geometry":{"type":"Point","coordinates":[53.53,9.83,13]},"properties":{"stationId":"EDHI","rawText":"EDHI 211250Z 13009KT 100V170 7000 -RA SCT008 BKN017 07/06 Q0997","observationTime":"2018-12-21T12:50:00Z","temp":7,"dewpoint":6,"windDirection":130,"windSpeed":16.668,"visibility":4.35,"altim":29.438976,"flightCategory":"MVFR","metarType":"METAR","geometry_esri":{"x":53.53,"y":9.83,"z":13}}}