{"type":"Feature","geometry":{"type":"Point","coordinates":[53.53,9.83,13]},"properties":{"stationId":"EDHI","rawText":"EDHI 251720Z 14006KT 080V180 CAVOK 31/16 Q1017","observationTime":"2019-06-25T17:20:00Z","temp":31,"dewpoint":16,"windDirection":140,"windSpeed":11.112,"visibility":6.21,"altim":30.029528,"flightCategory":"VFR","metarType":"METAR","geometry_esri":{"x":53.53,"y":9.83,"z":13}}}