{"type":"Feature","geometry":{"type":"Point","coordinates":[53.53,9.83,13]},"properties":{"stationId":"EDHI","rawText":"EDHI 121720Z 27019KT 9999 -RA BKN013 06/05 Q1004","observationTime":"2019-01-12T17:20:00Z","temp":6,"dewpoint":5,"windDirection":270,"windSpeed":35.188,"visibility":6.21,"altim":29.64567,"flightCategory":"MVFR","metarType":"METAR","geometry_esri":{"x":53.53,"y":9.83,"z":13}}}