{"type":"Feature","geometry":{"type":"Point","coordinates":[53.53,9.83,13]},"properties":{"stationId":"EDHI","rawText":"EDHI 061450Z 21014KT 4500 -DZ BR OVC006 05/05 Q1002","observationTime":"2019-12-06T14:50:00Z","temp":5,"dewpoint":5,"windDirection":210,"windSpeed":25.928,"visibility":2.8,"altim":29.586615,"flightCategory":"IFR","metarType":"METAR","geometry_esri":{"x":53.53,"y":9.83,"z":13}}}