{"type":"Feature","geometry":{"type":"Point","coordinates":[53.53,9.83,13]},"properties":{"stationId":"EDHI","rawText":"EDHI 172350Z AUTO 21012KT 9999 // FEW015/// BKN021/// OVC027/// 11/09 Q1001","observationTime":"2019-12-17T23:50:00Z","temp":11,"dewpoint":9,"windDirection":210,"windSpeed":22.224,"visibility":6.21,"altim":29.557087,"flightCategory":"MVFR","metarType":"METAR","geometry_esri":{"x":53.53,"y":9.83,"z":13}}}