{"type":"Feature","geometry":{"type":"Point","coordinates":[53.53,9.83,13]},"properties":{"stationId":"EDHI","rawText":"EDHI 021620Z AUTO 20006KT 9999 // FEW049/// 11/10 Q0989","observationTime":"2019-11-02T16:20:00Z","temp":11,"dewpoint":10,"windDirection":200,"windSpeed":11.112,"visibility":6.21,"altim":29.202755,"flightCategory":"VFR","metarType":"METAR","geometry_esri":{"x":53.53,"y":9.83,"z":13}}}