{"type":"Feature","geometry":{"type":"Point","coordinates":[53.53,9.83,13]},"properties":{"stationId":"EDHI","rawText":"EDHI 031150Z 26015KT 8000 -RA FEW012 SCT015 BKN020 09/07 Q1006 RERA","observationTime":"2020-02-03T11:50:00Z","temp":9,"dewpoint":7,"windDirection":260,"windSpeed":27.78,"visibility":4.97,"altim":29.704725,"flightCategory":"MVFR","metarType":"METAR","geometry_esri":{"x":53.53,"y":9.83,"z":13}}}