{"type":"Feature","geometry":{"type":"Point","coordinates":[53.53,9.83,13]},"properties":{"stationId":"EDHI","rawText":"EDHI 031520Z AUTO 29009KT 9999 // NCD 03/00 Q1018","observationTime":"2019-02-03T15:20:00Z","temp":3,"dewpoint":0,"windDirection":290,"windSpeed":16.668,"visibility":6.21,"altim":30.059055,"flightCategory":"VFR","metarType":"METAR","geometry_esri":{"x":53.53,"y":9.83,"z":13}}}