{"type":"Feature","geometry":{"type":"Point","coordinates":[53.53,9.83,13]},"properties":{"stationId":"EDHI","rawText":"EDHI 311450Z 16005KT 9999 FEW032 03/M02 Q0998","observationTime":"2019-01-31T14:50:00Z","temp":3,"dewpoint":-2,"windDirection":160,"windSpeed":9.26,"visibility":6.21,"altim":29.468504,"flightCategory":"VFR","metarType":"METAR","geometry_esri":{"x":53.53,"y":9.83,"z":13}}}