{"type":"Feature","geometry":{"type":"Point","coordinates":[53.53,9.83,13]},"properties":{"stationId":"EDHI","rawText":"EDHI 091550Z AUTO 20025G39KT 9999 // BKN043/// OVC110/// 13/03 Q0990","observationTime":"2020-02-09T15:50:00Z","temp":13,"dewpoint":3,"windDirection":200,"windSpeed":46.300000000000004,"visibility":6.21,"altim":29.232283,"flightCategory":"VFR","metarType":"METAR","geometry_esri":{"x":53.53,"y":9.83,"z":13}}}