{"type":"Feature","geometry":{"type":"Point","coordinates":[53.53,9.83,13]},"properties":{"stationId":"EDHI","rawText":"EDHI 020350Z AUTO 12008KT 070V160 9999 // NCD 04/M04 Q1014","observationTime":"2019-04-02T03:50:00Z","temp":4,"dewpoint":-4,"windDirection":120,"windSpeed":14.816,"visibility":6.21,"altim":29.940945,"flightCategory":"VFR","metarType":"METAR","geometry_esri":{"x":53.53,"y":9.83,"z":13}}}