{"type":"Feature","geometry":{"type":"Point","coordinates":[53.53,9.83,13]},"properties":{"stationId":"EDHI","rawText":"EDHI 121950Z AUTO 19004KT 160V220 9999 // FEW045/// SCT086/// 15/12 Q1025","observationTime":"2019-09-12T19:50:00Z","temp":15,"dewpoint":12,"windDirection":190,"windSpeed":7.408,"visibility":6.21,"altim":30.265747,"flightCategory":"VFR","metarType":"METAR","geometry_esri":{"x":53.53,"y":9.83,"z":13}}}