{"type":"Feature","geometry":{"type":"Point","coordinates":[53.53,9.83,13]},"properties":{"stationId":"EDHI","rawText":"EDHI 210720Z 26004KT CAVOK 12/10 Q1023","observationTime":"2019-09-21T07:20:00Z","temp":12,"dewpoint":10,"windDirection":260,"windSpeed":7.408,"visibility":6.21,"altim":30.206694,"flightCategory":"VFR","metarType":"METAR","geometry_esri":{"x":53.53,"y":9.83,"z":13}}}