{"type":"Feature","geometry":{"type":"Point","coordinates":[53.53,9.83,13]},"properties":{"stationId":"EDHI","rawText":"EDHI 032050Z AUTO 27007KT 9999 // FEW034/// 00/M01 Q1022","observationTime":"2019-02-03T20:50:00Z","temp":0,"dewpoint":-1,"windDirection":270,"windSpeed":12.964,"visibility":6.21,"altim":30.177166,"flightCategory":"VFR","metarType":"METAR","geometry_esri":{"x":53.53,"y":9.83,"z":13}}}