{"type":"Feature","geometry":{"type":"Point","coordinates":[53.53,9.83,13]},"properties":{"stationId":"EDHI","rawText":"EDHI 232050Z AUTO 13003KT 090V150 9999 // NCD 02/M05 Q1039","observationTime":"2019-02-23T20:50:00Z","temp":2,"dewpoint":-5,"windDirection":130,"windSpeed":5.556,"visibility":6.21,"altim":30.679134,"flightCategory":"VFR","metarType":"METAR","geometry_esri":{"x":53.53,"y":9.83,"z":13}}}