{"type":"Feature","geometry":{"type":"Point","coordinates":[53.53,9.83,13]},"properties":{"stationId":"EDHI","rawText":"EDHI 260150Z AUTO 21015KT 9999 // FEW027/// 14/10 Q1012","observationTime":"2019-10-26T01:50:00Z","temp":14,"dewpoint":10,"windDirection":210,"windSpeed":27.78,"visibility":6.21,"altim":29.88189,"flightCategory":"VFR","metarType":"METAR","geometry_esri":{"x":53.53,"y":9.83,"z":13}}}