{"type":"Feature","geometry":{"type":"Point","coordinates":[53.53,9.83,13]},"properties":{"stationId":"EDHI","rawText":"EDHI 240820Z 14007KT 110V180 CAVOK 04/M08 Q1036","observationTime":"2020-03-24T08:20:00Z","temp":4,"dewpoint":-8,"windDirection":140,"windSpeed":12.964,"visibility":6.21,"altim":30.590551,"flightCategory":"VFR","metarType":"METAR","geometry_esri":{"x":53.53,"y":9.83,"z":13}}}