{"type":"Feature","geometry":{"type":"Point","coordinates":[53.53,9.83,13]},"properties":{"stationId":"EDHI","rawText":"EDHI 220750Z 23005KT CAVOK 17/13 Q1022","observationTime":"2019-07-22T07:50:00Z","temp":17,"dewpoint":13,"windDirection":230,"windSpeed":9.26,"visibility":6.21,"altim":30.177166,"flightCategory":"VFR","metarType":"METAR","geometry_esri":{"x":53.53,"y":9.83,"z":13}}}