{"type":"Feature","geometry":{"type":"Point","coordinates":[53.53,9.83,13]},"properties":{"stationId":"EDHI","rawText":"EDHI 181550Z 05016KT CAVOK 19/05 Q1029","observationTime":"2019-04-18T15:50:00Z","temp":19,"dewpoint":5,"windDirection":50,"windSpeed":29.632,"visibility":6.21,"altim":30.383858,"flightCategory":"VFR","metarType":"METAR","geometry_esri":{"x":53.53,"y":9.83,"z":13}}}