{"type":"Feature","geometry":{"type":"Point","coordinates":[53.53,9.83,13]},"properties":{"stationId":"EDHI","rawText":"EDHI 030920Z 29013KT 260V330 9999 FEW032 15/08 Q1023","observationTime":"2019-07-03T09:20:00Z","temp":15,"dewpoint":8,"windDirection":290,"windSpeed":24.076,"visibility":6.21,"altim":30.206694,"flightCategory":"VFR","metarType":"METAR","geometry_esri":{"x":53.53,"y":9.83,"z":13}}}