{"type":"Feature","geometry":{"type":"Point","coordinates":[53.53,9.83,13]},"properties":{"stationId":"EDHI","rawText":"EDHI 281820Z 25008KT 4600 -DZ BR BKN006 OVC015 07/07 Q1027","observationTime":"2018-12-28T18:20:00Z","temp":7,"dewpoint":7,"windDirection":250,"windSpeed":14.816,"visibility":2.86,"altim":30.324802,"flightCategory":"IFR","metarType":"METAR","geometry_esri":{"x":53.53,"y":9.83,"z":13}}}