{"type":"Feature","geometry":{"type":"Point","coordinates":[53.53,9.83,13]},"properties":{"stationId":"EDHI","rawText":"EDHI 131820Z 21012KT 9999 -RA BKN015 05/04 Q0993","observationTime":"2019-03-13T18:20:00Z","temp":5,"dewpoint":4,"windDirection":210,"windSpeed":22.224,"visibility":6.21,"altim":29.320866,"flightCategory":"MVFR","metarType":"METAR","geometry_esri":{"x":53.53,"y":9.83,"z":13}}}