{"type":"Feature","geometry":{"type":"Point","coordinates":[53.53,9.83,13]},"properties":{"stationId":"EDHI","rawText":"EDHI 170550Z AUTO 26007KT 9999 // FEW100/// 09/07 Q1021","observationTime":"2020-05-17T05:50:00Z","temp":9,"dewpoint":7,"windDirection":260,"windSpeed":12.964,"visibility":6.21,"altim":30.147638,"flightCategory":"VFR","metarType":"METAR","geometry_esri":{"x":53.53,"y":9.83,"z":13}}}