{"type":"Feature","geometry":{"type":"Point","coordinates":[53.53,9.83,13]},"properties":{"stationId":"EDHI","rawText":"EDHI 180450Z 24019KT 9999 SCT017 BKN025 04/02 Q1004","observationTime":"2019-03-18T04:50:00Z","temp":4,"dewpoint":2,"windDirection":240,"windSpeed":35.188,"visibility":6.21,"altim":29.64567,"flightCategory":"MVFR","metarType":"METAR","geometry_esri":{"x":53.53,"y":9.83,"z":13}}}