{"type":"Feature","geometry":{"type":"Point","coordinates":[53.53,9.83,13]},"properties":{"stationId":"EDHI","rawText":"EDHI 250750Z AUTO 07004KT 040V120 9999 // FEW065/// 23/14 Q1021","observationTime":"2019-08-25T07:50:00Z","temp":23,"dewpoint":14,"windDirection":70,"windSpeed":7.408,"visibility":6.21,"altim":30.147638,"flightCategory":"VFR","metarType":"METAR","geometry_esri":{"x":53.53,"y":9.83,"z":13}}}