{"type":"Feature","geometry":{"type":"Point","coordinates":[53.53,9.83,13]},"properties":{"stationId":"EDHI","rawText":"EDHI 012050Z AUTO 24006KT 2700 // BKN002/// OVC005/// M02/M02 Q1029","observationTime":"2020-01-01T20:50:00Z","temp":-2,"dewpoint":-2,"windDirection":240,"windSpeed":11.112,"visibility":1.68,"altim":30.383858,"flightCategory":"LIFR","metarType":"METAR","geometry_esri":{"x":53.53,"y":9.83,"z":13}}}