{"type":"Feature","geometry":{"type":"Point","coordinates":[53.53,9.83,13]},"properties":{"stationId":"EDHI","rawText":"EDHI 240150Z AUTO 24005KT 0400 R23/0550N // VV002 M00/M00 Q1024","observationTime":"2020-01-24T01:50:00Z","temp":0,"dewpoint":0,"windDirection":240,"windSpeed":9.26,"visibility":0.25,"altim":30.236221,"flightCategory":"LIFR","metarType":"METAR","geometry_esri":{"x":53.53,"y":9.83,"z":13}}}