{"type":"Feature","geometry":{"type":"Point","coordinates":[53.53,9.83,13]},"properties":{"stationId":"EDHI","rawText":"EDHI 231020Z AUTO 08011KT 050V140 9999 // NCD 23/12 Q1022","observationTime":"2019-06-23T10:20:00Z","temp":23,"dewpoint":12,"windDirection":80,"windSpeed":20.372,"visibility":6.21,"altim":30.177166,"flightCategory":"VFR","metarType":"METAR","geometry_esri":{"x":53.53,"y":9.83,"z":13}}}