{"type":"Feature","geometry":{"type":"Point","coordinates":[53.53,9.83,13]},"properties":{"stationId":"EDHI","rawText":"EDHI 241120Z 12006KT 060V160 CAVOK 31/16 Q1016","observationTime":"2019-07-24T11:20:00Z","temp":31,"dewpoint":16,"windDirection":120,"windSpeed":11.112,"visibility":6.21,"altim":30,"flightCategory":"VFR","metarType":"METAR","geometry_esri":{"x":53.53,"y":9.83,"z":13}}}