{"type":"Feature","geometry":{"type":"Point","coordinates":[53.53,9.83,13]},"properties":{"stationId":"EDHI","rawText":"EDHI 070350Z AUTO 30009KT 270V340 4600 // BKN005/// 03/02 Q1008","observationTime":"2020-03-07T03:50:00Z","temp":3,"dewpoint":2,"windDirection":300,"windSpeed":16.668,"visibility":2.86,"altim":29.763779,"flightCategory":"IFR","metarType":"METAR","geometry_esri":{"x":53.53,"y":9.83,"z":13}}}