{"type":"Feature","geometry":{"type":"Point","coordinates":[53.53,9.83,13]},"properties":{"stationId":"EDHI","rawText":"EDHI 010220Z AUTO 27003KT 0800 0400 R23/P2000N // FEW004/// 02/01 Q1022","observationTime":"2019-12-01T02:20:00Z","temp":2,"dewpoint":1,"windDirection":270,"windSpeed":5.556,"visibility":0.5,"altim":30.177166,"flightCategory":"LIFR","metarType":"METAR","geometry_esri":{"x":53.53,"y":9.83,"z":13}}}