{"type":"Feature","geometry":{"type":"Point","coordinates":[53.53,9.83,13]},"properties":{"stationId":"EDHI","rawText":"EDHI 021620Z 32006KT 3000 -SNRA SCT008 BKN010 02/00 Q1001","observationTime":"2019-02-02T16:20:00Z","temp":2,"dewpoint":0,"windDirection":320,"windSpeed":11.112,"visibility":1.86,"altim":29.557087,"flightCategory":"IFR","metarType":"METAR","geometry_esri":{"x":53.53,"y":9.83,"z":13}}}