{"type":"Feature","geometry":{"type":"Point","coordinates":[53.53,9.83,13]},"properties":{"stationId":"EDHI","rawText":"EDHI 251750Z 14005KT 100V190 CAVOK 31/17 Q1017","observationTime":"2019-06-25T17:50:00Z","temp":31,"dewpoint":17,"windDirection":140,"windSpeed":9.26,"visibility":6.21,"altim":30.029528,"flightCategory":"VFR","metarType":"METAR","geometry_esri":{"x":53.53,"y":9.83,"z":13}}}