{"type":"Feature","geometry":{"type":"Point","coordinates":[53.53,9.83,13]},"properties":{"stationId":"EDHI","rawText":"EDHI 070920Z 23008KT 7000 FEW008 BKN025 06/05 Q1023","observationTime":"2020-01-07T09:20:00Z","temp":6,"dewpoint":5,"windDirection":230,"windSpeed":14.816,"visibility":4.35,"altim":30.206694,"flightCategory":"MVFR","metarType":"METAR","geometry_esri":{"x":53.53,"y":9.83,"z":13}}}