{"type":"Feature","geometry":{"type":"Point","coordinates":[53.53,9.83,13]},"properties":{"stationId":"EDHI","rawText":"EDHI 272350Z AUTO 17005KT 130V210 9999 // SCT024/// SCT031/// OVC110/// 05/04 Q0996","observationTime":"2020-01-27T23:50:00Z","temp":5,"dewpoint":4,"windDirection":170,"windSpeed":9.26,"visibility":6.21,"altim":29.409449,"flightCategory":"VFR","metarType":"METAR","geometry_esri":{"x":53.53,"y":9.83,"z":13}}}