{"type":"Feature","geometry":{"type":"Point","coordinates":[53.53,9.83,13]},"properties":{"stationId":"EDHI","rawText":"EDHI 200920Z 10010KT 060V150 CAVOK 12/M02 Q1027","observationTime":"2020-04-20T09:20:00Z","temp":12,"dewpoint":-2,"windDirection":100,"windSpeed":18.52,"visibility":6.21,"altim":30.324802,"flightCategory":"VFR","metarType":"METAR","geometry_esri":{"x":53.53,"y":9.83,"z":13}}}