{"type":"Feature","geometry":{"type":"Point","coordinates":[53.53,9.83,13]},"properties":{"stationId":"EDHI","rawText":"EDHI 210250Z AUTO VRB01KT 5000 // NCD M07/M08 Q1022","observationTime":"2019-01-21T02:50:00Z","temp":-7,"dewpoint":-8,"windDirection":0,"windSpeed":1.852,"visibility":3.11,"altim":30.177166,"flightCategory":"MVFR","metarType":"METAR","geometry_esri":{"x":53.53,"y":9.83,"z":13}}}