{"type":"Feature","geometry":{"type":"Point","coordinates":[53.53,9.83,13]},"properties":{"stationId":"EDHI","rawText":"EDHI 301420Z AUTO 29021KT 9999 // NCD 26/18 Q1012","observationTime":"2019-06-30T14:20:00Z","temp":26,"dewpoint":18,"windDirection":290,"windSpeed":38.892,"visibility":6.21,"altim":29.88189,"flightCategory":"VFR","metarType":"METAR","geometry_esri":{"x":53.53,"y":9.83,"z":13}}}