{"type":"Feature","geometry":{"type":"Point","coordinates":[53.53,9.83,13]},"properties":{"stationId":"EDHI","rawText":"EDHI 230550Z AUTO 27016KT //// R23/P2000N // FEW032/// BKN076/// OVC090/// 07/03 Q1011","observationTime":"2020-02-23T05:50:00Z","temp":7,"dewpoint":3,"windDirection":270,"windSpeed":29.632,"visibility":1.24,"altim":29.852362,"flightCategory":"IFR","metarType":"METAR","geometry_esri":{"x":53.53,"y":9.83,"z":13}}}