{"type":"Feature","geometry":{"type":"Point","coordinates":[53.53,9.83,13]},"properties":{"stationId":"EDHI","rawText":"EDHI 282020Z AUTO 23014KT 9999 3300 // SCT020/// BKN025/// OVC070/// 15/13 Q1006","observationTime":"2019-09-28T20:20:00Z","temp":15,"dewpoint":13,"windDirection":230,"windSpeed":25.928,"visibility":6.21,"altim":29.704725,"flightCategory":"MVFR","metarType":"METAR","geometry_esri":{"x":53.53,"y":9.83,"z":13}}}