{"type":"Feature","geometry":{"type":"Point","coordinates":[53.53,9.83,13]},"properties":{"stationId":"EDHI","rawText":"EDHI 101320Z AUTO 15004KT 110V210 3700 // OVC006/// 07/07 Q0985","observationTime":"2019-02-10T13:20:00Z","temp":7,"dewpoint":7,"windDirection":150,"windSpeed":7.408,"visibility":2.3,"altim":29.084646,"flightCategory":"IFR","metarType":"METAR","geometry_esri":{"x":53.53,"y":9.83,"z":13}}}