{"type":"Feature","geometry":{"type":"Point","coordinates":[53.53,9.83,13]},"properties":{"stationId":"EDHI","rawText":"EDHI 181820Z 24004KT 9999 FEW013 00/M00 Q1018","observationTime":"2019-01-18T18:20:00Z","temp":0,"dewpoint":0,"windDirection":240,"windSpeed":7.408,"visibility":6.21,"altim":30.059055,"flightCategory":"VFR","metarType":"METAR","geometry_esri":{"x":53.53,"y":9.83,"z":13}}}