{"type":"Feature","geometry":{"type":"Point","coordinates":[53.53,9.83,13]},"properties":{"stationId":"EDHI","rawText":"EDHI 290950Z AUTO 03020G30KT 360V060 9999 2400 // SCT016/// BKN056/// OVC072/// 03/M01 Q1029","observationTime":"2020-03-29T09:50:00Z","temp":3,"dewpoint":-1,"windDirection":30,"windSpeed":37.04,"visibility":6.21,"altim":30.383858,"flightCategory":"VFR","metarType":"METAR","geometry_esri":{"x":53.53,"y":9.83,"z":13}}}