{"type":"Feature","geometry":{"type":"Point","coordinates":[53.53,9.83,13]},"properties":{"stationId":"EDHI","rawText":"EDHI 090250Z AUTO 27017KT 7000 // FEW014/// BKN033/// OVC039/// 06/05 Q0985","observationTime":"2018-12-09T02:50:00Z","temp":6,"dewpoint":5,"windDirection":270,"windSpeed":31.484,"visibility":4.35,"altim":29.084646,"skyCondition1a":"FEW","skyCondition1b":1400,"skyCondition2a":"BKN","skyCondition2b":3300,"flightCategory":"MVFR","metarType":"METAR","geometry_esri":{"x":53.53,"y":9.83,"z":13}}}