{"type":"Feature","geometry":{"type":"Point","coordinates":[53.53,9.83,13]},"properties":{"stationId":"EDHI","rawText":"EDHI 311650Z 11004KT 080V160 CAVOK 02/M03 Q0998","observationTime":"2019-01-31T16:50:00Z","temp":2,"dewpoint":-3,"windDirection":110,"windSpeed":7.408,"visibility":6.21,"altim":29.468504,"flightCategory":"VFR","metarType":"METAR","geometry_esri":{"x":53.53,"y":9.83,"z":13}}}