{"type":"Feature","geometry":{"type":"Point","coordinates":[53.53,9.83,13]},"properties":{"stationId":"EDHI","rawText":"EDHI 091320Z AUTO 24005KT 180V270 9999 // FEW054/// SCT061/// 21/07 Q1022","observationTime":"2019-06-09T13:20:00Z","temp":21,"dewpoint":7,"windDirection":240,"windSpeed":9.26,"visibility":6.21,"altim":30.177166,"flightCategory":"VFR","metarType":"METAR","geometry_esri":{"x":53.53,"y":9.83,"z":13}}}