{"type":"Feature","geometry":{"type":"Point","coordinates":[53.53,9.83,13]},"properties":{"stationId":"EDHI","rawText":"EDHI 211550Z 31011KT 290V350 9999 SCT056CB 18/11 Q1019","observationTime":"2019-06-21T15:50:00Z","temp":18,"dewpoint":11,"windDirection":310,"windSpeed":20.372,"visibility":6.21,"altim":30.088583,"flightCategory":"VFR","metarType":"METAR","geometry_esri":{"x":53.53,"y":9.83,"z":13}}}