{"type":"Feature","geometry":{"type":"Point","coordinates":[53.53,9.83,13]},"properties":{"stationId":"EDHI","rawText":"EDHI 300650Z 24019KT 8000 -RA BKN010 06/05 Q1003","observationTime":"2020-01-30T06:50:00Z","temp":6,"dewpoint":5,"windDirection":240,"windSpeed":35.188,"visibility":4.97,"altim":29.616142,"flightCategory":"MVFR","metarType":"METAR","geometry_esri":{"x":53.53,"y":9.83,"z":13}}}