{"type":"Feature","geometry":{"type":"Point","coordinates":[53.53,9.83,13]},"properties":{"stationId":"EDHI","rawText":"EDHI 201420Z 08012KT 040V120 CAVOK 16/M01 Q1025","observationTime":"2020-04-20T14:20:00Z","temp":16,"dewpoint":-1,"windDirection":80,"windSpeed":22.224,"visibility":6.21,"altim":30.265747,"flightCategory":"VFR","metarType":"METAR","geometry_esri":{"x":53.53,"y":9.83,"z":13}}}