{"type":"Feature","geometry":{"type":"Point","coordinates":[53.53,9.83,13]},"properties":{"stationId":"EDHI","rawText":"EDHI 102320Z AUTO 19012KT 150V220 9999 // FEW058/// OVC066/// 06/M02 Q1011","observationTime":"2019-12-10T23:20:00Z","temp":6,"dewpoint":-2,"windDirection":190,"windSpeed":22.224,"visibility":6.21,"altim":29.852362,"flightCategory":"VFR","metarType":"METAR","geometry_esri":{"x":53.53,"y":9.83,"z":13}}}