{"type":"Feature","geometry":{"type":"Point","coordinates":[53.53,9.83,13]},"properties":{"stationId":"EDHI","rawText":"EDHI 200250Z AUTO 08007KT 9999 // NCD 05/M03 Q1027","observationTime":"2020-04-20T02:50:00Z","temp":5,"dewpoint":-3,"windDirection":80,"windSpeed":12.964,"visibility":6.21,"altim":30.324802,"flightCategory":"VFR","metarType":"METAR","geometry_esri":{"x":53.53,"y":9.83,"z":13}}}