{"type":"Feature","geometry":{"type":"Point","coordinates":[53.53,9.83,13]},"properties":{"stationId":"EDHI","rawText":"EDHI 111650Z 14008KT CAVOK 04/02 Q1003","observationTime":"2019-11-11T16:50:00Z","temp":4,"dewpoint":2,"windDirection":140,"windSpeed":14.816,"visibility":6.21,"altim":29.616142,"flightCategory":"VFR","metarType":"METAR","geometry_esri":{"x":53.53,"y":9.83,"z":13}}}