{"type":"Feature","geometry":{"type":"Point","coordinates":[53.53,9.83,13]},"properties":{"stationId":"EDHI","rawText":"EDHI 061550Z AUTO 30007KT 2000 // BKN005/// BKN013/// OVC016/// 06/06 Q1028","observationTime":"2019-01-06T15:50:00Z","temp":6,"dewpoint":6,"windDirection":300,"windSpeed":12.964,"visibility":1.24,"altim":30.35433,"flightCategory":"IFR","metarType":"METAR","geometry_esri":{"x":53.53,"y":9.83,"z":13}}}