{"type":"Feature","geometry":{"type":"Point","coordinates":[53.53,9.83,13]},"properties":{"stationId":"EDHI","rawText":"EDHI 081320Z 26017KT 10000 R23/P2000N -SHRA SCT046CB 18/14 Q1009","observationTime":"2019-08-08T13:20:00Z","temp":18,"dewpoint":14,"windDirection":260,"windSpeed":31.484,"visibility":0,"altim":29.793306,"flightCategory":"LIFR","metarType":"METAR","geometry_esri":{"x":53.53,"y":9.83,"z":13}}}