{"type":"Feature","geometry":{"type":"Point","coordinates":[53.53,9.83,13]},"properties":{"stationId":"EDHI","rawText":"EDHI 071120Z AUTO 29015KT 9999 R/////// // BKN038/// OVC049/// 15/08 Q1012","observationTime":"2019-07-07T11:20:00Z","temp":15,"dewpoint":8,"windDirection":290,"windSpeed":27.78,"visibility":6.21,"altim":29.88189,"flightCategory":"VFR","metarType":"METAR","geometry_esri":{"x":53.53,"y":9.83,"z":13}}}