{"type":"Feature","geometry":{"type":"Point","coordinates":[53.53,9.83,13]},"properties":{"stationId":"EDHI","rawText":"EDHI 150820Z 27011KT 240V300 9999 FEW027 SCT034 10/04 Q1019","observationTime":"2020-05-15T08:20:00Z","temp":10,"dewpoint":4,"windDirection":270,"windSpeed":20.372,"visibility":6.21,"altim":30.088583,"flightCategory":"VFR","metarType":"METAR","geometry_esri":{"x":53.53,"y":9.83,"z":13}}}