{"type":"Feature","geometry":{"type":"Point","coordinates":[53.53,9.83,13]},"properties":{"stationId":"EDHI","rawText":"EDHI 140650Z 08005KT 040V130 9999 FEW014 BKN050 02/M00 Q1025","observationTime":"2018-12-14T06:50:00Z","temp":2,"dewpoint":0,"windDirection":80,"windSpeed":9.26,"visibility":6.21,"altim":30.265747,"flightCategory":"VFR","metarType":"METAR","geometry_esri":{"x":53.53,"y":9.83,"z":13}}}