{"type":"Feature","geometry":{"type":"Point","coordinates":[53.53,9.83,13]},"properties":{"stationId":"EDHI","rawText":"EDHI 210220Z AUTO 35006KT 320V020 9000 // FEW016/// BKN029/// OVC034/// 15/14 Q1004","observationTime":"2019-05-21T02:20:00Z","temp":15,"dewpoint":14,"windDirection":350,"windSpeed":11.112,"visibility":5.59,"altim":29.64567,"flightCategory":"MVFR","metarType":"METAR","geometry_esri":{"x":53.53,"y":9.83,"z":13}}}