{"type":"Feature","geometry":{"type":"Point","coordinates":[53.53,9.83,13]},"properties":{"stationId":"EDHI","rawText":"EDHI 271520Z AUTO 05020KT 9999 // FEW057/// SCT068/// 28/15 Q1005","observationTime":"2019-07-27T15:20:00Z","temp":28,"dewpoint":15,"windDirection":50,"windSpeed":37.04,"visibility":6.21,"altim":29.675198,"flightCategory":"VFR","metarType":"METAR","geometry_esri":{"x":53.53,"y":9.83,"z":13}}}