{"type":"Feature","geometry":{"type":"Point","coordinates":[53.53,9.83,13]},"properties":{"stationId":"EDHI","rawText":"EDHI 081020Z 24010KT 9999 VCSH FEW015 SCT020 15/12 Q1015","observationTime":"2019-07-08T10:20:00Z","temp":15,"dewpoint":12,"windDirection":240,"windSpeed":18.52,"visibility":6.21,"altim":29.970472,"flightCategory":"VFR","metarType":"METAR","geometry_esri":{"x":53.53,"y":9.83,"z":13}}}