{"type":"Feature","geometry":{"type":"Point","coordinates":[53.53,9.83,13]},"properties":{"stationId":"EDHI","rawText":"EDHI 050750Z 11003KT 070V150 9000 BKN040 02/02 Q1003","observationTime":"2020-03-05T07:50:00Z","temp":2,"dewpoint":2,"windDirection":110,"windSpeed":5.556,"visibility":5.59,"altim":29.616142,"flightCategory":"VFR","metarType":"METAR","geometry_esri":{"x":53.53,"y":9.83,"z":13}}}