{"type":"Feature","geometry":{"type":"Point","coordinates":[53.53,9.83,13]},"properties":{"stationId":"EDHI","rawText":"EDHI 142020Z AUTO 28018KT 9999 // FEW018/// SCT022/// OVC033/// 07/05 Q0993","observationTime":"2019-03-14T20:20:00Z","temp":7,"dewpoint":5,"windDirection":280,"windSpeed":33.336,"visibility":6.21,"altim":29.320866,"flightCategory":"VFR","metarType":"METAR","geometry_esri":{"x":53.53,"y":9.83,"z":13}}}