{"type":"Feature","geometry":{"type":"Point","coordinates":[53.53,9.83,13]},"properties":{"stationId":"EDHI","rawText":"EDHI 070820Z 19008KT 130V220 9999 -RA SCT018 BKN024 05/02 Q1006","observationTime":"2019-02-07T08:20:00Z","temp":5,"dewpoint":2,"windDirection":190,"windSpeed":14.816,"visibility":6.21,"altim":29.704725,"flightCategory":"MVFR","metarType":"METAR","geometry_esri":{"x":53.53,"y":9.83,"z":13}}}