{"type":"Feature","geometry":{"type":"Point","coordinates":[53.53,9.83,13]},"properties":{"stationId":"EDHI","rawText":"EDHI 112220Z AUTO 32008KT 280V360 9999 // NCD 06/M00 Q1015","observationTime":"2020-05-11T22:20:00Z","temp":6,"dewpoint":0,"windDirection":320,"windSpeed":14.816,"visibility":6.21,"altim":29.970472,"flightCategory":"VFR","metarType":"METAR","geometry_esri":{"x":53.53,"y":9.83,"z":13}}}