{"type":"Feature","geometry":{"type":"Point","coordinates":[53.53,9.83,13]},"properties":{"stationId":"EDHI","rawText":"EDHI 171720Z 12006KT 080V170 CAVOK 25/12 Q1018","observationTime":"2019-06-17T17:20:00Z","temp":25,"dewpoint":12,"windDirection":120,"windSpeed":11.112,"visibility":6.21,"altim":30.059055,"flightCategory":"VFR","metarType":"METAR","geometry_esri":{"x":53.53,"y":9.83,"z":13}}}