{"type":"Feature","geometry":{"type":"Point","coordinates":[53.53,9.83,13]},"properties":{"stationId":"EDHI","rawText":"EDHI 272020Z AUTO 27007KT 240V300 2700 // OVC003/// 06/05 Q1023","observationTime":"2018-12-27T20:20:00Z","temp":6,"dewpoint":5,"windDirection":270,"windSpeed":12.964,"visibility":1.68,"altim":30.206694,"flightCategory":"LIFR","metarType":"METAR","geometry_esri":{"x":53.53,"y":9.83,"z":13}}}