{"type":"Feature","geometry":{"type":"Point","coordinates":[53.53,9.83,13]},"properties":{"stationId":"EDHI","rawText":"EDHI 152120Z AUTO 28025KT 9999 // BKN031/// BKN040/// 07/03 Q0999","observationTime":"2019-03-15T21:20:00Z","temp":7,"dewpoint":3,"windDirection":280,"windSpeed":46.300000000000004,"visibility":6.21,"altim":29.498032,"flightCategory":"VFR","metarType":"METAR","geometry_esri":{"x":53.53,"y":9.83,"z":13}}}