{"type":"Feature","geometry":{"type":"Point","coordinates":[53.53,9.83,13]},"properties":{"stationId":"EDHI","rawText":"EDHI 032220Z AUTO 05007KT 8000 // FEW068/// OVC100/// 09/07 Q0998","observationTime":"2019-04-03T22:20:00Z","temp":9,"dewpoint":7,"windDirection":50,"windSpeed":12.964,"visibility":4.97,"altim":29.468504,"flightCategory":"MVFR","metarType":"METAR","geometry_esri":{"x":53.53,"y":9.83,"z":13}}}