{"type":"Feature","geometry":{"type":"Point","coordinates":[53.53,9.83,13]},"properties":{"stationId":"EDHI","rawText":"EDHI 010450Z 18005KT 130V220 CAVOK 15/13 Q1013","observationTime":"2019-07-01T04:50:00Z","temp":15,"dewpoint":13,"windDirection":180,"windSpeed":9.26,"visibility":6.21,"altim":29.911417,"flightCategory":"VFR","metarType":"METAR","geometry_esri":{"x":53.53,"y":9.83,"z":13}}}