{"type":"Feature","geometry":{"type":"Point","coordinates":[53.53,9.83,13]},"properties":{"stationId":"EDHI","rawText":"EDHI 060120Z AUTO 21006KT 5000 // OVC019/// 02/01 Q1026","observationTime":"2019-02-06T01:20:00Z","temp":2,"dewpoint":1,"windDirection":210,"windSpeed":11.112,"visibility":3.11,"altim":30.295275,"flightCategory":"MVFR","metarType":"METAR","geometry_esri":{"x":53.53,"y":9.83,"z":13}}}