{"type":"Feature","geometry":{"type":"Point","coordinates":[53.53,9.83,13]},"properties":{"stationId":"EDHI","rawText":"EDHI 050720Z 13004KT 070V180 CAVOK 19/13 Q1010","observationTime":"2019-08-05T07:20:00Z","temp":19,"dewpoint":13,"windDirection":130,"windSpeed":7.408,"visibility":6.21,"altim":29.822834,"flightCategory":"VFR","metarType":"METAR","geometry_esri":{"x":53.53,"y":9.83,"z":13}}}