{"type":"Feature","geometry":{"type":"Point","coordinates":[53.53,9.83,13]},"properties":{"stationId":"EDHI","rawText":"EDHI 240450Z 11004KT 070V180 CAVOK 21/17 Q1017","observationTime":"2019-07-24T04:50:00Z","temp":21,"dewpoint":17,"windDirection":110,"windSpeed":7.408,"visibility":6.21,"altim":30.029528,"flightCategory":"VFR","metarType":"METAR","geometry_esri":{"x":53.53,"y":9.83,"z":13}}}