{"type":"Feature","geometry":{"type":"Point","coordinates":[53.53,9.83,13]},"properties":{"stationId":"EDHI","rawText":"EDHI 152220Z AUTO 23008KT 9999 // FEW037/// SCT062/// BKN074/// 16/15 Q1011","observationTime":"2019-08-15T22:20:00Z","temp":16,"dewpoint":15,"windDirection":230,"windSpeed":14.816,"visibility":6.21,"altim":29.852362,"flightCategory":"VFR","metarType":"METAR","geometry_esri":{"x":53.53,"y":9.83,"z":13}}}