{"type":"Feature","geometry":{"type":"Point","coordinates":[53.53,9.83,13]},"properties":{"stationId":"EDHI","rawText":"EDHI 070650Z 12004KT 080V160 0600 R05/0700N FG OVC002 03/03 Q1002","observationTime":"2019-11-07T06:50:00Z","temp":3,"dewpoint":3,"windDirection":120,"windSpeed":7.408,"visibility":0.37,"altim":29.586615,"flightCategory":"LIFR","metarType":"METAR","geometry_esri":{"x":53.53,"y":9.83,"z":13}}}