{"type":"Feature","geometry":{"type":"Point","coordinates":[53.53,9.83,13]},"properties":{"stationId":"EDHI","rawText":"EDHI 191020Z 25015KT 9999 SCT019 BKN022 06/02 Q1010","observationTime":"2020-02-19T10:20:00Z","temp":6,"dewpoint":2,"windDirection":250,"windSpeed":27.78,"visibility":6.21,"altim":29.822834,"flightCategory":"MVFR","metarType":"METAR","geometry_esri":{"x":53.53,"y":9.83,"z":13}}}