{"type":"Feature","geometry":{"type":"Point","coordinates":[53.53,9.83,13]},"properties":{"stationId":"EDHI","rawText":"EDHI 170220Z AUTO 08004KT 050V110 8000 // BKN089/// BKN130/// OVC190/// 07/06 Q1002","observationTime":"2019-12-17T02:20:00Z","temp":7,"dewpoint":6,"windDirection":80,"windSpeed":7.408,"visibility":4.97,"altim":29.586615,"flightCategory":"MVFR","metarType":"METAR","geometry_esri":{"x":53.53,"y":9.83,"z":13}}}