{"type":"Feature","geometry":{"type":"Point","coordinates":[53.53,9.83,13]},"properties":{"stationId":"EDHI","rawText":"EDHI 062350Z AUTO 29008KT 9999 // FEW010/// BKN012/// OVC049/// 06/05 Q1029","observationTime":"2019-01-06T23:50:00Z","temp":6,"dewpoint":5,"windDirection":290,"windSpeed":14.816,"visibility":6.21,"altim":30.383858,"flightCategory":"MVFR","metarType":"METAR","geometry_esri":{"x":53.53,"y":9.83,"z":13}}}