{"type":"Feature","geometry":{"type":"Point","coordinates":[53.53,9.83,13]},"properties":{"stationId":"EDHI","rawText":"EDHI 081620Z AUTO 21010KT 9999 1800 // SCT022/// SCT029/// OVC035/// 09/06 Q1009","observationTime":"2020-03-08T16:20:00Z","temp":9,"dewpoint":6,"windDirection":210,"windSpeed":18.52,"visibility":6.21,"altim":29.793306,"flightCategory":"VFR","metarType":"METAR","geometry_esri":{"x":53.53,"y":9.83,"z":13}}}