{"type":"Feature","geometry":{"type":"Point","coordinates":[53.53,9.83,13]},"properties":{"stationId":"EDHI","rawText":"EDHI 301220Z 28023G33KT 9999 FEW012 BKN025CB 15/11 Q1003","observationTime":"2019-09-30T12:20:00Z","temp":15,"dewpoint":11,"windDirection":280,"windSpeed":42.596000000000004,"visibility":6.21,"altim":29.616142,"flightCategory":"MVFR","metarType":"METAR","geometry_esri":{"x":53.53,"y":9.83,"z":13}}}