{"type":"Feature","geometry":{"type":"Point","coordinates":[53.53,9.83,13]},"properties":{"stationId":"EDHI","rawText":"EDHI 310950Z AUTO 34009KT 300V020 9999 // FEW033/// 09/M01 Q1025","observationTime":"2019-03-31T09:50:00Z","temp":9,"dewpoint":-1,"windDirection":340,"windSpeed":16.668,"visibility":6.21,"altim":30.265747,"flightCategory":"VFR","metarType":"METAR","geometry_esri":{"x":53.53,"y":9.83,"z":13}}}