{"type":"Feature","geometry":{"type":"Point","coordinates":[53.53,9.83,13]},"properties":{"stationId":"EDHI","rawText":"EDHI 081650Z 33007KT 290V010 CAVOK 18/07 Q1022","observationTime":"2020-04-08T16:50:00Z","temp":18,"dewpoint":7,"windDirection":330,"windSpeed":12.964,"visibility":6.21,"altim":30.177166,"flightCategory":"VFR","metarType":"METAR","geometry_esri":{"x":53.53,"y":9.83,"z":13}}}