{"type":"Feature","geometry":{"type":"Point","coordinates":[53.53,9.83,13]},"properties":{"stationId":"EDHI","rawText":"EDHI 220150Z AUTO 31004KT 270V360 1100 0800 R23/P2000N // SCT002/// OVC005/// 07/06 Q1029","observationTime":"2019-02-22T01:50:00Z","temp":7,"dewpoint":6,"windDirection":310,"windSpeed":7.408,"visibility":0.68,"altim":30.383858,"flightCategory":"LIFR","metarType":"METAR","geometry_esri":{"x":53.53,"y":9.83,"z":13}}}