{"type":"Feature","geometry":{"type":"Point","coordinates":[53.53,9.83,13]},"properties":{"stationId":"EDHI","rawText":"EDHI 290250Z AUTO 23003KT 9000 // OVC031/// 09/08 Q1033","observationTime":"2019-03-29T02:50:00Z","temp":9,"dewpoint":8,"windDirection":230,"windSpeed":5.556,"visibility":5.59,"altim":30.501968,"flightCategory":"VFR","metarType":"METAR","geometry_esri":{"x":53.53,"y":9.83,"z":13}}}