{"type":"Feature","geometry":{"type":"Point","coordinates":[53.53,9.83,13]},"properties":{"stationId":"EDHI","rawText":"EDHI 171120Z 12005KT 090V160 3300 BR SCT004 OVC010 02/01 Q1018","observationTime":"2018-12-17T11:20:00Z","temp":2,"dewpoint":1,"windDirection":120,"windSpeed":9.26,"visibility":2.05,"altim":30.059055,"flightCategory":"IFR","metarType":"METAR","geometry_esri":{"x":53.53,"y":9.83,"z":13}}}