{"type":"Feature","geometry":{"type":"Point","coordinates":[53.53,9.83,13]},"properties":{"stationId":"EDHI","rawText":"EDHI 210520Z 24006KT 5000 BR BKN013 09/08 Q1032","observationTime":"2019-03-21T05:20:00Z","temp":9,"dewpoint":8,"windDirection":240,"windSpeed":11.112,"visibility":3.11,"altim":30.47244,"flightCategory":"MVFR","metarType":"METAR","geometry_esri":{"x":53.53,"y":9.83,"z":13}}}