{"type":"Feature","geometry":{"type":"Point","coordinates":[53.53,9.83,13]},"properties":{"stationId":"EDHI","rawText":"EDHI 100020Z AUTO 22017KT 190V250 9999 3700 // FEW031/// BKN037/// OVC047/// 08/06 Q0979","observationTime":"2020-02-10T00:20:00Z","temp":8,"dewpoint":6,"windDirection":220,"windSpeed":31.484,"visibility":6.21,"altim":28.90748,"flightCategory":"VFR","metarType":"METAR","geometry_esri":{"x":53.53,"y":9.83,"z":13}}}