{"type":"Feature","geometry":{"type":"Point","coordinates":[53.53,9.83,13]},"properties":{"stationId":"EDHI","rawText":"EDHI 142220Z AUTO 27011KT 9999 // FEW022/// BKN034/// 06/02 Q1024","observationTime":"2020-04-14T22:20:00Z","temp":6,"dewpoint":2,"windDirection":270,"windSpeed":20.372,"visibility":6.21,"altim":30.236221,"flightCategory":"VFR","metarType":"METAR","geometry_esri":{"x":53.53,"y":9.83,"z":13}}}