{"type":"Feature","geometry":{"type":"Point","coordinates":[53.53,9.83,13]},"properties":{"stationId":"EDHI","rawText":"EDHI 021920Z 12006KT 080V160 CAVOK 07/02 Q0992","observationTime":"2020-03-02T19:20:00Z","temp":7,"dewpoint":2,"windDirection":120,"windSpeed":11.112,"visibility":6.21,"altim":29.291338,"flightCategory":"VFR","metarType":"METAR","geometry_esri":{"x":53.53,"y":9.83,"z":13}}}