{"type":"Feature","geometry":{"type":"Point","coordinates":[53.53,9.83,13]},"properties":{"stationId":"EDHI","rawText":"EDHI 112150Z AUTO 34006KT 300V360 9999 // FEW019/// SCT043/// 03/01 Q1022","observationTime":"2018-12-11T21:50:00Z","temp":3,"dewpoint":1,"windDirection":340,"windSpeed":11.112,"visibility":6.21,"altim":30.177166,"skyCondition1a":"FEW","skyCondition1b":1900,"skyCondition2a":"SCT","skyCondition2b":4300,"flightCategory":"VFR","metarType":"METAR","geometry_esri":{"x":53.53,"y":9.83,"z":13}}}