{"type":"Feature","geometry":{"type":"Point","coordinates":[53.53,9.83,13]},"properties":{"stationId":"EDHI","rawText":"EDHI 232120Z AUTO 25012KT 9999 // SCT014/// BKN017/// OVC046/// 08/06 Q1008","observationTime":"2019-12-23T21:20:00Z","temp":8,"dewpoint":6,"windDirection":250,"windSpeed":22.224,"visibility":6.21,"altim":29.763779,"flightCategory":"MVFR","metarType":"METAR","geometry_esri":{"x":53.53,"y":9.83,"z":13}}}