{"type":"Feature","geometry":{"type":"Point","coordinates":[53.53,9.83,13]},"properties":{"stationId":"EDHI","rawText":"EDHI 110450Z 24022KT 9999 -RA BKN014 03/01 Q0989","observationTime":"2020-02-11T04:50:00Z","temp":3,"dewpoint":1,"windDirection":240,"windSpeed":40.744,"visibility":6.21,"altim":29.202755,"flightCategory":"MVFR","metarType":"METAR","geometry_esri":{"x":53.53,"y":9.83,"z":13}}}