{"type":"Feature","geometry":{"type":"Point","coordinates":[53.53,9.83,13]},"properties":{"stationId":"EDHI","rawText":"EDHI 140820Z 21009KT 180V240 9999 SCT014 BKN018 05/03 Q0981","observationTime":"2019-12-14T08:20:00Z","temp":5,"dewpoint":3,"windDirection":210,"windSpeed":16.668,"visibility":6.21,"altim":28.966536,"flightCategory":"MVFR","metarType":"METAR","geometry_esri":{"x":53.53,"y":9.83,"z":13}}}