{"type":"Feature","geometry":{"type":"Point","coordinates":[53.53,9.83,13]},"properties":{"stationId":"EDHI","rawText":"EDHI 090820Z AUTO 20019G29KT 9999 // BKN029/// OVC150/// 08/04 Q1007","observationTime":"2020-02-09T08:20:00Z","temp":8,"dewpoint":4,"windDirection":200,"windSpeed":35.188,"visibility":6.21,"altim":29.734253,"flightCategory":"MVFR","metarType":"METAR","geometry_esri":{"x":53.53,"y":9.83,"z":13}}}