{"type":"Feature","geometry":{"type":"Point","coordinates":[53.53,9.83,13]},"properties":{"stationId":"EDHI","rawText":"EDHI 120720Z 18008KT 140V230 9999 SCT022 BKN032 06/03 Q1001","observationTime":"2019-11-12T07:20:00Z","temp":6,"dewpoint":3,"windDirection":180,"windSpeed":14.816,"visibility":6.21,"altim":29.557087,"flightCategory":"VFR","metarType":"METAR","geometry_esri":{"x":53.53,"y":9.83,"z":13}}}