{"type":"Feature","geometry":{"type":"Point","coordinates":[53.53,9.83,13]},"properties":{"stationId":"EDHI","rawText":"EDHI 070420Z AUTO 14005KT 110V170 7000 // BKN016/// BKN022/// OVC043/// 04/03 Q1010","observationTime":"2019-02-07T04:20:00Z","temp":4,"dewpoint":3,"windDirection":140,"windSpeed":9.26,"visibility":4.35,"altim":29.822834,"flightCategory":"MVFR","metarType":"METAR","geometry_esri":{"x":53.53,"y":9.83,"z":13}}}