{"type":"Feature","geometry":{"type":"Point","coordinates":[53.53,9.83,13]},"properties":{"stationId":"EDHI","rawText":"EDHI 191650Z 10003KT CAVOK 00/M02 Q1018","observationTime":"2019-01-19T16:50:00Z","temp":0,"dewpoint":-2,"windDirection":100,"windSpeed":5.556,"visibility":6.21,"altim":30.059055,"flightCategory":"VFR","metarType":"METAR","geometry_esri":{"x":53.53,"y":9.83,"z":13}}}