{"type":"Feature","geometry":{"type":"Point","coordinates":[53.53,9.83,13]},"properties":{"stationId":"EDHI","rawText":"EDHI 121350Z AUTO 23009KT 9999 // SCT010/// OVC052/// 13/12 Q1009","observationTime":"2019-10-12T13:50:00Z","temp":13,"dewpoint":12,"windDirection":230,"windSpeed":16.668,"visibility":6.21,"altim":29.793306,"flightCategory":"VFR","metarType":"METAR","geometry_esri":{"x":53.53,"y":9.83,"z":13}}}