{"type":"Feature","geometry":{"type":"Point","coordinates":[53.53,9.83,13]},"properties":{"stationId":"EDHI","rawText":"EDHI 292250Z AUTO 00000KT 2800 // NCD 06/05 Q1026","observationTime":"2019-03-29T22:50:00Z","temp":6,"dewpoint":5,"windDirection":0,"windSpeed":0,"visibility":1.74,"altim":30.295275,"flightCategory":"IFR","metarType":"SPECI","geometry_esri":{"x":53.53,"y":9.83,"z":13}}}