{"type":"Feature","geometry":{"type":"Point","coordinates":[53.53,9.83,13]},"properties":{"stationId":"EDHI","rawText":"EDHI 131520Z 26010KT 4500 -DZ OVC006 08/07 Q1031","observationTime":"2019-02-13T15:20:00Z","temp":8,"dewpoint":7,"windDirection":260,"windSpeed":18.52,"visibility":2.8,"altim":30.442913,"flightCategory":"IFR","metarType":"METAR","geometry_esri":{"x":53.53,"y":9.83,"z":13}}}