{"type":"Feature","geometry":{"type":"Point","coordinates":[53.53,9.83,13]},"properties":{"stationId":"EDHI","rawText":"EDHI 041220Z 26011KT 230V290 9999 SCT031 BKN038 17/11 Q1022","observationTime":"2019-07-04T12:20:00Z","temp":17,"dewpoint":11,"windDirection":260,"windSpeed":20.372,"visibility":6.21,"altim":30.177166,"flightCategory":"VFR","metarType":"METAR","geometry_esri":{"x":53.53,"y":9.83,"z":13}}}