{"type":"Feature","geometry":{"type":"Point","coordinates":[53.53,9.83,13]},"properties":{"stationId":"EDHI","rawText":"EDHI 220450Z 04009KT 9999 FEW008 SCT014 BKN031 07/06 Q1032","observationTime":"2019-02-22T04:50:00Z","temp":7,"dewpoint":6,"windDirection":40,"windSpeed":16.668,"visibility":6.21,"altim":30.47244,"flightCategory":"VFR","metarType":"METAR","geometry_esri":{"x":53.53,"y":9.83,"z":13}}}