{"type":"Feature","geometry":{"type":"Point","coordinates":[53.53,9.83,13]},"properties":{"stationId":"EDHI","rawText":"EDHI 201450Z AUTO 01009KT 340V050 9999 // NCD 18/M05 Q1030","observationTime":"2019-04-20T14:50:00Z","temp":18,"dewpoint":-5,"windDirection":10,"windSpeed":16.668,"visibility":6.21,"altim":30.413385,"flightCategory":"VFR","metarType":"METAR","geometry_esri":{"x":53.53,"y":9.83,"z":13}}}