{"type":"Feature","geometry":{"type":"Point","coordinates":[53.53,9.83,13]},"properties":{"stationId":"EDHI","rawText":"EDHI 031320Z AUTO 18005KT 100V220 9999 // FEW019/// BKN038/// OVC043/// 13/09 Q0987","observationTime":"2019-11-03T13:20:00Z","temp":13,"dewpoint":9,"windDirection":180,"windSpeed":9.26,"visibility":6.21,"altim":29.143702,"flightCategory":"VFR","metarType":"METAR","geometry_esri":{"x":53.53,"y":9.83,"z":13}}}