{"type":"Feature","geometry":{"type":"Point","coordinates":[53.53,9.83,13]},"properties":{"stationId":"EDHI","rawText":"EDHI 241550Z 31012KT 270V340 CAVOK 18/07 Q1012","observationTime":"2019-05-24T15:50:00Z","temp":18,"dewpoint":7,"windDirection":310,"windSpeed":22.224,"visibility":6.21,"altim":29.88189,"flightCategory":"VFR","metarType":"METAR","geometry_esri":{"x":53.53,"y":9.83,"z":13}}}