{"type":"Feature","geometry":{"type":"Point","coordinates":[53.53,9.83,13]},"properties":{"stationId":"EDHI","rawText":"EDHI 190850Z 27013KT 9999 -SHRA SCT019TCU BKN027 06/03 Q1009","observationTime":"2020-02-19T08:50:00Z","temp":6,"dewpoint":3,"windDirection":270,"windSpeed":24.076,"visibility":6.21,"altim":29.793306,"flightCategory":"MVFR","metarType":"METAR","geometry_esri":{"x":53.53,"y":9.83,"z":13}}}