{"type":"Feature","geometry":{"type":"Point","coordinates":[53.53,9.83,13]},"properties":{"stationId":"EDHI","rawText":"EDHI 211950Z AUTO 33006KT 290V360 9999 // BKN074/// 17/10 Q1020","observationTime":"2019-06-21T19:50:00Z","temp":17,"dewpoint":10,"windDirection":330,"windSpeed":11.112,"visibility":6.21,"altim":30.11811,"flightCategory":"VFR","metarType":"METAR","geometry_esri":{"x":53.53,"y":9.83,"z":13}}}