{"type":"Feature","geometry":{"type":"Point","coordinates":[53.53,9.83,13]},"properties":{"stationId":"EDHI","rawText":"EDHI 260420Z VRB02KT 0300 R23/0450N FG VV/// 10/10 Q1007","observationTime":"2019-09-26T04:20:00Z","temp":10,"dewpoint":10,"windDirection":0,"windSpeed":3.704,"visibility":0.19,"altim":29.734253,"flightCategory":"LIFR","metarType":"METAR","geometry_esri":{"x":53.53,"y":9.83,"z":13}}}