{"type":"Feature","geometry":{"type":"Point","coordinates":[53.53,9.83,13]},"properties":{"stationId":"EDHI","rawText":"EDHI 142220Z AUTO 24016KT 9999 // SCT017/// 04/01 Q0994","observationTime":"2019-12-14T22:20:00Z","temp":4,"dewpoint":1,"windDirection":240,"windSpeed":29.632,"visibility":6.21,"altim":29.350393,"flightCategory":"VFR","metarType":"METAR","geometry_esri":{"x":53.53,"y":9.83,"z":13}}}