{"type":"Feature","geometry":{"type":"Point","coordinates":[53.53,9.83,13]},"properties":{"stationId":"EDHI","rawText":"EDHI 220050Z AUTO 31007KT 280V350 1700 // BKN002/// OVC005/// 07/07 Q1029","observationTime":"2019-02-22T00:50:00Z","temp":7,"dewpoint":7,"windDirection":310,"windSpeed":12.964,"visibility":1.06,"altim":30.383858,"flightCategory":"LIFR","metarType":"METAR","geometry_esri":{"x":53.53,"y":9.83,"z":13}}}