{"type":"Feature","geometry":{"type":"Point","coordinates":[53.53,9.83,13]},"properties":{"stationId":"EDHI","rawText":"EDHI 271820Z 30013KT 270V340 9999 BKN021 16/12 Q1025","observationTime":"2019-06-27T18:20:00Z","temp":16,"dewpoint":12,"windDirection":300,"windSpeed":24.076,"visibility":6.21,"altim":30.265747,"flightCategory":"MVFR","metarType":"METAR","geometry_esri":{"x":53.53,"y":9.83,"z":13}}}