{"type":"Feature","geometry":{"type":"Point","coordinates":[53.53,9.83,13]},"properties":{"stationId":"EDHI","rawText":"EDHI 251850Z 35006KT 9999 FEW033 07/02 Q1022","observationTime":"2019-03-25T18:50:00Z","temp":7,"dewpoint":2,"windDirection":350,"windSpeed":11.112,"visibility":6.21,"altim":30.177166,"flightCategory":"VFR","metarType":"METAR","geometry_esri":{"x":53.53,"y":9.83,"z":13}}}