{"type":"Feature","geometry":{"type":"Point","coordinates":[53.53,9.83,13]},"properties":{"stationId":"EDHI","rawText":"EDHI 180350Z AUTO 00000KT 3800 0650 R23/P2000N // SCT005/// 10/10 Q1012","observationTime":"2019-07-18T03:50:00Z","temp":10,"dewpoint":10,"windDirection":0,"windSpeed":0,"visibility":2.36,"altim":29.88189,"flightCategory":"IFR","metarType":"METAR","geometry_esri":{"x":53.53,"y":9.83,"z":13}}}