{"type":"Feature","geometry":{"type":"Point","coordinates":[53.53,9.83,13]},"properties":{"stationId":"EDHI","rawText":"EDHI 301720Z 04008KT 9999 FEW046 06/M03 Q1025","observationTime":"2020-03-30T17:20:00Z","temp":6,"dewpoint":-3,"windDirection":40,"windSpeed":14.816,"visibility":6.21,"altim":30.265747,"flightCategory":"VFR","metarType":"METAR","geometry_esri":{"x":53.53,"y":9.83,"z":13}}}