{"type":"Feature","geometry":{"type":"Point","coordinates":[53.53,9.83,13]},"properties":{"stationId":"EDHI","rawText":"EDHI 220720Z AUTO 11005KT 060V150 9999 // NCD 13/08 Q1014","observationTime":"2019-09-22T07:20:00Z","temp":13,"dewpoint":8,"windDirection":110,"windSpeed":9.26,"visibility":6.21,"altim":29.940945,"flightCategory":"VFR","metarType":"METAR","geometry_esri":{"x":53.53,"y":9.83,"z":13}}}