{"type":"Feature","geometry":{"type":"Point","coordinates":[53.53,9.83,13]},"properties":{"stationId":"EDHI","rawText":"EDHI 140150Z AUTO 24007KT 6000 // BKN027/// OVC190/// 06/03 Q1033","observationTime":"2019-02-14T01:50:00Z","temp":6,"dewpoint":3,"windDirection":240,"windSpeed":12.964,"visibility":3.73,"altim":30.501968,"flightCategory":"MVFR","metarType":"METAR","geometry_esri":{"x":53.53,"y":9.83,"z":13}}}