{"type":"Feature","geometry":{"type":"Point","coordinates":[53.53,9.83,13]},"properties":{"stationId":"EDHI","rawText":"EDHI 172320Z AUTO 32010KT 290V350 9999 // FEW061/// BKN082/// 00/M02 Q1007","observationTime":"2019-01-17T23:20:00Z","temp":0,"dewpoint":-2,"windDirection":320,"windSpeed":18.52,"visibility":6.21,"altim":29.734253,"flightCategory":"VFR","metarType":"METAR","geometry_esri":{"x":53.53,"y":9.83,"z":13}}}