{"type":"Feature","geometry":{"type":"Point","coordinates":[53.53,9.83,13]},"properties":{"stationId":"EDHI","rawText":"EDHI 182320Z AUTO 05007KT 6000 // NCD 14/12 Q1006","observationTime":"2019-05-18T23:20:00Z","temp":14,"dewpoint":12,"windDirection":50,"windSpeed":12.964,"visibility":3.73,"altim":29.704725,"flightCategory":"MVFR","metarType":"METAR","geometry_esri":{"x":53.53,"y":9.83,"z":13}}}