{"type":"Feature","geometry":{"type":"Point","coordinates":[53.53,9.83,13]},"properties":{"stationId":"EDHI","rawText":"EDHI 172320Z AUTO 23019KT 9999 // SCT030/// BKN041/// OVC097/// 05/01 Q1002","observationTime":"2019-03-17T23:20:00Z","temp":5,"dewpoint":1,"windDirection":230,"windSpeed":35.188,"visibility":6.21,"altim":29.586615,"flightCategory":"VFR","metarType":"METAR","geometry_esri":{"x":53.53,"y":9.83,"z":13}}}