{"type":"Feature","geometry":{"type":"Point","coordinates":[53.53,9.83,13]},"properties":{"stationId":"EDHI","rawText":"EDHI 221150Z AUTO 12008KT 060V190 9999 // NCD 22/10 Q1011","observationTime":"2019-09-22T11:50:00Z","temp":22,"dewpoint":10,"windDirection":120,"windSpeed":14.816,"visibility":6.21,"altim":29.852362,"flightCategory":"VFR","metarType":"METAR","geometry_esri":{"x":53.53,"y":9.83,"z":13}}}