{"type":"Feature","geometry":{"type":"Point","coordinates":[53.53,9.83,13]},"properties":{"stationId":"EDHI","rawText":"EDHI 201620Z AUTO 10003KT 050V170 3300 // OVC002/// M04/M04 Q1021","observationTime":"2019-01-20T16:20:00Z","temp":-4,"dewpoint":-4,"windDirection":100,"windSpeed":5.556,"visibility":2.05,"altim":30.147638,"flightCategory":"LIFR","metarType":"METAR","geometry_esri":{"x":53.53,"y":9.83,"z":13}}}