{"type":"Feature","geometry":{"type":"Point","coordinates":[53.53,9.83,13]},"properties":{"stationId":"EDHI","rawText":"EDHI 261950Z AUTO 21010KT 2500 // OVC004/// 05/05 Q0996","observationTime":"2019-01-26T19:50:00Z","temp":5,"dewpoint":5,"windDirection":210,"windSpeed":18.52,"visibility":1.55,"altim":29.409449,"flightCategory":"LIFR","metarType":"METAR","geometry_esri":{"x":53.53,"y":9.83,"z":13}}}