{"type":"Feature","geometry":{"type":"Point","coordinates":[53.53,9.83,13]},"properties":{"stationId":"EDHI","rawText":"EDHI 301350Z 26007KT 200V310 CAVOK 18/07 Q1018","observationTime":"2019-03-30T13:50:00Z","temp":18,"dewpoint":7,"windDirection":260,"windSpeed":12.964,"visibility":6.21,"altim":30.059055,"flightCategory":"VFR","metarType":"METAR","geometry_esri":{"x":53.53,"y":9.83,"z":13}}}