{"type":"Feature","geometry":{"type":"Point","coordinates":[53.53,9.83,13]},"properties":{"stationId":"EDHI","rawText":"EDHI 050950Z AUTO 29006KT 9999 // SCT006/// OVC008/// 07/07 Q1022","observationTime":"2019-01-05T09:50:00Z","temp":7,"dewpoint":7,"windDirection":290,"windSpeed":11.112,"visibility":6.21,"altim":30.177166,"flightCategory":"IFR","metarType":"METAR","geometry_esri":{"x":53.53,"y":9.83,"z":13}}}