{"type":"Feature","geometry":{"type":"Point","coordinates":[53.53,9.83,13]},"properties":{"stationId":"EDHI","rawText":"EDHI 121450Z 22006KT 9999 BKN022 19/17 Q1007","observationTime":"2019-06-12T14:50:00Z","temp":19,"dewpoint":17,"windDirection":220,"windSpeed":11.112,"visibility":6.21,"altim":29.734253,"flightCategory":"MVFR","metarType":"METAR","geometry_esri":{"x":53.53,"y":9.83,"z":13}}}