{"type":"Feature","geometry":{"type":"Point","coordinates":[53.53,9.83,13]},"properties":{"stationId":"EDHI","rawText":"EDHI 060620Z 16005KT 120V200 7000 NSC 03/01 Q1022","observationTime":"2019-02-06T06:20:00Z","temp":3,"dewpoint":1,"windDirection":160,"windSpeed":9.26,"visibility":4.35,"altim":30.177166,"flightCategory":"MVFR","metarType":"METAR","geometry_esri":{"x":53.53,"y":9.83,"z":13}}}