{"type":"Feature","geometry":{"type":"Point","coordinates":[53.53,9.83,13]},"properties":{"stationId":"EDHI","rawText":"EDHI 280050Z AUTO 16006KT 120V190 9999 // SCT033/// OVC039/// 09/08 Q0985","observationTime":"2019-11-28T00:50:00Z","temp":9,"dewpoint":8,"windDirection":160,"windSpeed":11.112,"visibility":6.21,"altim":29.084646,"flightCategory":"VFR","metarType":"METAR","geometry_esri":{"x":53.53,"y":9.83,"z":13}}}