{"type":"Feature","geometry":{"type":"Point","coordinates":[53.53,9.83,13]},"properties":{"stationId":"EDHI","rawText":"EDHI 191320Z 17005KT 130V210 9999 -SHRA SCT030 14/11 Q1005","observationTime":"2019-10-19T13:20:00Z","temp":14,"dewpoint":11,"windDirection":170,"windSpeed":9.26,"visibility":6.21,"altim":29.675198,"flightCategory":"VFR","metarType":"METAR","geometry_esri":{"x":53.53,"y":9.83,"z":13}}}