{"type":"Feature","geometry":{"type":"Point","coordinates":[53.53,9.83,13]},"properties":{"stationId":"EDHI","rawText":"EDHI 211120Z 28010KT 240V310 9999 SCT044 20/11 Q1017","observationTime":"2019-06-21T11:20:00Z","temp":20,"dewpoint":11,"windDirection":280,"windSpeed":18.52,"visibility":6.21,"altim":30.029528,"flightCategory":"VFR","metarType":"METAR","geometry_esri":{"x":53.53,"y":9.83,"z":13}}}