{"type":"Feature","geometry":{"type":"Point","coordinates":[53.53,9.83,13]},"properties":{"stationId":"EDHI","rawText":"EDHI 011020Z AUTO 28014KT 9999 // OVC007/// 09/08 Q1015","observationTime":"2019-05-01T10:20:00Z","temp":9,"dewpoint":8,"windDirection":280,"windSpeed":25.928,"visibility":6.21,"altim":29.970472,"flightCategory":"IFR","metarType":"METAR","geometry_esri":{"x":53.53,"y":9.83,"z":13}}}