{"type":"Feature","geometry":{"type":"Point","coordinates":[53.53,9.83,13]},"properties":{"stationId":"EDHI","rawText":"EDHI 231520Z 09012KT 060V120 8000 FEW012 SCT014 BKN016 08/05 Q1006","observationTime":"2019-11-23T15:20:00Z","temp":8,"dewpoint":5,"windDirection":90,"windSpeed":22.224,"visibility":4.97,"altim":29.704725,"flightCategory":"MVFR","metarType":"METAR","geometry_esri":{"x":53.53,"y":9.83,"z":13}}}