{"type":"Feature","geometry":{"type":"Point","coordinates":[53.53,9.83,13]},"properties":{"stationId":"EDHI","rawText":"EDHI 252050Z AUTO 21006KT 4800 // OVC004/// 02/01 Q1020","observationTime":"2020-01-25T20:50:00Z","temp":2,"dewpoint":1,"windDirection":210,"windSpeed":11.112,"visibility":2.98,"altim":30.11811,"flightCategory":"LIFR","metarType":"METAR","geometry_esri":{"x":53.53,"y":9.83,"z":13}}}