{"type":"Feature","geometry":{"type":"Point","coordinates":[53.53,9.83,13]},"properties":{"stationId":"EDHI","rawText":"EDHI 131020Z 21019KT 9999 BKN025 07/02 Q0995","observationTime":"2019-03-13T10:20:00Z","temp":7,"dewpoint":2,"windDirection":210,"windSpeed":35.188,"visibility":6.21,"altim":29.379921,"flightCategory":"MVFR","metarType":"METAR","geometry_esri":{"x":53.53,"y":9.83,"z":13}}}