{"type":"Feature","geometry":{"type":"Point","coordinates":[53.53,9.83,13]},"properties":{"stationId":"EDHI","rawText":"EDHI 291650Z AUTO 21011KT 2900 // BKN008/// BKN015/// OVC020/// 14/13 Q0993","observationTime":"2019-09-29T16:50:00Z","temp":14,"dewpoint":13,"windDirection":210,"windSpeed":20.372,"visibility":1.8,"altim":29.320866,"flightCategory":"IFR","metarType":"METAR","geometry_esri":{"x":53.53,"y":9.83,"z":13}}}