{"type":"Feature","geometry":{"type":"Point","coordinates":[53.53,9.83,13]},"properties":{"stationId":"EDHI","rawText":"EDHI 221920Z AUTO 12007KT 090V170 9000 // OVC010/// 07/05 Q1009","observationTime":"2019-11-22T19:20:00Z","temp":7,"dewpoint":5,"windDirection":120,"windSpeed":12.964,"visibility":5.59,"altim":29.793306,"flightCategory":"MVFR","metarType":"METAR","geometry_esri":{"x":53.53,"y":9.83,"z":13}}}