{"type":"Feature","geometry":{"type":"Point","coordinates":[53.53,9.83,13]},"properties":{"stationId":"EDHI","rawText":"EDHI 030250Z AUTO 20005KT 9999 // BKN066/// BKN170/// BKN230/// 09/07 Q1003","observationTime":"2019-04-03T02:50:00Z","temp":9,"dewpoint":7,"windDirection":200,"windSpeed":9.26,"visibility":6.21,"altim":29.616142,"flightCategory":"VFR","metarType":"METAR","geometry_esri":{"x":53.53,"y":9.83,"z":13}}}