{"type":"Feature","geometry":{"type":"Point","coordinates":[53.53,9.83,13]},"properties":{"stationId":"EDHI","rawText":"EDHI 121150Z 28012KT 9999 SCT034 SCT048 20/13 Q1025","observationTime":"2019-09-12T11:50:00Z","temp":20,"dewpoint":13,"windDirection":280,"windSpeed":22.224,"visibility":6.21,"altim":30.265747,"flightCategory":"VFR","metarType":"METAR","geometry_esri":{"x":53.53,"y":9.83,"z":13}}}