{"type":"Feature","geometry":{"type":"Point","coordinates":[53.53,9.83,13]},"properties":{"stationId":"EDHI","rawText":"EDHI 051150Z 31003KT 260V360 6000 BKN016 10/06 Q1005","observationTime":"2019-04-05T11:50:00Z","temp":10,"dewpoint":6,"windDirection":310,"windSpeed":5.556,"visibility":3.73,"altim":29.675198,"flightCategory":"MVFR","metarType":"METAR","geometry_esri":{"x":53.53,"y":9.83,"z":13}}}