{"type":"Feature","geometry":{"type":"Point","coordinates":[53.53,9.83,13]},"properties":{"stationId":"EDHI","rawText":"EDHI 220020Z AUTO 11004KT 050V170 9999 // NCD 02/M07 Q1035","observationTime":"2020-03-22T00:20:00Z","temp":2,"dewpoint":-7,"windDirection":110,"windSpeed":7.408,"visibility":6.21,"altim":30.561024,"flightCategory":"VFR","metarType":"METAR","geometry_esri":{"x":53.53,"y":9.83,"z":13}}}