{"type":"Feature","geometry":{"type":"Point","coordinates":[53.53,9.83,13]},"properties":{"stationId":"EDHI","rawText":"EDHI 042220Z AUTO 00000KT 4400 1500 // FEW031/// OVC064/// 10/09 Q0991","observationTime":"2019-11-04T22:20:00Z","temp":10,"dewpoint":9,"windDirection":0,"windSpeed":0,"visibility":2.73,"altim":29.26181,"flightCategory":"IFR","metarType":"METAR","geometry_esri":{"x":53.53,"y":9.83,"z":13}}}