{"type":"Feature","geometry":{"type":"Point","coordinates":[53.53,9.83,13]},"properties":{"stationId":"EDHI","rawText":"EDHI 172220Z AUTO 02010KT 9999 // BKN009/// OVC017/// 07/05 Q1007","observationTime":"2019-11-17T22:20:00Z","temp":7,"dewpoint":5,"windDirection":20,"windSpeed":18.52,"visibility":6.21,"altim":29.734253,"flightCategory":"IFR","metarType":"METAR","geometry_esri":{"x":53.53,"y":9.83,"z":13}}}