{"type":"Feature","geometry":{"type":"Point","coordinates":[53.53,9.83,13]},"properties":{"stationId":"EDHI","rawText":"EDHI 080420Z AUTO 25021KT 4100 // SCT009/// OVC015/// 07/05 Q0992","observationTime":"2019-03-08T04:20:00Z","temp":7,"dewpoint":5,"windDirection":250,"windSpeed":38.892,"visibility":2.55,"altim":29.291338,"flightCategory":"IFR","metarType":"METAR","geometry_esri":{"x":53.53,"y":9.83,"z":13}}}