{"type":"Feature","geometry":{"type":"Point","coordinates":[53.53,9.83,13]},"properties":{"stationId":"EDHI","rawText":"EDHI 131320Z 30020KT 270V330 9999 FEW020CB SCT028 BKN041 07/04 Q1010","observationTime":"2020-03-13T13:20:00Z","temp":7,"dewpoint":4,"windDirection":300,"windSpeed":37.04,"visibility":6.21,"altim":29.822834,"flightCategory":"VFR","metarType":"METAR","geometry_esri":{"x":53.53,"y":9.83,"z":13}}}