{"type":"Feature","geometry":{"type":"Point","coordinates":[53.53,9.83,13]},"properties":{"stationId":"EDHI","rawText":"EDHI 051550Z 07008KT 040V100 CAVOK 28/18 Q1006","observationTime":"2019-06-05T15:50:00Z","temp":28,"dewpoint":18,"windDirection":70,"windSpeed":14.816,"visibility":6.21,"altim":29.704725,"flightCategory":"VFR","metarType":"METAR","geometry_esri":{"x":53.53,"y":9.83,"z":13}}}