{"type":"Feature","geometry":{"type":"Point","coordinates":[53.53,9.83,13]},"properties":{"stationId":"EDHI","rawText":"EDHI 170620Z AUTO 22015KT 2200 // BKN026/// OVC034/// 09/06 Q0992","observationTime":"2019-03-17T06:20:00Z","temp":9,"dewpoint":6,"windDirection":220,"windSpeed":27.78,"visibility":1.37,"altim":29.291338,"flightCategory":"IFR","metarType":"METAR","geometry_esri":{"x":53.53,"y":9.83,"z":13}}}