{"type":"Feature","geometry":{"type":"Point","coordinates":[53.53,9.83,13]},"properties":{"stationId":"EDHI","rawText":"EDHI 282020Z AUTO 26020KT 2700 // SCT011/// BKN014/// OVC018/// 03/02 Q0991","observationTime":"2020-01-28T20:20:00Z","temp":3,"dewpoint":2,"windDirection":260,"windSpeed":37.04,"visibility":1.68,"altim":29.26181,"flightCategory":"IFR","metarType":"METAR","geometry_esri":{"x":53.53,"y":9.83,"z":13}}}