{"type":"Feature","geometry":{"type":"Point","coordinates":[53.53,9.83,13]},"properties":{"stationId":"EDHI","rawText":"EDHI 020820Z 13003KT 070V180 4500 DZ BR OVC006 11/11 Q0988","observationTime":"2019-11-02T08:20:00Z","temp":11,"dewpoint":11,"windDirection":130,"windSpeed":5.556,"visibility":2.8,"altim":29.17323,"flightCategory":"IFR","metarType":"METAR","geometry_esri":{"x":53.53,"y":9.83,"z":13}}}