{"type":"Feature","geometry":{"type":"Point","coordinates":[53.53,9.83,13]},"properties":{"stationId":"EDHI","rawText":"EDHI 231950Z AUTO 30025G39KT 270V340 2800 // FEW011/// BKN014/// OVC021/// 03/02 Q1010","observationTime":"2020-02-23T19:50:00Z","temp":3,"dewpoint":2,"windDirection":300,"windSpeed":46.300000000000004,"visibility":1.74,"altim":29.822834,"flightCategory":"IFR","metarType":"METAR","geometry_esri":{"x":53.53,"y":9.83,"z":13}}}