{"type":"Feature","geometry":{"type":"Point","coordinates":[53.53,9.83,13]},"properties":{"stationId":"EDHI","rawText":"EDHI 291020Z 22004KT 170V310 CAVOK 24/12 Q1021","observationTime":"2019-06-29T10:20:00Z","temp":24,"dewpoint":12,"windDirection":220,"windSpeed":7.408,"visibility":6.21,"altim":30.147638,"flightCategory":"VFR","metarType":"METAR","geometry_esri":{"x":53.53,"y":9.83,"z":13}}}