{"type":"Feature","geometry":{"type":"Point","coordinates":[53.53,9.83,13]},"properties":{"stationId":"EDHI","rawText":"EDHI 070620Z AUTO 09004KT 040V110 8000 // NCD 10/06 Q1008","observationTime":"2019-04-07T06:20:00Z","temp":10,"dewpoint":6,"windDirection":90,"windSpeed":7.408,"visibility":4.97,"altim":29.763779,"flightCategory":"MVFR","metarType":"METAR","geometry_esri":{"x":53.53,"y":9.83,"z":13}}}