{"type":"Feature","geometry":{"type":"Point","coordinates":[53.53,9.83,13]},"properties":{"stationId":"EDHI","rawText":"EDHI 190520Z AUTO 24004KT 8000 // FEW022/// SCT025/// BKN036/// 01/00 Q1029","observationTime":"2020-01-19T05:20:00Z","temp":1,"dewpoint":0,"windDirection":240,"windSpeed":7.408,"visibility":4.97,"altim":30.383858,"flightCategory":"MVFR","metarType":"METAR","geometry_esri":{"x":53.53,"y":9.83,"z":13}}}