{"type":"Feature","geometry":{"type":"Point","coordinates":[53.53,9.83,13]},"properties":{"stationId":"EDHI","rawText":"EDHI 120720Z 03006KT 360V070 6000 OVC006 17/15 Q1009","observationTime":"2019-06-12T07:20:00Z","temp":17,"dewpoint":15,"windDirection":30,"windSpeed":11.112,"visibility":3.73,"altim":29.793306,"flightCategory":"IFR","metarType":"METAR","geometry_esri":{"x":53.53,"y":9.83,"z":13}}}