{"type":"Feature","geometry":{"type":"Point","coordinates":[53.53,9.83,13]},"properties":{"stationId":"EDHI","rawText":"EDHI 011050Z 13007KT 100V170 9000 NSC 03/00 Q1010","observationTime":"2019-11-01T10:50:00Z","temp":3,"dewpoint":0,"windDirection":130,"windSpeed":12.964,"visibility":5.59,"altim":29.822834,"flightCategory":"VFR","metarType":"METAR","geometry_esri":{"x":53.53,"y":9.83,"z":13}}}