{"type":"Feature","geometry":{"type":"Point","coordinates":[53.53,9.83,13]},"properties":{"stationId":"EDHI","rawText":"EDHI 151850Z 28016KT 9999 FEW020 BKN029 15/11 Q1015","observationTime":"2019-07-15T18:50:00Z","temp":15,"dewpoint":11,"windDirection":280,"windSpeed":29.632,"visibility":6.21,"altim":29.970472,"flightCategory":"MVFR","metarType":"METAR","geometry_esri":{"x":53.53,"y":9.83,"z":13}}}