{"type":"Feature","geometry":{"type":"Point","coordinates":[53.53,9.83,13]},"properties":{"stationId":"EDHI","rawText":"EDHI 040150Z AUTO 21012KT 9999 // FEW026/// SCT040/// OVC071/// 11/08 Q0992","observationTime":"2019-03-04T01:50:00Z","temp":11,"dewpoint":8,"windDirection":210,"windSpeed":22.224,"visibility":6.21,"altim":29.291338,"flightCategory":"VFR","metarType":"METAR","geometry_esri":{"x":53.53,"y":9.83,"z":13}}}