{"type":"Feature","geometry":{"type":"Point","coordinates":[53.53,9.83,13]},"properties":{"stationId":"EDHI","rawText":"EDHI 120020Z AUTO 19011KT 9999 // FEW020/// BKN023/// BKN074/// 05/01 Q1001","observationTime":"2019-11-12T00:20:00Z","temp":5,"dewpoint":1,"windDirection":190,"windSpeed":20.372,"visibility":6.21,"altim":29.557087,"flightCategory":"MVFR","metarType":"METAR","geometry_esri":{"x":53.53,"y":9.83,"z":13}}}