{"type":"Feature","geometry":{"type":"Point","coordinates":[53.53,9.83,13]},"properties":{"stationId":"EDHI","rawText":"EDHI 280220Z AUTO 28010KT 2500 // OVC003/// 06/06 Q1023","observationTime":"2018-12-28T02:20:00Z","temp":6,"dewpoint":6,"windDirection":280,"windSpeed":18.52,"visibility":1.55,"altim":30.206694,"flightCategory":"LIFR","metarType":"METAR","geometry_esri":{"x":53.53,"y":9.83,"z":13}}}