{"type":"Feature","geometry":{"type":"Point","coordinates":[53.53,9.83,13]},"properties":{"stationId":"EDHI","rawText":"EDHI 050350Z AUTO 32005KT 260V020 9999 // NCD 00/M02 Q1029","observationTime":"2020-02-05T03:50:00Z","temp":0,"dewpoint":-2,"windDirection":320,"windSpeed":9.26,"visibility":6.21,"altim":30.383858,"flightCategory":"VFR","metarType":"METAR","geometry_esri":{"x":53.53,"y":9.83,"z":13}}}