{"type":"Feature","geometry":{"type":"Point","coordinates":[53.53,9.83,13]},"properties":{"stationId":"EDHI","rawText":"EDHI 142020Z AUTO 21017G29KT 9999 // OVC026/// 11/06 Q1003","observationTime":"2020-01-14T20:20:00Z","temp":11,"dewpoint":6,"windDirection":210,"windSpeed":31.484,"visibility":6.21,"altim":29.616142,"flightCategory":"MVFR","metarType":"METAR","geometry_esri":{"x":53.53,"y":9.83,"z":13}}}