{"type":"Feature","geometry":{"type":"Point","coordinates":[53.53,9.83,13]},"properties":{"stationId":"EDHI","rawText":"EDHI 171950Z AUTO 22009KT 3500 // BKN008/// OVC015/// 08/07 Q1012","observationTime":"2020-01-17T19:50:00Z","temp":8,"dewpoint":7,"windDirection":220,"windSpeed":16.668,"visibility":2.17,"altim":29.88189,"flightCategory":"IFR","metarType":"METAR","geometry_esri":{"x":53.53,"y":9.83,"z":13}}}