{"type":"Feature","geometry":{"type":"Point","coordinates":[53.53,9.83,13]},"properties":{"stationId":"EDHI","rawText":"EDHI 171020Z 13003KT 070V180 2600 BR BKN004 OVC012 02/01 Q1018","observationTime":"2018-12-17T10:20:00Z","temp":2,"dewpoint":1,"windDirection":130,"windSpeed":5.556,"visibility":1.62,"altim":30.059055,"flightCategory":"LIFR","metarType":"METAR","geometry_esri":{"x":53.53,"y":9.83,"z":13}}}