{"type":"Feature","geometry":{"type":"Point","coordinates":[53.53,9.83,13]},"properties":{"stationId":"EDHI","rawText":"EDHI 160550Z 24004KT 6000 SCT010 05/03 Q1018","observationTime":"2020-04-16T05:50:00Z","temp":5,"dewpoint":3,"windDirection":240,"windSpeed":7.408,"visibility":3.73,"altim":30.059055,"flightCategory":"MVFR","metarType":"METAR","geometry_esri":{"x":53.53,"y":9.83,"z":13}}}