{"type":"Feature","geometry":{"type":"Point","coordinates":[53.53,9.83,13]},"properties":{"stationId":"EDHI","rawText":"EDHI 071250Z 25010KT 4500 -RADZ OVC008 06/05 Q1024","observationTime":"2019-01-07T12:50:00Z","temp":6,"dewpoint":5,"windDirection":250,"windSpeed":18.52,"visibility":2.8,"altim":30.236221,"flightCategory":"IFR","metarType":"METAR","geometry_esri":{"x":53.53,"y":9.83,"z":13}}}