{"type":"Feature","geometry":{"type":"Point","coordinates":[53.53,9.83,13]},"properties":{"stationId":"EDHI","rawText":"EDHI 290320Z AUTO 24002KT 5000 0350 R23/P2000N // SCT005/// 10/10 Q1023","observationTime":"2019-06-29T03:20:00Z","temp":10,"dewpoint":10,"windDirection":240,"windSpeed":3.704,"visibility":3.11,"altim":30.206694,"flightCategory":"MVFR","metarType":"METAR","geometry_esri":{"x":53.53,"y":9.83,"z":13}}}