{"type":"Feature","geometry":{"type":"Point","coordinates":[53.53,9.83,13]},"properties":{"stationId":"EDHI","rawText":"EDHI 191120Z AUTO 07010KT 030V130 9999 // NCD 14/M03 Q1024","observationTime":"2020-04-19T11:20:00Z","temp":14,"dewpoint":-3,"windDirection":70,"windSpeed":18.52,"visibility":6.21,"altim":30.236221,"flightCategory":"VFR","metarType":"METAR","geometry_esri":{"x":53.53,"y":9.83,"z":13}}}