{"type":"Feature","geometry":{"type":"Point","coordinates":[53.53,9.83,13]},"properties":{"stationId":"EDHI","rawText":"EDHI 100220Z AUTO 25013KT 9999 3500 // FEW021/// BKN027/// BKN220/// 05/02 Q1006","observationTime":"2019-03-10T02:20:00Z","temp":5,"dewpoint":2,"windDirection":250,"windSpeed":24.076,"visibility":6.21,"altim":29.704725,"flightCategory":"MVFR","metarType":"METAR","geometry_esri":{"x":53.53,"y":9.83,"z":13}}}