{"type":"Feature","geometry":{"type":"Point","coordinates":[53.53,9.83,13]},"properties":{"stationId":"EDHI","rawText":"EDHI 211220Z 14009KT 100V160 9000 -RA FEW008 BKN013 OVC034 07/06 Q0997","observationTime":"2018-12-21T12:20:00Z","temp":7,"dewpoint":6,"windDirection":140,"windSpeed":16.668,"visibility":5.59,"altim":29.438976,"flightCategory":"MVFR","metarType":"METAR","geometry_esri":{"x":53.53,"y":9.83,"z":13}}}