{"type":"Feature","geometry":{"type":"Point","coordinates":[53.53,9.83,13]},"properties":{"stationId":"EDHI","rawText":"EDHI 141020Z AUTO 17005KT 130V220 9999 // BKN029/// 07/00 Q1023","observationTime":"2020-03-14T10:20:00Z","temp":7,"dewpoint":0,"windDirection":170,"windSpeed":9.26,"visibility":6.21,"altim":30.206694,"flightCategory":"MVFR","metarType":"METAR","geometry_esri":{"x":53.53,"y":9.83,"z":13}}}