{"type":"Feature","geometry":{"type":"Point","coordinates":[53.53,9.83,13]},"properties":{"stationId":"EDHI","rawText":"EDHI 020850Z 03006KT 2900 OVC030 00/M01 Q0997","observationTime":"2019-02-02T08:50:00Z","temp":0,"dewpoint":-1,"windDirection":30,"windSpeed":11.112,"visibility":1.8,"altim":29.438976,"flightCategory":"IFR","metarType":"METAR","geometry_esri":{"x":53.53,"y":9.83,"z":13}}}