{"type":"Feature","geometry":{"type":"Point","coordinates":[53.53,9.83,13]},"properties":{"stationId":"EDHI","rawText":"EDHI 231550Z AUTO 11007KT 070V150 9999 // NCD 07/M03 Q1039","observationTime":"2019-02-23T15:50:00Z","temp":7,"dewpoint":-3,"windDirection":110,"windSpeed":12.964,"visibility":6.21,"altim":30.679134,"flightCategory":"VFR","metarType":"METAR","geometry_esri":{"x":53.53,"y":9.83,"z":13}}}