{"type":"Feature","geometry":{"type":"Point","coordinates":[53.53,9.83,13]},"properties":{"stationId":"EDHI","rawText":"EDHI 060920Z 05012KT 9000 -RA BKN011 04/03 Q0992","observationTime":"2020-03-06T09:20:00Z","temp":4,"dewpoint":3,"windDirection":50,"windSpeed":22.224,"visibility":5.59,"altim":29.291338,"flightCategory":"MVFR","metarType":"METAR","geometry_esri":{"x":53.53,"y":9.83,"z":13}}}