{"type":"Feature","geometry":{"type":"Point","coordinates":[53.53,9.83,13]},"properties":{"stationId":"EDHI","rawText":"EDHI 020720Z 23006KT 200V260 1500 BR BKN002 M02/M02 Q1026","observationTime":"2020-01-02T07:20:00Z","temp":-2,"dewpoint":-2,"windDirection":230,"windSpeed":11.112,"visibility":0.93,"altim":30.295275,"flightCategory":"LIFR","metarType":"METAR","geometry_esri":{"x":53.53,"y":9.83,"z":13}}}