{"type":"Feature","geometry":{"type":"Point","coordinates":[53.53,9.83,13]},"properties":{"stationId":"EDHI","rawText":"EDHI 111650Z 30008KT 9999 FEW022 SCT026 BKN038 05/01 Q1020","observationTime":"2018-12-11T16:50:00Z","temp":5,"dewpoint":1,"windDirection":300,"windSpeed":14.816,"visibility":6.21,"altim":30.11811,"skyCondition1a":"FEW","skyCondition1b":2200,"skyCondition2a":"SCT","skyCondition2b":2600,"flightCategory":"VFR","metarType":"METAR","geometry_esri":{"x":53.53,"y":9.83,"z":13}}}