{"type":"Feature","geometry":{"type":"Point","coordinates":[53.53,9.83,13]},"properties":{"stationId":"EDHI","rawText":"EDHI 141320Z 20015KT 9999 -RA SCT012 BKN020 06/04 Q0989","observationTime":"2019-03-14T13:20:00Z","temp":6,"dewpoint":4,"windDirection":200,"windSpeed":27.78,"visibility":6.21,"altim":29.202755,"flightCategory":"MVFR","metarType":"METAR","geometry_esri":{"x":53.53,"y":9.83,"z":13}}}