{"type":"Feature","geometry":{"type":"Point","coordinates":[53.53,9.83,13]},"properties":{"stationId":"EDHI","rawText":"EDHI 041950Z AUTO VRB02KT 5000 // FEW030/// SCT035/// OVC061/// 09/09 Q0991","observationTime":"2019-11-04T19:50:00Z","temp":9,"dewpoint":9,"windDirection":0,"windSpeed":3.704,"visibility":3.11,"altim":29.26181,"flightCategory":"MVFR","metarType":"METAR","geometry_esri":{"x":53.53,"y":9.83,"z":13}}}