{"type":"Feature","geometry":{"type":"Point","coordinates":[53.53,9.83,13]},"properties":{"stationId":"EDHI","rawText":"EDHI 020820Z 05005KT 3500 BR FEW008 OVC029 00/M01 Q0997","observationTime":"2019-02-02T08:20:00Z","temp":0,"dewpoint":-1,"windDirection":50,"windSpeed":9.26,"visibility":2.17,"altim":29.438976,"flightCategory":"IFR","metarType":"METAR","geometry_esri":{"x":53.53,"y":9.83,"z":13}}}