{"type":"Feature","geometry":{"type":"Point","coordinates":[53.53,9.83,13]},"properties":{"stationId":"EDHI","rawText":"EDHI 300620Z AUTO VRB02KT 2300 // NCD 06/05 Q1022","observationTime":"2019-03-30T06:20:00Z","temp":6,"dewpoint":5,"windDirection":0,"windSpeed":3.704,"visibility":1.43,"altim":30.177166,"flightCategory":"IFR","metarType":"METAR","geometry_esri":{"x":53.53,"y":9.83,"z":13}}}