{"type":"Feature","geometry":{"type":"Point","coordinates":[53.53,9.83,13]},"properties":{"stationId":"EDHI","rawText":"EDHI 241320Z 15004KT 110V190 9999 FEW031 20/12 Q1009","observationTime":"2019-09-24T13:20:00Z","temp":20,"dewpoint":12,"windDirection":150,"windSpeed":7.408,"visibility":6.21,"altim":29.793306,"flightCategory":"VFR","metarType":"METAR","geometry_esri":{"x":53.53,"y":9.83,"z":13}}}