{"type":"Feature","geometry":{"type":"Point","coordinates":[53.53,9.83,13]},"properties":{"stationId":"EDHI","rawText":"EDHI 190150Z AUTO 21015KT 9999 // SCT021/// BKN030/// OVC065/// 06/03 Q1007","observationTime":"2020-02-19T01:50:00Z","temp":6,"dewpoint":3,"windDirection":210,"windSpeed":27.78,"visibility":6.21,"altim":29.734253,"flightCategory":"MVFR","metarType":"METAR","geometry_esri":{"x":53.53,"y":9.83,"z":13}}}