{"type":"Feature","geometry":{"type":"Point","coordinates":[53.53,9.83,13]},"properties":{"stationId":"EDHI","rawText":"EDHI 281620Z 25022KT 8000 -RA SCT012 BKN019 03/01 Q0988","observationTime":"2020-01-28T16:20:00Z","temp":3,"dewpoint":1,"windDirection":250,"windSpeed":40.744,"visibility":4.97,"altim":29.17323,"flightCategory":"MVFR","metarType":"METAR","geometry_esri":{"x":53.53,"y":9.83,"z":13}}}