{"type":"Feature","geometry":{"type":"Point","coordinates":[53.53,9.83,13]},"properties":{"stationId":"EDHI","rawText":"EDHI 240420Z AUTO 02007KT 340V040 9999 // BKN009/// BKN014/// OVC023/// 02/00 Q1020","observationTime":"2018-12-24T04:20:00Z","temp":2,"dewpoint":0,"windDirection":20,"windSpeed":12.964,"visibility":6.21,"altim":30.11811,"flightCategory":"IFR","metarType":"METAR","geometry_esri":{"x":53.53,"y":9.83,"z":13}}}