{"type":"Feature","geometry":{"type":"Point","coordinates":[53.53,9.83,13]},"properties":{"stationId":"EDHI","rawText":"EDHI 101650Z 05011KT 020V080 CAVOK 08/M07 Q1020","observationTime":"2019-04-10T16:50:00Z","temp":8,"dewpoint":-7,"windDirection":50,"windSpeed":20.372,"visibility":6.21,"altim":30.11811,"flightCategory":"VFR","metarType":"METAR","geometry_esri":{"x":53.53,"y":9.83,"z":13}}}