{"type":"Feature","geometry":{"type":"Point","coordinates":[53.53,9.83,13]},"properties":{"stationId":"EDHI","rawText":"EDHI 100650Z 28012KT 9999 FEW045 SCT052 04/01 Q1009","observationTime":"2018-12-10T06:50:00Z","temp":4,"dewpoint":1,"windDirection":280,"windSpeed":22.224,"visibility":6.21,"altim":29.793306,"skyCondition1a":"FEW","skyCondition1b":4500,"skyCondition2a":"SCT","skyCondition2b":5200,"flightCategory":"VFR","metarType":"METAR","geometry_esri":{"x":53.53,"y":9.83,"z":13}}}