{"type":"Feature","geometry":{"type":"Point","coordinates":[53.53,9.83,13]},"properties":{"stationId":"EDHI","rawText":"EDHI 210950Z 26003KT 180V320 CAVOK 17/10 Q1023","observationTime":"2019-09-21T09:50:00Z","temp":17,"dewpoint":10,"windDirection":260,"windSpeed":5.556,"visibility":6.21,"altim":30.206694,"flightCategory":"VFR","metarType":"METAR","geometry_esri":{"x":53.53,"y":9.83,"z":13}}}