{"type":"Feature","geometry":{"type":"Point","coordinates":[53.53,9.83,13]},"properties":{"stationId":"EDHI","rawText":"EDHI 271450Z 20009KT 9999 SCT011 SCT021 BKN041 08/06 Q1004","observationTime":"2020-01-27T14:50:00Z","temp":8,"dewpoint":6,"windDirection":200,"windSpeed":16.668,"visibility":6.21,"altim":29.64567,"flightCategory":"VFR","metarType":"METAR","geometry_esri":{"x":53.53,"y":9.83,"z":13}}}