{"type":"Feature","geometry":{"type":"Point","coordinates":[53.53,9.83,13]},"properties":{"stationId":"EDHI","rawText":"EDHI 281750Z AUTO 16004KT 090V200 9999 // BKN140/// BKN190/// M00/M03 Q1042","observationTime":"2019-12-28T17:50:00Z","temp":0,"dewpoint":-3,"windDirection":160,"windSpeed":7.408,"visibility":6.21,"altim":30.767717,"flightCategory":"VFR","metarType":"METAR","geometry_esri":{"x":53.53,"y":9.83,"z":13}}}