{"type":"Feature","geometry":{"type":"Point","coordinates":[53.53,9.83,13]},"properties":{"stationId":"EDHI","rawText":"EDHI 140550Z AUTO 30006KT 260V320 9999 // FEW009/// SCT012/// OVC030/// 14/12 Q1017","observationTime":"2019-07-14T05:50:00Z","temp":14,"dewpoint":12,"windDirection":300,"windSpeed":11.112,"visibility":6.21,"altim":30.029528,"flightCategory":"MVFR","metarType":"METAR","geometry_esri":{"x":53.53,"y":9.83,"z":13}}}