{"type":"Feature","geometry":{"type":"Point","coordinates":[53.53,9.83,13]},"properties":{"stationId":"EDHI","rawText":"EDHI 070920Z 09005KT 050V120 3800 BR OVC003 05/05 Q1002","observationTime":"2019-11-07T09:20:00Z","temp":5,"dewpoint":5,"windDirection":90,"windSpeed":9.26,"visibility":2.36,"altim":29.586615,"flightCategory":"LIFR","metarType":"METAR","geometry_esri":{"x":53.53,"y":9.83,"z":13}}}