{"type":"Feature","geometry":{"type":"Point","coordinates":[53.53,9.83,13]},"properties":{"stationId":"EDHI","rawText":"EDHI 270950Z AUTO 10009G20KT 060V140 9999 // FEW048/// 26/13 Q1008","observationTime":"2019-07-27T09:50:00Z","temp":26,"dewpoint":13,"windDirection":100,"windSpeed":16.668,"visibility":6.21,"altim":29.763779,"flightCategory":"VFR","metarType":"METAR","geometry_esri":{"x":53.53,"y":9.83,"z":13}}}