{"type":"Feature","geometry":{"type":"Point","coordinates":[53.53,9.83,13]},"properties":{"stationId":"EDHI","rawText":"EDHI 170350Z AUTO 09003KT 060V150 4600 // SCT003/// BKN200/// 06/05 Q1001","observationTime":"2019-12-17T03:50:00Z","temp":6,"dewpoint":5,"windDirection":90,"windSpeed":5.556,"visibility":2.86,"altim":29.557087,"flightCategory":"IFR","metarType":"METAR","geometry_esri":{"x":53.53,"y":9.83,"z":13}}}