{"type":"Feature","geometry":{"type":"Point","coordinates":[53.53,9.83,13]},"properties":{"stationId":"EDHI","rawText":"EDHI 141220Z AUTO 29006KT 250V360 9999 // SCT041/// 18/07 Q1033","observationTime":"2019-09-14T12:20:00Z","temp":18,"dewpoint":7,"windDirection":290,"windSpeed":11.112,"visibility":6.21,"altim":30.501968,"flightCategory":"VFR","metarType":"METAR","geometry_esri":{"x":53.53,"y":9.83,"z":13}}}