{"type":"Feature","geometry":{"type":"Point","coordinates":[53.53,9.83,13]},"properties":{"stationId":"EDHI","rawText":"EDHI 141920Z AUTO 29019KT 9999 // FEW011/// SCT013/// OVC038/// 07/05 Q0992","observationTime":"2019-03-14T19:20:00Z","temp":7,"dewpoint":5,"windDirection":290,"windSpeed":35.188,"visibility":6.21,"altim":29.291338,"flightCategory":"VFR","metarType":"METAR","geometry_esri":{"x":53.53,"y":9.83,"z":13}}}