{"type":"Feature","geometry":{"type":"Point","coordinates":[53.53,9.83,13]},"properties":{"stationId":"EDHI","rawText":"EDHI 231920Z AUTO 29003KT 270V330 9999 // FEW010/// BKN029/// OVC034/// 05/05 Q1012","observationTime":"2018-12-23T19:20:00Z","temp":5,"dewpoint":5,"windDirection":290,"windSpeed":5.556,"visibility":6.21,"altim":29.88189,"flightCategory":"MVFR","metarType":"METAR","geometry_esri":{"x":53.53,"y":9.83,"z":13}}}