{"type":"Feature","geometry":{"type":"Point","coordinates":[53.53,9.83,13]},"properties":{"stationId":"EDHI","rawText":"EDHI 241250Z 21006KT 1500 -DZ BR OVC003 02/02 Q1021","observationTime":"2020-01-24T12:50:00Z","temp":2,"dewpoint":2,"windDirection":210,"windSpeed":11.112,"visibility":0.93,"altim":30.147638,"flightCategory":"LIFR","metarType":"METAR","geometry_esri":{"x":53.53,"y":9.83,"z":13}}}