{"type":"Feature","geometry":{"type":"Point","coordinates":[53.53,9.83,13]},"properties":{"stationId":"EDHI","rawText":"EDHI 010820Z AUTO 28013KT 9999 // SCT010/// OVC012/// 09/07 Q1015","observationTime":"2019-05-01T08:20:00Z","temp":9,"dewpoint":7,"windDirection":280,"windSpeed":24.076,"visibility":6.21,"altim":29.970472,"flightCategory":"MVFR","metarType":"METAR","geometry_esri":{"x":53.53,"y":9.83,"z":13}}}