{"type":"Feature","geometry":{"type":"Point","coordinates":[53.53,9.83,13]},"properties":{"stationId":"EDHI","rawText":"EDHI 030250Z AUTO 29009KT 4600 // FEW012/// OVC041/// 01/M00 Q1009","observationTime":"2019-02-03T02:50:00Z","temp":1,"dewpoint":0,"windDirection":290,"windSpeed":16.668,"visibility":2.86,"altim":29.793306,"flightCategory":"IFR","metarType":"METAR","geometry_esri":{"x":53.53,"y":9.83,"z":13}}}