{"type":"Feature","geometry":{"type":"Point","coordinates":[53.53,9.83,13]},"properties":{"stationId":"EDHI","rawText":"EDHI 280020Z AUTO 25011KT 9999 // FEW020/// BKN027/// BKN034/// 08/06 Q1017","observationTime":"2019-10-28T00:20:00Z","temp":8,"dewpoint":6,"windDirection":250,"windSpeed":20.372,"visibility":6.21,"altim":30.029528,"flightCategory":"MVFR","metarType":"METAR","geometry_esri":{"x":53.53,"y":9.83,"z":13}}}