{"type":"Feature","geometry":{"type":"Point","coordinates":[53.53,9.83,13]},"properties":{"stationId":"EDHI","rawText":"EDHI 211450Z 10005KT 050V150 CAVOK 21/11 Q1019","observationTime":"2019-09-21T14:50:00Z","temp":21,"dewpoint":11,"windDirection":100,"windSpeed":9.26,"visibility":6.21,"altim":30.088583,"flightCategory":"VFR","metarType":"METAR","geometry_esri":{"x":53.53,"y":9.83,"z":13}}}