{"type":"Feature","geometry":{"type":"Point","coordinates":[53.53,9.83,13]},"properties":{"stationId":"EDHI","rawText":"EDHI 170620Z 35004KT 310V040 9999 OVC017 14/10 Q1015","observationTime":"2019-07-17T06:20:00Z","temp":14,"dewpoint":10,"windDirection":350,"windSpeed":7.408,"visibility":6.21,"altim":29.970472,"flightCategory":"MVFR","metarType":"METAR","geometry_esri":{"x":53.53,"y":9.83,"z":13}}}