{"type":"Feature","geometry":{"type":"Point","coordinates":[53.53,9.83,13]},"properties":{"stationId":"EDHI","rawText":"EDHI 231850Z AUTO 14005KT 110V170 9999 // FEW190/// 04/M04 Q1039","observationTime":"2019-02-23T18:50:00Z","temp":4,"dewpoint":-4,"windDirection":140,"windSpeed":9.26,"visibility":6.21,"altim":30.679134,"flightCategory":"VFR","metarType":"METAR","geometry_esri":{"x":53.53,"y":9.83,"z":13}}}