{"type":"Feature","geometry":{"type":"Point","coordinates":[53.53,9.83,13]},"properties":{"stationId":"EDHI","rawText":"EDHI 110920Z 02014KT 9999 SCT034 10/M01 Q1011","observationTime":"2020-05-11T09:20:00Z","temp":10,"dewpoint":-1,"windDirection":20,"windSpeed":25.928,"visibility":6.21,"altim":29.852362,"flightCategory":"VFR","metarType":"METAR","geometry_esri":{"x":53.53,"y":9.83,"z":13}}}