{"type":"Feature","geometry":{"type":"Point","coordinates":[53.53,9.83,13]},"properties":{"stationId":"EDHI","rawText":"EDHI 300050Z AUTO 24002KT 4300 // NCD 16/15 Q1021","observationTime":"2019-08-30T00:50:00Z","temp":16,"dewpoint":15,"windDirection":240,"windSpeed":3.704,"visibility":2.67,"altim":30.147638,"flightCategory":"IFR","metarType":"METAR","geometry_esri":{"x":53.53,"y":9.83,"z":13}}}