{"type":"Feature","geometry":{"type":"Point","coordinates":[53.53,9.83,13]},"properties":{"stationId":"EDHI","rawText":"EDHI 021550Z 24009KT 9999 VCSH FEW030CB SCT046 09/07 Q1007","observationTime":"2019-10-02T15:50:00Z","temp":9,"dewpoint":7,"windDirection":240,"windSpeed":16.668,"visibility":6.21,"altim":29.734253,"flightCategory":"VFR","metarType":"METAR","geometry_esri":{"x":53.53,"y":9.83,"z":13}}}