{"type":"Feature","geometry":{"type":"Point","coordinates":[53.53,9.83,13]},"properties":{"stationId":"EDHI","rawText":"EDHI 210120Z AUTO 06009KT 9999 3900 // OVC006/// 11/11 Q1012","observationTime":"2019-10-21T01:20:00Z","temp":11,"dewpoint":11,"windDirection":60,"windSpeed":16.668,"visibility":6.21,"altim":29.88189,"flightCategory":"IFR","metarType":"METAR","geometry_esri":{"x":53.53,"y":9.83,"z":13}}}