{"type":"Feature","geometry":{"type":"Point","coordinates":[53.53,9.83,13]},"properties":{"stationId":"EDHI","rawText":"EDHI 271750Z AUTO 18004KT 130V220 9999 // FEW088/// BKN160/// 15/12 Q1006","observationTime":"2019-09-27T17:50:00Z","temp":15,"dewpoint":12,"windDirection":180,"windSpeed":7.408,"visibility":6.21,"altim":29.704725,"flightCategory":"VFR","metarType":"METAR","geometry_esri":{"x":53.53,"y":9.83,"z":13}}}