{"type":"Feature","geometry":{"type":"Point","coordinates":[53.53,9.83,13]},"properties":{"stationId":"EDHI","rawText":"EDHI 041450Z 34005KT 300V360 9999 BKN019 BKN022 11/07 Q1000","observationTime":"2019-04-04T14:50:00Z","temp":11,"dewpoint":7,"windDirection":340,"windSpeed":9.26,"visibility":6.21,"altim":29.52756,"flightCategory":"MVFR","metarType":"METAR","geometry_esri":{"x":53.53,"y":9.83,"z":13}}}