{"type":"Feature","geometry":{"type":"Point","coordinates":[53.53,9.83,13]},"properties":{"stationId":"EDHI","rawText":"EDHI 280820Z 26008KT 0800 R05/1000D FG BKN002 07/06 Q1024","observationTime":"2018-12-28T08:20:00Z","temp":7,"dewpoint":6,"windDirection":260,"windSpeed":14.816,"visibility":0.5,"altim":30.236221,"flightCategory":"LIFR","metarType":"METAR","geometry_esri":{"x":53.53,"y":9.83,"z":13}}}