{"type":"Feature","geometry":{"type":"Point","coordinates":[53.53,9.83,13]},"properties":{"stationId":"EDHI","rawText":"EDHI 170420Z AUTO 12003KT 090V160 2800 1200 R23/P2000N // FEW001/// SCT004/// BKN140/// 06/06 Q1001","observationTime":"2019-12-17T04:20:00Z","temp":6,"dewpoint":6,"windDirection":120,"windSpeed":5.556,"visibility":1.74,"altim":29.557087,"flightCategory":"IFR","metarType":"METAR","geometry_esri":{"x":53.53,"y":9.83,"z":13}}}