{"type":"Feature","geometry":{"type":"Point","coordinates":[53.53,9.83,13]},"properties":{"stationId":"EDHI","rawText":"EDHI 091920Z AUTO 27021KT 3800 // FEW014/// SCT022/// BKN027/// 05/02 Q1004","observationTime":"2019-03-09T19:20:00Z","temp":5,"dewpoint":2,"windDirection":270,"windSpeed":38.892,"visibility":2.36,"altim":29.64567,"flightCategory":"IFR","metarType":"METAR","geometry_esri":{"x":53.53,"y":9.83,"z":13}}}