{"type":"Feature","geometry":{"type":"Point","coordinates":[53.53,9.83,13]},"properties":{"stationId":"EDHI","rawText":"EDHI 290520Z AUTO 20011KT 160V230 9999 1900 // BKN007/// OVC015/// 05/05 Q0994","observationTime":"2020-02-29T05:20:00Z","temp":5,"dewpoint":5,"windDirection":200,"windSpeed":20.372,"visibility":6.21,"altim":29.350393,"flightCategory":"IFR","metarType":"METAR","geometry_esri":{"x":53.53,"y":9.83,"z":13}}}