{"type":"Feature","geometry":{"type":"Point","coordinates":[53.53,9.83,13]},"properties":{"stationId":"EDHI","rawText":"EDHI 011020Z 09009KT 060V140 9000 FEW013 M00/M03 Q0994","observationTime":"2019-02-01T10:20:00Z","temp":0,"dewpoint":-3,"windDirection":90,"windSpeed":16.668,"visibility":5.59,"altim":29.350393,"flightCategory":"VFR","metarType":"METAR","geometry_esri":{"x":53.53,"y":9.83,"z":13}}}