{"type":"Feature","geometry":{"type":"Point","coordinates":[53.53,9.83,13]},"properties":{"stationId":"EDHI","rawText":"EDHI 041520Z 30010KT 6000 -DZ BKN005 06/05 Q1026","observationTime":"2019-01-04T15:20:00Z","temp":6,"dewpoint":5,"windDirection":300,"windSpeed":18.52,"visibility":3.73,"altim":30.295275,"flightCategory":"IFR","metarType":"METAR","geometry_esri":{"x":53.53,"y":9.83,"z":13}}}