{"type":"Feature","geometry":{"type":"Point","coordinates":[53.53,9.83,13]},"properties":{"stationId":"EDHI","rawText":"EDHI 301120Z AUTO 24006KT 180V270 9999 // FEW055/// 16/07 Q1020","observationTime":"2019-03-30T11:20:00Z","temp":16,"dewpoint":7,"windDirection":240,"windSpeed":11.112,"visibility":6.21,"altim":30.11811,"flightCategory":"VFR","metarType":"METAR","geometry_esri":{"x":53.53,"y":9.83,"z":13}}}