{"type":"Feature","geometry":{"type":"Point","coordinates":[53.53,9.83,13]},"properties":{"stationId":"EDHI","rawText":"EDHI 070850Z 27006KT CAVOK 11/08 Q1032","observationTime":"2020-04-07T08:50:00Z","temp":11,"dewpoint":8,"windDirection":270,"windSpeed":11.112,"visibility":6.21,"altim":30.47244,"flightCategory":"VFR","metarType":"METAR","geometry_esri":{"x":53.53,"y":9.83,"z":13}}}