{"type":"Feature","geometry":{"type":"Point","coordinates":[53.53,9.83,13]},"properties":{"stationId":"EDHI","rawText":"EDHI 210450Z 24004KT 210V270 8000 MIFG FEW002 11/11 Q1026","observationTime":"2019-08-21T04:50:00Z","temp":11,"dewpoint":11,"windDirection":240,"windSpeed":7.408,"visibility":4.97,"altim":30.295275,"flightCategory":"MVFR","metarType":"METAR","geometry_esri":{"x":53.53,"y":9.83,"z":13}}}