{"type":"Feature","geometry":{"type":"Point","coordinates":[53.53,9.83,13]},"properties":{"stationId":"EDHI","rawText":"EDHI 251620Z 20006KT 140V220 8000 FEW022 M04/M08 Q1012","observationTime":"2019-01-25T16:20:00Z","temp":-4,"dewpoint":-8,"windDirection":200,"windSpeed":11.112,"visibility":4.97,"altim":29.88189,"flightCategory":"MVFR","metarType":"METAR","geometry_esri":{"x":53.53,"y":9.83,"z":13}}}