{"type":"Feature","geometry":{"type":"Point","coordinates":[53.53,9.83,13]},"properties":{"stationId":"EDHI","rawText":"EDHI 291150Z 04006KT 360V080 9999 FEW027 10/03 Q1026","observationTime":"2019-10-29T11:50:00Z","temp":10,"dewpoint":3,"windDirection":40,"windSpeed":11.112,"visibility":6.21,"altim":30.295275,"flightCategory":"VFR","metarType":"METAR","geometry_esri":{"x":53.53,"y":9.83,"z":13}}}