{"type":"Feature","geometry":{"type":"Point","coordinates":[53.53,9.83,13]},"properties":{"stationId":"EDHI","rawText":"EDHI 071020Z 12007KT 090V170 7000 SCT004 OVC006 05/05 Q1001","observationTime":"2019-11-07T10:20:00Z","temp":5,"dewpoint":5,"windDirection":120,"windSpeed":12.964,"visibility":4.35,"altim":29.557087,"flightCategory":"IFR","metarType":"METAR","geometry_esri":{"x":53.53,"y":9.83,"z":13}}}