{"type":"Feature","geometry":{"type":"Point","coordinates":[53.53,9.83,13]},"properties":{"stationId":"EDHI","rawText":"EDHI 052220Z AUTO 14003KT 5000 // BKN014/// 08/06 Q1008","observationTime":"2019-04-05T22:20:00Z","temp":8,"dewpoint":6,"windDirection":140,"windSpeed":5.556,"visibility":3.11,"altim":29.763779,"flightCategory":"MVFR","metarType":"METAR","geometry_esri":{"x":53.53,"y":9.83,"z":13}}}