{"type":"Feature","geometry":{"type":"Point","coordinates":[53.53,9.83,13]},"properties":{"stationId":"EDHI","rawText":"EDHI 141950Z AUTO 28015KT 9999 // FEW016/// BKN032/// OVC038/// 07/05 Q0992","observationTime":"2019-03-14T19:50:00Z","temp":7,"dewpoint":5,"windDirection":280,"windSpeed":27.78,"visibility":6.21,"altim":29.291338,"flightCategory":"VFR","metarType":"METAR","geometry_esri":{"x":53.53,"y":9.83,"z":13}}}