{"type":"Feature","geometry":{"type":"Point","coordinates":[53.53,9.83,13]},"properties":{"stationId":"EDHI","rawText":"EDHI 140820Z 20018KT 9999 -RA SCT029 BKN042 09/07 Q1003","observationTime":"2020-01-14T08:20:00Z","temp":9,"dewpoint":7,"windDirection":200,"windSpeed":33.336,"visibility":6.21,"altim":29.616142,"flightCategory":"VFR","metarType":"METAR","geometry_esri":{"x":53.53,"y":9.83,"z":13}}}