{"type":"Feature","geometry":{"type":"Point","coordinates":[53.53,9.83,13]},"properties":{"stationId":"EDHI","rawText":"EDHI 020350Z AUTO 23007KT 180V250 1900 // BKN001/// OVC005/// M02/M02 Q1027","observationTime":"2020-01-02T03:50:00Z","temp":-2,"dewpoint":-2,"windDirection":230,"windSpeed":12.964,"visibility":1.18,"altim":30.324802,"flightCategory":"LIFR","metarType":"METAR","geometry_esri":{"x":53.53,"y":9.83,"z":13}}}