{"type":"Feature","geometry":{"type":"Point","coordinates":[53.53,9.83,13]},"properties":{"stationId":"EDHI","rawText":"EDHI 201720Z AUTO 03007KT 9999 // NCD 17/M05 Q1029","observationTime":"2019-04-20T17:20:00Z","temp":17,"dewpoint":-5,"windDirection":30,"windSpeed":12.964,"visibility":6.21,"altim":30.383858,"flightCategory":"VFR","metarType":"METAR","geometry_esri":{"x":53.53,"y":9.83,"z":13}}}