{"type":"Feature","geometry":{"type":"Point","coordinates":[53.53,9.83,13]},"properties":{"stationId":"EDHI","rawText":"EDHI 301320Z 10012KT 070V140 CAVOK 02/M03 Q0995","observationTime":"2019-01-30T13:20:00Z","temp":2,"dewpoint":-3,"windDirection":100,"windSpeed":22.224,"visibility":6.21,"altim":29.379921,"flightCategory":"VFR","metarType":"METAR","geometry_esri":{"x":53.53,"y":9.83,"z":13}}}