{"type":"Feature","geometry":{"type":"Point","coordinates":[53.53,9.83,13]},"properties":{"stationId":"EDHI","rawText":"EDHI 260720Z 11004KT 070V160 7000 OVC006 12/12 Q1008","observationTime":"2019-09-26T07:20:00Z","temp":12,"dewpoint":12,"windDirection":110,"windSpeed":7.408,"visibility":4.35,"altim":29.763779,"flightCategory":"IFR","metarType":"METAR","geometry_esri":{"x":53.53,"y":9.83,"z":13}}}