{"type":"Feature","geometry":{"type":"Point","coordinates":[53.53,9.83,13]},"properties":{"stationId":"EDHI","rawText":"EDHI 050750Z AUTO 25005KT 200V290 9999 // FEW042/// 08/02 Q1016","observationTime":"2019-05-05T07:50:00Z","temp":8,"dewpoint":2,"windDirection":250,"windSpeed":9.26,"visibility":6.21,"altim":30,"flightCategory":"VFR","metarType":"METAR","geometry_esri":{"x":53.53,"y":9.83,"z":13}}}