{"type":"Feature","geometry":{"type":"Point","coordinates":[53.53,9.83,13]},"properties":{"stationId":"EDHI","rawText":"EDHI 280350Z AUTO 28003KT 9000 // NCD 02/M01 Q1023","observationTime":"2020-03-28T03:50:00Z","temp":2,"dewpoint":-1,"windDirection":280,"windSpeed":5.556,"visibility":5.59,"altim":30.206694,"flightCategory":"VFR","metarType":"METAR","geometry_esri":{"x":53.53,"y":9.83,"z":13}}}