{"type":"Feature","geometry":{"type":"Point","coordinates":[53.53,9.83,13]},"properties":{"stationId":"EDHI","rawText":"EDHI 051150Z 24014KT 9000 FEW009 BKN026 04/02 Q1024","observationTime":"2019-02-05T11:50:00Z","temp":4,"dewpoint":2,"windDirection":240,"windSpeed":25.928,"visibility":5.59,"altim":30.236221,"flightCategory":"MVFR","metarType":"METAR","geometry_esri":{"x":53.53,"y":9.83,"z":13}}}