{"type":"Feature","geometry":{"type":"Point","coordinates":[53.53,9.83,13]},"properties":{"stationId":"EDHI","rawText":"EDHI 040850Z 23008KT 3600 BR SCT008 BKN017 05/03 Q1022","observationTime":"2019-12-04T08:50:00Z","temp":5,"dewpoint":3,"windDirection":230,"windSpeed":14.816,"visibility":2.24,"altim":30.177166,"flightCategory":"IFR","metarType":"METAR","geometry_esri":{"x":53.53,"y":9.83,"z":13}}}