{"type":"Feature","geometry":{"type":"Point","coordinates":[53.53,9.83,13]},"properties":{"stationId":"EDHI","rawText":"EDHI 231320Z AUTO 10008KT 040V160 9999 // NCD 25/12 Q1022","observationTime":"2019-06-23T13:20:00Z","temp":25,"dewpoint":12,"windDirection":100,"windSpeed":14.816,"visibility":6.21,"altim":30.177166,"flightCategory":"VFR","metarType":"METAR","geometry_esri":{"x":53.53,"y":9.83,"z":13}}}