{"type":"Feature","geometry":{"type":"Point","coordinates":[53.53,9.83,13]},"properties":{"stationId":"EDHI","rawText":"EDHI 301450Z 27011KT 230V300 CAVOK 17/05 Q1018","observationTime":"2019-03-30T14:50:00Z","temp":17,"dewpoint":5,"windDirection":270,"windSpeed":20.372,"visibility":6.21,"altim":30.059055,"flightCategory":"VFR","metarType":"METAR","geometry_esri":{"x":53.53,"y":9.83,"z":13}}}