{"type":"Feature","geometry":{"type":"Point","coordinates":[53.53,9.83,13]},"properties":{"stationId":"EDHI","rawText":"EDHI 070650Z AUTO 28016KT 9999 R/////// // FEW042/// OVC048/// 14/07 Q1010","observationTime":"2019-07-07T06:50:00Z","temp":14,"dewpoint":7,"windDirection":280,"windSpeed":29.632,"visibility":6.21,"altim":29.822834,"flightCategory":"VFR","metarType":"METAR","geometry_esri":{"x":53.53,"y":9.83,"z":13}}}