{"type":"Feature","geometry":{"type":"Point","coordinates":[53.53,9.83,13]},"properties":{"stationId":"EDHI","rawText":"EDHI 281120Z 31008KT 280V340 9999 FEW015 SCT022 BKN028 08/05 Q1025","observationTime":"2018-12-28T11:20:00Z","temp":8,"dewpoint":5,"windDirection":310,"windSpeed":14.816,"visibility":6.21,"altim":30.265747,"flightCategory":"MVFR","metarType":"METAR","geometry_esri":{"x":53.53,"y":9.83,"z":13}}}