{"type":"Feature","geometry":{"type":"Point","coordinates":[53.53,9.83,13]},"properties":{"stationId":"EDHI","rawText":"EDHI 230220Z AUTO 25014KT //// R23/P2000N // FEW036/// BKN048/// OVC140/// 07/01 Q1012","observationTime":"2020-02-23T02:20:00Z","temp":7,"dewpoint":1,"windDirection":250,"windSpeed":25.928,"visibility":1.24,"altim":29.88189,"flightCategory":"IFR","metarType":"METAR","geometry_esri":{"x":53.53,"y":9.83,"z":13}}}