{"type":"Feature","geometry":{"type":"Point","coordinates":[53.53,9.83,13]},"properties":{"stationId":"EDHI","rawText":"EDHI 080520Z AUTO 22016G28KT 190V250 9999 // OVC024/// 09/05 Q0999","observationTime":"2019-12-08T05:20:00Z","temp":9,"dewpoint":5,"windDirection":220,"windSpeed":29.632,"visibility":6.21,"altim":29.498032,"flightCategory":"MVFR","metarType":"METAR","geometry_esri":{"x":53.53,"y":9.83,"z":13}}}