{"type":"Feature","geometry":{"type":"Point","coordinates":[53.53,9.83,13]},"properties":{"stationId":"EDHI","rawText":"EDHI 081520Z 27010KT 4700 -RADZ BR BKN006 OVC015 10/09 Q1019","observationTime":"2020-01-08T15:20:00Z","temp":10,"dewpoint":9,"windDirection":270,"windSpeed":18.52,"visibility":2.92,"altim":30.088583,"flightCategory":"IFR","metarType":"METAR","geometry_esri":{"x":53.53,"y":9.83,"z":13}}}