{"type":"Feature","geometry":{"type":"Point","coordinates":[53.53,9.83,13]},"properties":{"stationId":"EDHI","rawText":"EDHI 121450Z 28007KT 9999 SCT048 BKN068 07/01 Q1030","observationTime":"2019-02-12T14:50:00Z","temp":7,"dewpoint":1,"windDirection":280,"windSpeed":12.964,"visibility":6.21,"altim":30.413385,"flightCategory":"VFR","metarType":"METAR","geometry_esri":{"x":53.53,"y":9.83,"z":13}}}