{"type":"Feature","geometry":{"type":"Point","coordinates":[53.53,9.83,13]},"properties":{"stationId":"EDHI","rawText":"EDHI 081120Z 30023KT 270V330 9999 SCT019 SCT039 07/04 Q1000","observationTime":"2019-01-08T11:20:00Z","temp":7,"dewpoint":4,"windDirection":300,"windSpeed":42.596000000000004,"visibility":6.21,"altim":29.52756,"flightCategory":"VFR","metarType":"METAR","geometry_esri":{"x":53.53,"y":9.83,"z":13}}}