{"type":"Feature","geometry":{"type":"Point","coordinates":[53.53,9.83,13]},"properties":{"stationId":"EDHI","rawText":"EDHI 071050Z 23026G39KT 9999 BKN029 10/05 Q0989","observationTime":"2019-03-07T10:50:00Z","temp":10,"dewpoint":5,"windDirection":230,"windSpeed":48.152,"visibility":6.21,"altim":29.202755,"flightCategory":"MVFR","metarType":"METAR","geometry_esri":{"x":53.53,"y":9.83,"z":13}}}