{"type":"Feature","geometry":{"type":"Point","coordinates":[53.53,9.83,13]},"properties":{"stationId":"EDHI","rawText":"EDHI 041150Z 22027G43KT 190V270 6000 SHRA FEW021 SCT029 BKN036 09/05 Q0983","observationTime":"2019-03-04T11:50:00Z","temp":9,"dewpoint":5,"windDirection":220,"windSpeed":50.004000000000005,"visibility":3.73,"altim":29.02559,"flightCategory":"MVFR","metarType":"METAR","geometry_esri":{"x":53.53,"y":9.83,"z":13}}}