{"type":"Feature","geometry":{"type":"Point","coordinates":[53.53,9.83,13]},"properties":{"stationId":"EDHI","rawText":"EDHI 160420Z 29010KT 260V320 9999 -DZ SCT005 BKN011 OVC013 14/13 Q1014","observationTime":"2019-07-16T04:20:00Z","temp":14,"dewpoint":13,"windDirection":290,"windSpeed":18.52,"visibility":6.21,"altim":29.940945,"flightCategory":"MVFR","metarType":"METAR","geometry_esri":{"x":53.53,"y":9.83,"z":13}}}