{"type":"Feature","geometry":{"type":"Point","coordinates":[53.53,9.83,13]},"properties":{"stationId":"EDHI","rawText":"EDHI 011250Z AUTO 31010KT 9999 // FEW034/// SCT064/// BKN200/// 19/10 Q1012","observationTime":"2019-09-01T12:50:00Z","temp":19,"dewpoint":10,"windDirection":310,"windSpeed":18.52,"visibility":6.21,"altim":29.88189,"flightCategory":"VFR","metarType":"METAR","geometry_esri":{"x":53.53,"y":9.83,"z":13}}}