{"type":"Feature","geometry":{"type":"Point","coordinates":[53.53,9.83,13]},"properties":{"stationId":"EDHI","rawText":"EDHI 100450Z AUTO 25014KT 9999 3500 // SCT019/// BKN024/// OVC170/// 05/03 Q1004","observationTime":"2019-03-10T04:50:00Z","temp":5,"dewpoint":3,"windDirection":250,"windSpeed":25.928,"visibility":6.21,"altim":29.64567,"flightCategory":"MVFR","metarType":"METAR","geometry_esri":{"x":53.53,"y":9.83,"z":13}}}