{"type":"Feature","geometry":{"type":"Point","coordinates":[53.53,9.83,13]},"properties":{"stationId":"EDHI","rawText":"EDHI 310720Z VRB01KT 0900 R05/P2000N -DZ FG OVC002 06/06 Q1030","observationTime":"2018-12-31T07:20:00Z","temp":6,"dewpoint":6,"windDirection":0,"windSpeed":1.852,"visibility":0.56,"altim":30.413385,"flightCategory":"LIFR","metarType":"METAR","geometry_esri":{"x":53.53,"y":9.83,"z":13}}}