{"type":"Feature","geometry":{"type":"Point","coordinates":[53.53,9.83,13]},"properties":{"stationId":"EDHI","rawText":"EDHI 022020Z AUTO 30007KT 280V340 3900 // BKN013/// BKN016/// OVC020/// 01/M00 Q1004","observationTime":"2019-02-02T20:20:00Z","temp":1,"dewpoint":0,"windDirection":300,"windSpeed":12.964,"visibility":2.42,"altim":29.64567,"flightCategory":"IFR","metarType":"SPECI","geometry_esri":{"x":53.53,"y":9.83,"z":13}}}