{"type":"Feature","geometry":{"type":"Point","coordinates":[53.53,9.83,13]},"properties":{"stationId":"EDHI","rawText":"EDHI 162320Z AUTO 12003KT 090V150 9999 // NCD 05/04 Q1021","observationTime":"2020-01-16T23:20:00Z","temp":5,"dewpoint":4,"windDirection":120,"windSpeed":5.556,"visibility":6.21,"altim":30.147638,"flightCategory":"VFR","metarType":"METAR","geometry_esri":{"x":53.53,"y":9.83,"z":13}}}