{"type":"Feature","geometry":{"type":"Point","coordinates":[53.53,9.83,13]},"properties":{"stationId":"EDHI","rawText":"EDHI 071950Z AUTO 08005KT 9999 // NCD 14/03 Q1009","observationTime":"2019-04-07T19:50:00Z","temp":14,"dewpoint":3,"windDirection":80,"windSpeed":9.26,"visibility":6.21,"altim":29.793306,"flightCategory":"VFR","metarType":"METAR","geometry_esri":{"x":53.53,"y":9.83,"z":13}}}