{"type":"Feature","geometry":{"type":"Point","coordinates":[53.53,9.83,13]},"properties":{"stationId":"EDHI","rawText":"EDHI 112320Z AUTO 24023G34KT 4200 2000 // OVC012/// 03/01 Q0999","observationTime":"2020-02-11T23:20:00Z","temp":3,"dewpoint":1,"windDirection":240,"windSpeed":42.596000000000004,"visibility":2.61,"altim":29.498032,"flightCategory":"IFR","metarType":"METAR","geometry_esri":{"x":53.53,"y":9.83,"z":13}}}