{"type":"Feature","geometry":{"type":"Point","coordinates":[53.53,9.83,13]},"properties":{"stationId":"EDHI","rawText":"EDHI 092250Z AUTO VRB02KT 9000 2600 // NCD 13/08 Q1010","observationTime":"2020-05-09T22:50:00Z","temp":13,"dewpoint":8,"windDirection":0,"windSpeed":3.704,"visibility":5.59,"altim":29.822834,"flightCategory":"VFR","metarType":"METAR","geometry_esri":{"x":53.53,"y":9.83,"z":13}}}