{"type":"Feature","geometry":{"type":"Point","coordinates":[53.53,9.83,13]},"properties":{"stationId":"EDHI","rawText":"EDHI 081450Z AUTO VRB04KT 9999 // SCT042/// SCT097/// 20/10 Q1017","observationTime":"2019-09-08T14:50:00Z","temp":20,"dewpoint":10,"windDirection":0,"windSpeed":7.408,"visibility":6.21,"altim":30.029528,"flightCategory":"VFR","metarType":"METAR","geometry_esri":{"x":53.53,"y":9.83,"z":13}}}