{"type":"Feature","geometry":{"type":"Point","coordinates":[53.53,9.83,13]},"properties":{"stationId":"EDHI","rawText":"EDHI 050450Z AUTO 21005KT 9999 // NCD 00/M01 Q1015","observationTime":"2019-05-05T04:50:00Z","temp":0,"dewpoint":-1,"windDirection":210,"windSpeed":9.26,"visibility":6.21,"altim":29.970472,"flightCategory":"VFR","metarType":"METAR","geometry_esri":{"x":53.53,"y":9.83,"z":13}}}