{"type":"Feature","geometry":{"type":"Point","coordinates":[53.53,9.83,13]},"properties":{"stationId":"EDHI","rawText":"EDHI 281420Z 30004KT 8000 BKN008 03/02 Q0990","observationTime":"2019-01-28T14:20:00Z","temp":3,"dewpoint":2,"windDirection":300,"windSpeed":7.408,"visibility":4.97,"altim":29.232283,"flightCategory":"IFR","metarType":"METAR","geometry_esri":{"x":53.53,"y":9.83,"z":13}}}