{"type":"Feature","geometry":{"type":"Point","coordinates":[53.53,9.83,13]},"properties":{"stationId":"EDHI","rawText":"EDHI 201220Z 09012KT 060V150 CAVOK 15/M03 Q1026","observationTime":"2020-04-20T12:20:00Z","temp":15,"dewpoint":-3,"windDirection":90,"windSpeed":22.224,"visibility":6.21,"altim":30.295275,"flightCategory":"VFR","metarType":"METAR","geometry_esri":{"x":53.53,"y":9.83,"z":13}}}