{"type":"Feature","geometry":{"type":"Point","coordinates":[53.53,9.83,13]},"properties":{"stationId":"EDHI","rawText":"EDHI 020020Z AUTO 11006KT 020V160 9999 // NCD 05/M04 Q1017","observationTime":"2019-04-02T00:20:00Z","temp":5,"dewpoint":-4,"windDirection":110,"windSpeed":11.112,"visibility":6.21,"altim":30.029528,"flightCategory":"VFR","metarType":"METAR","geometry_esri":{"x":53.53,"y":9.83,"z":13}}}