{"type":"Feature","geometry":{"type":"Point","coordinates":[53.53,9.83,13]},"properties":{"stationId":"EDHI","rawText":"EDHI 110720Z 35012KT 320V020 CAVOK 07/02 Q1010","observationTime":"2020-05-11T07:20:00Z","temp":7,"dewpoint":2,"windDirection":350,"windSpeed":22.224,"visibility":6.21,"altim":29.822834,"flightCategory":"VFR","metarType":"METAR","geometry_esri":{"x":53.53,"y":9.83,"z":13}}}