{"type":"Feature","geometry":{"type":"Point","coordinates":[53.53,9.83,13]},"properties":{"stationId":"EDHI","rawText":"EDHI 080650Z 22010KT 4000 -RA FEW007 BKN014 11/10 Q1003","observationTime":"2019-10-08T06:50:00Z","temp":11,"dewpoint":10,"windDirection":220,"windSpeed":18.52,"visibility":2.49,"altim":29.616142,"flightCategory":"IFR","metarType":"METAR","geometry_esri":{"x":53.53,"y":9.83,"z":13}}}