{"type":"Feature","geometry":{"type":"Point","coordinates":[53.53,9.83,13]},"properties":{"stationId":"EDHI","rawText":"EDHI 181320Z 21005KT 180V240 5000 BR FEW005 OVC006 07/06 Q1003","observationTime":"2019-11-18T13:20:00Z","temp":7,"dewpoint":6,"windDirection":210,"windSpeed":9.26,"visibility":3.11,"altim":29.616142,"flightCategory":"IFR","metarType":"METAR","geometry_esri":{"x":53.53,"y":9.83,"z":13}}}