{"type":"Feature","geometry":{"type":"Point","coordinates":[53.53,9.83,13]},"properties":{"stationId":"EDHI","rawText":"EDHI 210420Z AUTO 04012KT 9999 // BKN038/// 02/M03 Q1031","observationTime":"2020-03-21T04:20:00Z","temp":2,"dewpoint":-3,"windDirection":40,"windSpeed":22.224,"visibility":6.21,"altim":30.442913,"flightCategory":"VFR","metarType":"SPECI","geometry_esri":{"x":53.53,"y":9.83,"z":13}}}