{"type":"Feature","geometry":{"type":"Point","coordinates":[53.53,9.83,13]},"properties":{"stationId":"EDHI","rawText":"EDHI 291820Z AUTO 22012KT 8000 2500 // OVC008/// 15/14 Q0992","observationTime":"2019-09-29T18:20:00Z","temp":15,"dewpoint":14,"windDirection":220,"windSpeed":22.224,"visibility":4.97,"altim":29.291338,"flightCategory":"IFR","metarType":"METAR","geometry_esri":{"x":53.53,"y":9.83,"z":13}}}