{"type":"Feature","geometry":{"type":"Point","coordinates":[53.53,9.83,13]},"properties":{"stationId":"EDHI","rawText":"EDHI 150420Z AUTO 28010KT 9999 // SCT012/// BKN016/// OVC022/// 06/04 Q0998","observationTime":"2019-03-15T04:20:00Z","temp":6,"dewpoint":4,"windDirection":280,"windSpeed":18.52,"visibility":6.21,"altim":29.468504,"flightCategory":"MVFR","metarType":"METAR","geometry_esri":{"x":53.53,"y":9.83,"z":13}}}