{"type":"Feature","geometry":{"type":"Point","coordinates":[53.53,9.83,13]},"properties":{"stationId":"EDHI","rawText":"EDHI 070850Z 26009KT 2200 -DZ BR OVC004 06/05 Q1027","observationTime":"2019-01-07T08:50:00Z","temp":6,"dewpoint":5,"windDirection":260,"windSpeed":16.668,"visibility":1.37,"altim":30.324802,"flightCategory":"LIFR","metarType":"METAR","geometry_esri":{"x":53.53,"y":9.83,"z":13}}}