{"type":"Feature","geometry":{"type":"Point","coordinates":[53.53,9.83,13]},"properties":{"stationId":"EDHI","rawText":"EDHI 231850Z AUTO 29006KT 9999 // SCT140/// BKN160/// BKN230/// 07/05 Q1030","observationTime":"2019-03-23T18:50:00Z","temp":7,"dewpoint":5,"windDirection":290,"windSpeed":11.112,"visibility":6.21,"altim":30.413385,"flightCategory":"VFR","metarType":"METAR","geometry_esri":{"x":53.53,"y":9.83,"z":13}}}