{"type":"Feature","geometry":{"type":"Point","coordinates":[53.53,9.83,13]},"properties":{"stationId":"EDHI","rawText":"EDHI 022250Z AUTO 29008KT 4300 // BKN035/// 01/M01 Q1007","observationTime":"2019-02-02T22:50:00Z","temp":1,"dewpoint":-1,"windDirection":290,"windSpeed":14.816,"visibility":2.67,"altim":29.734253,"flightCategory":"IFR","metarType":"METAR","geometry_esri":{"x":53.53,"y":9.83,"z":13}}}