{"type":"Feature","geometry":{"type":"Point","coordinates":[53.53,9.83,13]},"properties":{"stationId":"EDHI","rawText":"EDHI 170920Z AUTO 29010KT 260V320 9999 // SCT036/// 14/06 Q1022","observationTime":"2020-05-17T09:20:00Z","temp":14,"dewpoint":6,"windDirection":290,"windSpeed":18.52,"visibility":6.21,"altim":30.177166,"flightCategory":"VFR","metarType":"METAR","geometry_esri":{"x":53.53,"y":9.83,"z":13}}}