{"type":"Feature","geometry":{"type":"Point","coordinates":[53.53,9.83,13]},"properties":{"stationId":"EDHI","rawText":"EDHI 251350Z 21008KT 170V230 8000 OVC021 M03/M07 Q1012","observationTime":"2019-01-25T13:50:00Z","temp":-3,"dewpoint":-7,"windDirection":210,"windSpeed":14.816,"visibility":4.97,"altim":29.88189,"flightCategory":"MVFR","metarType":"METAR","geometry_esri":{"x":53.53,"y":9.83,"z":13}}}