{"type":"Feature","geometry":{"type":"Point","coordinates":[53.53,9.83,13]},"properties":{"stationId":"EDHI","rawText":"EDHI 140550Z AUTO 20007KT 9000 // OVC015/// 05/03 Q0980","observationTime":"2019-12-14T05:50:00Z","temp":5,"dewpoint":3,"windDirection":200,"windSpeed":12.964,"visibility":5.59,"altim":28.937008,"flightCategory":"MVFR","metarType":"METAR","geometry_esri":{"x":53.53,"y":9.83,"z":13}}}