{"type":"Feature","geometry":{"type":"Point","coordinates":[53.53,9.83,13]},"properties":{"stationId":"EDHI","rawText":"EDHI 020420Z AUTO 04006KT 4100 // OVC130/// M02/M03 Q0996","observationTime":"2019-02-02T04:20:00Z","temp":-2,"dewpoint":-3,"windDirection":40,"windSpeed":11.112,"visibility":2.55,"altim":29.409449,"flightCategory":"IFR","metarType":"METAR","geometry_esri":{"x":53.53,"y":9.83,"z":13}}}