{"type":"Feature","geometry":{"type":"Point","coordinates":[53.53,9.83,13]},"properties":{"stationId":"EDHI","rawText":"EDHI 012020Z AUTO 31021G33KT 270V340 9999 // SCT038/// BKN052/// OVC060/// 05/M01 Q1018","observationTime":"2019-01-01T20:20:00Z","temp":5,"dewpoint":-1,"windDirection":310,"windSpeed":38.892,"visibility":6.21,"altim":30.059055,"flightCategory":"VFR","metarType":"METAR","geometry_esri":{"x":53.53,"y":9.83,"z":13}}}