{"type":"Feature","geometry":{"type":"Point","coordinates":[53.53,9.83,13]},"properties":{"stationId":"EDHI","rawText":"EDHI 230720Z 27006KT 3000 BR OVC006 07/06 Q1026","observationTime":"2019-03-23T07:20:00Z","temp":7,"dewpoint":6,"windDirection":270,"windSpeed":11.112,"visibility":1.86,"altim":30.295275,"flightCategory":"IFR","metarType":"METAR","geometry_esri":{"x":53.53,"y":9.83,"z":13}}}