{"type":"Feature","geometry":{"type":"Point","coordinates":[53.53,9.83,13]},"properties":{"stationId":"EDHI","rawText":"EDHI 260620Z 11003KT 050V170 CAVOK 22/15 Q1020","observationTime":"2019-08-26T06:20:00Z","temp":22,"dewpoint":15,"windDirection":110,"windSpeed":5.556,"visibility":6.21,"altim":30.11811,"flightCategory":"VFR","metarType":"METAR","geometry_esri":{"x":53.53,"y":9.83,"z":13}}}