{"type":"Feature","geometry":{"type":"Point","coordinates":[53.53,9.83,13]},"properties":{"stationId":"EDHI","rawText":"EDHI 091350Z 25005KT 200V300 CAVOK 18/07 Q0998","observationTime":"2019-05-09T13:50:00Z","temp":18,"dewpoint":7,"windDirection":250,"windSpeed":9.26,"visibility":6.21,"altim":29.468504,"flightCategory":"VFR","metarType":"METAR","geometry_esri":{"x":53.53,"y":9.83,"z":13}}}