{"type":"Feature","geometry":{"type":"Point","coordinates":[53.53,9.83,13]},"properties":{"stationId":"EDHI","rawText":"EDHI 102350Z AUTO 06005KT 8000 // SCT006/// BKN026/// OVC050/// 16/15 Q1010","observationTime":"2019-06-10T23:50:00Z","temp":16,"dewpoint":15,"windDirection":60,"windSpeed":9.26,"visibility":4.97,"altim":29.822834,"flightCategory":"MVFR","metarType":"METAR","geometry_esri":{"x":53.53,"y":9.83,"z":13}}}