{"type":"Feature","geometry":{"type":"Point","coordinates":[53.53,9.83,13]},"properties":{"stationId":"EDHI","rawText":"EDHI 300120Z AUTO 24009KT 9000 // BKN009/// OVC044/// 15/14 Q0989","observationTime":"2019-09-30T01:20:00Z","temp":15,"dewpoint":14,"windDirection":240,"windSpeed":16.668,"visibility":5.59,"altim":29.202755,"flightCategory":"IFR","metarType":"METAR","geometry_esri":{"x":53.53,"y":9.83,"z":13}}}