{"type":"Feature","geometry":{"type":"Point","coordinates":[53.53,9.83,13]},"properties":{"stationId":"EDHI","rawText":"EDHI 231320Z AUTO 27010KT 8000 // SCT012/// BKN020/// OVC025/// 07/06 Q1014","observationTime":"2018-12-23T13:20:00Z","temp":7,"dewpoint":6,"windDirection":270,"windSpeed":18.52,"visibility":4.97,"altim":29.940945,"flightCategory":"MVFR","metarType":"METAR","geometry_esri":{"x":53.53,"y":9.83,"z":13}}}