{"type":"Feature","geometry":{"type":"Point","coordinates":[53.53,9.83,13]},"properties":{"stationId":"EDHI","rawText":"EDHI 221320Z 10006KT 050V150 CAVOK 07/M00 Q1040","observationTime":"2019-02-22T13:20:00Z","temp":7,"dewpoint":0,"windDirection":100,"windSpeed":11.112,"visibility":6.21,"altim":30.708662,"flightCategory":"VFR","metarType":"METAR","geometry_esri":{"x":53.53,"y":9.83,"z":13}}}