{"type":"Feature","geometry":{"type":"Point","coordinates":[53.53,9.83,13]},"properties":{"stationId":"EDHI","rawText":"EDHI 160250Z AUTO 34004KT 300V030 5000 // FEW029/// SCT043/// OVC070/// 14/13 Q1006","observationTime":"2019-10-16T02:50:00Z","temp":14,"dewpoint":13,"windDirection":340,"windSpeed":7.408,"visibility":3.11,"altim":29.704725,"flightCategory":"MVFR","metarType":"METAR","geometry_esri":{"x":53.53,"y":9.83,"z":13}}}