{"type":"Feature","geometry":{"type":"Point","coordinates":[53.53,9.83,13]},"properties":{"stationId":"EDHI","rawText":"EDHI 160550Z AUTO 24004KT 2200 // SCT004/// OVC007/// 06/06 Q1003","observationTime":"2019-11-16T05:50:00Z","temp":6,"dewpoint":6,"windDirection":240,"windSpeed":7.408,"visibility":1.37,"altim":29.616142,"flightCategory":"IFR","metarType":"METAR","geometry_esri":{"x":53.53,"y":9.83,"z":13}}}