{"type":"Feature","geometry":{"type":"Point","coordinates":[53.53,9.83,13]},"properties":{"stationId":"EDHI","rawText":"EDHI 130420Z AUTO 27013KT 9999 // BKN010/// OVC021/// 07/05 Q1002","observationTime":"2019-01-13T04:20:00Z","temp":7,"dewpoint":5,"windDirection":270,"windSpeed":24.076,"visibility":6.21,"altim":29.586615,"flightCategory":"MVFR","metarType":"METAR","geometry_esri":{"x":53.53,"y":9.83,"z":13}}}