{"type":"Feature","geometry":{"type":"Point","coordinates":[53.53,9.83,13]},"properties":{"stationId":"EDHI","rawText":"EDHI 240020Z AUTO 27005KT 0300 R23/0450N // VV001 00/00 Q1025","observationTime":"2020-01-24T00:20:00Z","temp":0,"dewpoint":0,"windDirection":270,"windSpeed":9.26,"visibility":0.19,"altim":30.265747,"flightCategory":"LIFR","metarType":"METAR","geometry_esri":{"x":53.53,"y":9.83,"z":13}}}