{"type":"Feature","geometry":{"type":"Point","coordinates":[53.53,9.83,13]},"properties":{"stationId":"EDHI","rawText":"EDHI 290450Z AUTO VRB02KT 0900 0350 R23/P2000N // SCT003/// 11/10 Q1022","observationTime":"2019-06-29T04:50:00Z","temp":11,"dewpoint":10,"windDirection":0,"windSpeed":3.704,"visibility":0.56,"altim":30.177166,"flightCategory":"LIFR","metarType":"METAR","geometry_esri":{"x":53.53,"y":9.83,"z":13}}}