{"type":"Feature","geometry":{"type":"Point","coordinates":[53.53,9.83,13]},"properties":{"stationId":"EDHI","rawText":"EDHI 191220Z AUTO 05007KT 020V120 9999 // NCD 23/12 Q1005","observationTime":"2019-05-19T12:20:00Z","temp":23,"dewpoint":12,"windDirection":50,"windSpeed":12.964,"visibility":6.21,"altim":29.675198,"flightCategory":"VFR","metarType":"SPECI","geometry_esri":{"x":53.53,"y":9.83,"z":13}}}