{"type":"Feature","geometry":{"type":"Point","coordinates":[53.53,9.83,13]},"properties":{"stationId":"EDHI","rawText":"EDHI 040850Z 06004KT 7000 -RA OVC027 14/13 Q1014","observationTime":"2019-06-04T08:50:00Z","temp":14,"dewpoint":13,"windDirection":60,"windSpeed":7.408,"visibility":4.35,"altim":29.940945,"flightCategory":"MVFR","metarType":"METAR","geometry_esri":{"x":53.53,"y":9.83,"z":13}}}