{"type":"Feature","geometry":{"type":"Point","coordinates":[53.53,9.83,13]},"properties":{"stationId":"EDHI","rawText":"EDHI 280850Z 16003KT 120V200 7000 FEW015 SCT018 BKN024 03/02 Q0987","observationTime":"2019-01-28T08:50:00Z","temp":3,"dewpoint":2,"windDirection":160,"windSpeed":5.556,"visibility":4.35,"altim":29.143702,"flightCategory":"MVFR","metarType":"METAR","geometry_esri":{"x":53.53,"y":9.83,"z":13}}}