{"type":"Feature","geometry":{"type":"Point","coordinates":[53.53,9.83,13]},"properties":{"stationId":"EDHI","rawText":"EDHI 082020Z AUTO 06011KT 9999 // NCD 07/02 Q1014","observationTime":"2019-04-08T20:20:00Z","temp":7,"dewpoint":2,"windDirection":60,"windSpeed":20.372,"visibility":6.21,"altim":29.940945,"flightCategory":"VFR","metarType":"METAR","geometry_esri":{"x":53.53,"y":9.83,"z":13}}}