{"type":"Feature","geometry":{"type":"Point","coordinates":[53.53,9.83,13]},"properties":{"stationId":"EDHI","rawText":"EDHI 160520Z 27010KT 3500 -DZ BR BKN005 OVC013 13/13 Q1014","observationTime":"2019-07-16T05:20:00Z","temp":13,"dewpoint":13,"windDirection":270,"windSpeed":18.52,"visibility":2.17,"altim":29.940945,"flightCategory":"IFR","metarType":"METAR","geometry_esri":{"x":53.53,"y":9.83,"z":13}}}