{"type":"Feature","geometry":{"type":"Point","coordinates":[53.53,9.83,13]},"properties":{"stationId":"EDHI","rawText":"EDHI 202150Z AUTO 23008KT 6000 // BKN095/// 04/03 Q1043","observationTime":"2020-01-20T21:50:00Z","temp":4,"dewpoint":3,"windDirection":230,"windSpeed":14.816,"visibility":3.73,"altim":30.797245,"flightCategory":"MVFR","metarType":"METAR","geometry_esri":{"x":53.53,"y":9.83,"z":13}}}