{"type":"Feature","geometry":{"type":"Point","coordinates":[53.53,9.83,13]},"properties":{"stationId":"EDHI","rawText":"EDHI 010920Z 11004KT 060V150 5000 -RA BKN006 OVC010 12/12 Q0996","observationTime":"2019-10-01T09:20:00Z","temp":12,"dewpoint":12,"windDirection":110,"windSpeed":7.408,"visibility":3.11,"altim":29.409449,"flightCategory":"IFR","metarType":"METAR","geometry_esri":{"x":53.53,"y":9.83,"z":13}}}