{"type":"Feature","geometry":{"type":"Point","coordinates":[53.53,9.83,13]},"properties":{"stationId":"EDHI","rawText":"EDHI 200120Z AUTO 20006KT 9999 // FEW081/// 02/M00 Q1016","observationTime":"2020-02-20T01:20:00Z","temp":2,"dewpoint":0,"windDirection":200,"windSpeed":11.112,"visibility":6.21,"altim":30,"flightCategory":"VFR","metarType":"METAR","geometry_esri":{"x":53.53,"y":9.83,"z":13}}}