{"type":"Feature","geometry":{"type":"Point","coordinates":[53.53,9.83,13]},"properties":{"stationId":"EDHI","rawText":"EDHI 132220Z AUTO 22011KT 3200 // SCT083/// OVC097/// 18/16 Q1007","observationTime":"2019-10-13T22:20:00Z","temp":18,"dewpoint":16,"windDirection":220,"windSpeed":20.372,"visibility":1.99,"altim":29.734253,"flightCategory":"IFR","metarType":"METAR","geometry_esri":{"x":53.53,"y":9.83,"z":13}}}