{"type":"Feature","geometry":{"type":"Point","coordinates":[53.53,9.83,13]},"properties":{"stationId":"EDHI","rawText":"EDHI 042020Z AUTO 25003KT 210V280 6000 // NCD 02/01 Q1021","observationTime":"2019-12-04T20:20:00Z","temp":2,"dewpoint":1,"windDirection":250,"windSpeed":5.556,"visibility":3.73,"altim":30.147638,"flightCategory":"MVFR","metarType":"METAR","geometry_esri":{"x":53.53,"y":9.83,"z":13}}}