{"type":"Feature","geometry":{"type":"Point","coordinates":[53.53,9.83,13]},"properties":{"stationId":"EDHI","rawText":"EDHI 281150Z AUTO 25011KT 9999 // BKN032/// BKN170/// 17/11 Q1007","observationTime":"2019-09-28T11:50:00Z","temp":17,"dewpoint":11,"windDirection":250,"windSpeed":20.372,"visibility":6.21,"altim":29.734253,"flightCategory":"VFR","metarType":"METAR","geometry_esri":{"x":53.53,"y":9.83,"z":13}}}