{"type":"Feature","geometry":{"type":"Point","coordinates":[53.53,9.83,13]},"properties":{"stationId":"EDHI","rawText":"EDHI 110320Z AUTO 24020G30KT 9999 3200 // SCT014/// BKN023/// BKN100/// 03/01 Q0989","observationTime":"2020-02-11T03:20:00Z","temp":3,"dewpoint":1,"windDirection":240,"windSpeed":37.04,"visibility":6.21,"altim":29.202755,"flightCategory":"MVFR","metarType":"METAR","geometry_esri":{"x":53.53,"y":9.83,"z":13}}}