{"type":"Feature","geometry":{"type":"Point","coordinates":[53.53,9.83,13]},"properties":{"stationId":"EDHI","rawText":"EDHI 061820Z AUTO 29017KT 9999 // SCT033/// BKN039/// BKN045/// 16/11 Q1007","observationTime":"2019-07-06T18:20:00Z","temp":16,"dewpoint":11,"windDirection":290,"windSpeed":31.484,"visibility":6.21,"altim":29.734253,"flightCategory":"VFR","metarType":"METAR","geometry_esri":{"x":53.53,"y":9.83,"z":13}}}