{"type":"Feature","geometry":{"type":"Point","coordinates":[53.53,9.83,13]},"properties":{"stationId":"EDHI","rawText":"EDHI 110450Z AUTO 25007KT 1600 1400 R23/P2000N // BKN001/// OVC005/// 03/03 Q1018","observationTime":"2019-01-11T04:50:00Z","temp":3,"dewpoint":3,"windDirection":250,"windSpeed":12.964,"visibility":0.99,"altim":30.059055,"flightCategory":"LIFR","metarType":"METAR","geometry_esri":{"x":53.53,"y":9.83,"z":13}}}