{"type":"Feature","geometry":{"type":"Point","coordinates":[53.53,9.83,13]},"properties":{"stationId":"EDHI","rawText":"EDHI 180420Z AUTO 21004KT 190V250 9999 // OVC140/// 17/16 Q1005","observationTime":"2019-08-18T04:20:00Z","temp":17,"dewpoint":16,"windDirection":210,"windSpeed":7.408,"visibility":6.21,"altim":29.675198,"flightCategory":"VFR","metarType":"METAR","geometry_esri":{"x":53.53,"y":9.83,"z":13}}}