{"type":"Feature","geometry":{"type":"Point","coordinates":[53.53,9.83,13]},"properties":{"stationId":"EDHI","rawText":"EDHI 261220Z 11009KT 060V160 CAVOK 30/15 Q1014","observationTime":"2019-07-26T12:20:00Z","temp":30,"dewpoint":15,"windDirection":110,"windSpeed":16.668,"visibility":6.21,"altim":29.940945,"flightCategory":"VFR","metarType":"METAR","geometry_esri":{"x":53.53,"y":9.83,"z":13}}}