{"type":"Feature","geometry":{"type":"Point","coordinates":[53.53,9.83,13]},"properties":{"stationId":"EDHI","rawText":"EDHI 212220Z AUTO 27024G34KT 9999 // BKN008/// OVC019/// 08/06 Q0997","observationTime":"2018-12-21T22:20:00Z","temp":8,"dewpoint":6,"windDirection":270,"windSpeed":44.448,"visibility":6.21,"altim":29.438976,"flightCategory":"IFR","metarType":"METAR","geometry_esri":{"x":53.53,"y":9.83,"z":13}}}