{"type":"Feature","geometry":{"type":"Point","coordinates":[53.53,9.83,13]},"properties":{"stationId":"EDHI","rawText":"EDHI 192050Z AUTO 25004KT 220V280 9999 // SCT035/// 09/06 Q1029","observationTime":"2019-09-19T20:50:00Z","temp":9,"dewpoint":6,"windDirection":250,"windSpeed":7.408,"visibility":6.21,"altim":30.383858,"flightCategory":"VFR","metarType":"METAR","geometry_esri":{"x":53.53,"y":9.83,"z":13}}}