{"type":"Feature","geometry":{"type":"Point","coordinates":[53.53,9.83,13]},"properties":{"stationId":"EDHI","rawText":"EDHI 070920Z 20014KT 4500 -RA BR FEW019 BKN023 05/03 Q1006","observationTime":"2019-02-07T09:20:00Z","temp":5,"dewpoint":3,"windDirection":200,"windSpeed":25.928,"visibility":2.8,"altim":29.704725,"flightCategory":"IFR","metarType":"METAR","geometry_esri":{"x":53.53,"y":9.83,"z":13}}}