{"type":"Feature","geometry":{"type":"Point","coordinates":[53.53,9.83,13]},"properties":{"stationId":"EDHI","rawText":"EDHI 172150Z AUTO 13004KT 100V170 9999 // BKN024/// OVC035/// 13/12 Q1009","observationTime":"2019-10-17T21:50:00Z","temp":13,"dewpoint":12,"windDirection":130,"windSpeed":7.408,"visibility":6.21,"altim":29.793306,"flightCategory":"MVFR","metarType":"METAR","geometry_esri":{"x":53.53,"y":9.83,"z":13}}}