{"type":"Feature","geometry":{"type":"Point","coordinates":[53.53,9.83,13]},"properties":{"stationId":"EDHI","rawText":"EDHI 191850Z AUTO 06011KT 030V090 9999 // NCD 10/M03 Q1025","observationTime":"2020-04-19T18:50:00Z","temp":10,"dewpoint":-3,"windDirection":60,"windSpeed":20.372,"visibility":6.21,"altim":30.265747,"flightCategory":"VFR","metarType":"METAR","geometry_esri":{"x":53.53,"y":9.83,"z":13}}}