{"type":"Feature","geometry":{"type":"Point","coordinates":[53.53,9.83,13]},"properties":{"stationId":"EDHI","rawText":"EDHI 042050Z AUTO 06009KT 9999 // BKN010/// BKN014/// OVC110/// 09/07 Q1007","observationTime":"2019-10-04T20:50:00Z","temp":9,"dewpoint":7,"windDirection":60,"windSpeed":16.668,"visibility":6.21,"altim":29.734253,"flightCategory":"MVFR","metarType":"METAR","geometry_esri":{"x":53.53,"y":9.83,"z":13}}}