{"type":"Feature","geometry":{"type":"Point","coordinates":[53.53,9.83,13]},"properties":{"stationId":"EDHI","rawText":"EDHI 272020Z AUTO 27007KT 9000 // FEW005/// BKN007/// OVC021/// 04/04 Q0983","observationTime":"2019-01-27T20:20:00Z","temp":4,"dewpoint":4,"windDirection":270,"windSpeed":12.964,"visibility":5.59,"altim":29.02559,"flightCategory":"IFR","metarType":"METAR","geometry_esri":{"x":53.53,"y":9.83,"z":13}}}