{"type":"Feature","geometry":{"type":"Point","coordinates":[53.53,9.83,13]},"properties":{"stationId":"EDHI","rawText":"EDHI 200220Z AUTO 08005KT 050V110 9999 // NCD 05/M03 Q1026","observationTime":"2020-04-20T02:20:00Z","temp":5,"dewpoint":-3,"windDirection":80,"windSpeed":9.26,"visibility":6.21,"altim":30.295275,"flightCategory":"VFR","metarType":"SPECI","geometry_esri":{"x":53.53,"y":9.83,"z":13}}}