{"type":"Feature","geometry":{"type":"Point","coordinates":[53.53,9.83,13]},"properties":{"stationId":"EDHI","rawText":"EDHI 310420Z AUTO 27023KT 9999 // SCT022/// OVC029/// 09/06 Q0998","observationTime":"2020-01-31T04:20:00Z","temp":9,"dewpoint":6,"windDirection":270,"windSpeed":42.596000000000004,"visibility":6.21,"altim":29.468504,"flightCategory":"MVFR","metarType":"METAR","geometry_esri":{"x":53.53,"y":9.83,"z":13}}}