{"type":"Feature","geometry":{"type":"Point","coordinates":[53.53,9.83,13]},"properties":{"stationId":"EDHI","rawText":"EDHI 291850Z AUTO 25021G31KT 220V280 9999 1800 // SCT021/// BKN027/// BKN160/// 08/04 Q0988","observationTime":"2020-02-29T18:50:00Z","temp":8,"dewpoint":4,"windDirection":250,"windSpeed":38.892,"visibility":6.21,"altim":29.17323,"flightCategory":"MVFR","metarType":"METAR","geometry_esri":{"x":53.53,"y":9.83,"z":13}}}