{"type":"Feature","geometry":{"type":"Point","coordinates":[53.53,9.83,13]},"properties":{"stationId":"EDHI","rawText":"EDHI 171920Z AUTO VRB01KT 9999 // SCT069/// BKN084/// BKN230/// 12/12 Q1010","observationTime":"2019-10-17T19:20:00Z","temp":12,"dewpoint":12,"windDirection":0,"windSpeed":1.852,"visibility":6.21,"altim":29.822834,"flightCategory":"VFR","metarType":"METAR","geometry_esri":{"x":53.53,"y":9.83,"z":13}}}