{"type":"Feature","geometry":{"type":"Point","coordinates":[53.53,9.83,13]},"properties":{"stationId":"EDHI","rawText":"EDHI 200750Z 10007KT 060V150 CAVOK 10/M01 Q1027","observationTime":"2020-04-20T07:50:00Z","temp":10,"dewpoint":-1,"windDirection":100,"windSpeed":12.964,"visibility":6.21,"altim":30.324802,"flightCategory":"VFR","metarType":"METAR","geometry_esri":{"x":53.53,"y":9.83,"z":13}}}