{"type":"Feature","geometry":{"type":"Point","coordinates":[53.53,9.83,13]},"properties":{"stationId":"EDHI","rawText":"EDHI 131620Z 11006KT 080V160 9999 SCT014 BKN027 02/M00 Q0981","observationTime":"2019-12-13T16:20:00Z","temp":2,"dewpoint":0,"windDirection":110,"windSpeed":11.112,"visibility":6.21,"altim":28.966536,"flightCategory":"MVFR","metarType":"METAR","geometry_esri":{"x":53.53,"y":9.83,"z":13}}}