{"type":"Feature","geometry":{"type":"Point","coordinates":[53.53,9.83,13]},"properties":{"stationId":"EDHI","rawText":"EDHI 261450Z AUTO 24013G24KT 210V270 9999 // BKN041/// OVC049/// 19/11 Q1007","observationTime":"2019-05-26T14:50:00Z","temp":19,"dewpoint":11,"windDirection":240,"windSpeed":24.076,"visibility":6.21,"altim":29.734253,"flightCategory":"VFR","metarType":"METAR","geometry_esri":{"x":53.53,"y":9.83,"z":13}}}