{"type":"Feature","geometry":{"type":"Point","coordinates":[53.53,9.83,13]},"properties":{"stationId":"EDHI","rawText":"EDHI 151920Z 27016KT 9999 FEW020 BKN027 15/11 Q1015","observationTime":"2019-07-15T19:20:00Z","temp":15,"dewpoint":11,"windDirection":270,"windSpeed":29.632,"visibility":6.21,"altim":29.970472,"flightCategory":"MVFR","metarType":"METAR","geometry_esri":{"x":53.53,"y":9.83,"z":13}}}