{"type":"Feature","geometry":{"type":"Point","coordinates":[53.53,9.83,13]},"properties":{"stationId":"EDHI","rawText":"EDHI 260920Z 28014KT 260V320 9999 FEW027 16/10 Q1009","observationTime":"2019-04-26T09:20:00Z","temp":16,"dewpoint":10,"windDirection":280,"windSpeed":25.928,"visibility":6.21,"altim":29.793306,"flightCategory":"VFR","metarType":"METAR","geometry_esri":{"x":53.53,"y":9.83,"z":13}}}