{"type":"Feature","geometry":{"type":"Point","coordinates":[53.53,9.83,13]},"properties":{"stationId":"EDHI","rawText":"EDHI 110420Z AUTO 25010KT 1200 1100 R23/P2000N // BKN002/// OVC005/// 03/03 Q1019","observationTime":"2019-01-11T04:20:00Z","temp":3,"dewpoint":3,"windDirection":250,"windSpeed":18.52,"visibility":0.75,"altim":30.088583,"flightCategory":"LIFR","metarType":"METAR","geometry_esri":{"x":53.53,"y":9.83,"z":13}}}