{"type":"Feature","geometry":{"type":"Point","coordinates":[53.53,9.83,13]},"properties":{"stationId":"EDHI","rawText":"EDHI 230720Z 25010KT 9999 BKN015 07/05 Q0997","observationTime":"2019-12-23T07:20:00Z","temp":7,"dewpoint":5,"windDirection":250,"windSpeed":18.52,"visibility":6.21,"altim":29.438976,"flightCategory":"MVFR","metarType":"METAR","geometry_esri":{"x":53.53,"y":9.83,"z":13}}}