{"type":"Feature","geometry":{"type":"Point","coordinates":[53.53,9.83,13]},"properties":{"stationId":"EDHI","rawText":"EDHI 300920Z VRB02KT CAVOK 06/03 Q1031","observationTime":"2019-10-30T09:20:00Z","temp":6,"dewpoint":3,"windDirection":0,"windSpeed":3.704,"visibility":6.21,"altim":30.442913,"flightCategory":"VFR","metarType":"METAR","geometry_esri":{"x":53.53,"y":9.83,"z":13}}}