{"type":"Feature","geometry":{"type":"Point","coordinates":[53.53,9.83,13]},"properties":{"stationId":"EDHI","rawText":"EDHI 070420Z 30010KT 9000 BKN007 09/08 Q1029","observationTime":"2020-04-07T04:20:00Z","temp":9,"dewpoint":8,"windDirection":300,"windSpeed":18.52,"visibility":5.59,"altim":30.383858,"flightCategory":"IFR","metarType":"METAR","geometry_esri":{"x":53.53,"y":9.83,"z":13}}}