{"type":"Feature","geometry":{"type":"Point","coordinates":[53.53,9.83,13]},"properties":{"stationId":"EDHI","rawText":"EDHI 010820Z AUTO 24003KT 180V300 1400 1100 R23/2000D // FEW001/// OVC018/// M01/M01 Q1033","observationTime":"2020-01-01T08:20:00Z","temp":-1,"dewpoint":-1,"windDirection":240,"windSpeed":5.556,"visibility":0.87,"altim":30.501968,"flightCategory":"LIFR","metarType":"METAR","geometry_esri":{"x":53.53,"y":9.83,"z":13}}}