{"type":"Feature","geometry":{"type":"Point","coordinates":[53.53,9.83,13]},"properties":{"stationId":"EDHI","rawText":"EDHI 120920Z 23011KT 190V250 9999 FEW014 18/14 Q1025","observationTime":"2019-09-12T09:20:00Z","temp":18,"dewpoint":14,"windDirection":230,"windSpeed":20.372,"visibility":6.21,"altim":30.265747,"flightCategory":"VFR","metarType":"METAR","geometry_esri":{"x":53.53,"y":9.83,"z":13}}}