{"type":"Feature","geometry":{"type":"Point","coordinates":[53.53,9.83,13]},"properties":{"stationId":"EDHI","rawText":"EDHI 170120Z AUTO 15003KT 110V190 9999 // SCT058/// BKN071/// OVC096/// 17/10 Q1009","observationTime":"2019-08-17T01:20:00Z","temp":17,"dewpoint":10,"windDirection":150,"windSpeed":5.556,"visibility":6.21,"altim":29.793306,"flightCategory":"VFR","metarType":"METAR","geometry_esri":{"x":53.53,"y":9.83,"z":13}}}