{"type":"Feature","geometry":{"type":"Point","coordinates":[53.53,9.83,13]},"properties":{"stationId":"EDHI","rawText":"EDHI 221320Z AUTO 10009G21KT 360V170 9999 // NCD 21/M01 Q1014","observationTime":"2019-04-22T13:20:00Z","temp":21,"dewpoint":-1,"windDirection":100,"windSpeed":16.668,"visibility":6.21,"altim":29.940945,"flightCategory":"VFR","metarType":"METAR","geometry_esri":{"x":53.53,"y":9.83,"z":13}}}