{"type":"Feature","geometry":{"type":"Point","coordinates":[53.53,9.83,13]},"properties":{"stationId":"EDHI","rawText":"EDHI 311820Z 12005KT 080V150 CAVOK 01/M03 Q0998","observationTime":"2019-01-31T18:20:00Z","temp":1,"dewpoint":-3,"windDirection":120,"windSpeed":9.26,"visibility":6.21,"altim":29.468504,"flightCategory":"VFR","metarType":"SPECI","geometry_esri":{"x":53.53,"y":9.83,"z":13}}}