{"type":"Feature","geometry":{"type":"Point","coordinates":[53.53,9.83,13]},"properties":{"stationId":"EDHI","rawText":"EDHI 230720Z 09014G24KT 050V140 CAVOK 14/03 Q1009","observationTime":"2019-04-23T07:20:00Z","temp":14,"dewpoint":3,"windDirection":90,"windSpeed":25.928,"visibility":6.21,"altim":29.793306,"flightCategory":"VFR","metarType":"METAR","geometry_esri":{"x":53.53,"y":9.83,"z":13}}}