{"type":"Feature","geometry":{"type":"Point","coordinates":[53.53,9.83,13]},"properties":{"stationId":"EDHI","rawText":"EDHI 270950Z 25009KT 1900 BR OVC004 06/05 Q1024","observationTime":"2018-12-27T09:50:00Z","temp":6,"dewpoint":5,"windDirection":250,"windSpeed":16.668,"visibility":1.18,"altim":30.236221,"flightCategory":"LIFR","metarType":"METAR","geometry_esri":{"x":53.53,"y":9.83,"z":13}}}