{"type":"Feature","geometry":{"type":"Point","coordinates":[53.53,9.83,13]},"properties":{"stationId":"EDHI","rawText":"EDHI 142050Z AUTO 24018KT 9999 // BKN022/// OVC027/// 05/02 Q0992","observationTime":"2019-12-14T20:50:00Z","temp":5,"dewpoint":2,"windDirection":240,"windSpeed":33.336,"visibility":6.21,"altim":29.291338,"flightCategory":"MVFR","metarType":"METAR","geometry_esri":{"x":53.53,"y":9.83,"z":13}}}