{"type":"Feature","geometry":{"type":"Point","coordinates":[53.53,9.83,13]},"properties":{"stationId":"EDHI","rawText":"EDHI 170720Z AUTO 28016KT 1200 1100 R23/P2000N // FEW008/// BKN025/// OVC033/// 06/05 Q0993","observationTime":"2019-03-17T07:20:00Z","temp":6,"dewpoint":5,"windDirection":280,"windSpeed":29.632,"visibility":0.75,"altim":29.320866,"flightCategory":"LIFR","metarType":"METAR","geometry_esri":{"x":53.53,"y":9.83,"z":13}}}