{"type":"Feature","geometry":{"type":"Point","coordinates":[53.53,9.83,13]},"properties":{"stationId":"EDHI","rawText":"EDHI 272150Z AUTO 11004KT 080V140 9999 // FEW160/// BKN200/// 23/19 Q1014","observationTime":"2019-08-27T21:50:00Z","temp":23,"dewpoint":19,"windDirection":110,"windSpeed":7.408,"visibility":6.21,"altim":29.940945,"flightCategory":"VFR","metarType":"METAR","geometry_esri":{"x":53.53,"y":9.83,"z":13}}}