{"type":"Feature","geometry":{"type":"Point","coordinates":[53.53,9.83,13]},"properties":{"stationId":"EDHI","rawText":"EDHI 090420Z AUTO 20015KT 9999 // FEW018/// BKN028/// OVC039/// 07/05 Q0996","observationTime":"2019-02-09T04:20:00Z","temp":7,"dewpoint":5,"windDirection":200,"windSpeed":27.78,"visibility":6.21,"altim":29.409449,"flightCategory":"MVFR","metarType":"METAR","geometry_esri":{"x":53.53,"y":9.83,"z":13}}}