{"type":"Feature","geometry":{"type":"Point","coordinates":[53.53,9.83,13]},"properties":{"stationId":"EDHI","rawText":"EDHI 220420Z AUTO 14004KT 110V170 6000 // SCT071/// BKN086/// OVC110/// 06/05 Q1007","observationTime":"2019-11-22T04:20:00Z","temp":6,"dewpoint":5,"windDirection":140,"windSpeed":7.408,"visibility":3.73,"altim":29.734253,"flightCategory":"MVFR","metarType":"METAR","geometry_esri":{"x":53.53,"y":9.83,"z":13}}}