{"type":"Feature","geometry":{"type":"Point","coordinates":[53.53,9.83,13]},"properties":{"stationId":"EDHI","rawText":"EDHI 060950Z AUTO 22009KT 9999 // FEW010/// BKN023/// OVC034/// 16/14 Q1007","observationTime":"2019-07-06T09:50:00Z","temp":16,"dewpoint":14,"windDirection":220,"windSpeed":16.668,"visibility":6.21,"altim":29.734253,"flightCategory":"MVFR","metarType":"METAR","geometry_esri":{"x":53.53,"y":9.83,"z":13}}}