{"type":"Feature","geometry":{"type":"Point","coordinates":[53.53,9.83,13]},"properties":{"stationId":"EDHI","rawText":"EDHI 180650Z 11005KT 040V170 CAVOK 21/15 Q1016","observationTime":"2019-06-18T06:50:00Z","temp":21,"dewpoint":15,"windDirection":110,"windSpeed":9.26,"visibility":6.21,"altim":30,"flightCategory":"VFR","metarType":"METAR","geometry_esri":{"x":53.53,"y":9.83,"z":13}}}