{"type":"Feature","geometry":{"type":"Point","coordinates":[53.53,9.83,13]},"properties":{"stationId":"EDHI","rawText":"EDHI 150550Z 23005KT 9999 FEW029 06/03 Q1020","observationTime":"2020-05-15T05:50:00Z","temp":6,"dewpoint":3,"windDirection":230,"windSpeed":9.26,"visibility":6.21,"altim":30.11811,"flightCategory":"VFR","metarType":"METAR","geometry_esri":{"x":53.53,"y":9.83,"z":13}}}