{"type":"Feature","geometry":{"type":"Point","coordinates":[53.53,9.83,13]},"properties":{"stationId":"EDHI","rawText":"EDHI 022220Z AUTO 17006KT 140V210 9999 // SCT091/// 24/13 Q1010","observationTime":"2019-06-02T22:20:00Z","temp":24,"dewpoint":13,"windDirection":170,"windSpeed":11.112,"visibility":6.21,"altim":29.822834,"flightCategory":"VFR","metarType":"METAR","geometry_esri":{"x":53.53,"y":9.83,"z":13}}}