{"type":"Feature","geometry":{"type":"Point","coordinates":[53.53,9.83,13]},"properties":{"stationId":"EDHI","rawText":"EDHI 240450Z AUTO 06004KT 9999 // NCD 16/12 Q1024","observationTime":"2019-08-24T04:50:00Z","temp":16,"dewpoint":12,"windDirection":60,"windSpeed":7.408,"visibility":6.21,"altim":30.236221,"flightCategory":"VFR","metarType":"METAR","geometry_esri":{"x":53.53,"y":9.83,"z":13}}}