{"type":"Feature","geometry":{"type":"Point","coordinates":[53.53,9.83,13]},"properties":{"stationId":"EDHI","rawText":"EDHI 280720Z 29004KT 250V010 9999 BKN018 15/11 Q1026","observationTime":"2019-06-28T07:20:00Z","temp":15,"dewpoint":11,"windDirection":290,"windSpeed":7.408,"visibility":6.21,"altim":30.295275,"flightCategory":"MVFR","metarType":"METAR","geometry_esri":{"x":53.53,"y":9.83,"z":13}}}