{"type":"Feature","geometry":{"type":"Point","coordinates":[53.53,9.83,13]},"properties":{"stationId":"EDHI","rawText":"EDHI 281520Z 25017KT 9999 -RA FEW013 SCT015 BKN021 05/03 Q0987","observationTime":"2020-01-28T15:20:00Z","temp":5,"dewpoint":3,"windDirection":250,"windSpeed":31.484,"visibility":6.21,"altim":29.143702,"flightCategory":"MVFR","metarType":"METAR","geometry_esri":{"x":53.53,"y":9.83,"z":13}}}