{"type":"Feature","geometry":{"type":"Point","coordinates":[53.53,9.83,13]},"properties":{"stationId":"EDHI","rawText":"EDHI 060420Z AUTO 17005KT 130V200 5000 // OVC110/// 03/01 Q1023","observationTime":"2019-02-06T04:20:00Z","temp":3,"dewpoint":1,"windDirection":170,"windSpeed":9.26,"visibility":3.11,"altim":30.206694,"flightCategory":"MVFR","metarType":"METAR","geometry_esri":{"x":53.53,"y":9.83,"z":13}}}