{"type":"Feature","geometry":{"type":"Point","coordinates":[53.53,9.83,13]},"properties":{"stationId":"EDHI","rawText":"EDHI 040750Z 19015KT 9999 FEW048 SCT062 12/07 Q0983","observationTime":"2019-03-04T07:50:00Z","temp":12,"dewpoint":7,"windDirection":190,"windSpeed":27.78,"visibility":6.21,"altim":29.02559,"flightCategory":"VFR","metarType":"METAR","geometry_esri":{"x":53.53,"y":9.83,"z":13}}}