{"type":"Feature","geometry":{"type":"Point","coordinates":[53.53,9.83,13]},"properties":{"stationId":"EDHI","rawText":"EDHI 111750Z AUTO 22017KT 2500 // SCT014/// BKN020/// OVC025/// 14/12 Q1005","observationTime":"2019-10-11T17:50:00Z","temp":14,"dewpoint":12,"windDirection":220,"windSpeed":31.484,"visibility":1.55,"altim":29.675198,"flightCategory":"IFR","metarType":"METAR","geometry_esri":{"x":53.53,"y":9.83,"z":13}}}