{"type":"Feature","geometry":{"type":"Point","coordinates":[53.53,9.83,13]},"properties":{"stationId":"EDHI","rawText":"EDHI 292250Z AUTO 23009KT 9999 // BKN008/// BKN013/// OVC015/// 15/15 Q0989","observationTime":"2019-09-29T22:50:00Z","temp":15,"dewpoint":15,"windDirection":230,"windSpeed":16.668,"visibility":6.21,"altim":29.202755,"flightCategory":"IFR","metarType":"METAR","geometry_esri":{"x":53.53,"y":9.83,"z":13}}}