{"type":"Feature","geometry":{"type":"Point","coordinates":[53.53,9.83,13]},"properties":{"stationId":"EDHI","rawText":"EDHI 172120Z AUTO 07007KT 040V100 9999 // NCD 09/01 Q1018","observationTime":"2020-04-17T21:20:00Z","temp":9,"dewpoint":1,"windDirection":70,"windSpeed":12.964,"visibility":6.21,"altim":30.059055,"flightCategory":"VFR","metarType":"METAR","geometry_esri":{"x":53.53,"y":9.83,"z":13}}}