{"type":"Feature","geometry":{"type":"Point","coordinates":[53.53,9.83,13]},"properties":{"stationId":"EDHI","rawText":"EDHI 231120Z 13011KT 090V170 CAVOK 06/M11 Q1038","observationTime":"2020-03-23T11:20:00Z","temp":6,"dewpoint":-11,"windDirection":130,"windSpeed":20.372,"visibility":6.21,"altim":30.649607,"flightCategory":"VFR","metarType":"METAR","geometry_esri":{"x":53.53,"y":9.83,"z":13}}}