{"type":"Feature","geometry":{"type":"Point","coordinates":[53.53,9.83,13]},"properties":{"stationId":"EDHI","rawText":"EDHI 061120Z 22014KT 2800 BR BKN006 05/05 Q1005","observationTime":"2019-12-06T11:20:00Z","temp":5,"dewpoint":5,"windDirection":220,"windSpeed":25.928,"visibility":1.74,"altim":29.675198,"flightCategory":"IFR","metarType":"METAR","geometry_esri":{"x":53.53,"y":9.83,"z":13}}}