{"type":"Feature","geometry":{"type":"Point","coordinates":[53.53,9.83,13]},"properties":{"stationId":"EDHI","rawText":"EDHI 230420Z AUTO 25011KT 9999 3800 // FEW015/// BKN032/// OVC100/// 07/05 Q0994","observationTime":"2019-12-23T04:20:00Z","temp":7,"dewpoint":5,"windDirection":250,"windSpeed":20.372,"visibility":6.21,"altim":29.350393,"flightCategory":"VFR","metarType":"METAR","geometry_esri":{"x":53.53,"y":9.83,"z":13}}}