{"type":"Feature","geometry":{"type":"Point","coordinates":[53.53,9.83,13]},"properties":{"stationId":"EDHI","rawText":"EDHI 180750Z 25009KT 9999 FEW010 SCT012 BKN014 06/05 Q1013","observationTime":"2019-12-18T07:50:00Z","temp":6,"dewpoint":5,"windDirection":250,"windSpeed":16.668,"visibility":6.21,"altim":29.911417,"flightCategory":"MVFR","metarType":"METAR","geometry_esri":{"x":53.53,"y":9.83,"z":13}}}