{"type":"Feature","geometry":{"type":"Point","coordinates":[53.53,9.83,13]},"properties":{"stationId":"EDHI","rawText":"EDHI 140950Z 23012G22KT 190V250 8000 -SHRA FEW012 SCT014 BKN022 05/03 Q0982","observationTime":"2019-12-14T09:50:00Z","temp":5,"dewpoint":3,"windDirection":230,"windSpeed":22.224,"visibility":4.97,"altim":28.996063,"flightCategory":"MVFR","metarType":"METAR","geometry_esri":{"x":53.53,"y":9.83,"z":13}}}