{"type":"Feature","geometry":{"type":"Point","coordinates":[53.53,9.83,13]},"properties":{"stationId":"EDHI","rawText":"EDHI 050450Z 27011KT 9999 FEW021 BKN025 15/11 Q1014","observationTime":"2019-07-05T04:50:00Z","temp":15,"dewpoint":11,"windDirection":270,"windSpeed":20.372,"visibility":6.21,"altim":29.940945,"flightCategory":"MVFR","metarType":"METAR","geometry_esri":{"x":53.53,"y":9.83,"z":13}}}