{"type":"Feature","geometry":{"type":"Point","coordinates":[53.53,9.83,13]},"properties":{"stationId":"EDHI","rawText":"EDHI 200820Z AUTO 09004KT 1700 // SCT001/// OVC130/// M04/M04 Q1018","observationTime":"2019-01-20T08:20:00Z","temp":-4,"dewpoint":-4,"windDirection":90,"windSpeed":7.408,"visibility":1.06,"altim":30.059055,"flightCategory":"IFR","metarType":"METAR","geometry_esri":{"x":53.53,"y":9.83,"z":13}}}