{"type":"Feature","geometry":{"type":"Point","coordinates":[53.53,9.83,13]},"properties":{"stationId":"EDHI","rawText":"EDHI 011220Z 35009KT 330V030 9999 -SHRA FEW005 BKN018 13/12 Q0996","observationTime":"2019-10-01T12:20:00Z","temp":13,"dewpoint":12,"windDirection":350,"windSpeed":16.668,"visibility":6.21,"altim":29.409449,"flightCategory":"MVFR","metarType":"METAR","geometry_esri":{"x":53.53,"y":9.83,"z":13}}}