{"type":"Feature","geometry":{"type":"Point","coordinates":[53.53,9.83,13]},"properties":{"stationId":"EDHI","rawText":"EDHI 032050Z AUTO 36003KT 320V070 9999 // FEW020/// BKN051/// OVC061/// 15/12 Q1014","observationTime":"2019-06-03T20:50:00Z","temp":15,"dewpoint":12,"windDirection":360,"windSpeed":5.556,"visibility":6.21,"altim":29.940945,"flightCategory":"VFR","metarType":"METAR","geometry_esri":{"x":53.53,"y":9.83,"z":13}}}