{"type":"Feature","geometry":{"type":"Point","coordinates":[53.53,9.83,13]},"properties":{"stationId":"EDHI","rawText":"EDHI 211820Z 24019KT 8000 -RA BKN010 11/09 Q0993","observationTime":"2018-12-21T18:20:00Z","temp":11,"dewpoint":9,"windDirection":240,"windSpeed":35.188,"visibility":4.97,"altim":29.320866,"flightCategory":"MVFR","metarType":"METAR","geometry_esri":{"x":53.53,"y":9.83,"z":13}}}