{"type":"Feature","geometry":{"type":"Point","coordinates":[53.53,9.83,13]},"properties":{"stationId":"EDHI","rawText":"EDHI 021550Z 23009KT 1200 R23/P2000N BR OVC002 M00/M00 Q1023","observationTime":"2020-01-02T15:50:00Z","temp":0,"dewpoint":0,"windDirection":230,"windSpeed":16.668,"visibility":0.75,"altim":30.206694,"flightCategory":"LIFR","metarType":"METAR","geometry_esri":{"x":53.53,"y":9.83,"z":13}}}