{"type":"Feature","geometry":{"type":"Point","coordinates":[53.53,9.83,13]},"properties":{"stationId":"EDHI","rawText":"EDHI 040850Z 33008KT 290V360 9999 FEW026 SCT042 10/03 Q1018","observationTime":"2020-05-04T08:50:00Z","temp":10,"dewpoint":3,"windDirection":330,"windSpeed":14.816,"visibility":6.21,"altim":30.059055,"flightCategory":"VFR","metarType":"METAR","geometry_esri":{"x":53.53,"y":9.83,"z":13}}}