{"type":"Feature","geometry":{"type":"Point","coordinates":[53.53,9.83,13]},"properties":{"stationId":"EDHI","rawText":"EDHI 150420Z AUTO 11004KT 050V170 9999 // OVC042/// 00/M02 Q1029","observationTime":"2018-12-15T04:20:00Z","temp":0,"dewpoint":-2,"windDirection":110,"windSpeed":7.408,"visibility":6.21,"altim":30.383858,"flightCategory":"VFR","metarType":"METAR","geometry_esri":{"x":53.53,"y":9.83,"z":13}}}