{"type":"Feature","geometry":{"type":"Point","coordinates":[53.53,9.83,13]},"properties":{"stationId":"EDHI","rawText":"EDHI 201820Z 25009KT 4900 BR FEW009 SCT015 OVC029 09/08 Q1031","observationTime":"2019-03-20T18:20:00Z","temp":9,"dewpoint":8,"windDirection":250,"windSpeed":16.668,"visibility":3.04,"altim":30.442913,"flightCategory":"MVFR","metarType":"SPECI","geometry_esri":{"x":53.53,"y":9.83,"z":13}}}