{"type":"Feature","geometry":{"type":"Point","coordinates":[53.53,9.83,13]},"properties":{"stationId":"EDHI","rawText":"EDHI 072020Z AUTO 29010KT 270V330 9999 // SCT028/// OVC059/// 13/09 Q1013","observationTime":"2019-07-07T20:20:00Z","temp":13,"dewpoint":9,"windDirection":290,"windSpeed":18.52,"visibility":6.21,"altim":29.911417,"flightCategory":"VFR","metarType":"METAR","geometry_esri":{"x":53.53,"y":9.83,"z":13}}}