{"type":"Feature","geometry":{"type":"Point","coordinates":[53.53,9.83,13]},"properties":{"stationId":"EDHI","rawText":"EDHI 080420Z AUTO 23013KT 9999 // OVC016/// 07/05 Q1018","observationTime":"2020-01-08T04:20:00Z","temp":7,"dewpoint":5,"windDirection":230,"windSpeed":24.076,"visibility":6.21,"altim":30.059055,"flightCategory":"MVFR","metarType":"METAR","geometry_esri":{"x":53.53,"y":9.83,"z":13}}}