{"type":"Feature","geometry":{"type":"Point","coordinates":[53.53,9.83,13]},"properties":{"stationId":"EDHI","rawText":"EDHI 200250Z AUTO 25004KT 3800 // BKN015/// 02/02 Q1044","observationTime":"2020-01-20T02:50:00Z","temp":2,"dewpoint":2,"windDirection":250,"windSpeed":7.408,"visibility":2.36,"altim":30.82677,"flightCategory":"IFR","metarType":"METAR","geometry_esri":{"x":53.53,"y":9.83,"z":13}}}