{"type":"Feature","geometry":{"type":"Point","coordinates":[53.53,9.83,13]},"properties":{"stationId":"EDHI","rawText":"EDHI 010120Z AUTO 16003KT 090V200 9999 // SCT035/// BKN053/// BKN073/// 09/07 Q0998","observationTime":"2020-05-01T01:20:00Z","temp":9,"dewpoint":7,"windDirection":160,"windSpeed":5.556,"visibility":6.21,"altim":29.468504,"flightCategory":"VFR","metarType":"METAR","geometry_esri":{"x":53.53,"y":9.83,"z":13}}}