{"type":"Feature","geometry":{"type":"Point","coordinates":[53.53,9.83,13]},"properties":{"stationId":"EDHI","rawText":"EDHI 070050Z AUTO 20011KT 9999 // BKN048/// BKN061/// OVC150/// 11/06 Q0992","observationTime":"2019-03-07T00:50:00Z","temp":11,"dewpoint":6,"windDirection":200,"windSpeed":20.372,"visibility":6.21,"altim":29.291338,"flightCategory":"VFR","metarType":"METAR","geometry_esri":{"x":53.53,"y":9.83,"z":13}}}