{"type":"Feature","geometry":{"type":"Point","coordinates":[53.53,9.83,13]},"properties":{"stationId":"EDHI","rawText":"EDHI 141320Z 20007KT 170V250 CAVOK 27/14 Q1014","observationTime":"2019-06-14T13:20:00Z","temp":27,"dewpoint":14,"windDirection":200,"windSpeed":12.964,"visibility":6.21,"altim":29.940945,"flightCategory":"VFR","metarType":"METAR","geometry_esri":{"x":53.53,"y":9.83,"z":13}}}