{"type":"Feature","geometry":{"type":"Point","coordinates":[53.53,9.83,13]},"properties":{"stationId":"EDHI","rawText":"EDHI 040120Z AUTO 26003KT 9000 // FEW025/// 01/M00 Q1006","observationTime":"2020-03-04T01:20:00Z","temp":1,"dewpoint":0,"windDirection":260,"windSpeed":5.556,"visibility":5.59,"altim":29.704725,"flightCategory":"VFR","metarType":"METAR","geometry_esri":{"x":53.53,"y":9.83,"z":13}}}