{"type":"Feature","geometry":{"type":"Point","coordinates":[53.53,9.83,13]},"properties":{"stationId":"EDHI","rawText":"EDHI 020750Z 34011KT CAVOK 03/M05 Q1028","observationTime":"2019-01-02T07:50:00Z","temp":3,"dewpoint":-5,"windDirection":340,"windSpeed":20.372,"visibility":6.21,"altim":30.35433,"flightCategory":"VFR","metarType":"METAR","geometry_esri":{"x":53.53,"y":9.83,"z":13}}}