{"type":"Feature","geometry":{"type":"Point","coordinates":[53.53,9.83,13]},"properties":{"stationId":"EDHI","rawText":"EDHI 211120Z 23006KT 8000 FEW018 SCT025 BKN045 M03/M04 Q1020 RESHSN","observationTime":"2019-01-21T11:20:00Z","temp":-3,"dewpoint":-4,"windDirection":230,"windSpeed":11.112,"visibility":4.97,"altim":30.11811,"flightCategory":"MVFR","metarType":"METAR","geometry_esri":{"x":53.53,"y":9.83,"z":13}}}