{"type":"Feature","geometry":{"type":"Point","coordinates":[53.53,9.83,13]},"properties":{"stationId":"EDHI","rawText":"EDHI 211620Z AUTO 11004KT 070V150 9999 // NCD 20/11 Q1018","observationTime":"2019-09-21T16:20:00Z","temp":20,"dewpoint":11,"windDirection":110,"windSpeed":7.408,"visibility":6.21,"altim":30.059055,"flightCategory":"VFR","metarType":"METAR","geometry_esri":{"x":53.53,"y":9.83,"z":13}}}