{"type":"Feature","geometry":{"type":"Point","coordinates":[53.53,9.83,13]},"properties":{"stationId":"EDHI","rawText":"EDHI 161250Z 28015KT 9999 FEW019 SCT022 18/13 Q1015","observationTime":"2019-07-16T12:50:00Z","temp":18,"dewpoint":13,"windDirection":280,"windSpeed":27.78,"visibility":6.21,"altim":29.970472,"flightCategory":"VFR","metarType":"METAR","geometry_esri":{"x":53.53,"y":9.83,"z":13}}}