{"type":"Feature","geometry":{"type":"Point","coordinates":[53.53,9.83,13]},"properties":{"stationId":"EDHI","rawText":"EDHI 191550Z AUTO 16005KT 120V190 9999 // BKN074/// BKN180/// 14/11 Q1004","observationTime":"2019-10-19T15:50:00Z","temp":14,"dewpoint":11,"windDirection":160,"windSpeed":9.26,"visibility":6.21,"altim":29.64567,"flightCategory":"VFR","metarType":"METAR","geometry_esri":{"x":53.53,"y":9.83,"z":13}}}