{"type":"Feature","geometry":{"type":"Point","coordinates":[53.53,9.83,13]},"properties":{"stationId":"EDHI","rawText":"EDHI 280320Z AUTO 27007KT 2400 // OVC003/// 06/06 Q1023","observationTime":"2018-12-28T03:20:00Z","temp":6,"dewpoint":6,"windDirection":270,"windSpeed":12.964,"visibility":1.49,"altim":30.206694,"flightCategory":"LIFR","metarType":"METAR","geometry_esri":{"x":53.53,"y":9.83,"z":13}}}