{"type":"Feature","geometry":{"type":"Point","coordinates":[53.53,9.83,13]},"properties":{"stationId":"EDHI","rawText":"EDHI 141120Z AUTO 23004KT 170V280 9999 // FEW036/// 17/07 Q1033","observationTime":"2019-09-14T11:20:00Z","temp":17,"dewpoint":7,"windDirection":230,"windSpeed":7.408,"visibility":6.21,"altim":30.501968,"flightCategory":"VFR","metarType":"METAR","geometry_esri":{"x":53.53,"y":9.83,"z":13}}}