{"type":"Feature","geometry":{"type":"Point","coordinates":[53.53,9.83,13]},"properties":{"stationId":"EDHI","rawText":"EDHI 120020Z AUTO 06015KT 3400 // FEW013/// OVC073/// 17/16 Q1011","observationTime":"2019-06-12T00:20:00Z","temp":17,"dewpoint":16,"windDirection":60,"windSpeed":27.78,"visibility":2.11,"altim":29.852362,"flightCategory":"IFR","metarType":"METAR","geometry_esri":{"x":53.53,"y":9.83,"z":13}}}