{"type":"Feature","geometry":{"type":"Point","coordinates":[53.53,9.83,13]},"properties":{"stationId":"EDHI","rawText":"EDHI 011550Z AUTO 24006KT 0700 0650 R23/0800N // VV002 M01/M01 Q1031","observationTime":"2020-01-01T15:50:00Z","temp":-1,"dewpoint":-1,"windDirection":240,"windSpeed":11.112,"visibility":0.43,"altim":30.442913,"flightCategory":"LIFR","metarType":"METAR","geometry_esri":{"x":53.53,"y":9.83,"z":13}}}