{"type":"Feature","geometry":{"type":"Point","coordinates":[53.53,9.83,13]},"properties":{"stationId":"EDHI","rawText":"EDHI 131250Z 29014KT 9999 VCSH FEW019 SCT022 22/16 Q1014","observationTime":"2019-07-13T12:50:00Z","temp":22,"dewpoint":16,"windDirection":290,"windSpeed":25.928,"visibility":6.21,"altim":29.940945,"flightCategory":"VFR","metarType":"METAR","geometry_esri":{"x":53.53,"y":9.83,"z":13}}}