{"type":"Feature","geometry":{"type":"Point","coordinates":[53.53,9.83,13]},"properties":{"stationId":"EDHI","rawText":"EDHI 231150Z 11006KT 060V150 6000 BKN011 M04/M07 Q1003","observationTime":"2019-01-23T11:50:00Z","temp":-4,"dewpoint":-7,"windDirection":110,"windSpeed":11.112,"visibility":3.73,"altim":29.616142,"flightCategory":"MVFR","metarType":"METAR","geometry_esri":{"x":53.53,"y":9.83,"z":13}}}