{"type":"Feature","geometry":{"type":"Point","coordinates":[53.53,9.83,13]},"properties":{"stationId":"EDHI","rawText":"EDHI 130220Z AUTO 33004KT 5000 // OVC005/// 17/16 Q1011","observationTime":"2019-07-13T02:20:00Z","temp":17,"dewpoint":16,"windDirection":330,"windSpeed":7.408,"visibility":3.11,"altim":29.852362,"flightCategory":"IFR","metarType":"METAR","geometry_esri":{"x":53.53,"y":9.83,"z":13}}}