{"type":"Feature","geometry":{"type":"Point","coordinates":[53.53,9.83,13]},"properties":{"stationId":"EDHI","rawText":"EDHI 271820Z AUTO 27009KT 1900 1400 R23/P2000N // FEW018/// OVC050/// 10/08 Q1011","observationTime":"2019-04-27T18:20:00Z","temp":10,"dewpoint":8,"windDirection":270,"windSpeed":16.668,"visibility":1.18,"altim":29.852362,"flightCategory":"IFR","metarType":"METAR","geometry_esri":{"x":53.53,"y":9.83,"z":13}}}