{"type":"Feature","geometry":{"type":"Point","coordinates":[53.53,9.83,13]},"properties":{"stationId":"EDHI","rawText":"EDHI 080950Z 11005KT 060V160 CAVOK 17/06 Q1026","observationTime":"2020-04-08T09:50:00Z","temp":17,"dewpoint":6,"windDirection":110,"windSpeed":9.26,"visibility":6.21,"altim":30.295275,"flightCategory":"VFR","metarType":"METAR","geometry_esri":{"x":53.53,"y":9.83,"z":13}}}