{"type":"Feature","geometry":{"type":"Point","coordinates":[53.53,9.83,13]},"properties":{"stationId":"EDHI","rawText":"EDHI 251920Z 15006KT 120V190 6000 FEW026 M04/M06 Q1008","observationTime":"2019-01-25T19:20:00Z","temp":-4,"dewpoint":-6,"windDirection":150,"windSpeed":11.112,"visibility":3.73,"altim":29.763779,"flightCategory":"MVFR","metarType":"METAR","geometry_esri":{"x":53.53,"y":9.83,"z":13}}}