{"type":"Feature","geometry":{"type":"Point","coordinates":[53.53,9.83,13]},"properties":{"stationId":"EDHI","rawText":"EDHI 212350Z AUTO 27022G32KT 9999 // SCT011/// BKN014/// OVC021/// 07/05 Q0999","observationTime":"2018-12-21T23:50:00Z","temp":7,"dewpoint":5,"windDirection":270,"windSpeed":40.744,"visibility":6.21,"altim":29.498032,"flightCategory":"MVFR","metarType":"METAR","geometry_esri":{"x":53.53,"y":9.83,"z":13}}}