{"type":"Feature","geometry":{"type":"Point","coordinates":[53.53,9.83,13]},"properties":{"stationId":"EDHI","rawText":"EDHI 280620Z 31008KT 270V020 9999 FEW016 SCT020 11/06 Q1006","observationTime":"2019-05-28T06:20:00Z","temp":11,"dewpoint":6,"windDirection":310,"windSpeed":14.816,"visibility":6.21,"altim":29.704725,"flightCategory":"VFR","metarType":"METAR","geometry_esri":{"x":53.53,"y":9.83,"z":13}}}