{"type":"Feature","geometry":{"type":"Point","coordinates":[53.53,9.83,13]},"properties":{"stationId":"EDHI","rawText":"EDHI 171950Z AUTO 20005KT 160V240 9000 // SCT050/// BKN083/// OVC120/// 19/17 Q1006","observationTime":"2019-08-17T19:50:00Z","temp":19,"dewpoint":17,"windDirection":200,"windSpeed":9.26,"visibility":5.59,"altim":29.704725,"flightCategory":"VFR","metarType":"METAR","geometry_esri":{"x":53.53,"y":9.83,"z":13}}}