{"type":"Feature","geometry":{"type":"Point","coordinates":[53.53,9.83,13]},"properties":{"stationId":"EDHI","rawText":"EDHI 210050Z AUTO 06009KT 9999 3800 // BKN006/// OVC019/// 11/11 Q1013","observationTime":"2019-10-21T00:50:00Z","temp":11,"dewpoint":11,"windDirection":60,"windSpeed":16.668,"visibility":6.21,"altim":29.911417,"flightCategory":"IFR","metarType":"METAR","geometry_esri":{"x":53.53,"y":9.83,"z":13}}}