{"type":"Feature","geometry":{"type":"Point","coordinates":[53.53,9.83,13]},"properties":{"stationId":"EDHI","rawText":"EDHI 251650Z 15007KT 120V190 CAVOK 32/16 Q1017","observationTime":"2019-06-25T16:50:00Z","temp":32,"dewpoint":16,"windDirection":150,"windSpeed":12.964,"visibility":6.21,"altim":30.029528,"flightCategory":"VFR","metarType":"METAR","geometry_esri":{"x":53.53,"y":9.83,"z":13}}}