{"type":"Feature","geometry":{"type":"Point","coordinates":[53.53,9.83,13]},"properties":{"stationId":"EDHI","rawText":"EDHI 301820Z 33004KT CAVOK 22/14 Q1021","observationTime":"2019-08-30T18:20:00Z","temp":22,"dewpoint":14,"windDirection":330,"windSpeed":7.408,"visibility":6.21,"altim":30.147638,"flightCategory":"VFR","metarType":"METAR","geometry_esri":{"x":53.53,"y":9.83,"z":13}}}