{"type":"Feature","geometry":{"type":"Point","coordinates":[53.53,9.83,13]},"properties":{"stationId":"EDHI","rawText":"EDHI 261750Z AUTO 25009KT 2600 // OVC002/// 08/08 Q1027","observationTime":"2018-12-26T17:50:00Z","temp":8,"dewpoint":8,"windDirection":250,"windSpeed":16.668,"visibility":1.62,"altim":30.324802,"flightCategory":"LIFR","metarType":"METAR","geometry_esri":{"x":53.53,"y":9.83,"z":13}}}