{"type":"Feature","geometry":{"type":"Point","coordinates":[53.53,9.83,13]},"properties":{"stationId":"EDHI","rawText":"EDHI 111450Z 06009KT 030V100 9999 VCSH FEW042 06/M03 Q1026","observationTime":"2019-04-11T14:50:00Z","temp":6,"dewpoint":-3,"windDirection":60,"windSpeed":16.668,"visibility":6.21,"altim":30.295275,"flightCategory":"VFR","metarType":"METAR","geometry_esri":{"x":53.53,"y":9.83,"z":13}}}