{"type":"Feature","geometry":{"type":"Point","coordinates":[53.53,9.83,13]},"properties":{"stationId":"EDHI","rawText":"EDHI 190520Z 25016KT 9999 BKN016 05/03 Q1007","observationTime":"2020-02-19T05:20:00Z","temp":5,"dewpoint":3,"windDirection":250,"windSpeed":29.632,"visibility":6.21,"altim":29.734253,"flightCategory":"MVFR","metarType":"METAR","geometry_esri":{"x":53.53,"y":9.83,"z":13}}}