{"type":"Feature","geometry":{"type":"Point","coordinates":[53.53,9.83,13]},"properties":{"stationId":"EDHI","rawText":"EDHI 252220Z AUTO 26005KT 9999 // BKN019/// BKN028/// OVC043/// 05/05 Q1022","observationTime":"2019-12-25T22:20:00Z","temp":5,"dewpoint":5,"windDirection":260,"windSpeed":9.26,"visibility":6.21,"altim":30.177166,"flightCategory":"MVFR","metarType":"METAR","geometry_esri":{"x":53.53,"y":9.83,"z":13}}}