{"type":"Feature","geometry":{"type":"Point","coordinates":[53.53,9.83,13]},"properties":{"stationId":"EDHI","rawText":"EDHI 222120Z AUTO 13005KT 100V170 9999 // BKN240/// M03/M06 Q1003","observationTime":"2019-01-22T21:20:00Z","temp":-3,"dewpoint":-6,"windDirection":130,"windSpeed":9.26,"visibility":6.21,"altim":29.616142,"flightCategory":"VFR","metarType":"METAR","geometry_esri":{"x":53.53,"y":9.83,"z":13}}}