{"type":"Feature","geometry":{"type":"Point","coordinates":[53.53,9.83,13]},"properties":{"stationId":"EDHI","rawText":"EDHI 231750Z AUTO 21006KT 180V250 9999 // NCD 19/07 Q1015","observationTime":"2019-05-23T17:50:00Z","temp":19,"dewpoint":7,"windDirection":210,"windSpeed":11.112,"visibility":6.21,"altim":29.970472,"flightCategory":"VFR","metarType":"METAR","geometry_esri":{"x":53.53,"y":9.83,"z":13}}}