{"type":"Feature","geometry":{"type":"Point","coordinates":[53.53,9.83,13]},"properties":{"stationId":"EDHI","rawText":"EDHI 271820Z AUTO 20007KT 160V220 9999 // SCT076/// BKN094/// BKN150/// 15/12 Q1007","observationTime":"2019-09-27T18:20:00Z","temp":15,"dewpoint":12,"windDirection":200,"windSpeed":12.964,"visibility":6.21,"altim":29.734253,"flightCategory":"VFR","metarType":"METAR","geometry_esri":{"x":53.53,"y":9.83,"z":13}}}