{"type":"Feature","geometry":{"type":"Point","coordinates":[53.53,9.83,13]},"properties":{"stationId":"EDHI","rawText":"EDHI 061950Z 22013KT 6000 -DZ OVC007 07/06 Q1000","observationTime":"2019-12-06T19:50:00Z","temp":7,"dewpoint":6,"windDirection":220,"windSpeed":24.076,"visibility":3.73,"altim":29.52756,"flightCategory":"IFR","metarType":"METAR","geometry_esri":{"x":53.53,"y":9.83,"z":13}}}