{"type":"Feature","geometry":{"type":"Point","coordinates":[53.53,9.83,13]},"properties":{"stationId":"EDHI","rawText":"EDHI 101520Z AUTO 30012KT 9999 // SCT079/// OVC160/// 21/13 Q1004","observationTime":"2020-05-10T15:20:00Z","temp":21,"dewpoint":13,"windDirection":300,"windSpeed":22.224,"visibility":6.21,"altim":29.64567,"flightCategory":"VFR","metarType":"METAR","geometry_esri":{"x":53.53,"y":9.83,"z":13}}}