{"type":"Feature","geometry":{"type":"Point","coordinates":[53.53,9.83,13]},"properties":{"stationId":"EDHI","rawText":"EDHI 250650Z 14003KT 100V180 6000 -RA NSC 13/12 Q1004","observationTime":"2019-09-25T06:50:00Z","temp":13,"dewpoint":12,"windDirection":140,"windSpeed":5.556,"visibility":3.73,"altim":29.64567,"flightCategory":"MVFR","metarType":"METAR","geometry_esri":{"x":53.53,"y":9.83,"z":13}}}