{"type":"Feature","geometry":{"type":"Point","coordinates":[53.53,9.83,13]},"properties":{"stationId":"EDHI","rawText":"EDHI 060250Z AUTO 29003KT 0800 0550 R23/1000D // OVC004/// 05/05 Q1027","observationTime":"2019-01-06T02:50:00Z","temp":5,"dewpoint":5,"windDirection":290,"windSpeed":5.556,"visibility":0.5,"altim":30.324802,"flightCategory":"LIFR","metarType":"METAR","geometry_esri":{"x":53.53,"y":9.83,"z":13}}}