{"type":"Feature","geometry":{"type":"Point","coordinates":[53.53,9.83,13]},"properties":{"stationId":"EDHI","rawText":"EDHI 101350Z AUTO 24016G33KT 9999 // BKN048/// BKN073/// BKN094/// 22/14 Q1008","observationTime":"2019-08-10T13:50:00Z","temp":22,"dewpoint":14,"windDirection":240,"windSpeed":29.632,"visibility":6.21,"altim":29.763779,"flightCategory":"VFR","metarType":"METAR","geometry_esri":{"x":53.53,"y":9.83,"z":13}}}