{"type":"Feature","geometry":{"type":"Point","coordinates":[53.53,9.83,13]},"properties":{"stationId":"EDHI","rawText":"EDHI 290220Z AUTO 07006KT 040V100 9999 // FEW014/// OVC022/// 08/06 Q1003","observationTime":"2020-04-29T02:20:00Z","temp":8,"dewpoint":6,"windDirection":70,"windSpeed":11.112,"visibility":6.21,"altim":29.616142,"flightCategory":"MVFR","metarType":"METAR","geometry_esri":{"x":53.53,"y":9.83,"z":13}}}