{"type":"Feature","geometry":{"type":"Point","coordinates":[53.53,9.83,13]},"properties":{"stationId":"EDHI","rawText":"EDHI 181220Z 19007KT 140V220 9000 BKN011 BKN026 07/05 Q1022","observationTime":"2018-12-18T12:20:00Z","temp":7,"dewpoint":5,"windDirection":190,"windSpeed":12.964,"visibility":5.59,"altim":30.177166,"flightCategory":"MVFR","metarType":"METAR","geometry_esri":{"x":53.53,"y":9.83,"z":13}}}