{"type":"Feature","geometry":{"type":"Point","coordinates":[53.53,9.83,13]},"properties":{"stationId":"EDHI","rawText":"EDHI 221720Z 12008KT 080V160 7000 BKN007 06/05 Q1009","observationTime":"2019-11-22T17:20:00Z","temp":6,"dewpoint":5,"windDirection":120,"windSpeed":14.816,"visibility":4.35,"altim":29.793306,"flightCategory":"IFR","metarType":"METAR","geometry_esri":{"x":53.53,"y":9.83,"z":13}}}