{"type":"Feature","geometry":{"type":"Point","coordinates":[53.53,9.83,13]},"properties":{"stationId":"EDHI","rawText":"EDHI 080250Z AUTO 09004KT 070V130 9999 // BKN059/// 09/01 Q1030","observationTime":"2020-04-08T02:50:00Z","temp":9,"dewpoint":1,"windDirection":90,"windSpeed":7.408,"visibility":6.21,"altim":30.413385,"flightCategory":"VFR","metarType":"METAR","geometry_esri":{"x":53.53,"y":9.83,"z":13}}}