{"type":"Feature","geometry":{"type":"Point","coordinates":[53.53,9.83,13]},"properties":{"stationId":"EDHI","rawText":"EDHI 050920Z 35009KT 320V030 9999 SCT041 11/00 Q1021","observationTime":"2020-05-05T09:20:00Z","temp":11,"dewpoint":0,"windDirection":350,"windSpeed":16.668,"visibility":6.21,"altim":30.147638,"flightCategory":"VFR","metarType":"METAR","geometry_esri":{"x":53.53,"y":9.83,"z":13}}}