{"type":"Feature","geometry":{"type":"Point","coordinates":[53.53,9.83,13]},"properties":{"stationId":"EDHI","rawText":"EDHI 211650Z 24007KT 8000 SCT012 BKN032 M01/M04 Q1018","observationTime":"2019-01-21T16:50:00Z","temp":-1,"dewpoint":-4,"windDirection":240,"windSpeed":12.964,"visibility":4.97,"altim":30.059055,"flightCategory":"MVFR","metarType":"METAR","geometry_esri":{"x":53.53,"y":9.83,"z":13}}}