{"type":"Feature","geometry":{"type":"Point","coordinates":[53.53,9.83,13]},"properties":{"stationId":"EDHI","rawText":"EDHI 170150Z AUTO 24027G40KT 7000 2100 // FEW013/// BKN039/// OVC059/// 07/03 Q1002","observationTime":"2020-02-17T01:50:00Z","temp":7,"dewpoint":3,"windDirection":240,"windSpeed":50.004000000000005,"visibility":4.35,"altim":29.586615,"flightCategory":"MVFR","metarType":"METAR","geometry_esri":{"x":53.53,"y":9.83,"z":13}}}