{"type":"Feature","geometry":{"type":"Point","coordinates":[53.53,9.83,13]},"properties":{"stationId":"EDHI","rawText":"EDHI 281620Z 28008KT 9999 FEW016 11/08 Q1033","observationTime":"2019-03-28T16:20:00Z","temp":11,"dewpoint":8,"windDirection":280,"windSpeed":14.816,"visibility":6.21,"altim":30.501968,"flightCategory":"VFR","metarType":"METAR","geometry_esri":{"x":53.53,"y":9.83,"z":13}}}