{"type":"Feature","geometry":{"type":"Point","coordinates":[53.53,9.83,13]},"properties":{"stationId":"EDHI","rawText":"EDHI 200950Z 10011KT 060V140 CAVOK 13/M02 Q1027","observationTime":"2020-04-20T09:50:00Z","temp":13,"dewpoint":-2,"windDirection":100,"windSpeed":20.372,"visibility":6.21,"altim":30.324802,"flightCategory":"VFR","metarType":"METAR","geometry_esri":{"x":53.53,"y":9.83,"z":13}}}