{"type":"Feature","geometry":{"type":"Point","coordinates":[53.53,9.83,13]},"properties":{"stationId":"EDHI","rawText":"EDHI 271050Z 23008KT 190V260 9999 FEW016 BKN021 16/13 Q1007","observationTime":"2019-09-27T10:50:00Z","temp":16,"dewpoint":13,"windDirection":230,"windSpeed":14.816,"visibility":6.21,"altim":29.734253,"flightCategory":"MVFR","metarType":"METAR","geometry_esri":{"x":53.53,"y":9.83,"z":13}}}