{"type":"Feature","geometry":{"type":"Point","coordinates":[53.53,9.83,13]},"properties":{"stationId":"EDHI","rawText":"EDHI 250220Z AUTO 24003KT 9999 // NCD M00/M02 Q1037","observationTime":"2019-02-25T02:20:00Z","temp":0,"dewpoint":-2,"windDirection":240,"windSpeed":5.556,"visibility":6.21,"altim":30.620079,"flightCategory":"VFR","metarType":"METAR","geometry_esri":{"x":53.53,"y":9.83,"z":13}}}