{"type":"Feature","geometry":{"type":"Point","coordinates":[53.53,9.83,13]},"properties":{"stationId":"EDHI","rawText":"EDHI 110720Z 25017KT 9999 SCT011 BKN015 03/01 Q1005","observationTime":"2019-03-11T07:20:00Z","temp":3,"dewpoint":1,"windDirection":250,"windSpeed":31.484,"visibility":6.21,"altim":29.675198,"flightCategory":"MVFR","metarType":"METAR","geometry_esri":{"x":53.53,"y":9.83,"z":13}}}