{"type":"Feature","geometry":{"type":"Point","coordinates":[53.53,9.83,13]},"properties":{"stationId":"EDHI","rawText":"EDHI 120720Z 24020G32KT 9999 SCT013 BKN021 03/01 Q1001","observationTime":"2020-02-12T07:20:00Z","temp":3,"dewpoint":1,"windDirection":240,"windSpeed":37.04,"visibility":6.21,"altim":29.557087,"flightCategory":"MVFR","metarType":"METAR","geometry_esri":{"x":53.53,"y":9.83,"z":13}}}