{"type":"Feature","geometry":{"type":"Point","coordinates":[53.53,9.83,13]},"properties":{"stationId":"EDHI","rawText":"EDHI 190320Z AUTO 27007KT 9999 // FEW034/// 09/07 Q1026","observationTime":"2019-09-19T03:20:00Z","temp":9,"dewpoint":7,"windDirection":270,"windSpeed":12.964,"visibility":6.21,"altim":30.295275,"flightCategory":"VFR","metarType":"METAR","geometry_esri":{"x":53.53,"y":9.83,"z":13}}}