{"type":"Feature","geometry":{"type":"Point","coordinates":[53.53,9.83,13]},"properties":{"stationId":"EDHI","rawText":"EDHI 291920Z AUTO 22010KT 9999 // OVC009/// 15/14 Q0991","observationTime":"2019-09-29T19:20:00Z","temp":15,"dewpoint":14,"windDirection":220,"windSpeed":18.52,"visibility":6.21,"altim":29.26181,"flightCategory":"IFR","metarType":"METAR","geometry_esri":{"x":53.53,"y":9.83,"z":13}}}