{"type":"Feature","geometry":{"type":"Point","coordinates":[53.53,9.83,13]},"properties":{"stationId":"EDHI","rawText":"EDHI 230820Z 24015KT 9999 SCT010 BKN048 07/06 Q1015","observationTime":"2018-12-23T08:20:00Z","temp":7,"dewpoint":6,"windDirection":240,"windSpeed":27.78,"visibility":6.21,"altim":29.970472,"flightCategory":"VFR","metarType":"METAR","geometry_esri":{"x":53.53,"y":9.83,"z":13}}}