{"type":"Feature","geometry":{"type":"Point","coordinates":[53.53,9.83,13]},"properties":{"stationId":"EDHI","rawText":"EDHI 050050Z AUTO 20003KT 9999 // NCD 00/M00 Q1013","observationTime":"2019-05-05T00:50:00Z","temp":0,"dewpoint":0,"windDirection":200,"windSpeed":5.556,"visibility":6.21,"altim":29.911417,"flightCategory":"VFR","metarType":"METAR","geometry_esri":{"x":53.53,"y":9.83,"z":13}}}