{"type":"Feature","geometry":{"type":"Point","coordinates":[53.53,9.83,13]},"properties":{"stationId":"EDHI","rawText":"EDHI 071920Z AUTO 23004KT 9999 // BKN094/// BKN120/// 17/13 Q1006","observationTime":"2019-08-07T19:20:00Z","temp":17,"dewpoint":13,"windDirection":230,"windSpeed":7.408,"visibility":6.21,"altim":29.704725,"flightCategory":"VFR","metarType":"METAR","geometry_esri":{"x":53.53,"y":9.83,"z":13}}}