{"type":"Feature","geometry":{"type":"Point","coordinates":[53.53,9.83,13]},"properties":{"stationId":"EDHI","rawText":"EDHI 170120Z AUTO 32004KT 220V010 9999 // OVC190/// 06/02 Q1018","observationTime":"2020-04-17T01:20:00Z","temp":6,"dewpoint":2,"windDirection":320,"windSpeed":7.408,"visibility":6.21,"altim":30.059055,"flightCategory":"VFR","metarType":"METAR","geometry_esri":{"x":53.53,"y":9.83,"z":13}}}