{"type":"Feature","geometry":{"type":"Point","coordinates":[53.53,9.83,13]},"properties":{"stationId":"EDHI","rawText":"EDHI 110420Z AUTO 14002KT 5000 // NCD 00/M01 Q1012","observationTime":"2019-11-11T04:20:00Z","temp":0,"dewpoint":-1,"windDirection":140,"windSpeed":3.704,"visibility":3.11,"altim":29.88189,"flightCategory":"MVFR","metarType":"METAR","geometry_esri":{"x":53.53,"y":9.83,"z":13}}}