{"type":"Feature","geometry":{"type":"Point","coordinates":[53.53,9.83,13]},"properties":{"stationId":"EDHI","rawText":"EDHI 220150Z AUTO 28020KT 9999 // BKN013/// BKN016/// OVC020/// 07/05 Q1001","observationTime":"2018-12-22T01:50:00Z","temp":7,"dewpoint":5,"windDirection":280,"windSpeed":37.04,"visibility":6.21,"altim":29.557087,"flightCategory":"MVFR","metarType":"METAR","geometry_esri":{"x":53.53,"y":9.83,"z":13}}}