{"type":"Feature","geometry":{"type":"Point","coordinates":[53.53,9.83,13]},"properties":{"stationId":"EDHI","rawText":"EDHI 292050Z AUTO 23003KT 190V260 9999 // NCD 00/M02 Q1014","observationTime":"2019-11-29T20:50:00Z","temp":0,"dewpoint":-2,"windDirection":230,"windSpeed":5.556,"visibility":6.21,"altim":29.940945,"flightCategory":"VFR","metarType":"METAR","geometry_esri":{"x":53.53,"y":9.83,"z":13}}}