{"type":"Feature","geometry":{"type":"Point","coordinates":[53.53,9.83,13]},"properties":{"stationId":"EDHI","rawText":"EDHI 190950Z 34012KT 300V010 CAVOK 13/06 Q1029","observationTime":"2019-09-19T09:50:00Z","temp":13,"dewpoint":6,"windDirection":340,"windSpeed":22.224,"visibility":6.21,"altim":30.383858,"flightCategory":"VFR","metarType":"METAR","geometry_esri":{"x":53.53,"y":9.83,"z":13}}}