{"type":"Feature","geometry":{"type":"Point","coordinates":[53.53,9.83,13]},"properties":{"stationId":"EDHI","rawText":"EDHI 120250Z AUTO 27019KT 230V290 2400 // FEW005/// BKN007/// OVC027/// 13/12 Q1004","observationTime":"2019-10-12T02:50:00Z","temp":13,"dewpoint":12,"windDirection":270,"windSpeed":35.188,"visibility":1.49,"altim":29.64567,"flightCategory":"IFR","metarType":"METAR","geometry_esri":{"x":53.53,"y":9.83,"z":13}}}