{"type":"Feature","geometry":{"type":"Point","coordinates":[53.53,9.83,13]},"properties":{"stationId":"EDHI","rawText":"EDHI 021020Z 31017G29KT 270V340 9999 FEW038TCU BKN045 15/08 Q1020","observationTime":"2019-07-02T10:20:00Z","temp":15,"dewpoint":8,"windDirection":310,"windSpeed":31.484,"visibility":6.21,"altim":30.11811,"flightCategory":"VFR","metarType":"METAR","geometry_esri":{"x":53.53,"y":9.83,"z":13}}}