{"type":"Feature","geometry":{"type":"Point","coordinates":[53.53,9.83,13]},"properties":{"stationId":"EDHI","rawText":"EDHI 090120Z AUTO 19015KT 160V220 9999 // BKN030/// OVC037/// 07/05 Q0998","observationTime":"2019-02-09T01:20:00Z","temp":7,"dewpoint":5,"windDirection":190,"windSpeed":27.78,"visibility":6.21,"altim":29.468504,"flightCategory":"MVFR","metarType":"METAR","geometry_esri":{"x":53.53,"y":9.83,"z":13}}}