{"type":"Feature","geometry":{"type":"Point","coordinates":[53.53,9.83,13]},"properties":{"stationId":"EDHI","rawText":"EDHI 232320Z AUTO 35006KT 310V020 9999 // SCT006/// BKN011/// OVC035/// 06/05 Q1014","observationTime":"2018-12-23T23:20:00Z","temp":6,"dewpoint":5,"windDirection":350,"windSpeed":11.112,"visibility":6.21,"altim":29.940945,"flightCategory":"MVFR","metarType":"SPECI","geometry_esri":{"x":53.53,"y":9.83,"z":13}}}