{"type":"Feature","geometry":{"type":"Point","coordinates":[53.53,9.83,13]},"properties":{"stationId":"EDHI","rawText":"EDHI 090920Z 05012KT 020V100 9999 FEW028 08/01 Q1017","observationTime":"2019-04-09T09:20:00Z","temp":8,"dewpoint":1,"windDirection":50,"windSpeed":22.224,"visibility":6.21,"altim":30.029528,"flightCategory":"VFR","metarType":"METAR","geometry_esri":{"x":53.53,"y":9.83,"z":13}}}