{"type":"Feature","geometry":{"type":"Point","coordinates":[53.53,9.83,13]},"properties":{"stationId":"EDHI","rawText":"EDHI 221050Z 12006KT 080V170 CAVOK M01/M05 Q1009","observationTime":"2019-01-22T10:50:00Z","temp":-1,"dewpoint":-5,"windDirection":120,"windSpeed":11.112,"visibility":6.21,"altim":29.793306,"flightCategory":"VFR","metarType":"METAR","geometry_esri":{"x":53.53,"y":9.83,"z":13}}}