{"type":"Feature","geometry":{"type":"Point","coordinates":[53.53,9.83,13]},"properties":{"stationId":"EDHI","rawText":"EDHI 110950Z 28016KT 9999 FEW030 10/03 Q1008","observationTime":"2020-03-11T09:50:00Z","temp":10,"dewpoint":3,"windDirection":280,"windSpeed":29.632,"visibility":6.21,"altim":29.763779,"flightCategory":"VFR","metarType":"METAR","geometry_esri":{"x":53.53,"y":9.83,"z":13}}}