{"type":"Feature","geometry":{"type":"Point","coordinates":[53.53,9.83,13]},"properties":{"stationId":"EDHI","rawText":"EDHI 180320Z AUTO 27010KT 9999 3200 // SCT046/// BKN160/// 07/05 Q1008","observationTime":"2019-12-18T03:20:00Z","temp":7,"dewpoint":5,"windDirection":270,"windSpeed":18.52,"visibility":6.21,"altim":29.763779,"flightCategory":"VFR","metarType":"METAR","geometry_esri":{"x":53.53,"y":9.83,"z":13}}}