{"type":"Feature","geometry":{"type":"Point","coordinates":[53.53,9.83,13]},"properties":{"stationId":"EDHI","rawText":"EDHI 111320Z 27025KT 6000 -SHRA SCT018CB BKN021 05/02 Q0993","observationTime":"2020-02-11T13:20:00Z","temp":5,"dewpoint":2,"windDirection":270,"windSpeed":46.300000000000004,"visibility":3.73,"altim":29.320866,"flightCategory":"MVFR","metarType":"METAR","geometry_esri":{"x":53.53,"y":9.83,"z":13}}}