{"type":"Feature","geometry":{"type":"Point","coordinates":[53.53,9.83,13]},"properties":{"stationId":"EDHI","rawText":"EDHI 250950Z AUTO 25004KT 3500 // OVC005/// 05/05 Q1014","observationTime":"2019-12-25T09:50:00Z","temp":5,"dewpoint":5,"windDirection":250,"windSpeed":7.408,"visibility":2.17,"altim":29.940945,"flightCategory":"IFR","metarType":"METAR","geometry_esri":{"x":53.53,"y":9.83,"z":13}}}