{"type":"Feature","geometry":{"type":"Point","coordinates":[53.53,9.83,13]},"properties":{"stationId":"EDHI","rawText":"EDHI 011620Z 14006KT 100V160 4900 -RA OVC008 04/03 Q1003","observationTime":"2019-11-01T16:20:00Z","temp":4,"dewpoint":3,"windDirection":140,"windSpeed":11.112,"visibility":3.04,"altim":29.616142,"flightCategory":"IFR","metarType":"METAR","geometry_esri":{"x":53.53,"y":9.83,"z":13}}}