{"type":"Feature","geometry":{"type":"Point","coordinates":[53.53,9.83,13]},"properties":{"stationId":"EDHI","rawText":"EDHI 290620Z VRB02KT 9999 BCFG NSC 01/01 Q1023","observationTime":"2019-10-29T06:20:00Z","temp":1,"dewpoint":1,"windDirection":0,"windSpeed":3.704,"visibility":6.21,"altim":30.206694,"flightCategory":"VFR","metarType":"METAR","geometry_esri":{"x":53.53,"y":9.83,"z":13}}}