{"type":"Feature","geometry":{"type":"Point","coordinates":[53.53,9.83,13]},"properties":{"stationId":"EDHI","rawText":"EDHI 130420Z AUTO 03008KT 3900 // BKN009/// OVC036/// 02/M00 Q1026","observationTime":"2019-04-13T04:20:00Z","temp":2,"dewpoint":0,"windDirection":30,"windSpeed":14.816,"visibility":2.42,"altim":30.295275,"flightCategory":"IFR","metarType":"METAR","geometry_esri":{"x":53.53,"y":9.83,"z":13}}}