{"type":"Feature","geometry":{"type":"Point","coordinates":[53.53,9.83,13]},"properties":{"stationId":"EDHI","rawText":"EDHI 080520Z 26017KT 6000 -RA FEW010 SCT016 BKN023 06/05 Q0993","observationTime":"2019-03-08T05:20:00Z","temp":6,"dewpoint":5,"windDirection":260,"windSpeed":31.484,"visibility":3.73,"altim":29.320866,"flightCategory":"MVFR","metarType":"METAR","geometry_esri":{"x":53.53,"y":9.83,"z":13}}}