{"type":"Feature","geometry":{"type":"Point","coordinates":[53.53,9.83,13]},"properties":{"stationId":"EDHI","rawText":"EDHI 061620Z 03010KT 7000 -RA SCT008 OVC010 04/03 Q0996","observationTime":"2020-03-06T16:20:00Z","temp":4,"dewpoint":3,"windDirection":30,"windSpeed":18.52,"visibility":4.35,"altim":29.409449,"flightCategory":"MVFR","metarType":"METAR","geometry_esri":{"x":53.53,"y":9.83,"z":13}}}