{"type":"Feature","geometry":{"type":"Point","coordinates":[53.53,9.83,13]},"properties":{"stationId":"EDHI","rawText":"EDHI 022050Z AUTO 27008KT 9999 // FEW014/// BKN018/// BKN210/// 09/06 Q1010","observationTime":"2020-05-02T20:50:00Z","temp":9,"dewpoint":6,"windDirection":270,"windSpeed":14.816,"visibility":6.21,"altim":29.822834,"flightCategory":"MVFR","metarType":"METAR","geometry_esri":{"x":53.53,"y":9.83,"z":13}}}