{"type":"Feature","geometry":{"type":"Point","coordinates":[53.53,9.83,13]},"properties":{"stationId":"EDHI","rawText":"EDHI 281750Z 06011KT 9999 -RA BKN049 11/06 Q1004","observationTime":"2020-04-28T17:50:00Z","temp":11,"dewpoint":6,"windDirection":60,"windSpeed":20.372,"visibility":6.21,"altim":29.64567,"flightCategory":"VFR","metarType":"METAR","geometry_esri":{"x":53.53,"y":9.83,"z":13}}}