{"type":"Feature","geometry":{"type":"Point","coordinates":[53.53,9.83,13]},"properties":{"stationId":"EDHI","rawText":"EDHI 080120Z AUTO 23015KT 9999 // FEW024/// OVC030/// 08/05 Q1005","observationTime":"2019-12-08T01:20:00Z","temp":8,"dewpoint":5,"windDirection":230,"windSpeed":27.78,"visibility":6.21,"altim":29.675198,"flightCategory":"MVFR","metarType":"METAR","geometry_esri":{"x":53.53,"y":9.83,"z":13}}}