{"type":"Feature","geometry":{"type":"Point","coordinates":[53.53,9.83,13]},"properties":{"stationId":"EDHI","rawText":"EDHI 082320Z AUTO 07009KT 040V100 9999 // NCD 06/00 Q1015","observationTime":"2019-04-08T23:20:00Z","temp":6,"dewpoint":0,"windDirection":70,"windSpeed":16.668,"visibility":6.21,"altim":29.970472,"flightCategory":"VFR","metarType":"METAR","geometry_esri":{"x":53.53,"y":9.83,"z":13}}}