{"type":"Feature","geometry":{"type":"Point","coordinates":[53.53,9.83,13]},"properties":{"stationId":"EDHI","rawText":"EDHI 200250Z AUTO 12007KT 070V160 2500 // BKN002/// OVC005/// 05/05 Q1000","observationTime":"2019-12-20T02:50:00Z","temp":5,"dewpoint":5,"windDirection":120,"windSpeed":12.964,"visibility":1.55,"altim":29.52756,"flightCategory":"LIFR","metarType":"METAR","geometry_esri":{"x":53.53,"y":9.83,"z":13}}}