{"type":"Feature","geometry":{"type":"Point","coordinates":[53.53,9.83,13]},"properties":{"stationId":"EDHI","rawText":"EDHI 151350Z 25014KT 9999 BKN011 20/17 Q1010","observationTime":"2019-06-15T13:50:00Z","temp":20,"dewpoint":17,"windDirection":250,"windSpeed":25.928,"visibility":6.21,"altim":29.822834,"flightCategory":"MVFR","metarType":"METAR","geometry_esri":{"x":53.53,"y":9.83,"z":13}}}