{"type":"Feature","geometry":{"type":"Point","coordinates":[53.53,9.83,13]},"properties":{"stationId":"EDHI","rawText":"EDHI 190920Z 32009KT 300V360 9999 SCT034 13/06 Q1028","observationTime":"2019-09-19T09:20:00Z","temp":13,"dewpoint":6,"windDirection":320,"windSpeed":16.668,"visibility":6.21,"altim":30.35433,"flightCategory":"VFR","metarType":"METAR","geometry_esri":{"x":53.53,"y":9.83,"z":13}}}