{"type":"Feature","geometry":{"type":"Point","coordinates":[53.53,9.83,13]},"properties":{"stationId":"EDHI","rawText":"EDHI 051850Z 22011KT 5000 BR BKN008 OVC014 03/02 Q1014","observationTime":"2019-12-05T18:50:00Z","temp":3,"dewpoint":2,"windDirection":220,"windSpeed":20.372,"visibility":3.11,"altim":29.940945,"flightCategory":"IFR","metarType":"METAR","geometry_esri":{"x":53.53,"y":9.83,"z":13}}}