{"type":"Feature","geometry":{"type":"Point","coordinates":[53.53,9.83,13]},"properties":{"stationId":"EDHI","rawText":"EDHI 160120Z AUTO 05005KT 5000 // OVC010/// 07/06 Q1004","observationTime":"2019-11-16T01:20:00Z","temp":7,"dewpoint":6,"windDirection":50,"windSpeed":9.26,"visibility":3.11,"altim":29.64567,"flightCategory":"MVFR","metarType":"METAR","geometry_esri":{"x":53.53,"y":9.83,"z":13}}}