{"type":"Feature","geometry":{"type":"Point","coordinates":[53.53,9.83,13]},"properties":{"stationId":"EDHI","rawText":"EDHI 200620Z 08008KT 050V120 CAVOK 07/M02 Q1027","observationTime":"2020-04-20T06:20:00Z","temp":7,"dewpoint":-2,"windDirection":80,"windSpeed":14.816,"visibility":6.21,"altim":30.324802,"flightCategory":"VFR","metarType":"METAR","geometry_esri":{"x":53.53,"y":9.83,"z":13}}}