{"type":"Feature","geometry":{"type":"Point","coordinates":[53.53,9.83,13]},"properties":{"stationId":"EDHI","rawText":"EDHI 260350Z AUTO 24003KT 9999 // SCT044/// BKN120/// 09/07 Q1012","observationTime":"2019-05-26T03:50:00Z","temp":9,"dewpoint":7,"windDirection":240,"windSpeed":5.556,"visibility":6.21,"altim":29.88189,"flightCategory":"VFR","metarType":"METAR","geometry_esri":{"x":53.53,"y":9.83,"z":13}}}