{"type":"Feature","geometry":{"type":"Point","coordinates":[53.53,9.83,13]},"properties":{"stationId":"EDHI","rawText":"EDHI 160150Z AUTO 35006KT 5000 // FEW004/// BKN060/// OVC080/// 14/13 Q1006","observationTime":"2019-10-16T01:50:00Z","temp":14,"dewpoint":13,"windDirection":350,"windSpeed":11.112,"visibility":3.11,"altim":29.704725,"flightCategory":"MVFR","metarType":"METAR","geometry_esri":{"x":53.53,"y":9.83,"z":13}}}