{"type":"Feature","geometry":{"type":"Point","coordinates":[53.53,9.83,13]},"properties":{"stationId":"EDHI","rawText":"EDHI 200950Z 25003KT 8000 NSC 04/04 Q1046","observationTime":"2020-01-20T09:50:00Z","temp":4,"dewpoint":4,"windDirection":250,"windSpeed":5.556,"visibility":4.97,"altim":30.885826,"flightCategory":"MVFR","metarType":"METAR","geometry_esri":{"x":53.53,"y":9.83,"z":13}}}