{"type":"Feature","geometry":{"type":"Point","coordinates":[53.53,9.83,13]},"properties":{"stationId":"EDHI","rawText":"EDHI 170320Z AUTO 23018KT 9999 3300 // FEW034/// SCT053/// BKN250/// 07/04 Q1003","observationTime":"2020-02-17T03:20:00Z","temp":7,"dewpoint":4,"windDirection":230,"windSpeed":33.336,"visibility":6.21,"altim":29.616142,"flightCategory":"VFR","metarType":"METAR","geometry_esri":{"x":53.53,"y":9.83,"z":13}}}