{"type":"Feature","geometry":{"type":"Point","coordinates":[53.53,9.83,13]},"properties":{"stationId":"EDHI","rawText":"EDHI 240220Z AUTO 23009KT 9999 // FEW015/// SCT040/// OVC046/// 06/05 Q1010","observationTime":"2019-12-24T02:20:00Z","temp":6,"dewpoint":5,"windDirection":230,"windSpeed":16.668,"visibility":6.21,"altim":29.822834,"flightCategory":"VFR","metarType":"METAR","geometry_esri":{"x":53.53,"y":9.83,"z":13}}}