{"type":"Feature","geometry":{"type":"Point","coordinates":[53.53,9.83,13]},"properties":{"stationId":"EDHI","rawText":"EDHI 031450Z AUTO 29013KT 9999 // FEW037/// 23/15 Q1015","observationTime":"2019-08-03T14:50:00Z","temp":23,"dewpoint":15,"windDirection":290,"windSpeed":24.076,"visibility":6.21,"altim":29.970472,"flightCategory":"VFR","metarType":"METAR","geometry_esri":{"x":53.53,"y":9.83,"z":13}}}