{"type":"Feature","geometry":{"type":"Point","coordinates":[53.53,9.83,13]},"properties":{"stationId":"EDHI","rawText":"EDHI 100320Z AUTO 29014KT 9999 // SCT023/// SCT029/// BKN055/// 05/02 Q1008","observationTime":"2018-12-10T03:20:00Z","temp":5,"dewpoint":2,"windDirection":290,"windSpeed":25.928,"visibility":6.21,"altim":29.763779,"skyCondition1a":"SCT","skyCondition1b":2300,"skyCondition2a":"SCT","skyCondition2b":2900,"flightCategory":"VFR","metarType":"METAR","geometry_esri":{"x":53.53,"y":9.83,"z":13}}}