{"type":"Feature","geometry":{"type":"Point","coordinates":[53.53,9.83,13]},"properties":{"stationId":"EDHI","rawText":"EDHI 061520Z AUTO 28005KT 1900 // BKN005/// OVC013/// 06/06 Q1028","observationTime":"2019-01-06T15:20:00Z","temp":6,"dewpoint":6,"windDirection":280,"windSpeed":9.26,"visibility":1.18,"altim":30.35433,"flightCategory":"IFR","metarType":"METAR","geometry_esri":{"x":53.53,"y":9.83,"z":13}}}