{"type":"Feature","geometry":{"type":"Point","coordinates":[53.53,9.83,13]},"properties":{"stationId":"EDHI","rawText":"EDHI 021520Z AUTO 25006KT 9999 // FEW012/// BKN023/// OVC029/// 07/05 Q1003","observationTime":"2020-02-02T15:20:00Z","temp":7,"dewpoint":5,"windDirection":250,"windSpeed":11.112,"visibility":6.21,"altim":29.616142,"flightCategory":"MVFR","metarType":"METAR","geometry_esri":{"x":53.53,"y":9.83,"z":13}}}