{"type":"Feature","geometry":{"type":"Point","coordinates":[53.53,9.83,13]},"properties":{"stationId":"EDHI","rawText":"EDHI 200720Z 25002KT 4500 BR SCT004 SCT008 BKN016 04/03 Q1045","observationTime":"2020-01-20T07:20:00Z","temp":4,"dewpoint":3,"windDirection":250,"windSpeed":3.704,"visibility":2.8,"altim":30.856298,"flightCategory":"IFR","metarType":"METAR","geometry_esri":{"x":53.53,"y":9.83,"z":13}}}