{"type":"Feature","geometry":{"type":"Point","coordinates":[53.53,9.83,13]},"properties":{"stationId":"EDHI","rawText":"EDHI 181350Z 16009KT 120V190 2500 TSRA SCT038CB OVC046 16/12 Q1001","observationTime":"2019-10-18T13:50:00Z","temp":16,"dewpoint":12,"windDirection":160,"windSpeed":16.668,"visibility":1.55,"altim":29.557087,"flightCategory":"IFR","metarType":"METAR","geometry_esri":{"x":53.53,"y":9.83,"z":13}}}