{"type":"Feature","geometry":{"type":"Point","coordinates":[53.53,9.83,13]},"properties":{"stationId":"EDHI","rawText":"EDHI 201750Z 06013KT 040V100 CAVOK 14/00 Q1024","observationTime":"2020-04-20T17:50:00Z","temp":14,"dewpoint":0,"windDirection":60,"windSpeed":24.076,"visibility":6.21,"altim":30.236221,"flightCategory":"VFR","metarType":"METAR","geometry_esri":{"x":53.53,"y":9.83,"z":13}}}