{"type":"Feature","geometry":{"type":"Point","coordinates":[53.53,9.83,13]},"properties":{"stationId":"EDHI","rawText":"EDHI 270520Z AUTO 08010KT 9999 // NCD 20/15 Q1009","observationTime":"2019-07-27T05:20:00Z","temp":20,"dewpoint":15,"windDirection":80,"windSpeed":18.52,"visibility":6.21,"altim":29.793306,"flightCategory":"VFR","metarType":"METAR","geometry_esri":{"x":53.53,"y":9.83,"z":13}}}