{"type":"Feature","geometry":{"type":"Point","coordinates":[53.53,9.83,13]},"properties":{"stationId":"EDHI","rawText":"EDHI 131850Z 25010KT 7000 SCT014 BKN024 08/06 Q1032","observationTime":"2019-02-13T18:50:00Z","temp":8,"dewpoint":6,"windDirection":250,"windSpeed":18.52,"visibility":4.35,"altim":30.47244,"flightCategory":"MVFR","metarType":"METAR","geometry_esri":{"x":53.53,"y":9.83,"z":13}}}