{"type":"Feature","geometry":{"type":"Point","coordinates":[53.53,9.83,13]},"properties":{"stationId":"EDHI","rawText":"EDHI 102220Z AUTO 27003KT 180V300 9000 // FEW053/// 03/02 Q1013","observationTime":"2019-11-10T22:20:00Z","temp":3,"dewpoint":2,"windDirection":270,"windSpeed":5.556,"visibility":5.59,"altim":29.911417,"flightCategory":"VFR","metarType":"METAR","geometry_esri":{"x":53.53,"y":9.83,"z":13}}}