{"type":"Feature","geometry":{"type":"Point","coordinates":[53.53,9.83,13]},"properties":{"stationId":"EDHI","rawText":"EDHI 210320Z AUTO 10003KT 080V140 5000 // SCT006/// OVC045/// 03/03 Q1015","observationTime":"2019-11-21T03:20:00Z","temp":3,"dewpoint":3,"windDirection":100,"windSpeed":5.556,"visibility":3.11,"altim":29.970472,"flightCategory":"MVFR","metarType":"METAR","geometry_esri":{"x":53.53,"y":9.83,"z":13}}}