{"type":"Feature","geometry":{"type":"Point","coordinates":[53.53,9.83,13]},"properties":{"stationId":"EDHI","rawText":"EDHI 112020Z AUTO 14007KT 100V180 9999 // OVC130/// 04/02 Q1002","observationTime":"2019-11-11T20:20:00Z","temp":4,"dewpoint":2,"windDirection":140,"windSpeed":12.964,"visibility":6.21,"altim":29.586615,"flightCategory":"VFR","metarType":"METAR","geometry_esri":{"x":53.53,"y":9.83,"z":13}}}