{"type":"Feature","geometry":{"type":"Point","coordinates":[53.53,9.83,13]},"properties":{"stationId":"EDHI","rawText":"EDHI 120020Z AUTO VRB01KT 7000 // FEW023/// BKN026/// BKN090/// 16/15 Q1010","observationTime":"2019-07-12T00:20:00Z","temp":16,"dewpoint":15,"windDirection":0,"windSpeed":1.852,"visibility":4.35,"altim":29.822834,"flightCategory":"MVFR","metarType":"METAR","geometry_esri":{"x":53.53,"y":9.83,"z":13}}}