{"type":"Feature","geometry":{"type":"Point","coordinates":[53.53,9.83,13]},"properties":{"stationId":"EDHI","rawText":"EDHI 121320Z 19011KT 150V220 9999 BKN032 08/02 Q1000","observationTime":"2019-11-12T13:20:00Z","temp":8,"dewpoint":2,"windDirection":190,"windSpeed":20.372,"visibility":6.21,"altim":29.52756,"flightCategory":"VFR","metarType":"METAR","geometry_esri":{"x":53.53,"y":9.83,"z":13}}}