{"type":"Feature","geometry":{"type":"Point","coordinates":[53.53,9.83,13]},"properties":{"stationId":"EDHI","rawText":"EDHI 200020Z AUTO 05008KT 4600 // SCT004/// 13/12 Q1005","observationTime":"2019-05-20T00:20:00Z","temp":13,"dewpoint":12,"windDirection":50,"windSpeed":14.816,"visibility":2.86,"altim":29.675198,"flightCategory":"IFR","metarType":"METAR","geometry_esri":{"x":53.53,"y":9.83,"z":13}}}