{"type":"Feature","geometry":{"type":"Point","coordinates":[53.53,9.83,13]},"properties":{"stationId":"EDHI","rawText":"EDHI 072120Z AUTO 20014G25KT 9999 // SCT140/// 07/03 Q0993","observationTime":"2019-03-07T21:20:00Z","temp":7,"dewpoint":3,"windDirection":200,"windSpeed":25.928,"visibility":6.21,"altim":29.320866,"flightCategory":"VFR","metarType":"METAR","geometry_esri":{"x":53.53,"y":9.83,"z":13}}}