{"type":"Feature","geometry":{"type":"Point","coordinates":[53.53,9.83,13]},"properties":{"stationId":"EDHI","rawText":"EDHI 221950Z AUTO 31004KT 290V350 9999 // FEW036/// SCT044/// BKN200/// 20/17 Q1021","observationTime":"2019-07-22T19:50:00Z","temp":20,"dewpoint":17,"windDirection":310,"windSpeed":7.408,"visibility":6.21,"altim":30.147638,"flightCategory":"VFR","metarType":"METAR","geometry_esri":{"x":53.53,"y":9.83,"z":13}}}