{"type":"Feature","geometry":{"type":"Point","coordinates":[53.53,9.83,13]},"properties":{"stationId":"EDHI","rawText":"EDHI 050350Z AUTO 21004KT 9999 // NCD M01/M02 Q1014","observationTime":"2019-05-05T03:50:00Z","temp":-1,"dewpoint":-2,"windDirection":210,"windSpeed":7.408,"visibility":6.21,"altim":29.940945,"flightCategory":"VFR","metarType":"METAR","geometry_esri":{"x":53.53,"y":9.83,"z":13}}}