{"type":"Feature","geometry":{"type":"Point","coordinates":[53.53,9.83,13]},"properties":{"stationId":"EDHI","rawText":"EDHI 160850Z 23008KT 1900 -RADZ BR BKN003 OVC005 06/06 Q1003","observationTime":"2019-11-16T08:50:00Z","temp":6,"dewpoint":6,"windDirection":230,"windSpeed":14.816,"visibility":1.18,"altim":29.616142,"flightCategory":"LIFR","metarType":"METAR","geometry_esri":{"x":53.53,"y":9.83,"z":13}}}