{"type":"Feature","geometry":{"type":"Point","coordinates":[53.53,9.83,13]},"properties":{"stationId":"EDHI","rawText":"EDHI 050320Z AUTO 00000KT 0500 R23/P2000N // SCT004/// 00/00 Q1006","observationTime":"2020-03-05T03:20:00Z","temp":0,"dewpoint":0,"windDirection":0,"windSpeed":0,"visibility":0.31,"altim":29.704725,"flightCategory":"LIFR","metarType":"METAR","geometry_esri":{"x":53.53,"y":9.83,"z":13}}}