{"type":"Feature","geometry":{"type":"Point","coordinates":[53.53,9.83,13]},"properties":{"stationId":"EDHI","rawText":"EDHI 101720Z AUTO 26008KT 9999 // SCT020/// OVC100/// 04/02 Q1000","observationTime":"2019-03-10T17:20:00Z","temp":4,"dewpoint":2,"windDirection":260,"windSpeed":14.816,"visibility":6.21,"altim":29.52756,"flightCategory":"VFR","metarType":"METAR","geometry_esri":{"x":53.53,"y":9.83,"z":13}}}