{"type":"Feature","geometry":{"type":"Point","coordinates":[53.53,9.83,13]},"properties":{"stationId":"EDHI","rawText":"EDHI 310850Z 17006KT 150V210 9999 FEW019 BKN024 01/M01 Q0997","observationTime":"2019-01-31T08:50:00Z","temp":1,"dewpoint":-1,"windDirection":170,"windSpeed":11.112,"visibility":6.21,"altim":29.438976,"flightCategory":"MVFR","metarType":"METAR","geometry_esri":{"x":53.53,"y":9.83,"z":13}}}