{"type":"Feature","geometry":{"type":"Point","coordinates":[53.53,9.83,13]},"properties":{"stationId":"EDHI","rawText":"EDHI 281450Z 28012KT 220V300 9999 FEW041 10/06 Q1020","observationTime":"2019-10-28T14:50:00Z","temp":10,"dewpoint":6,"windDirection":280,"windSpeed":22.224,"visibility":6.21,"altim":30.11811,"flightCategory":"VFR","metarType":"METAR","geometry_esri":{"x":53.53,"y":9.83,"z":13}}}