{"type":"Feature","geometry":{"type":"Point","coordinates":[53.53,9.83,13]},"properties":{"stationId":"EDHI","rawText":"EDHI 060320Z AUTO 11004KT 030V180 9999 // NCD 20/15 Q1003","observationTime":"2019-06-06T03:20:00Z","temp":20,"dewpoint":15,"windDirection":110,"windSpeed":7.408,"visibility":6.21,"altim":29.616142,"flightCategory":"VFR","metarType":"METAR","geometry_esri":{"x":53.53,"y":9.83,"z":13}}}