{"type":"Feature","geometry":{"type":"Point","coordinates":[53.53,9.83,13]},"properties":{"stationId":"EDHI","rawText":"EDHI 221420Z AUTO 09015KT 060V150 9999 // NCD 20/M03 Q1013","observationTime":"2019-04-22T14:20:00Z","temp":20,"dewpoint":-3,"windDirection":90,"windSpeed":27.78,"visibility":6.21,"altim":29.911417,"flightCategory":"VFR","metarType":"METAR","geometry_esri":{"x":53.53,"y":9.83,"z":13}}}