{"type":"Feature","geometry":{"type":"Point","coordinates":[53.53,9.83,13]},"properties":{"stationId":"EDHI","rawText":"EDHI 070150Z AUTO 28007KT 3900 // BKN007/// OVC012/// 06/05 Q1029","observationTime":"2019-01-07T01:50:00Z","temp":6,"dewpoint":5,"windDirection":280,"windSpeed":12.964,"visibility":2.42,"altim":30.383858,"flightCategory":"IFR","metarType":"METAR","geometry_esri":{"x":53.53,"y":9.83,"z":13}}}