{"type":"Feature","geometry":{"type":"Point","coordinates":[53.53,9.83,13]},"properties":{"stationId":"EDHI","rawText":"EDHI 170450Z VRB02KT 3000 BR BCFG NSC 14/14 Q1021","observationTime":"2019-06-17T04:50:00Z","temp":14,"dewpoint":14,"windDirection":0,"windSpeed":3.704,"visibility":1.86,"altim":30.147638,"flightCategory":"IFR","metarType":"METAR","geometry_esri":{"x":53.53,"y":9.83,"z":13}}}