{"type":"Feature","geometry":{"type":"Point","coordinates":[53.53,9.83,13]},"properties":{"stationId":"EDHI","rawText":"EDHI 210150Z AUTO 27011KT 9999 // FEW031/// BKN036/// BKN042/// 05/02 Q1010","observationTime":"2020-02-21T01:50:00Z","temp":5,"dewpoint":2,"windDirection":270,"windSpeed":20.372,"visibility":6.21,"altim":29.822834,"flightCategory":"VFR","metarType":"METAR","geometry_esri":{"x":53.53,"y":9.83,"z":13}}}