{"type":"Feature","geometry":{"type":"Point","coordinates":[53.53,9.83,13]},"properties":{"stationId":"EDHI","rawText":"EDHI 151350Z 26017KT 3200 -RA BKN006 06/06 Q1007","observationTime":"2019-01-15T13:50:00Z","temp":6,"dewpoint":6,"windDirection":260,"windSpeed":31.484,"visibility":1.99,"altim":29.734253,"flightCategory":"IFR","metarType":"METAR","geometry_esri":{"x":53.53,"y":9.83,"z":13}}}