{"type":"Feature","geometry":{"type":"Point","coordinates":[53.53,9.83,13]},"properties":{"stationId":"EDHI","rawText":"EDHI 011150Z AUTO 19004KT 0300 R23/0400N // VV002 01/01 Q1022","observationTime":"2019-12-01T11:50:00Z","temp":1,"dewpoint":1,"windDirection":190,"windSpeed":7.408,"visibility":0.19,"altim":30.177166,"flightCategory":"LIFR","metarType":"METAR","geometry_esri":{"x":53.53,"y":9.83,"z":13}}}