{"type":"Feature","geometry":{"type":"Point","coordinates":[53.53,9.83,13]},"properties":{"stationId":"EDHI","rawText":"EDHI 220550Z AUTO 30006KT 8000 // BKN007/// BKN011/// OVC018/// 06/05 Q1003","observationTime":"2018-12-22T05:50:00Z","temp":6,"dewpoint":5,"windDirection":300,"windSpeed":11.112,"visibility":4.97,"altim":29.616142,"flightCategory":"IFR","metarType":"METAR","geometry_esri":{"x":53.53,"y":9.83,"z":13}}}