{"type":"Feature","geometry":{"type":"Point","coordinates":[53.53,9.83,13]},"properties":{"stationId":"EDHI","rawText":"EDHI 111620Z 16007KT 100V180 CAVOK 04/01 Q1004","observationTime":"2019-11-11T16:20:00Z","temp":4,"dewpoint":1,"windDirection":160,"windSpeed":12.964,"visibility":6.21,"altim":29.64567,"flightCategory":"VFR","metarType":"METAR","geometry_esri":{"x":53.53,"y":9.83,"z":13}}}