{"type":"Feature","geometry":{"type":"Point","coordinates":[53.53,9.83,13]},"properties":{"stationId":"EDHI","rawText":"EDHI 170350Z AUTO 13003KT 100V160 3500 // OVC004/// M00/M01 Q1015","observationTime":"2018-12-17T03:50:00Z","temp":0,"dewpoint":-1,"windDirection":130,"windSpeed":5.556,"visibility":2.17,"altim":29.970472,"flightCategory":"LIFR","metarType":"METAR","geometry_esri":{"x":53.53,"y":9.83,"z":13}}}