{"type":"Feature","geometry":{"type":"Point","coordinates":[53.53,9.83,13]},"properties":{"stationId":"EDHI","rawText":"EDHI 050650Z AUTO 32011KT 270V340 9999 // BKN007/// OVC012/// 07/07 Q1021","observationTime":"2019-01-05T06:50:00Z","temp":7,"dewpoint":7,"windDirection":320,"windSpeed":20.372,"visibility":6.21,"altim":30.147638,"flightCategory":"IFR","metarType":"METAR","geometry_esri":{"x":53.53,"y":9.83,"z":13}}}