{"type":"Feature","geometry":{"type":"Point","coordinates":[53.53,9.83,13]},"properties":{"stationId":"EDHI","rawText":"EDHI 281520Z 27011KT 9999 FEW038 22/13 Q1024","observationTime":"2019-06-28T15:20:00Z","temp":22,"dewpoint":13,"windDirection":270,"windSpeed":20.372,"visibility":6.21,"altim":30.236221,"flightCategory":"VFR","metarType":"METAR","geometry_esri":{"x":53.53,"y":9.83,"z":13}}}