{"type":"Feature","geometry":{"type":"Point","coordinates":[53.53,9.83,13]},"properties":{"stationId":"EDHI","rawText":"EDHI 090720Z AUTO VRB02KT 9999 // FEW081/// BKN100/// 15/07 Q1016","observationTime":"2020-05-09T07:20:00Z","temp":15,"dewpoint":7,"windDirection":0,"windSpeed":3.704,"visibility":6.21,"altim":30,"flightCategory":"VFR","metarType":"METAR","geometry_esri":{"x":53.53,"y":9.83,"z":13}}}