{"type":"Feature","geometry":{"type":"Point","coordinates":[53.53,9.83,13]},"properties":{"stationId":"EDHI","rawText":"EDHI 271320Z AUTO 20011KT 170V240 9999 // BKN012/// OVC024/// 06/05 Q0982","observationTime":"2019-01-27T13:20:00Z","temp":6,"dewpoint":5,"windDirection":200,"windSpeed":20.372,"visibility":6.21,"altim":28.996063,"flightCategory":"MVFR","metarType":"METAR","geometry_esri":{"x":53.53,"y":9.83,"z":13}}}