{"type":"Feature","geometry":{"type":"Point","coordinates":[53.53,9.83,13]},"properties":{"stationId":"EDHI","rawText":"EDHI 210650Z 25004KT 9000 FEW025 11/10 Q1023","observationTime":"2019-09-21T06:50:00Z","temp":11,"dewpoint":10,"windDirection":250,"windSpeed":7.408,"visibility":5.59,"altim":30.206694,"flightCategory":"VFR","metarType":"METAR","geometry_esri":{"x":53.53,"y":9.83,"z":13}}}