{"type":"Feature","geometry":{"type":"Point","coordinates":[53.53,9.83,13]},"properties":{"stationId":"EDHI","rawText":"EDHI 280920Z 23016KT 9999 BKN019 BKN026 17/12 Q1007","observationTime":"2019-09-28T09:20:00Z","temp":17,"dewpoint":12,"windDirection":230,"windSpeed":29.632,"visibility":6.21,"altim":29.734253,"flightCategory":"MVFR","metarType":"METAR","geometry_esri":{"x":53.53,"y":9.83,"z":13}}}