{"type":"Feature","geometry":{"type":"Point","coordinates":[53.53,9.83,13]},"properties":{"stationId":"EDHI","rawText":"EDHI 221820Z 25003KT CAVOK 23/10 Q1023","observationTime":"2019-08-22T18:20:00Z","temp":23,"dewpoint":10,"windDirection":250,"windSpeed":5.556,"visibility":6.21,"altim":30.206694,"flightCategory":"VFR","metarType":"METAR","geometry_esri":{"x":53.53,"y":9.83,"z":13}}}