{"type":"Feature","geometry":{"type":"Point","coordinates":[53.53,9.83,13]},"properties":{"stationId":"EDHI","rawText":"EDHI 122150Z AUTO 21015G25KT 170V230 9999 // BKN049/// OVC057/// 08/M00 Q0995","observationTime":"2019-03-12T21:50:00Z","temp":8,"dewpoint":0,"windDirection":210,"windSpeed":27.78,"visibility":6.21,"altim":29.379921,"flightCategory":"VFR","metarType":"METAR","geometry_esri":{"x":53.53,"y":9.83,"z":13}}}