{"type":"Feature","geometry":{"type":"Point","coordinates":[53.53,9.83,13]},"properties":{"stationId":"EDHI","rawText":"EDHI 291520Z AUTO 22013KT 3500 // OVC009/// 07/06 Q1019","observationTime":"2018-12-29T15:20:00Z","temp":7,"dewpoint":6,"windDirection":220,"windSpeed":24.076,"visibility":2.17,"altim":30.088583,"flightCategory":"IFR","metarType":"METAR","geometry_esri":{"x":53.53,"y":9.83,"z":13}}}