{"type":"Feature","geometry":{"type":"Point","coordinates":[53.53,9.83,13]},"properties":{"stationId":"EDHI","rawText":"EDHI 031520Z 24009KT 3800 RA OVC005 08/08 Q1011","observationTime":"2020-01-03T15:20:00Z","temp":8,"dewpoint":8,"windDirection":240,"windSpeed":16.668,"visibility":2.36,"altim":29.852362,"flightCategory":"IFR","metarType":"METAR","geometry_esri":{"x":53.53,"y":9.83,"z":13}}}