{"type":"Feature","geometry":{"type":"Point","coordinates":[53.53,9.83,13]},"properties":{"stationId":"EDHI","rawText":"EDHI 080750Z 28017G28KT 7000 FEW009 BKN013 06/04 Q0999","observationTime":"2019-03-08T07:50:00Z","temp":6,"dewpoint":4,"windDirection":280,"windSpeed":31.484,"visibility":4.35,"altim":29.498032,"flightCategory":"MVFR","metarType":"METAR","geometry_esri":{"x":53.53,"y":9.83,"z":13}}}