{"type":"Feature","geometry":{"type":"Point","coordinates":[53.53,9.83,13]},"properties":{"stationId":"EDHI","rawText":"EDHI 080720Z 27025KT 7000 -RA SCT015 BKN025 06/04 Q0998","observationTime":"2019-03-08T07:20:00Z","temp":6,"dewpoint":4,"windDirection":270,"windSpeed":46.300000000000004,"visibility":4.35,"altim":29.468504,"flightCategory":"MVFR","metarType":"METAR","geometry_esri":{"x":53.53,"y":9.83,"z":13}}}