{"type":"Feature","geometry":{"type":"Point","coordinates":[53.53,9.83,13]},"properties":{"stationId":"EDHI","rawText":"EDHI 121520Z 26020G30KT 9999 -SHRA FEW007CB SCT030 04/02 Q1006","observationTime":"2020-02-12T15:20:00Z","temp":4,"dewpoint":2,"windDirection":260,"windSpeed":37.04,"visibility":6.21,"altim":29.704725,"flightCategory":"VFR","metarType":"METAR","geometry_esri":{"x":53.53,"y":9.83,"z":13}}}