{"type":"Feature","geometry":{"type":"Point","coordinates":[53.53,9.83,13]},"properties":{"stationId":"EDHI","rawText":"EDHI 131850Z AUTO 30014KT 270V330 9999 // OVC033/// 05/M01 Q1017","observationTime":"2020-03-13T18:50:00Z","temp":5,"dewpoint":-1,"windDirection":300,"windSpeed":25.928,"visibility":6.21,"altim":30.029528,"flightCategory":"VFR","metarType":"METAR","geometry_esri":{"x":53.53,"y":9.83,"z":13}}}