{"type":"Feature","geometry":{"type":"Point","coordinates":[53.53,9.83,13]},"properties":{"stationId":"EDHI","rawText":"EDHI 121420Z 05014KT 020V100 9999 VCSH NSC 07/M07 Q1027","observationTime":"2019-04-12T14:20:00Z","temp":7,"dewpoint":-7,"windDirection":50,"windSpeed":25.928,"visibility":6.21,"altim":30.324802,"flightCategory":"VFR","metarType":"METAR","geometry_esri":{"x":53.53,"y":9.83,"z":13}}}