{"type":"Feature","geometry":{"type":"Point","coordinates":[53.53,9.83,13]},"properties":{"stationId":"EDHI","rawText":"EDHI 271850Z AUTO 28010KT 1800 // BKN007/// BKN015/// OVC042/// 08/08 Q1031","observationTime":"2019-03-27T18:50:00Z","temp":8,"dewpoint":8,"windDirection":280,"windSpeed":18.52,"visibility":1.12,"altim":30.442913,"flightCategory":"IFR","metarType":"METAR","geometry_esri":{"x":53.53,"y":9.83,"z":13}}}