{"type":"Feature","geometry":{"type":"Point","coordinates":[53.53,9.83,13]},"properties":{"stationId":"EDHI","rawText":"EDHI 201920Z AUTO 24007KT 8000 // NCD 04/03 Q1044","observationTime":"2020-01-20T19:20:00Z","temp":4,"dewpoint":3,"windDirection":240,"windSpeed":12.964,"visibility":4.97,"altim":30.82677,"flightCategory":"MVFR","metarType":"METAR","geometry_esri":{"x":53.53,"y":9.83,"z":13}}}