{"type":"Feature","geometry":{"type":"Point","coordinates":[53.53,9.83,13]},"properties":{"stationId":"EDHI","rawText":"EDHI 050620Z 20009KT 170V230 9999 FEW044 13/11 Q1010","observationTime":"2019-09-05T06:20:00Z","temp":13,"dewpoint":11,"windDirection":200,"windSpeed":16.668,"visibility":6.21,"altim":29.822834,"flightCategory":"VFR","metarType":"METAR","geometry_esri":{"x":53.53,"y":9.83,"z":13}}}