{"type":"Feature","geometry":{"type":"Point","coordinates":[53.53,9.83,13]},"properties":{"stationId":"EDHI","rawText":"EDHI 091850Z AUTO 26009KT 230V300 4900 2400 // FEW019/// BKN031/// OVC040/// 06/05 Q1011","observationTime":"2020-03-09T18:50:00Z","temp":6,"dewpoint":5,"windDirection":260,"windSpeed":16.668,"visibility":3.04,"altim":29.852362,"flightCategory":"MVFR","metarType":"METAR","geometry_esri":{"x":53.53,"y":9.83,"z":13}}}