{"type":"Feature","geometry":{"type":"Point","coordinates":[53.53,9.83,13]},"properties":{"stationId":"EDHI","rawText":"EDHI 191220Z 25014KT 220V280 9999 SCT041 21/11 Q1014","observationTime":"2019-08-19T12:20:00Z","temp":21,"dewpoint":11,"windDirection":250,"windSpeed":25.928,"visibility":6.21,"altim":29.940945,"flightCategory":"VFR","metarType":"METAR","geometry_esri":{"x":53.53,"y":9.83,"z":13}}}