{"type":"Feature","geometry":{"type":"Point","coordinates":[53.53,9.83,13]},"properties":{"stationId":"EDHI","rawText":"EDHI 040950Z 15004KT 110V170 8000 -RA SCT009 BKN014 OVC024 11/09 Q1008","observationTime":"2019-10-04T09:50:00Z","temp":11,"dewpoint":9,"windDirection":150,"windSpeed":7.408,"visibility":4.97,"altim":29.763779,"flightCategory":"MVFR","metarType":"METAR","geometry_esri":{"x":53.53,"y":9.83,"z":13}}}