{"type":"Feature","geometry":{"type":"Point","coordinates":[53.53,9.83,13]},"properties":{"stationId":"EDHI","rawText":"EDHI 100620Z AUTO 20012KT 9999 // BKN028/// OVC067/// 06/04 Q0997","observationTime":"2019-02-10T06:20:00Z","temp":6,"dewpoint":4,"windDirection":200,"windSpeed":22.224,"visibility":6.21,"altim":29.438976,"flightCategory":"MVFR","metarType":"METAR","geometry_esri":{"x":53.53,"y":9.83,"z":13}}}