{"type":"Feature","geometry":{"type":"Point","coordinates":[53.53,9.83,13]},"properties":{"stationId":"EDHI","rawText":"EDHI 260020Z AUTO 00000KT 2500 // FEW018/// BKN038/// 11/11 Q1006","observationTime":"2019-09-26T00:20:00Z","temp":11,"dewpoint":11,"windDirection":0,"windSpeed":0,"visibility":1.55,"altim":29.704725,"flightCategory":"IFR","metarType":"METAR","geometry_esri":{"x":53.53,"y":9.83,"z":13}}}