{"type":"Feature","geometry":{"type":"Point","coordinates":[53.53,9.83,13]},"properties":{"stationId":"EDHI","rawText":"EDHI 042020Z AUTO 31007KT 8000 // NCD 08/06 Q1001","observationTime":"2019-04-04T20:20:00Z","temp":8,"dewpoint":6,"windDirection":310,"windSpeed":12.964,"visibility":4.97,"altim":29.557087,"flightCategory":"MVFR","metarType":"METAR","geometry_esri":{"x":53.53,"y":9.83,"z":13}}}