{"type":"Feature","geometry":{"type":"Point","coordinates":[53.53,9.83,13]},"properties":{"stationId":"EDHI","rawText":"EDHI 200750Z 02007KT 330V060 9000 BKN006 14/12 Q1005","observationTime":"2019-05-20T07:50:00Z","temp":14,"dewpoint":12,"windDirection":20,"windSpeed":12.964,"visibility":5.59,"altim":29.675198,"flightCategory":"IFR","metarType":"METAR","geometry_esri":{"x":53.53,"y":9.83,"z":13}}}