{"type":"Feature","geometry":{"type":"Point","coordinates":[53.53,9.83,13]},"properties":{"stationId":"EDHI","rawText":"EDHI 181720Z AUTO 05013KT 9999 // NCD 13/M03 Q1018","observationTime":"2020-04-18T17:20:00Z","temp":13,"dewpoint":-3,"windDirection":50,"windSpeed":24.076,"visibility":6.21,"altim":30.059055,"flightCategory":"VFR","metarType":"METAR","geometry_esri":{"x":53.53,"y":9.83,"z":13}}}