{"type":"Feature","geometry":{"type":"Point","coordinates":[53.53,9.83,13]},"properties":{"stationId":"EDHI","rawText":"EDHI 121350Z 25016KT 3800 -RA BR BKN008 BKN011 OVC016 06/06 Q1005","observationTime":"2019-01-12T13:50:00Z","temp":6,"dewpoint":6,"windDirection":250,"windSpeed":29.632,"visibility":2.36,"altim":29.675198,"flightCategory":"IFR","metarType":"METAR","geometry_esri":{"x":53.53,"y":9.83,"z":13}}}