{"type":"Feature","geometry":{"type":"Point","coordinates":[53.53,9.83,13]},"properties":{"stationId":"EDHI","rawText":"EDHI 300420Z 23004KT 8000 -SN SCT015 BKN025 OVC031 M01/M03 Q1029","observationTime":"2020-03-30T04:20:00Z","temp":-1,"dewpoint":-3,"windDirection":230,"windSpeed":7.408,"visibility":4.97,"altim":30.383858,"flightCategory":"MVFR","metarType":"METAR","geometry_esri":{"x":53.53,"y":9.83,"z":13}}}