{"type":"Feature","geometry":{"type":"Point","coordinates":[53.53,9.83,13]},"properties":{"stationId":"EDHI","rawText":"EDHI 230920Z AUTO 08008KT 050V120 9999 // NCD 22/12 Q1023","observationTime":"2019-06-23T09:20:00Z","temp":22,"dewpoint":12,"windDirection":80,"windSpeed":14.816,"visibility":6.21,"altim":30.206694,"flightCategory":"VFR","metarType":"METAR","geometry_esri":{"x":53.53,"y":9.83,"z":13}}}