{"type":"Feature","geometry":{"type":"Point","coordinates":[53.53,9.83,13]},"properties":{"stationId":"EDHI","rawText":"EDHI 100320Z AUTO 34003KT 310V010 9999 // FEW024/// OVC027/// 02/M02 Q1023","observationTime":"2019-01-10T03:20:00Z","temp":2,"dewpoint":-2,"windDirection":340,"windSpeed":5.556,"visibility":6.21,"altim":30.206694,"flightCategory":"MVFR","metarType":"METAR","geometry_esri":{"x":53.53,"y":9.83,"z":13}}}