{"type":"Feature","geometry":{"type":"Point","coordinates":[53.53,9.83,13]},"properties":{"stationId":"EDHI","rawText":"EDHI 061050Z AUTO 23014KT 9999 // FEW015/// BKN018/// OVC032/// 17/14 Q1007","observationTime":"2019-07-06T10:50:00Z","temp":17,"dewpoint":14,"windDirection":230,"windSpeed":25.928,"visibility":6.21,"altim":29.734253,"flightCategory":"MVFR","metarType":"METAR","geometry_esri":{"x":53.53,"y":9.83,"z":13}}}