{"type":"Feature","geometry":{"type":"Point","coordinates":[53.53,9.83,13]},"properties":{"stationId":"EDHI","rawText":"EDHI 292220Z AUTO 22010KT 9000 // BKN008/// OVC017/// 15/15 Q0989","observationTime":"2019-09-29T22:20:00Z","temp":15,"dewpoint":15,"windDirection":220,"windSpeed":18.52,"visibility":5.59,"altim":29.202755,"flightCategory":"IFR","metarType":"METAR","geometry_esri":{"x":53.53,"y":9.83,"z":13}}}