{"type":"Feature","geometry":{"type":"Point","coordinates":[53.53,9.83,13]},"properties":{"stationId":"EDHI","rawText":"EDHI 241650Z 14006KT 090V180 CAVOK 08/M10 Q1033","observationTime":"2020-03-24T16:50:00Z","temp":8,"dewpoint":-10,"windDirection":140,"windSpeed":11.112,"visibility":6.21,"altim":30.501968,"flightCategory":"VFR","metarType":"METAR","geometry_esri":{"x":53.53,"y":9.83,"z":13}}}