{"type":"Feature","geometry":{"type":"Point","coordinates":[53.53,9.83,13]},"properties":{"stationId":"EDHI","rawText":"EDHI 280920Z 27007KT 250V310 1700 BR SCT002 OVC005 07/07 Q1025","observationTime":"2018-12-28T09:20:00Z","temp":7,"dewpoint":7,"windDirection":270,"windSpeed":12.964,"visibility":1.06,"altim":30.265747,"flightCategory":"IFR","metarType":"METAR","geometry_esri":{"x":53.53,"y":9.83,"z":13}}}