{"type":"Feature","geometry":{"type":"Point","coordinates":[53.53,9.83,13]},"properties":{"stationId":"EDHI","rawText":"EDHI 041150Z 23010KT 2500 BR OVC004 05/05 Q1021","observationTime":"2019-12-04T11:50:00Z","temp":5,"dewpoint":5,"windDirection":230,"windSpeed":18.52,"visibility":1.55,"altim":30.147638,"flightCategory":"LIFR","metarType":"METAR","geometry_esri":{"x":53.53,"y":9.83,"z":13}}}