{"type":"Feature","geometry":{"type":"Point","coordinates":[53.53,9.83,13]},"properties":{"stationId":"EDHI","rawText":"EDHI 130820Z 16004KT 100V230 9999 BKN020 04/01 Q0999","observationTime":"2019-11-13T08:20:00Z","temp":4,"dewpoint":1,"windDirection":160,"windSpeed":7.408,"visibility":6.21,"altim":29.498032,"flightCategory":"MVFR","metarType":"METAR","geometry_esri":{"x":53.53,"y":9.83,"z":13}}}