{"type":"Feature","geometry":{"type":"Point","coordinates":[53.53,9.83,13]},"properties":{"stationId":"EDHI","rawText":"EDHI 141120Z 21014KT 9999 -RA BKN012 OVC019 06/04 Q0993","observationTime":"2019-03-14T11:20:00Z","temp":6,"dewpoint":4,"windDirection":210,"windSpeed":25.928,"visibility":6.21,"altim":29.320866,"flightCategory":"MVFR","metarType":"METAR","geometry_esri":{"x":53.53,"y":9.83,"z":13}}}