{"type":"Feature","geometry":{"type":"Point","coordinates":[53.53,9.83,13]},"properties":{"stationId":"EDHI","rawText":"EDHI 210820Z 23004KT 180V260 4000 BR NSC M06/M06 Q1021","observationTime":"2019-01-21T08:20:00Z","temp":-6,"dewpoint":-6,"windDirection":230,"windSpeed":7.408,"visibility":2.49,"altim":30.147638,"flightCategory":"IFR","metarType":"METAR","geometry_esri":{"x":53.53,"y":9.83,"z":13}}}