{"type":"Feature","geometry":{"type":"Point","coordinates":[53.53,9.83,13]},"properties":{"stationId":"EDHI","rawText":"EDHI 080120Z AUTO 22022G33KT 8000 3500 // BKN021/// OVC028/// 07/04 Q0991","observationTime":"2019-03-08T01:20:00Z","temp":7,"dewpoint":4,"windDirection":220,"windSpeed":40.744,"visibility":4.97,"altim":29.26181,"flightCategory":"MVFR","metarType":"METAR","geometry_esri":{"x":53.53,"y":9.83,"z":13}}}