{"type":"Feature","geometry":{"type":"Point","coordinates":[53.53,9.83,13]},"properties":{"stationId":"EDHI","rawText":"EDHI 241650Z 07009KT 030V110 CAVOK 27/16 Q1021","observationTime":"2019-06-24T16:50:00Z","temp":27,"dewpoint":16,"windDirection":70,"windSpeed":16.668,"visibility":6.21,"altim":30.147638,"flightCategory":"VFR","metarType":"METAR","geometry_esri":{"x":53.53,"y":9.83,"z":13}}}