{"type":"Feature","geometry":{"type":"Point","coordinates":[53.53,9.83,13]},"properties":{"stationId":"EDHI","rawText":"EDHI 222350Z AUTO 11003KT 070V140 4900 // OVC007/// 05/05 Q0989","observationTime":"2019-12-22T23:50:00Z","temp":5,"dewpoint":5,"windDirection":110,"windSpeed":5.556,"visibility":3.04,"altim":29.202755,"flightCategory":"IFR","metarType":"METAR","geometry_esri":{"x":53.53,"y":9.83,"z":13}}}