{"type":"Feature","geometry":{"type":"Point","coordinates":[53.53,9.83,13]},"properties":{"stationId":"EDHI","rawText":"EDHI 030620Z 28011KT 250V310 9999 FEW029 SCT047 07/02 Q1008","observationTime":"2019-05-03T06:20:00Z","temp":7,"dewpoint":2,"windDirection":280,"windSpeed":20.372,"visibility":6.21,"altim":29.763779,"flightCategory":"VFR","metarType":"METAR","geometry_esri":{"x":53.53,"y":9.83,"z":13}}}