{"type":"Feature","geometry":{"type":"Point","coordinates":[53.53,9.83,13]},"properties":{"stationId":"EDHI","rawText":"EDHI 261350Z AUTO 27008KT 1000 0800 R05/2000U // SCT002/// OVC005/// 08/08 Q1027","observationTime":"2018-12-26T13:50:00Z","temp":8,"dewpoint":8,"windDirection":270,"windSpeed":14.816,"visibility":0.62,"altim":30.324802,"flightCategory":"LIFR","metarType":"METAR","geometry_esri":{"x":53.53,"y":9.83,"z":13}}}