{"type":"Feature","geometry":{"type":"Point","coordinates":[53.53,9.83,13]},"properties":{"stationId":"EDHI","rawText":"EDHI 030350Z AUTO 29008KT 5000 // OVC037/// 01/M00 Q1010","observationTime":"2019-02-03T03:50:00Z","temp":1,"dewpoint":0,"windDirection":290,"windSpeed":14.816,"visibility":3.11,"altim":29.822834,"flightCategory":"MVFR","metarType":"METAR","geometry_esri":{"x":53.53,"y":9.83,"z":13}}}