{"type":"Feature","geometry":{"type":"Point","coordinates":[53.53,9.83,13]},"properties":{"stationId":"EDHI","rawText":"EDHI 290650Z 16003KT 120V190 9999 BCFG NSC 00/00 Q1024","observationTime":"2019-10-29T06:50:00Z","temp":0,"dewpoint":0,"windDirection":160,"windSpeed":5.556,"visibility":6.21,"altim":30.236221,"flightCategory":"VFR","metarType":"METAR","geometry_esri":{"x":53.53,"y":9.83,"z":13}}}