{"type":"Feature","geometry":{"type":"Point","coordinates":[53.53,9.83,13]},"properties":{"stationId":"EDHI","rawText":"EDHI 210050Z AUTO 26004KT 9999 // BKN091/// OVC110/// 15/13 Q1014","observationTime":"2019-06-21T00:50:00Z","temp":15,"dewpoint":13,"windDirection":260,"windSpeed":7.408,"visibility":6.21,"altim":29.940945,"flightCategory":"VFR","metarType":"METAR","geometry_esri":{"x":53.53,"y":9.83,"z":13}}}