{"type":"Feature","geometry":{"type":"Point","coordinates":[53.53,9.83,13]},"properties":{"stationId":"EDHI","rawText":"EDHI 280550Z AUTO VRB01KT 9000 // NCD M03/M04 Q1041","observationTime":"2019-12-28T05:50:00Z","temp":-3,"dewpoint":-4,"windDirection":0,"windSpeed":1.852,"visibility":5.59,"altim":30.73819,"flightCategory":"VFR","metarType":"METAR","geometry_esri":{"x":53.53,"y":9.83,"z":13}}}