{"type":"Feature","geometry":{"type":"Point","coordinates":[53.53,9.83,13]},"properties":{"stationId":"EDHI","rawText":"EDHI 100350Z AUTO 27012KT 9999 // SCT039/// BKN061/// BKN150/// 05/02 Q1008","observationTime":"2018-12-10T03:50:00Z","temp":5,"dewpoint":2,"windDirection":270,"windSpeed":22.224,"visibility":6.21,"altim":29.763779,"skyCondition1a":"SCT","skyCondition1b":3900,"skyCondition2a":"BKN","skyCondition2b":6100,"flightCategory":"VFR","metarType":"METAR","geometry_esri":{"x":53.53,"y":9.83,"z":13}}}