{"type":"Feature","geometry":{"type":"Point","coordinates":[53.53,9.83,13]},"properties":{"stationId":"EDHI","rawText":"EDHI 120820Z 29009KT 9999 FEW046 04/02 Q1028","observationTime":"2019-02-12T08:20:00Z","temp":4,"dewpoint":2,"windDirection":290,"windSpeed":16.668,"visibility":6.21,"altim":30.35433,"flightCategory":"VFR","metarType":"METAR","geometry_esri":{"x":53.53,"y":9.83,"z":13}}}