{"type":"Feature","geometry":{"type":"Point","coordinates":[53.53,9.83,13]},"properties":{"stationId":"EDHI","rawText":"EDHI 280020Z AUTO 26008KT 2200 // OVC003/// 06/06 Q1022","observationTime":"2018-12-28T00:20:00Z","temp":6,"dewpoint":6,"windDirection":260,"windSpeed":14.816,"visibility":1.37,"altim":30.177166,"flightCategory":"LIFR","metarType":"METAR","geometry_esri":{"x":53.53,"y":9.83,"z":13}}}