{"type":"Feature","geometry":{"type":"Point","coordinates":[53.53,9.83,13]},"properties":{"stationId":"EDHI","rawText":"EDHI 170720Z AUTO 10003KT 070V130 4600 // NCD 01/00 Q1015","observationTime":"2019-11-17T07:20:00Z","temp":1,"dewpoint":0,"windDirection":100,"windSpeed":5.556,"visibility":2.86,"altim":29.970472,"flightCategory":"IFR","metarType":"METAR","geometry_esri":{"x":53.53,"y":9.83,"z":13}}}