{"type":"Feature","geometry":{"type":"Point","coordinates":[53.53,9.83,13]},"properties":{"stationId":"EDHI","rawText":"EDHI 030820Z AUTO 16004KT 110V220 9999 // OVC071/// 10/08 Q0987","observationTime":"2019-11-03T08:20:00Z","temp":10,"dewpoint":8,"windDirection":160,"windSpeed":7.408,"visibility":6.21,"altim":29.143702,"flightCategory":"VFR","metarType":"METAR","geometry_esri":{"x":53.53,"y":9.83,"z":13}}}