{"type":"Feature","geometry":{"type":"Point","coordinates":[53.53,9.83,13]},"properties":{"stationId":"EDHI","rawText":"EDHI 180750Z 24017KT 9999 BKN028 06/02 Q1013","observationTime":"2020-02-18T07:50:00Z","temp":6,"dewpoint":2,"windDirection":240,"windSpeed":31.484,"visibility":6.21,"altim":29.911417,"flightCategory":"MVFR","metarType":"METAR","geometry_esri":{"x":53.53,"y":9.83,"z":13}}}