{"type":"Feature","geometry":{"type":"Point","coordinates":[53.53,9.83,13]},"properties":{"stationId":"EDHI","rawText":"EDHI 252320Z AUTO 09003KT 9999 2300 // SCT067/// BKN078/// BKN094/// 22/17 Q1019","observationTime":"2019-08-25T23:20:00Z","temp":22,"dewpoint":17,"windDirection":90,"windSpeed":5.556,"visibility":6.21,"altim":30.088583,"flightCategory":"VFR","metarType":"SPECI","geometry_esri":{"x":53.53,"y":9.83,"z":13}}}