{"type":"Feature","geometry":{"type":"Point","coordinates":[53.53,9.83,13]},"properties":{"stationId":"EDHI","rawText":"EDHI 171450Z AUTO 25010KT 8000 2700 // FEW019/// BKN024/// OVC030/// 19/17 Q1007","observationTime":"2019-08-17T14:50:00Z","temp":19,"dewpoint":17,"windDirection":250,"windSpeed":18.52,"visibility":4.97,"altim":29.734253,"flightCategory":"MVFR","metarType":"METAR","geometry_esri":{"x":53.53,"y":9.83,"z":13}}}