{"type":"Feature","geometry":{"type":"Point","coordinates":[53.53,9.83,13]},"properties":{"stationId":"EDHI","rawText":"EDHI 291520Z VRB03KT CAVOK 30/10 Q1018","observationTime":"2019-06-29T15:20:00Z","temp":30,"dewpoint":10,"windDirection":0,"windSpeed":5.556,"visibility":6.21,"altim":30.059055,"flightCategory":"VFR","metarType":"METAR","geometry_esri":{"x":53.53,"y":9.83,"z":13}}}