{"type":"Feature","geometry":{"type":"Point","coordinates":[53.53,9.83,13]},"properties":{"stationId":"EDHI","rawText":"EDHI 081150Z 20014KT 170V230 9999 FEW011 BKN014 07/05 Q1008","observationTime":"2019-02-08T11:50:00Z","temp":7,"dewpoint":5,"windDirection":200,"windSpeed":25.928,"visibility":6.21,"altim":29.763779,"flightCategory":"MVFR","metarType":"METAR","geometry_esri":{"x":53.53,"y":9.83,"z":13}}}