{"type":"Feature","geometry":{"type":"Point","coordinates":[53.53,9.83,13]},"properties":{"stationId":"EDHI","rawText":"EDHI 020450Z AUTO 11003KT 070V140 9999 // BKN170/// OVC200/// 15/12 Q1017","observationTime":"2019-06-02T04:50:00Z","temp":15,"dewpoint":12,"windDirection":110,"windSpeed":5.556,"visibility":6.21,"altim":30.029528,"flightCategory":"VFR","metarType":"METAR","geometry_esri":{"x":53.53,"y":9.83,"z":13}}}