{"type":"Feature","geometry":{"type":"Point","coordinates":[53.53,9.83,13]},"properties":{"stationId":"EDHI","rawText":"EDHI 062020Z AUTO 35008KT 9999 // OVC009/// 04/03 Q1001","observationTime":"2020-03-06T20:20:00Z","temp":4,"dewpoint":3,"windDirection":350,"windSpeed":14.816,"visibility":6.21,"altim":29.557087,"flightCategory":"IFR","metarType":"METAR","geometry_esri":{"x":53.53,"y":9.83,"z":13}}}