{"type":"Feature","geometry":{"type":"Point","coordinates":[53.53,9.83,13]},"properties":{"stationId":"EDHI","rawText":"EDHI 220320Z AUTO 20005KT 170V230 8000 // OVC008/// M00/M02 Q1013","observationTime":"2019-01-22T03:20:00Z","temp":0,"dewpoint":-2,"windDirection":200,"windSpeed":9.26,"visibility":4.97,"altim":29.911417,"flightCategory":"IFR","metarType":"METAR","geometry_esri":{"x":53.53,"y":9.83,"z":13}}}