{"type":"Feature","geometry":{"type":"Point","coordinates":[53.53,9.83,13]},"properties":{"stationId":"EDHI","rawText":"EDHI 220750Z 10003KT 050V170 CAVOK 20/10 Q1026","observationTime":"2019-08-22T07:50:00Z","temp":20,"dewpoint":10,"windDirection":100,"windSpeed":5.556,"visibility":6.21,"altim":30.295275,"flightCategory":"VFR","metarType":"METAR","geometry_esri":{"x":53.53,"y":9.83,"z":13}}}