{"type":"Feature","geometry":{"type":"Point","coordinates":[53.53,9.83,13]},"properties":{"stationId":"EDHI","rawText":"EDHI 211220Z 08005KT 7000 OVC005 06/05 Q1011","observationTime":"2019-11-21T12:20:00Z","temp":6,"dewpoint":5,"windDirection":80,"windSpeed":9.26,"visibility":4.35,"altim":29.852362,"flightCategory":"IFR","metarType":"METAR","geometry_esri":{"x":53.53,"y":9.83,"z":13}}}