{"type":"Feature","geometry":{"type":"Point","coordinates":[53.53,9.83,13]},"properties":{"stationId":"EDHI","rawText":"EDHI 110550Z 14004KT CAVOK M00/M01 Q1010","observationTime":"2019-11-11T05:50:00Z","temp":0,"dewpoint":-1,"windDirection":140,"windSpeed":7.408,"visibility":6.21,"altim":29.822834,"flightCategory":"VFR","metarType":"METAR","geometry_esri":{"x":53.53,"y":9.83,"z":13}}}