{"type":"Feature","geometry":{"type":"Point","coordinates":[53.53,9.83,13]},"properties":{"stationId":"EDHI","rawText":"EDHI 031020Z AUTO 32007KT 290V360 9999 // SCT051/// 03/M01 Q1015","observationTime":"2019-02-03T10:20:00Z","temp":3,"dewpoint":-1,"windDirection":320,"windSpeed":12.964,"visibility":6.21,"altim":29.970472,"flightCategory":"VFR","metarType":"METAR","geometry_esri":{"x":53.53,"y":9.83,"z":13}}}