{"type":"Feature","geometry":{"type":"Point","coordinates":[53.53,9.83,13]},"properties":{"stationId":"EDHI","rawText":"EDHI 191520Z AUTO 06011KT 9999 // NCD 22/06 Q1031","observationTime":"2019-04-19T15:20:00Z","temp":22,"dewpoint":6,"windDirection":60,"windSpeed":20.372,"visibility":6.21,"altim":30.442913,"flightCategory":"VFR","metarType":"METAR","geometry_esri":{"x":53.53,"y":9.83,"z":13}}}