{"type":"Feature","geometry":{"type":"Point","coordinates":[53.53,9.83,13]},"properties":{"stationId":"EDHI","rawText":"EDHI 222350Z AUTO 24008KT 7000 // SCT005/// BKN016/// OVC023/// 06/06 Q1015","observationTime":"2018-12-22T23:50:00Z","temp":6,"dewpoint":6,"windDirection":240,"windSpeed":14.816,"visibility":4.35,"altim":29.970472,"flightCategory":"MVFR","metarType":"METAR","geometry_esri":{"x":53.53,"y":9.83,"z":13}}}