{"type":"Feature","geometry":{"type":"Point","coordinates":[53.53,9.83,13]},"properties":{"stationId":"EDHI","rawText":"EDHI 081520Z AUTO 21016G31KT 180V240 9999 // BKN054/// BKN092/// 19/08 Q1017","observationTime":"2019-06-08T15:20:00Z","temp":19,"dewpoint":8,"windDirection":210,"windSpeed":29.632,"visibility":6.21,"altim":30.029528,"flightCategory":"VFR","metarType":"METAR","geometry_esri":{"x":53.53,"y":9.83,"z":13}}}