{"type":"Feature","geometry":{"type":"Point","coordinates":[53.53,9.83,13]},"properties":{"stationId":"EDHI","rawText":"EDHI 102220Z AUTO 06006KT 030V090 9000 // FEW027/// BKN048/// OVC065/// 16/15 Q1010","observationTime":"2019-06-10T22:20:00Z","temp":16,"dewpoint":15,"windDirection":60,"windSpeed":11.112,"visibility":5.59,"altim":29.822834,"flightCategory":"VFR","metarType":"METAR","geometry_esri":{"x":53.53,"y":9.83,"z":13}}}