{"type":"Feature","geometry":{"type":"Point","coordinates":[53.53,9.83,13]},"properties":{"stationId":"EDHI","rawText":"EDHI 252350Z AUTO 00000KT 0800 0650 R23/0800U // FEW006/// SCT008/// BKN039/// 11/11 Q1006","observationTime":"2019-09-25T23:50:00Z","temp":11,"dewpoint":11,"windDirection":0,"windSpeed":0,"visibility":0.5,"altim":29.704725,"flightCategory":"LIFR","metarType":"METAR","geometry_esri":{"x":53.53,"y":9.83,"z":13}}}