{"type":"Feature","geometry":{"type":"Point","coordinates":[53.53,9.83,13]},"properties":{"stationId":"EDHI","rawText":"EDHI 080650Z 27007KT 9999 FEW009 SCT022 BKN042 12/11 Q1014","observationTime":"2019-07-08T06:50:00Z","temp":12,"dewpoint":11,"windDirection":270,"windSpeed":12.964,"visibility":6.21,"altim":29.940945,"flightCategory":"VFR","metarType":"METAR","geometry_esri":{"x":53.53,"y":9.83,"z":13}}}