{"type":"Feature","geometry":{"type":"Point","coordinates":[53.53,9.83,13]},"properties":{"stationId":"EDHI","rawText":"EDHI 280750Z 14004KT 100V190 9000 FEW011 SCT015 BKN028 03/01 Q0987","observationTime":"2019-01-28T07:50:00Z","temp":3,"dewpoint":1,"windDirection":140,"windSpeed":7.408,"visibility":5.59,"altim":29.143702,"flightCategory":"MVFR","metarType":"METAR","geometry_esri":{"x":53.53,"y":9.83,"z":13}}}