{"type":"Feature","geometry":{"type":"Point","coordinates":[53.53,9.83,13]},"properties":{"stationId":"EDHI","rawText":"EDHI 261650Z 36003KT 310V020 CAVOK 11/03 Q1032","observationTime":"2019-02-26T16:50:00Z","temp":11,"dewpoint":3,"windDirection":360,"windSpeed":5.556,"visibility":6.21,"altim":30.47244,"flightCategory":"VFR","metarType":"METAR","geometry_esri":{"x":53.53,"y":9.83,"z":13}}}