{"type":"Feature","geometry":{"type":"Point","coordinates":[53.53,9.83,13]},"properties":{"stationId":"EDHI","rawText":"EDHI 222120Z AUTO 26017KT //// R23/P2000N // SCT057/// SCT065/// BKN210/// 06/03 Q1012","observationTime":"2020-02-22T21:20:00Z","temp":6,"dewpoint":3,"windDirection":260,"windSpeed":31.484,"visibility":1.24,"altim":29.88189,"flightCategory":"IFR","metarType":"METAR","geometry_esri":{"x":53.53,"y":9.83,"z":13}}}