{"type":"Feature","geometry":{"type":"Point","coordinates":[53.53,9.83,13]},"properties":{"stationId":"EDHI","rawText":"EDHI 071620Z 26009KT CAVOK 22/12 Q1005","observationTime":"2019-08-07T16:20:00Z","temp":22,"dewpoint":12,"windDirection":260,"windSpeed":16.668,"visibility":6.21,"altim":29.675198,"flightCategory":"VFR","metarType":"METAR","geometry_esri":{"x":53.53,"y":9.83,"z":13}}}