{"type":"Feature","geometry":{"type":"Point","coordinates":[53.53,9.83,13]},"properties":{"stationId":"EDHI","rawText":"EDHI 101850Z AUTO 26009KT 220V290 9999 // FEW056/// BKN064/// 15/11 Q1017","observationTime":"2019-09-10T18:50:00Z","temp":15,"dewpoint":11,"windDirection":260,"windSpeed":16.668,"visibility":6.21,"altim":30.029528,"flightCategory":"VFR","metarType":"METAR","geometry_esri":{"x":53.53,"y":9.83,"z":13}}}