{"type":"Feature","geometry":{"type":"Point","coordinates":[53.53,9.83,13]},"properties":{"stationId":"EDHI","rawText":"EDHI 120920Z 08010KT 040V110 9999 SCT042 05/M04 Q1028","observationTime":"2019-04-12T09:20:00Z","temp":5,"dewpoint":-4,"windDirection":80,"windSpeed":18.52,"visibility":6.21,"altim":30.35433,"flightCategory":"VFR","metarType":"METAR","geometry_esri":{"x":53.53,"y":9.83,"z":13}}}