{"type":"Feature","geometry":{"type":"Point","coordinates":[53.53,9.83,13]},"properties":{"stationId":"EDHI","rawText":"EDHI 180320Z AUTO VRB01KT 4100 // FEW006/// 11/10 Q1013","observationTime":"2019-07-18T03:20:00Z","temp":11,"dewpoint":10,"windDirection":0,"windSpeed":1.852,"visibility":2.55,"altim":29.911417,"flightCategory":"IFR","metarType":"METAR","geometry_esri":{"x":53.53,"y":9.83,"z":13}}}