{"type":"Feature","geometry":{"type":"Point","coordinates":[53.53,9.83,13]},"properties":{"stationId":"EDHI","rawText":"EDHI 231020Z VRB04KT 9999 FEW036 26/18 Q1021","observationTime":"2019-07-23T10:20:00Z","temp":26,"dewpoint":18,"windDirection":0,"windSpeed":7.408,"visibility":6.21,"altim":30.147638,"flightCategory":"VFR","metarType":"METAR","geometry_esri":{"x":53.53,"y":9.83,"z":13}}}