{"type":"Feature","geometry":{"type":"Point","coordinates":[53.53,9.83,13]},"properties":{"stationId":"EDHI","rawText":"EDHI 191450Z 30014KT 9999 FEW038 16/07 Q1028","observationTime":"2019-09-19T14:50:00Z","temp":16,"dewpoint":7,"windDirection":300,"windSpeed":25.928,"visibility":6.21,"altim":30.35433,"flightCategory":"VFR","metarType":"METAR","geometry_esri":{"x":53.53,"y":9.83,"z":13}}}