{"type":"Feature","geometry":{"type":"Point","coordinates":[53.53,9.83,13]},"properties":{"stationId":"EDHI","rawText":"EDHI 171120Z AUTO 27012KT 9999 // FEW051/// BKN075/// 16/05 Q1021","observationTime":"2020-05-17T11:20:00Z","temp":16,"dewpoint":5,"windDirection":270,"windSpeed":22.224,"visibility":6.21,"altim":30.147638,"flightCategory":"VFR","metarType":"METAR","geometry_esri":{"x":53.53,"y":9.83,"z":13}}}