{"type":"Feature","geometry":{"type":"Point","coordinates":[53.53,9.83,13]},"properties":{"stationId":"EDHI","rawText":"EDHI 210020Z AUTO 27006KT 9999 // FEW013/// SCT086/// OVC098/// 15/13 Q1014","observationTime":"2019-06-21T00:20:00Z","temp":15,"dewpoint":13,"windDirection":270,"windSpeed":11.112,"visibility":6.21,"altim":29.940945,"flightCategory":"VFR","metarType":"METAR","geometry_esri":{"x":53.53,"y":9.83,"z":13}}}