{"type":"Feature","geometry":{"type":"Point","coordinates":[53.53,9.83,13]},"properties":{"stationId":"EDHI","rawText":"EDHI 270650Z 21006KT 170V250 9999 NSC 12/08 Q1011","observationTime":"2019-04-27T06:50:00Z","temp":12,"dewpoint":8,"windDirection":210,"windSpeed":11.112,"visibility":6.21,"altim":29.852362,"flightCategory":"VFR","metarType":"METAR","geometry_esri":{"x":53.53,"y":9.83,"z":13}}}