{"type":"Feature","geometry":{"type":"Point","coordinates":[53.53,9.83,13]},"properties":{"stationId":"EDHI","rawText":"EDHI 011720Z AUTO 27021G32KT 9999 // BKN030/// BKN063/// 10/05 Q0998","observationTime":"2020-02-01T17:20:00Z","temp":10,"dewpoint":5,"windDirection":270,"windSpeed":38.892,"visibility":6.21,"altim":29.468504,"flightCategory":"MVFR","metarType":"METAR","geometry_esri":{"x":53.53,"y":9.83,"z":13}}}