{"type":"Feature","geometry":{"type":"Point","coordinates":[53.53,9.83,13]},"properties":{"stationId":"EDHI","rawText":"EDHI 061550Z 22013KT 4500 -DZ BR OVC007 06/05 Q1002","observationTime":"2019-12-06T15:50:00Z","temp":6,"dewpoint":5,"windDirection":220,"windSpeed":24.076,"visibility":2.8,"altim":29.586615,"flightCategory":"IFR","metarType":"METAR","geometry_esri":{"x":53.53,"y":9.83,"z":13}}}