{"type":"Feature","geometry":{"type":"Point","coordinates":[53.53,9.83,13]},"properties":{"stationId":"EDHI","rawText":"EDHI 091850Z AUTO 29019G29KT 3800 // BKN015/// BKN028/// BKN160/// 05/03 Q1003","observationTime":"2019-03-09T18:50:00Z","temp":5,"dewpoint":3,"windDirection":290,"windSpeed":35.188,"visibility":2.36,"altim":29.616142,"flightCategory":"IFR","metarType":"METAR","geometry_esri":{"x":53.53,"y":9.83,"z":13}}}