{"type":"Feature","geometry":{"type":"Point","coordinates":[53.53,9.83,13]},"properties":{"stationId":"EDHI","rawText":"EDHI 041220Z 25008KT 3500 BR BKN006 06/04 Q1021","observationTime":"2019-12-04T12:20:00Z","temp":6,"dewpoint":4,"windDirection":250,"windSpeed":14.816,"visibility":2.17,"altim":30.147638,"flightCategory":"IFR","metarType":"METAR","geometry_esri":{"x":53.53,"y":9.83,"z":13}}}