{"type":"Feature","geometry":{"type":"Point","coordinates":[53.53,9.83,13]},"properties":{"stationId":"EDHI","rawText":"EDHI 091350Z 05013KT 9999 SCT041 10/00 Q1016","observationTime":"2019-04-09T13:50:00Z","temp":10,"dewpoint":0,"windDirection":50,"windSpeed":24.076,"visibility":6.21,"altim":30,"flightCategory":"VFR","metarType":"METAR","geometry_esri":{"x":53.53,"y":9.83,"z":13}}}