{"type":"Feature","geometry":{"type":"Point","coordinates":[53.53,9.83,13]},"properties":{"stationId":"EDHI","rawText":"EDHI 200420Z AUTO 17003KT 100V220 5000 // OVC004/// 04/03 Q1019","observationTime":"2019-11-20T04:20:00Z","temp":4,"dewpoint":3,"windDirection":170,"windSpeed":5.556,"visibility":3.11,"altim":30.088583,"flightCategory":"LIFR","metarType":"METAR","geometry_esri":{"x":53.53,"y":9.83,"z":13}}}