{"type":"Feature","geometry":{"type":"Point","coordinates":[53.53,9.83,13]},"properties":{"stationId":"EDHI","rawText":"EDHI 041020Z 28012KT 8000 -DZ BKN009 BKN017 04/03 Q1029","observationTime":"2019-01-04T10:20:00Z","temp":4,"dewpoint":3,"windDirection":280,"windSpeed":22.224,"visibility":4.97,"altim":30.383858,"flightCategory":"IFR","metarType":"METAR","geometry_esri":{"x":53.53,"y":9.83,"z":13}}}