{"type":"Feature","geometry":{"type":"Point","coordinates":[53.53,9.83,13]},"properties":{"stationId":"EDHI","rawText":"EDHI 092320Z AUTO 21003KT 180V250 7000 // BKN059/// 04/03 Q1008","observationTime":"2019-11-09T23:20:00Z","temp":4,"dewpoint":3,"windDirection":210,"windSpeed":5.556,"visibility":4.35,"altim":29.763779,"flightCategory":"MVFR","metarType":"METAR","geometry_esri":{"x":53.53,"y":9.83,"z":13}}}