{"type":"Feature","geometry":{"type":"Point","coordinates":[53.53,9.83,13]},"properties":{"stationId":"EDHI","rawText":"EDHI 170220Z AUTO 14003KT 110V170 9999 // FEW057/// OVC097/// 16/12 Q1008","observationTime":"2019-08-17T02:20:00Z","temp":16,"dewpoint":12,"windDirection":140,"windSpeed":5.556,"visibility":6.21,"altim":29.763779,"flightCategory":"VFR","metarType":"METAR","geometry_esri":{"x":53.53,"y":9.83,"z":13}}}