{"type":"Feature","geometry":{"type":"Point","coordinates":[53.53,9.83,13]},"properties":{"stationId":"EDHI","rawText":"EDHI 091120Z AUTO 27020G30KT 7000 // BKN014/// BKN020/// OVC023/// 08/05 Q0990","observationTime":"2018-12-09T11:20:00Z","temp":8,"dewpoint":5,"windDirection":270,"windSpeed":37.04,"visibility":4.35,"altim":29.232283,"skyCondition1a":"BKN","skyCondition1b":1400,"skyCondition2a":"BKN","skyCondition2b":2000,"flightCategory":"MVFR","metarType":"METAR","geometry_esri":{"x":53.53,"y":9.83,"z":13}}}