{"type":"Feature","geometry":{"type":"Point","coordinates":[53.53,9.83,13]},"properties":{"stationId":"EDHI","rawText":"EDHI 060650Z 05014KT 4000 -RA BR FEW008 BKN034 04/02 Q0991","observationTime":"2020-03-06T06:50:00Z","temp":4,"dewpoint":2,"windDirection":50,"windSpeed":25.928,"visibility":2.49,"altim":29.26181,"flightCategory":"IFR","metarType":"METAR","geometry_esri":{"x":53.53,"y":9.83,"z":13}}}