{"type":"Feature","geometry":{"type":"Point","coordinates":[53.53,9.83,13]},"properties":{"stationId":"EDHI","rawText":"EDHI 102050Z 31012KT 280V350 9999 -RA FEW023 SCT028 OVC037 06/03 Q1012","observationTime":"2018-12-10T20:50:00Z","temp":6,"dewpoint":3,"windDirection":310,"windSpeed":22.224,"visibility":6.21,"altim":29.88189,"skyCondition1a":"FEW","skyCondition1b":2300,"skyCondition2a":"SCT","skyCondition2b":2800,"flightCategory":"VFR","metarType":"METAR","geometry_esri":{"x":53.53,"y":9.83,"z":13}}}