{"type":"Feature","geometry":{"type":"Point","coordinates":[53.53,9.83,13]},"properties":{"stationId":"EDHI","rawText":"EDHI 230350Z AUTO VRB02KT 6000 // NCD 11/10 Q1025","observationTime":"2019-08-23T03:50:00Z","temp":11,"dewpoint":10,"windDirection":0,"windSpeed":3.704,"visibility":3.73,"altim":30.265747,"flightCategory":"MVFR","metarType":"METAR","geometry_esri":{"x":53.53,"y":9.83,"z":13}}}