{"type":"Feature","geometry":{"type":"Point","coordinates":[53.53,9.83,13]},"properties":{"stationId":"EDHI","rawText":"EDHI 231320Z AUTO 11005KT 080V180 9999 // SCT180/// 08/M04 Q1040","observationTime":"2019-02-23T13:20:00Z","temp":8,"dewpoint":-4,"windDirection":110,"windSpeed":9.26,"visibility":6.21,"altim":30.708662,"flightCategory":"VFR","metarType":"METAR","geometry_esri":{"x":53.53,"y":9.83,"z":13}}}