{"type":"Feature","geometry":{"type":"Point","coordinates":[53.53,9.83,13]},"properties":{"stationId":"EDHI","rawText":"EDHI 060720Z 17005KT 130V220 CAVOK 03/00 Q1022","observationTime":"2019-02-06T07:20:00Z","temp":3,"dewpoint":0,"windDirection":170,"windSpeed":9.26,"visibility":6.21,"altim":30.177166,"flightCategory":"VFR","metarType":"METAR","geometry_esri":{"x":53.53,"y":9.83,"z":13}}}