{"type":"Feature","geometry":{"type":"Point","coordinates":[53.53,9.83,13]},"properties":{"stationId":"EDHI","rawText":"EDHI 292350Z AUTO 00000KT 2000 // NCD 04/04 Q1025","observationTime":"2019-03-29T23:50:00Z","temp":4,"dewpoint":4,"windDirection":0,"windSpeed":0,"visibility":1.24,"altim":30.265747,"flightCategory":"IFR","metarType":"METAR","geometry_esri":{"x":53.53,"y":9.83,"z":13}}}