{"type":"Feature","geometry":{"type":"Point","coordinates":[53.53,9.83,13]},"properties":{"stationId":"EDHI","rawText":"EDHI 300720Z AUTO 30014KT 9999 // FEW015/// SCT018/// OVC031/// 07/05 Q1026","observationTime":"2018-12-30T07:20:00Z","temp":7,"dewpoint":5,"windDirection":300,"windSpeed":25.928,"visibility":6.21,"altim":30.295275,"flightCategory":"VFR","metarType":"METAR","geometry_esri":{"x":53.53,"y":9.83,"z":13}}}