{"type":"Feature","geometry":{"type":"Point","coordinates":[53.53,9.83,13]},"properties":{"stationId":"EDHI","rawText":"EDHI 221220Z AUTO 12010KT 050V180 9999 // NCD 20/M01 Q1014","observationTime":"2019-04-22T12:20:00Z","temp":20,"dewpoint":-1,"windDirection":120,"windSpeed":18.52,"visibility":6.21,"altim":29.940945,"flightCategory":"VFR","metarType":"METAR","geometry_esri":{"x":53.53,"y":9.83,"z":13}}}