{"type":"Feature","geometry":{"type":"Point","coordinates":[53.53,9.83,13]},"properties":{"stationId":"EDHI","rawText":"EDHI 161020Z 25009KT 9999 -RA SCT010 14/12 Q1008","observationTime":"2019-10-16T10:20:00Z","temp":14,"dewpoint":12,"windDirection":250,"windSpeed":16.668,"visibility":6.21,"altim":29.763779,"flightCategory":"VFR","metarType":"METAR","geometry_esri":{"x":53.53,"y":9.83,"z":13}}}