{"type":"Feature","geometry":{"type":"Point","coordinates":[53.53,9.83,13]},"properties":{"stationId":"EDHI","rawText":"EDHI 260650Z AUTO 26013KT 1200 R23/P2000N // OVC002/// 06/06 Q1026","observationTime":"2018-12-26T06:50:00Z","temp":6,"dewpoint":6,"windDirection":260,"windSpeed":24.076,"visibility":0.75,"altim":30.295275,"flightCategory":"LIFR","metarType":"METAR","geometry_esri":{"x":53.53,"y":9.83,"z":13}}}