{"type":"Feature","geometry":{"type":"Point","coordinates":[53.53,9.83,13]},"properties":{"stationId":"EDHI","rawText":"EDHI 282120Z AUTO 23012KT 9999 2800 // FEW013/// BKN048/// 14/13 Q1006","observationTime":"2019-09-28T21:20:00Z","temp":14,"dewpoint":13,"windDirection":230,"windSpeed":22.224,"visibility":6.21,"altim":29.704725,"flightCategory":"VFR","metarType":"METAR","geometry_esri":{"x":53.53,"y":9.83,"z":13}}}