{"type":"Feature","geometry":{"type":"Point","coordinates":[53.53,9.83,13]},"properties":{"stationId":"EDHI","rawText":"EDHI 302120Z AUTO 30009KT 270V330 9999 // NCD 18/14 Q1014","observationTime":"2019-06-30T21:20:00Z","temp":18,"dewpoint":14,"windDirection":300,"windSpeed":16.668,"visibility":6.21,"altim":29.940945,"flightCategory":"VFR","metarType":"METAR","geometry_esri":{"x":53.53,"y":9.83,"z":13}}}