{"type":"Feature","geometry":{"type":"Point","coordinates":[53.53,9.83,13]},"properties":{"stationId":"EDHI","rawText":"EDHI 082050Z AUTO 32018G30KT 290V350 9999 // SCT016/// BKN020/// OVC025/// 04/01 Q1005","observationTime":"2019-01-08T20:50:00Z","temp":4,"dewpoint":1,"windDirection":320,"windSpeed":33.336,"visibility":6.21,"altim":29.675198,"flightCategory":"MVFR","metarType":"METAR","geometry_esri":{"x":53.53,"y":9.83,"z":13}}}