{"type":"Feature","geometry":{"type":"Point","coordinates":[53.53,9.83,13]},"properties":{"stationId":"EDHI","rawText":"EDHI 011120Z 26018KT 9999 FEW045 SCT048 23/11 Q1013","observationTime":"2019-07-01T11:20:00Z","temp":23,"dewpoint":11,"windDirection":260,"windSpeed":33.336,"visibility":6.21,"altim":29.911417,"flightCategory":"VFR","metarType":"METAR","geometry_esri":{"x":53.53,"y":9.83,"z":13}}}