{"type":"Feature","geometry":{"type":"Point","coordinates":[53.53,9.83,13]},"properties":{"stationId":"EDHI","rawText":"EDHI 070920Z AUTO 09006KT 060V150 9999 // NCD 16/07 Q1009","observationTime":"2019-04-07T09:20:00Z","temp":16,"dewpoint":7,"windDirection":90,"windSpeed":11.112,"visibility":6.21,"altim":29.793306,"flightCategory":"VFR","metarType":"METAR","geometry_esri":{"x":53.53,"y":9.83,"z":13}}}