{"type":"Feature","geometry":{"type":"Point","coordinates":[53.53,9.83,13]},"properties":{"stationId":"EDHI","rawText":"EDHI 251920Z AUTO 26007KT 9999 // SCT030/// BKN036/// OVC043/// 05/05 Q1021","observationTime":"2019-12-25T19:20:00Z","temp":5,"dewpoint":5,"windDirection":260,"windSpeed":12.964,"visibility":6.21,"altim":30.147638,"flightCategory":"VFR","metarType":"METAR","geometry_esri":{"x":53.53,"y":9.83,"z":13}}}