{"type":"Feature","geometry":{"type":"Point","coordinates":[53.53,9.83,13]},"properties":{"stationId":"EDHI","rawText":"EDHI 300050Z AUTO VRB01KT 1300 1200 R23/P2000N // FEW011/// 05/04 Q1025","observationTime":"2019-03-30T00:50:00Z","temp":5,"dewpoint":4,"windDirection":0,"windSpeed":1.852,"visibility":0.81,"altim":30.265747,"flightCategory":"LIFR","metarType":"METAR","geometry_esri":{"x":53.53,"y":9.83,"z":13}}}