{"type":"Feature","geometry":{"type":"Point","coordinates":[53.53,9.83,13]},"properties":{"stationId":"EDHI","rawText":"EDHI 201720Z 25011KT 4100 BR BKN011 OVC019 10/08 Q1031","observationTime":"2019-03-20T17:20:00Z","temp":10,"dewpoint":8,"windDirection":250,"windSpeed":20.372,"visibility":2.55,"altim":30.442913,"flightCategory":"IFR","metarType":"METAR","geometry_esri":{"x":53.53,"y":9.83,"z":13}}}