{"type":"Feature","geometry":{"type":"Point","coordinates":[53.53,9.83,13]},"properties":{"stationId":"EDHI","rawText":"EDHI 041420Z 35012KT 320V030 9999 VCSH SCT039CB BKN045 09/M01 Q1007","observationTime":"2019-05-04T14:20:00Z","temp":9,"dewpoint":-1,"windDirection":350,"windSpeed":22.224,"visibility":6.21,"altim":29.734253,"flightCategory":"VFR","metarType":"METAR","geometry_esri":{"x":53.53,"y":9.83,"z":13}}}