{"type":"Feature","geometry":{"type":"Point","coordinates":[53.53,9.83,13]},"properties":{"stationId":"EDHI","rawText":"EDHI 101520Z AUTO 17003KT 140V200 9999 // NCD 06/03 Q1013","observationTime":"2019-11-10T15:20:00Z","temp":6,"dewpoint":3,"windDirection":170,"windSpeed":5.556,"visibility":6.21,"altim":29.911417,"flightCategory":"VFR","metarType":"METAR","geometry_esri":{"x":53.53,"y":9.83,"z":13}}}