{"type":"Feature","geometry":{"type":"Point","coordinates":[53.53,9.83,13]},"properties":{"stationId":"EDHI","rawText":"EDHI 082020Z AUTO 21006KT 180V240 9999 // BKN055/// OVC067/// 05/01 Q1010","observationTime":"2019-03-08T20:20:00Z","temp":5,"dewpoint":1,"windDirection":210,"windSpeed":11.112,"visibility":6.21,"altim":29.822834,"flightCategory":"VFR","metarType":"METAR","geometry_esri":{"x":53.53,"y":9.83,"z":13}}}