{"type":"Feature","geometry":{"type":"Point","coordinates":[53.53,9.83,13]},"properties":{"stationId":"EDHI","rawText":"EDHI 211020Z 23006KT 7000 NSC M04/M05 Q1021","observationTime":"2019-01-21T10:20:00Z","temp":-4,"dewpoint":-5,"windDirection":230,"windSpeed":11.112,"visibility":4.35,"altim":30.147638,"flightCategory":"MVFR","metarType":"METAR","geometry_esri":{"x":53.53,"y":9.83,"z":13}}}