{"type":"Feature","geometry":{"type":"Point","coordinates":[53.53,9.83,13]},"properties":{"stationId":"EDHI","rawText":"EDHI 011220Z 10008G19KT 040V160 CAVOK 09/M04 Q1026","observationTime":"2019-04-01T12:20:00Z","temp":9,"dewpoint":-4,"windDirection":100,"windSpeed":14.816,"visibility":6.21,"altim":30.295275,"flightCategory":"VFR","metarType":"METAR","geometry_esri":{"x":53.53,"y":9.83,"z":13}}}