{"type":"Feature","geometry":{"type":"Point","coordinates":[53.53,9.83,13]},"properties":{"stationId":"EDHI","rawText":"EDHI 300020Z AUTO 32020G37KT 280V360 9999 // BKN006/// OVC011/// 08/06 Q1017","observationTime":"2018-12-30T00:20:00Z","temp":8,"dewpoint":6,"windDirection":320,"windSpeed":37.04,"visibility":6.21,"altim":30.029528,"flightCategory":"IFR","metarType":"METAR","geometry_esri":{"x":53.53,"y":9.83,"z":13}}}