{"type":"Feature","geometry":{"type":"Point","coordinates":[53.53,9.83,13]},"properties":{"stationId":"EDHI","rawText":"EDHI 011620Z AUTO 22008KT 190V250 9999 // OVC048/// 09/07 Q0999","observationTime":"2020-05-01T16:20:00Z","temp":9,"dewpoint":7,"windDirection":220,"windSpeed":14.816,"visibility":6.21,"altim":29.498032,"flightCategory":"VFR","metarType":"METAR","geometry_esri":{"x":53.53,"y":9.83,"z":13}}}