{"type":"Feature","geometry":{"type":"Point","coordinates":[53.53,9.83,13]},"properties":{"stationId":"EDHI","rawText":"EDHI 011620Z AUTO 29013KT 9999 // FEW037/// OVC170/// 19/11 Q1014","observationTime":"2019-09-01T16:20:00Z","temp":19,"dewpoint":11,"windDirection":290,"windSpeed":24.076,"visibility":6.21,"altim":29.940945,"flightCategory":"VFR","metarType":"METAR","geometry_esri":{"x":53.53,"y":9.83,"z":13}}}