{"type":"Feature","geometry":{"type":"Point","coordinates":[53.53,9.83,13]},"properties":{"stationId":"EDHI","rawText":"EDHI 291020Z 25012KT 9999 BKN020 22/18 Q1017","observationTime":"2019-08-29T10:20:00Z","temp":22,"dewpoint":18,"windDirection":250,"windSpeed":22.224,"visibility":6.21,"altim":30.029528,"flightCategory":"MVFR","metarType":"METAR","geometry_esri":{"x":53.53,"y":9.83,"z":13}}}