{"type":"Feature","geometry":{"type":"Point","coordinates":[53.53,9.83,13]},"properties":{"stationId":"EDHI","rawText":"EDHI 131220Z 26014KT 7000 BKN009 08/06 Q1031","observationTime":"2019-02-13T12:20:00Z","temp":8,"dewpoint":6,"windDirection":260,"windSpeed":25.928,"visibility":4.35,"altim":30.442913,"flightCategory":"IFR","metarType":"METAR","geometry_esri":{"x":53.53,"y":9.83,"z":13}}}