{"type":"Feature","geometry":{"type":"Point","coordinates":[53.53,9.83,13]},"properties":{"stationId":"EDHI","rawText":"EDHI 151350Z 29016KT 9999 FEW030 BKN043 10/03 Q1019","observationTime":"2020-05-15T13:50:00Z","temp":10,"dewpoint":3,"windDirection":290,"windSpeed":29.632,"visibility":6.21,"altim":30.088583,"flightCategory":"VFR","metarType":"METAR","geometry_esri":{"x":53.53,"y":9.83,"z":13}}}