{"type":"Feature","geometry":{"type":"Point","coordinates":[53.53,9.83,13]},"properties":{"stationId":"EDHI","rawText":"EDHI 230720Z AUTO 25009KT //// R23/P2000N // BKN018/// OVC032/// 05/03 Q1010","observationTime":"2020-02-23T07:20:00Z","temp":5,"dewpoint":3,"windDirection":250,"windSpeed":16.668,"visibility":1.24,"altim":29.822834,"flightCategory":"IFR","metarType":"METAR","geometry_esri":{"x":53.53,"y":9.83,"z":13}}}