{"type":"Feature","geometry":{"type":"Point","coordinates":[53.53,9.83,13]},"properties":{"stationId":"EDHI","rawText":"EDHI 021150Z 35014KT 300V010 CAVOK 04/M06 Q1031","observationTime":"2019-01-02T11:50:00Z","temp":4,"dewpoint":-6,"windDirection":350,"windSpeed":25.928,"visibility":6.21,"altim":30.442913,"flightCategory":"VFR","metarType":"METAR","geometry_esri":{"x":53.53,"y":9.83,"z":13}}}