{"type":"Feature","geometry":{"type":"Point","coordinates":[53.53,9.83,13]},"properties":{"stationId":"EDHI","rawText":"EDHI 290320Z AUTO 26003KT 4700 // FEW110/// SCT140/// BKN240/// 18/17 Q1014","observationTime":"2019-08-29T03:20:00Z","temp":18,"dewpoint":17,"windDirection":260,"windSpeed":5.556,"visibility":2.92,"altim":29.940945,"flightCategory":"IFR","metarType":"METAR","geometry_esri":{"x":53.53,"y":9.83,"z":13}}}