{"type":"Feature","geometry":{"type":"Point","coordinates":[53.53,9.83,13]},"properties":{"stationId":"EDHI","rawText":"EDHI 061620Z 31012KT 280V340 9999 FEW021 SCT027 BKN031 16/12 Q1012","observationTime":"2019-06-06T16:20:00Z","temp":16,"dewpoint":12,"windDirection":310,"windSpeed":22.224,"visibility":6.21,"altim":29.88189,"flightCategory":"VFR","metarType":"METAR","geometry_esri":{"x":53.53,"y":9.83,"z":13}}}