{"type":"Feature","geometry":{"type":"Point","coordinates":[53.53,9.83,13]},"properties":{"stationId":"EDHI","rawText":"EDHI 060050Z AUTO 22016KT 6000 // BKN013/// OVC078/// 03/01 Q1008","observationTime":"2019-12-06T00:50:00Z","temp":3,"dewpoint":1,"windDirection":220,"windSpeed":29.632,"visibility":3.73,"altim":29.763779,"flightCategory":"MVFR","metarType":"METAR","geometry_esri":{"x":53.53,"y":9.83,"z":13}}}