{"type":"Feature","geometry":{"type":"Point","coordinates":[53.53,9.83,13]},"properties":{"stationId":"EDHI","rawText":"EDHI 032020Z AUTO 23004KT 9999 4200 // NCD M02/M03 Q1036","observationTime":"2019-01-03T20:20:00Z","temp":-2,"dewpoint":-3,"windDirection":230,"windSpeed":7.408,"visibility":6.21,"altim":30.590551,"flightCategory":"VFR","metarType":"METAR","geometry_esri":{"x":53.53,"y":9.83,"z":13}}}