{"type":"Feature","geometry":{"type":"Point","coordinates":[53.53,9.83,13]},"properties":{"stationId":"EDHI","rawText":"EDHI 010850Z 12008KT 070V160 7000 NSC 01/M01 Q1012","observationTime":"2019-11-01T08:50:00Z","temp":1,"dewpoint":-1,"windDirection":120,"windSpeed":14.816,"visibility":4.35,"altim":29.88189,"flightCategory":"MVFR","metarType":"METAR","geometry_esri":{"x":53.53,"y":9.83,"z":13}}}