{"type":"Feature","geometry":{"type":"Point","coordinates":[53.53,9.83,13]},"properties":{"stationId":"EDHI","rawText":"EDHI 282220Z AUTO 17009KT 140V200 8000 2400 // BKN011/// OVC026/// 03/01 Q1005","observationTime":"2020-02-28T22:20:00Z","temp":3,"dewpoint":1,"windDirection":170,"windSpeed":16.668,"visibility":4.97,"altim":29.675198,"flightCategory":"MVFR","metarType":"METAR","geometry_esri":{"x":53.53,"y":9.83,"z":13}}}