{"type":"Feature","geometry":{"type":"Point","coordinates":[53.53,9.83,13]},"properties":{"stationId":"EDHI","rawText":"EDHI 112220Z AUTO 16005KT 120V200 9999 // BKN053/// BKN200/// 04/01 Q1001","observationTime":"2019-11-11T22:20:00Z","temp":4,"dewpoint":1,"windDirection":160,"windSpeed":9.26,"visibility":6.21,"altim":29.557087,"flightCategory":"VFR","metarType":"METAR","geometry_esri":{"x":53.53,"y":9.83,"z":13}}}