{"type":"Feature","geometry":{"type":"Point","coordinates":[53.53,9.83,13]},"properties":{"stationId":"EDHI","rawText":"EDHI 270250Z AUTO VRB02KT 1200 0800 R23/1400U // VV002 09/09 Q1012","observationTime":"2019-04-27T02:50:00Z","temp":9,"dewpoint":9,"windDirection":0,"windSpeed":3.704,"visibility":0.75,"altim":29.88189,"flightCategory":"LIFR","metarType":"METAR","geometry_esri":{"x":53.53,"y":9.83,"z":13}}}