{"type":"Feature","geometry":{"type":"Point","coordinates":[53.53,9.83,13]},"properties":{"stationId":"EDHI","rawText":"EDHI 141950Z AUTO 36003KT 320V030 9999 // BKN070/// OVC081/// 18/10 Q1014","observationTime":"2019-08-14T19:50:00Z","temp":18,"dewpoint":10,"windDirection":360,"windSpeed":5.556,"visibility":6.21,"altim":29.940945,"flightCategory":"VFR","metarType":"METAR","geometry_esri":{"x":53.53,"y":9.83,"z":13}}}