{"type":"Feature","geometry":{"type":"Point","coordinates":[53.53,9.83,13]},"properties":{"stationId":"EDHI","rawText":"EDHI 281120Z 28008KT 9999 BKN009 10/08 Q1034","observationTime":"2019-03-28T11:20:00Z","temp":10,"dewpoint":8,"windDirection":280,"windSpeed":14.816,"visibility":6.21,"altim":30.531496,"flightCategory":"IFR","metarType":"METAR","geometry_esri":{"x":53.53,"y":9.83,"z":13}}}