{"type":"Feature","geometry":{"type":"Point","coordinates":[53.53,9.83,13]},"properties":{"stationId":"EDHI","rawText":"EDHI 042150Z AUTO 24003KT 210V270 5000 // NCD 02/01 Q1020","observationTime":"2019-12-04T21:50:00Z","temp":2,"dewpoint":1,"windDirection":240,"windSpeed":5.556,"visibility":3.11,"altim":30.11811,"flightCategory":"MVFR","metarType":"METAR","geometry_esri":{"x":53.53,"y":9.83,"z":13}}}