{"type":"Feature","geometry":{"type":"Point","coordinates":[53.53,9.83,13]},"properties":{"stationId":"EDHI","rawText":"EDHI 111650Z AUTO 06003KT 020V120 9999 // FEW110/// 17/01 Q1022","observationTime":"2020-04-11T16:50:00Z","temp":17,"dewpoint":1,"windDirection":60,"windSpeed":5.556,"visibility":6.21,"altim":30.177166,"flightCategory":"VFR","metarType":"METAR","geometry_esri":{"x":53.53,"y":9.83,"z":13}}}