{"type":"Feature","geometry":{"type":"Point","coordinates":[53.53,9.83,13]},"properties":{"stationId":"EDHI","rawText":"EDHI 050420Z AUTO 03008KT 9999 // SCT057/// 07/06 Q1011","observationTime":"2019-10-05T04:20:00Z","temp":7,"dewpoint":6,"windDirection":30,"windSpeed":14.816,"visibility":6.21,"altim":29.852362,"flightCategory":"VFR","metarType":"METAR","geometry_esri":{"x":53.53,"y":9.83,"z":13}}}