{"type":"Feature","geometry":{"type":"Point","coordinates":[53.53,9.83,13]},"properties":{"stationId":"EDHI","rawText":"EDHI 180150Z AUTO 25020KT 9999 // OVC030/// 07/01 Q1016","observationTime":"2020-01-18T01:50:00Z","temp":7,"dewpoint":1,"windDirection":250,"windSpeed":37.04,"visibility":6.21,"altim":30,"flightCategory":"MVFR","metarType":"METAR","geometry_esri":{"x":53.53,"y":9.83,"z":13}}}