{"type":"Feature","geometry":{"type":"Point","coordinates":[53.53,9.83,13]},"properties":{"stationId":"EDHI","rawText":"EDHI 032150Z AUTO 31005KT 270V340 9999 // SCT044/// BKN086/// OVC100/// 15/12 Q1014","observationTime":"2019-06-03T21:50:00Z","temp":15,"dewpoint":12,"windDirection":310,"windSpeed":9.26,"visibility":6.21,"altim":29.940945,"flightCategory":"VFR","metarType":"METAR","geometry_esri":{"x":53.53,"y":9.83,"z":13}}}