{"type":"Feature","geometry":{"type":"Point","coordinates":[53.53,9.83,13]},"properties":{"stationId":"EDHI","rawText":"EDHI 100720Z AUTO 06006KT 9999 // FEW065/// OVC074/// 15/13 Q1015","observationTime":"2019-06-10T07:20:00Z","temp":15,"dewpoint":13,"windDirection":60,"windSpeed":11.112,"visibility":6.21,"altim":29.970472,"flightCategory":"VFR","metarType":"METAR","geometry_esri":{"x":53.53,"y":9.83,"z":13}}}