{"type":"Feature","geometry":{"type":"Point","coordinates":[53.53,9.83,13]},"properties":{"stationId":"EDHI","rawText":"EDHI 090850Z 26021G32KT 9999 BKN027 BKN033 08/03 Q1001","observationTime":"2019-03-09T08:50:00Z","temp":8,"dewpoint":3,"windDirection":260,"windSpeed":38.892,"visibility":6.21,"altim":29.557087,"flightCategory":"MVFR","metarType":"METAR","geometry_esri":{"x":53.53,"y":9.83,"z":13}}}