{"type":"Feature","geometry":{"type":"Point","coordinates":[53.53,9.83,13]},"properties":{"stationId":"EDHI","rawText":"EDHI 190120Z AUTO 11007KT 070V160 5000 // NCD 04/03 Q1016","observationTime":"2019-12-19T01:20:00Z","temp":4,"dewpoint":3,"windDirection":110,"windSpeed":12.964,"visibility":3.11,"altim":30,"flightCategory":"MVFR","metarType":"METAR","geometry_esri":{"x":53.53,"y":9.83,"z":13}}}