{"type":"Feature","geometry":{"type":"Point","coordinates":[53.53,9.83,13]},"properties":{"stationId":"EDHI","rawText":"EDHI 050620Z 30008KT 270V330 2200 BR OVC004 08/07 Q1004","observationTime":"2019-04-05T06:20:00Z","temp":8,"dewpoint":7,"windDirection":300,"windSpeed":14.816,"visibility":1.37,"altim":29.64567,"flightCategory":"LIFR","metarType":"METAR","geometry_esri":{"x":53.53,"y":9.83,"z":13}}}