{"type":"Feature","geometry":{"type":"Point","coordinates":[53.53,9.83,13]},"properties":{"stationId":"EDHI","rawText":"EDHI 120520Z AUTO 26006KT 5000 // BKN005/// BKN009/// OVC035/// 11/11 Q1005","observationTime":"2019-10-12T05:20:00Z","temp":11,"dewpoint":11,"windDirection":260,"windSpeed":11.112,"visibility":3.11,"altim":29.675198,"flightCategory":"IFR","metarType":"METAR","geometry_esri":{"x":53.53,"y":9.83,"z":13}}}