{"type":"Feature","geometry":{"type":"Point","coordinates":[53.53,9.83,13]},"properties":{"stationId":"EDHI","rawText":"EDHI 020020Z AUTO 32010KT 290V360 9999 // BKN028/// BKN096/// 05/01 Q1021","observationTime":"2019-01-02T00:20:00Z","temp":5,"dewpoint":1,"windDirection":320,"windSpeed":18.52,"visibility":6.21,"altim":30.147638,"flightCategory":"MVFR","metarType":"METAR","geometry_esri":{"x":53.53,"y":9.83,"z":13}}}