{"type":"Feature","geometry":{"type":"Point","coordinates":[53.53,9.83,13]},"properties":{"stationId":"EDHI","rawText":"EDHI 071450Z AUTO 35004KT 310V060 9999 // FEW030/// BKN051/// OVC080/// 17/10 Q1016","observationTime":"2019-09-07T14:50:00Z","temp":17,"dewpoint":10,"windDirection":350,"windSpeed":7.408,"visibility":6.21,"altim":30,"flightCategory":"VFR","metarType":"METAR","geometry_esri":{"x":53.53,"y":9.83,"z":13}}}