{"type":"Feature","geometry":{"type":"Point","coordinates":[53.53,9.83,13]},"properties":{"stationId":"EDHI","rawText":"EDHI 100320Z AUTO 22010KT 6000 // BKN008/// BKN013/// OVC015/// 11/10 Q1007","observationTime":"2020-01-10T03:20:00Z","temp":11,"dewpoint":10,"windDirection":220,"windSpeed":18.52,"visibility":3.73,"altim":29.734253,"flightCategory":"IFR","metarType":"METAR","geometry_esri":{"x":53.53,"y":9.83,"z":13}}}