{"type":"Feature","geometry":{"type":"Point","coordinates":[53.53,9.83,13]},"properties":{"stationId":"EDHI","rawText":"EDHI 100650Z AUTO 11002KT 4700 0400 R/////// // NCD 01/00 Q1011","observationTime":"2019-11-10T06:50:00Z","temp":1,"dewpoint":0,"windDirection":110,"windSpeed":3.704,"visibility":2.92,"altim":29.852362,"flightCategory":"IFR","metarType":"METAR","geometry_esri":{"x":53.53,"y":9.83,"z":13}}}