{"type":"Feature","geometry":{"type":"Point","coordinates":[53.53,9.83,13]},"properties":{"stationId":"EDHI","rawText":"EDHI 021450Z 13006KT 070V160 9999 FEW038 10/01 Q0990","observationTime":"2020-03-02T14:50:00Z","temp":10,"dewpoint":1,"windDirection":130,"windSpeed":11.112,"visibility":6.21,"altim":29.232283,"flightCategory":"VFR","metarType":"METAR","geometry_esri":{"x":53.53,"y":9.83,"z":13}}}