{"type":"Feature","geometry":{"type":"Point","coordinates":[53.53,9.83,13]},"properties":{"stationId":"EDHI","rawText":"EDHI 202220Z AUTO 24002KT 9999 // OVC031/// 14/11 Q1025","observationTime":"2019-09-20T22:20:00Z","temp":14,"dewpoint":11,"windDirection":240,"windSpeed":3.704,"visibility":6.21,"altim":30.265747,"flightCategory":"VFR","metarType":"METAR","geometry_esri":{"x":53.53,"y":9.83,"z":13}}}