{"type":"Feature","geometry":{"type":"Point","coordinates":[53.53,9.83,13]},"properties":{"stationId":"EDHI","rawText":"EDHI 012120Z AUTO 11002KT 9999 // SCT051/// OVC063/// 04/01 Q0992","observationTime":"2020-03-01T21:20:00Z","temp":4,"dewpoint":1,"windDirection":110,"windSpeed":3.704,"visibility":6.21,"altim":29.291338,"flightCategory":"VFR","metarType":"METAR","geometry_esri":{"x":53.53,"y":9.83,"z":13}}}