{"type":"Feature","geometry":{"type":"Point","coordinates":[53.53,9.83,13]},"properties":{"stationId":"EDHI","rawText":"EDHI 230320Z AUTO 10009G19KT 060V150 6000 // OVC008/// 08/07 Q1006","observationTime":"2019-11-23T03:20:00Z","temp":8,"dewpoint":7,"windDirection":100,"windSpeed":16.668,"visibility":3.73,"altim":29.704725,"flightCategory":"IFR","metarType":"METAR","geometry_esri":{"x":53.53,"y":9.83,"z":13}}}