{"type":"Feature","geometry":{"type":"Point","coordinates":[53.53,9.83,13]},"properties":{"stationId":"EDHI","rawText":"EDHI 060050Z AUTO 01003KT 340V040 9999 // BKN008/// BKN020/// OVC026/// 07/06 Q0998","observationTime":"2019-11-06T00:50:00Z","temp":7,"dewpoint":6,"windDirection":10,"windSpeed":5.556,"visibility":6.21,"altim":29.468504,"flightCategory":"IFR","metarType":"METAR","geometry_esri":{"x":53.53,"y":9.83,"z":13}}}