{"type":"Feature","geometry":{"type":"Point","coordinates":[53.53,9.83,13]},"properties":{"stationId":"EDHI","rawText":"EDHI 070450Z AUTO 27013KT 9999 R/////// // BKN038/// BKN046/// 13/08 Q1009","observationTime":"2019-07-07T04:50:00Z","temp":13,"dewpoint":8,"windDirection":270,"windSpeed":24.076,"visibility":6.21,"altim":29.793306,"flightCategory":"VFR","metarType":"METAR","geometry_esri":{"x":53.53,"y":9.83,"z":13}}}