{"type":"Feature","geometry":{"type":"Point","coordinates":[53.53,9.83,13]},"properties":{"stationId":"EDHI","rawText":"EDHI 211420Z AUTO 17004KT 140V210 9999 // FEW240/// 08/04 Q0990","observationTime":"2019-12-21T14:20:00Z","temp":8,"dewpoint":4,"windDirection":170,"windSpeed":7.408,"visibility":6.21,"altim":29.232283,"flightCategory":"VFR","metarType":"METAR","geometry_esri":{"x":53.53,"y":9.83,"z":13}}}