{"type":"Feature","geometry":{"type":"Point","coordinates":[53.53,9.83,13]},"properties":{"stationId":"EDHI","rawText":"EDHI 272250Z AUTO 27006KT 3100 // OVC003/// 06/06 Q1023","observationTime":"2018-12-27T22:50:00Z","temp":6,"dewpoint":6,"windDirection":270,"windSpeed":11.112,"visibility":1.93,"altim":30.206694,"flightCategory":"LIFR","metarType":"METAR","geometry_esri":{"x":53.53,"y":9.83,"z":13}}}