{"type":"Feature","geometry":{"type":"Point","coordinates":[53.53,9.83,13]},"properties":{"stationId":"EDHI","rawText":"EDHI 071050Z AUTO 30017KT 9999 R/////// // OVC043/// 14/07 Q1012","observationTime":"2019-07-07T10:50:00Z","temp":14,"dewpoint":7,"windDirection":300,"windSpeed":31.484,"visibility":6.21,"altim":29.88189,"flightCategory":"VFR","metarType":"SPECI","geometry_esri":{"x":53.53,"y":9.83,"z":13}}}