{"type":"Feature","geometry":{"type":"Point","coordinates":[53.53,9.83,13]},"properties":{"stationId":"EDHI","rawText":"EDHI 071250Z 27014KT 9999 -RA SCT011 BKN015 OVC034 09/07 Q1006","observationTime":"2019-12-07T12:50:00Z","temp":9,"dewpoint":7,"windDirection":270,"windSpeed":25.928,"visibility":6.21,"altim":29.704725,"flightCategory":"MVFR","metarType":"METAR","geometry_esri":{"x":53.53,"y":9.83,"z":13}}}