{"type":"Feature","geometry":{"type":"Point","coordinates":[53.53,9.83,13]},"properties":{"stationId":"EDHI","rawText":"EDHI 162120Z AUTO 00000KT 9999 // FEW027/// 06/02 Q1023","observationTime":"2019-02-16T21:20:00Z","temp":6,"dewpoint":2,"windDirection":0,"windSpeed":0,"visibility":6.21,"altim":30.206694,"flightCategory":"VFR","metarType":"METAR","geometry_esri":{"x":53.53,"y":9.83,"z":13}}}