{"type":"Feature","geometry":{"type":"Point","coordinates":[53.53,9.83,13]},"properties":{"stationId":"EDHI","rawText":"EDHI 110020Z AUTO 28025G35KT 9999 // BKN024/// OVC031/// 09/06 Q1000","observationTime":"2020-03-11T00:20:00Z","temp":9,"dewpoint":6,"windDirection":280,"windSpeed":46.300000000000004,"visibility":6.21,"altim":29.52756,"flightCategory":"MVFR","metarType":"METAR","geometry_esri":{"x":53.53,"y":9.83,"z":13}}}