{"type":"Feature","geometry":{"type":"Point","coordinates":[53.53,9.83,13]},"properties":{"stationId":"EDHI","rawText":"EDHI 011950Z AUTO 02003KT 340V050 9999 // FEW007/// SCT033/// BKN093/// 09/08 Q1000","observationTime":"2019-10-01T19:50:00Z","temp":9,"dewpoint":8,"windDirection":20,"windSpeed":5.556,"visibility":6.21,"altim":29.52756,"flightCategory":"VFR","metarType":"METAR","geometry_esri":{"x":53.53,"y":9.83,"z":13}}}