{"type":"Feature","geometry":{"type":"Point","coordinates":[53.53,9.83,13]},"properties":{"stationId":"EDHI","rawText":"EDHI 142220Z AUTO 07008KT 040V100 9999 // OVC057/// 07/M01 Q1029","observationTime":"2019-04-14T22:20:00Z","temp":7,"dewpoint":-1,"windDirection":70,"windSpeed":14.816,"visibility":6.21,"altim":30.383858,"flightCategory":"VFR","metarType":"METAR","geometry_esri":{"x":53.53,"y":9.83,"z":13}}}