{"type":"Feature","geometry":{"type":"Point","coordinates":[53.53,9.83,13]},"properties":{"stationId":"EDHI","rawText":"EDHI 270350Z AUTO VRB02KT 1100 0700 R23/1000U // FEW001/// SCT057/// BKN220/// 09/08 Q1011","observationTime":"2019-04-27T03:50:00Z","temp":9,"dewpoint":8,"windDirection":0,"windSpeed":3.704,"visibility":0.68,"altim":29.852362,"flightCategory":"LIFR","metarType":"METAR","geometry_esri":{"x":53.53,"y":9.83,"z":13}}}