{"type":"Feature","geometry":{"type":"Point","coordinates":[53.53,9.83,13]},"properties":{"stationId":"EDHI","rawText":"EDHI 020120Z AUTO 24009KT 1400 1300 R23/1500D // VV002 M02/M02 Q1028","observationTime":"2020-01-02T01:20:00Z","temp":-2,"dewpoint":-2,"windDirection":240,"windSpeed":16.668,"visibility":0.87,"altim":30.35433,"flightCategory":"LIFR","metarType":"METAR","geometry_esri":{"x":53.53,"y":9.83,"z":13}}}