{"type":"Feature","geometry":{"type":"Point","coordinates":[53.53,9.83,13]},"properties":{"stationId":"EDHI","rawText":"EDHI 121520Z 27021G34KT 9999 BKN052CB 08/M01 Q1006","observationTime":"2020-03-12T15:20:00Z","temp":8,"dewpoint":-1,"windDirection":270,"windSpeed":38.892,"visibility":6.21,"altim":29.704725,"flightCategory":"VFR","metarType":"METAR","geometry_esri":{"x":53.53,"y":9.83,"z":13}}}