{"type":"Feature","geometry":{"type":"Point","coordinates":[53.53,9.83,13]},"properties":{"stationId":"EDHI","rawText":"EDHI 250720Z 24004KT CAVOK M00/M03 Q1038","observationTime":"2019-02-25T07:20:00Z","temp":0,"dewpoint":-3,"windDirection":240,"windSpeed":7.408,"visibility":6.21,"altim":30.649607,"flightCategory":"VFR","metarType":"METAR","geometry_esri":{"x":53.53,"y":9.83,"z":13}}}