{"type":"Feature","geometry":{"type":"Point","coordinates":[53.53,9.83,13]},"properties":{"stationId":"EDHI","rawText":"EDHI 312250Z AUTO 11003KT 060V160 9999 // NCD 01/M01 Q1022","observationTime":"2019-10-31T22:50:00Z","temp":1,"dewpoint":-1,"windDirection":110,"windSpeed":5.556,"visibility":6.21,"altim":30.177166,"flightCategory":"VFR","metarType":"METAR","geometry_esri":{"x":53.53,"y":9.83,"z":13}}}