{"type":"Feature","geometry":{"type":"Point","coordinates":[53.53,9.83,13]},"properties":{"stationId":"EDHI","rawText":"EDHI 120620Z AUTO 27013KT 4200 // BKN006/// OVC015/// 06/05 Q1014","observationTime":"2019-01-12T06:20:00Z","temp":6,"dewpoint":5,"windDirection":270,"windSpeed":24.076,"visibility":2.61,"altim":29.940945,"flightCategory":"IFR","metarType":"METAR","geometry_esri":{"x":53.53,"y":9.83,"z":13}}}