{"type":"Feature","geometry":{"type":"Point","coordinates":[53.53,9.83,13]},"properties":{"stationId":"EDHI","rawText":"EDHI 282320Z AUTO 25004KT 9999 // FEW047/// 03/03 Q1021","observationTime":"2019-10-28T23:20:00Z","temp":3,"dewpoint":3,"windDirection":250,"windSpeed":7.408,"visibility":6.21,"altim":30.147638,"flightCategory":"VFR","metarType":"METAR","geometry_esri":{"x":53.53,"y":9.83,"z":13}}}