{"type":"Feature","geometry":{"type":"Point","coordinates":[53.53,9.83,13]},"properties":{"stationId":"EDHI","rawText":"EDHI 111650Z 01011KT 330V040 CAVOK 11/M06 Q1012","observationTime":"2020-05-11T16:50:00Z","temp":11,"dewpoint":-6,"windDirection":10,"windSpeed":20.372,"visibility":6.21,"altim":29.88189,"flightCategory":"VFR","metarType":"METAR","geometry_esri":{"x":53.53,"y":9.83,"z":13}}}