{"type":"Feature","geometry":{"type":"Point","coordinates":[53.53,9.83,13]},"properties":{"stationId":"EDHI","rawText":"EDHI 110520Z 12003KT 070V160 CAVOK 00/M00 Q1011","observationTime":"2019-11-11T05:20:00Z","temp":0,"dewpoint":0,"windDirection":120,"windSpeed":5.556,"visibility":6.21,"altim":29.852362,"flightCategory":"VFR","metarType":"METAR","geometry_esri":{"x":53.53,"y":9.83,"z":13}}}