{"type":"Feature","geometry":{"type":"Point","coordinates":[53.53,9.83,13]},"properties":{"stationId":"EDHI","rawText":"EDHI 251820Z 16007KT 8000 -SN FEW038 M03/M07 Q1010","observationTime":"2019-01-25T18:20:00Z","temp":-3,"dewpoint":-7,"windDirection":160,"windSpeed":12.964,"visibility":4.97,"altim":29.822834,"flightCategory":"MVFR","metarType":"METAR","geometry_esri":{"x":53.53,"y":9.83,"z":13}}}