{"type":"Feature","geometry":{"type":"Point","coordinates":[53.53,9.83,13]},"properties":{"stationId":"EDHI","rawText":"EDHI 012120Z AUTO 09004KT 050V170 5000 // FEW035/// BKN240/// M01/M02 Q0994","observationTime":"2019-02-01T21:20:00Z","temp":-1,"dewpoint":-2,"windDirection":90,"windSpeed":7.408,"visibility":3.11,"altim":29.350393,"flightCategory":"MVFR","metarType":"METAR","geometry_esri":{"x":53.53,"y":9.83,"z":13}}}