{"type":"Feature","geometry":{"type":"Point","coordinates":[53.53,9.83,13]},"properties":{"stationId":"EDHI","rawText":"EDHI 121620Z 26011KT 230V290 9999 FEW047 20/12 Q1025","observationTime":"2019-09-12T16:20:00Z","temp":20,"dewpoint":12,"windDirection":260,"windSpeed":20.372,"visibility":6.21,"altim":30.265747,"flightCategory":"VFR","metarType":"METAR","geometry_esri":{"x":53.53,"y":9.83,"z":13}}}