{"type":"Feature","geometry":{"type":"Point","coordinates":[53.53,9.83,13]},"properties":{"stationId":"EDHI","rawText":"EDHI 160820Z AUTO 12010G21KT 080V170 9999 // FEW017/// BKN170/// M00/M03 Q1014","observationTime":"2018-12-16T08:20:00Z","temp":0,"dewpoint":-3,"windDirection":120,"windSpeed":18.52,"visibility":6.21,"altim":29.940945,"flightCategory":"VFR","metarType":"METAR","geometry_esri":{"x":53.53,"y":9.83,"z":13}}}