{"type":"Feature","geometry":{"type":"Point","coordinates":[53.53,9.83,13]},"properties":{"stationId":"EDHI","rawText":"EDHI 151250Z 23017KT 7000 -RA SCT007 BKN014 08/07 Q0992","observationTime":"2019-03-15T12:50:00Z","temp":8,"dewpoint":7,"windDirection":230,"windSpeed":31.484,"visibility":4.35,"altim":29.291338,"flightCategory":"MVFR","metarType":"METAR","geometry_esri":{"x":53.53,"y":9.83,"z":13}}}