{"type":"Feature","geometry":{"type":"Point","coordinates":[53.53,9.83,13]},"properties":{"stationId":"EDHI","rawText":"EDHI 282220Z AUTO 29005KT 9999 3200 // SCT130/// BKN230/// 20/18 Q1014","observationTime":"2019-08-28T22:20:00Z","temp":20,"dewpoint":18,"windDirection":290,"windSpeed":9.26,"visibility":6.21,"altim":29.940945,"flightCategory":"VFR","metarType":"METAR","geometry_esri":{"x":53.53,"y":9.83,"z":13}}}