{"type":"Feature","geometry":{"type":"Point","coordinates":[53.53,9.83,13]},"properties":{"stationId":"EDHI","rawText":"EDHI 050950Z 09005KT 060V120 9000 FEW049 05/02 Q1002","observationTime":"2020-03-05T09:50:00Z","temp":5,"dewpoint":2,"windDirection":90,"windSpeed":9.26,"visibility":5.59,"altim":29.586615,"flightCategory":"VFR","metarType":"METAR","geometry_esri":{"x":53.53,"y":9.83,"z":13}}}