{"type":"Feature","geometry":{"type":"Point","coordinates":[53.53,9.83,13]},"properties":{"stationId":"EDHI","rawText":"EDHI 021620Z 13007KT 070V160 CAVOK 09/02 Q0990","observationTime":"2020-03-02T16:20:00Z","temp":9,"dewpoint":2,"windDirection":130,"windSpeed":12.964,"visibility":6.21,"altim":29.232283,"flightCategory":"VFR","metarType":"METAR","geometry_esri":{"x":53.53,"y":9.83,"z":13}}}