{"type":"Feature","geometry":{"type":"Point","coordinates":[53.53,9.83,13]},"properties":{"stationId":"EDHI","rawText":"EDHI 170150Z AUTO 25017KT 8000 2800 // BKN009/// OVC015/// 05/04 Q0995","observationTime":"2019-01-17T01:50:00Z","temp":5,"dewpoint":4,"windDirection":250,"windSpeed":31.484,"visibility":4.97,"altim":29.379921,"flightCategory":"IFR","metarType":"METAR","geometry_esri":{"x":53.53,"y":9.83,"z":13}}}