{"type":"Feature","geometry":{"type":"Point","coordinates":[53.53,9.83,13]},"properties":{"stationId":"EDHI","rawText":"EDHI 300320Z AUTO 26005KT 9999 // FEW041/// SCT052/// 01/00 Q1018","observationTime":"2019-11-30T03:20:00Z","temp":1,"dewpoint":0,"windDirection":260,"windSpeed":9.26,"visibility":6.21,"altim":30.059055,"flightCategory":"VFR","metarType":"METAR","geometry_esri":{"x":53.53,"y":9.83,"z":13}}}