{"type":"Feature","geometry":{"type":"Point","coordinates":[53.53,9.83,13]},"properties":{"stationId":"EDHI","rawText":"EDHI 040420Z 13004KT 100V160 4500 BR OVC002 08/08 Q1010","observationTime":"2019-10-04T04:20:00Z","temp":8,"dewpoint":8,"windDirection":130,"windSpeed":7.408,"visibility":2.8,"altim":29.822834,"flightCategory":"LIFR","metarType":"METAR","geometry_esri":{"x":53.53,"y":9.83,"z":13}}}