{"type":"Feature","geometry":{"type":"Point","coordinates":[53.53,9.83,13]},"properties":{"stationId":"EDHI","rawText":"EDHI 190420Z AUTO 01005KT 340V040 9000 // OVC005/// 06/06 Q1024","observationTime":"2020-03-19T04:20:00Z","temp":6,"dewpoint":6,"windDirection":10,"windSpeed":9.26,"visibility":5.59,"altim":30.236221,"flightCategory":"IFR","metarType":"METAR","geometry_esri":{"x":53.53,"y":9.83,"z":13}}}