{"type":"Feature","geometry":{"type":"Point","coordinates":[53.53,9.83,13]},"properties":{"stationId":"EDHI","rawText":"EDHI 081750Z 25023KT 9999 -RA FEW016 BKN018 BKN067 08/05 Q0993","observationTime":"2018-12-08T17:50:00Z","temp":8,"dewpoint":5,"windDirection":250,"windSpeed":42.596000000000004,"visibility":6.21,"altim":29.320866,"skyCondition1a":"FEW","skyCondition1b":1600,"skyCondition2a":"BKN","skyCondition2b":1800,"flightCategory":"MVFR","metarType":"METAR","geometry_esri":{"x":53.53,"y":9.83,"z":13}}}