{"type":"Feature","geometry":{"type":"Point","coordinates":[53.53,9.83,13]},"properties":{"stationId":"EDHI","rawText":"EDHI 300420Z AUTO 25005KT 9999 // FEW033/// SCT050/// 00/M00 Q1018","observationTime":"2019-11-30T04:20:00Z","temp":0,"dewpoint":0,"windDirection":250,"windSpeed":9.26,"visibility":6.21,"altim":30.059055,"flightCategory":"VFR","metarType":"METAR","geometry_esri":{"x":53.53,"y":9.83,"z":13}}}