{"type":"Feature","geometry":{"type":"Point","coordinates":[53.53,9.83,13]},"properties":{"stationId":"EDHI","rawText":"EDHI 181220Z 24016KT 9999 BKN017 05/02 Q1020","observationTime":"2020-01-18T12:20:00Z","temp":5,"dewpoint":2,"windDirection":240,"windSpeed":29.632,"visibility":6.21,"altim":30.11811,"flightCategory":"MVFR","metarType":"METAR","geometry_esri":{"x":53.53,"y":9.83,"z":13}}}