{"type":"Feature","geometry":{"type":"Point","coordinates":[53.53,9.83,13]},"properties":{"stationId":"EDHI","rawText":"EDHI 042220Z AUTO 34013KT 300V360 9999 // FEW025/// 04/M01 Q1021","observationTime":"2020-02-04T22:20:00Z","temp":4,"dewpoint":-1,"windDirection":340,"windSpeed":24.076,"visibility":6.21,"altim":30.147638,"flightCategory":"VFR","metarType":"METAR","geometry_esri":{"x":53.53,"y":9.83,"z":13}}}