{"type":"Feature","geometry":{"type":"Point","coordinates":[53.53,9.83,13]},"properties":{"stationId":"EDHI","rawText":"EDHI 041420Z 30012KT 9999 -DZ BKN007 05/05 Q1027","observationTime":"2019-01-04T14:20:00Z","temp":5,"dewpoint":5,"windDirection":300,"windSpeed":22.224,"visibility":6.21,"altim":30.324802,"flightCategory":"IFR","metarType":"METAR","geometry_esri":{"x":53.53,"y":9.83,"z":13}}}