{"type":"Feature","geometry":{"type":"Point","coordinates":[53.53,9.83,13]},"properties":{"stationId":"EDHI","rawText":"EDHI 171420Z 30022G32KT 280V340 9999 VCSH FEW032TCU 13/06 Q1014","observationTime":"2019-09-17T14:20:00Z","temp":13,"dewpoint":6,"windDirection":300,"windSpeed":40.744,"visibility":6.21,"altim":29.940945,"flightCategory":"VFR","metarType":"METAR","geometry_esri":{"x":53.53,"y":9.83,"z":13}}}