{"type":"Feature","geometry":{"type":"Point","coordinates":[53.53,9.83,13]},"properties":{"stationId":"EDHI","rawText":"EDHI 230950Z 26005KT 200V310 9999 FEW032 25/18 Q1022","observationTime":"2019-07-23T09:50:00Z","temp":25,"dewpoint":18,"windDirection":260,"windSpeed":9.26,"visibility":6.21,"altim":30.177166,"flightCategory":"VFR","metarType":"METAR","geometry_esri":{"x":53.53,"y":9.83,"z":13}}}