{"type":"Feature","geometry":{"type":"Point","coordinates":[53.53,9.83,13]},"properties":{"stationId":"EDHI","rawText":"EDHI 050050Z AUTO 24003KT 190V260 4300 // SCT054/// 00/M00 Q1019","observationTime":"2019-12-05T00:50:00Z","temp":0,"dewpoint":0,"windDirection":240,"windSpeed":5.556,"visibility":2.67,"altim":30.088583,"flightCategory":"IFR","metarType":"METAR","geometry_esri":{"x":53.53,"y":9.83,"z":13}}}