{"type":"Feature","geometry":{"type":"Point","coordinates":[53.53,9.83,13]},"properties":{"stationId":"EDHI","rawText":"EDHI 201520Z 29008KT 9999 BKN028 BKN040 16/12 Q1026","observationTime":"2019-09-20T15:20:00Z","temp":16,"dewpoint":12,"windDirection":290,"windSpeed":14.816,"visibility":6.21,"altim":30.295275,"flightCategory":"MVFR","metarType":"METAR","geometry_esri":{"x":53.53,"y":9.83,"z":13}}}