{"type":"Feature","geometry":{"type":"Point","coordinates":[53.53,9.83,13]},"properties":{"stationId":"EDHI","rawText":"EDHI 110550Z 23006KT 9999 FEW027 14/11 Q1014","observationTime":"2019-07-11T05:50:00Z","temp":14,"dewpoint":11,"windDirection":230,"windSpeed":11.112,"visibility":6.21,"altim":29.940945,"flightCategory":"VFR","metarType":"METAR","geometry_esri":{"x":53.53,"y":9.83,"z":13}}}