{"type":"Feature","geometry":{"type":"Point","coordinates":[53.53,9.83,13]},"properties":{"stationId":"EDHI","rawText":"EDHI 021350Z AUTO 20012KT 170V240 9999 // NCD 30/14 Q1012","observationTime":"2019-06-02T13:50:00Z","temp":30,"dewpoint":14,"windDirection":200,"windSpeed":22.224,"visibility":6.21,"altim":29.88189,"flightCategory":"VFR","metarType":"METAR","geometry_esri":{"x":53.53,"y":9.83,"z":13}}}