{"type":"Feature","geometry":{"type":"Point","coordinates":[53.53,9.83,13]},"properties":{"stationId":"EDHI","rawText":"EDHI 050020Z AUTO 25003KT 3900 // FEW056/// 00/M00 Q1020","observationTime":"2019-12-05T00:20:00Z","temp":0,"dewpoint":0,"windDirection":250,"windSpeed":5.556,"visibility":2.42,"altim":30.11811,"flightCategory":"IFR","metarType":"METAR","geometry_esri":{"x":53.53,"y":9.83,"z":13}}}