{"type":"Feature","geometry":{"type":"Point","coordinates":[53.53,9.83,13]},"properties":{"stationId":"EDHI","rawText":"EDHI 302320Z AUTO 23017KT 0700 0600 R23/0800N // OVC005/// 08/08 Q0994","observationTime":"2020-01-30T23:20:00Z","temp":8,"dewpoint":8,"windDirection":230,"windSpeed":31.484,"visibility":0.43,"altim":29.350393,"flightCategory":"LIFR","metarType":"METAR","geometry_esri":{"x":53.53,"y":9.83,"z":13}}}