{"type":"Feature","geometry":{"type":"Point","coordinates":[53.53,9.83,13]},"properties":{"stationId":"EDHI","rawText":"EDHI 211020Z 15006KT 110V180 4200 BR OVC005 13/12 Q1016","observationTime":"2019-10-21T10:20:00Z","temp":13,"dewpoint":12,"windDirection":150,"windSpeed":11.112,"visibility":2.61,"altim":30,"flightCategory":"IFR","metarType":"METAR","geometry_esri":{"x":53.53,"y":9.83,"z":13}}}