{"type":"Feature","geometry":{"type":"Point","coordinates":[53.53,9.83,13]},"properties":{"stationId":"EDHI","rawText":"EDHI 061220Z 21008KT 9000 FEW012 SCT018 BKN036 07/05 Q1024","observationTime":"2020-01-06T12:20:00Z","temp":7,"dewpoint":5,"windDirection":210,"windSpeed":14.816,"visibility":5.59,"altim":30.236221,"flightCategory":"VFR","metarType":"METAR","geometry_esri":{"x":53.53,"y":9.83,"z":13}}}