{"type":"Feature","geometry":{"type":"Point","coordinates":[53.53,9.83,13]},"properties":{"stationId":"EDHI","rawText":"EDHI 150750Z 11006KT 070V160 8000 FEW010 OVC041 00/M02 Q1029","observationTime":"2018-12-15T07:50:00Z","temp":0,"dewpoint":-2,"windDirection":110,"windSpeed":11.112,"visibility":4.97,"altim":30.383858,"flightCategory":"MVFR","metarType":"METAR","geometry_esri":{"x":53.53,"y":9.83,"z":13}}}