{"type":"Feature","geometry":{"type":"Point","coordinates":[53.53,9.83,13]},"properties":{"stationId":"EDHI","rawText":"EDHI 081520Z 29012KT 9999 FEW034 SCT041 15/09 Q1016","observationTime":"2019-07-08T15:20:00Z","temp":15,"dewpoint":9,"windDirection":290,"windSpeed":22.224,"visibility":6.21,"altim":30,"flightCategory":"VFR","metarType":"METAR","geometry_esri":{"x":53.53,"y":9.83,"z":13}}}