{"type":"Feature","geometry":{"type":"Point","coordinates":[53.53,9.83,13]},"properties":{"stationId":"EDHI","rawText":"EDHI 011750Z AUTO 22004KT 9999 // FEW047/// BKN060/// BKN250/// 05/02 Q0992","observationTime":"2020-03-01T17:50:00Z","temp":5,"dewpoint":2,"windDirection":220,"windSpeed":7.408,"visibility":6.21,"altim":29.291338,"flightCategory":"VFR","metarType":"METAR","geometry_esri":{"x":53.53,"y":9.83,"z":13}}}