{"type":"Feature","geometry":{"type":"Point","coordinates":[53.53,9.83,13]},"properties":{"stationId":"EDHI","rawText":"EDHI 091320Z 31011KT 280V350 CAVOK 16/06 Q1025","observationTime":"2020-04-09T13:20:00Z","temp":16,"dewpoint":6,"windDirection":310,"windSpeed":20.372,"visibility":6.21,"altim":30.265747,"flightCategory":"VFR","metarType":"METAR","geometry_esri":{"x":53.53,"y":9.83,"z":13}}}