{"type":"Feature","geometry":{"type":"Point","coordinates":[53.53,9.83,13]},"properties":{"stationId":"EDHI","rawText":"EDHI 202320Z AUTO 25002KT 4700 // SCT008/// SCT011/// OVC029/// 04/04 Q1016","observationTime":"2019-11-20T23:20:00Z","temp":4,"dewpoint":4,"windDirection":250,"windSpeed":3.704,"visibility":2.92,"altim":30,"flightCategory":"IFR","metarType":"METAR","geometry_esri":{"x":53.53,"y":9.83,"z":13}}}