{"type":"Feature","geometry":{"type":"Point","coordinates":[53.53,9.83,13]},"properties":{"stationId":"EDHI","rawText":"EDHI 080120Z AUTO 25007KT 8000 3500 // FEW021/// BKN024/// OVC050/// 11/09 Q1014","observationTime":"2019-07-08T01:20:00Z","temp":11,"dewpoint":9,"windDirection":250,"windSpeed":12.964,"visibility":4.97,"altim":29.940945,"flightCategory":"MVFR","metarType":"METAR","geometry_esri":{"x":53.53,"y":9.83,"z":13}}}