{"type":"Feature","geometry":{"type":"Point","coordinates":[53.53,9.83,13]},"properties":{"stationId":"EDHI","rawText":"EDHI 141120Z 27005KT 240V300 8000 BKN008 05/03 Q1017","observationTime":"2020-02-14T11:20:00Z","temp":5,"dewpoint":3,"windDirection":270,"windSpeed":9.26,"visibility":4.97,"altim":30.029528,"flightCategory":"IFR","metarType":"METAR","geometry_esri":{"x":53.53,"y":9.83,"z":13}}}