{"type":"Feature","geometry":{"type":"Point","coordinates":[53.53,9.83,13]},"properties":{"stationId":"EDHI","rawText":"EDHI 141120Z AUTO 05010KT 030V090 9999 // SCT020/// BKN023/// OVC029/// 06/03 Q1027","observationTime":"2019-04-14T11:20:00Z","temp":6,"dewpoint":3,"windDirection":50,"windSpeed":18.52,"visibility":6.21,"altim":30.324802,"flightCategory":"MVFR","metarType":"METAR","geometry_esri":{"x":53.53,"y":9.83,"z":13}}}