{"type":"Feature","geometry":{"type":"Point","coordinates":[53.53,9.83,13]},"properties":{"stationId":"EDHI","rawText":"EDHI 040720Z 23007KT 4500 -RA BR FEW005 OVC016 11/11 Q0987","observationTime":"2019-11-04T07:20:00Z","temp":11,"dewpoint":11,"windDirection":230,"windSpeed":12.964,"visibility":2.8,"altim":29.143702,"flightCategory":"IFR","metarType":"METAR","geometry_esri":{"x":53.53,"y":9.83,"z":13}}}