{"type":"Feature","geometry":{"type":"Point","coordinates":[53.53,9.83,13]},"properties":{"stationId":"EDHI","rawText":"EDHI 240650Z 23007KT 0650 R23/0800N FZFG VV/// 00/00 Q1022","observationTime":"2020-01-24T06:50:00Z","temp":0,"dewpoint":0,"windDirection":230,"windSpeed":12.964,"visibility":0.4,"altim":30.177166,"flightCategory":"LIFR","metarType":"METAR","geometry_esri":{"x":53.53,"y":9.83,"z":13}}}