{"type":"Feature","geometry":{"type":"Point","coordinates":[53.53,9.83,13]},"properties":{"stationId":"EDHI","rawText":"EDHI 041850Z 25026G36KT 9999 BKN021 OVC029 07/04 Q0989","observationTime":"2019-03-04T18:50:00Z","temp":7,"dewpoint":4,"windDirection":250,"windSpeed":48.152,"visibility":6.21,"altim":29.202755,"flightCategory":"MVFR","metarType":"METAR","geometry_esri":{"x":53.53,"y":9.83,"z":13}}}