{"type":"Feature","geometry":{"type":"Point","coordinates":[53.53,9.83,13]},"properties":{"stationId":"EDHI","rawText":"EDHI 291850Z AUTO 23006KT 9999 // OVC120/// 02/M03 Q1033","observationTime":"2019-12-29T18:50:00Z","temp":2,"dewpoint":-3,"windDirection":230,"windSpeed":11.112,"visibility":6.21,"altim":30.501968,"flightCategory":"VFR","metarType":"METAR","geometry_esri":{"x":53.53,"y":9.83,"z":13}}}