{"type":"Feature","geometry":{"type":"Point","coordinates":[53.53,9.83,13]},"properties":{"stationId":"EDHI","rawText":"EDHI 201950Z 25008KT 4600 BR BKN008 09/08 Q1032","observationTime":"2019-03-20T19:50:00Z","temp":9,"dewpoint":8,"windDirection":250,"windSpeed":14.816,"visibility":2.86,"altim":30.47244,"flightCategory":"IFR","metarType":"METAR","geometry_esri":{"x":53.53,"y":9.83,"z":13}}}