{"type":"Feature","geometry":{"type":"Point","coordinates":[53.53,9.83,13]},"properties":{"stationId":"EDHI","rawText":"EDHI 030520Z 23006KT 9999 SCT013 BKN046 BKN054 06/06 Q1004","observationTime":"2020-02-03T05:20:00Z","temp":6,"dewpoint":6,"windDirection":230,"windSpeed":11.112,"visibility":6.21,"altim":29.64567,"flightCategory":"VFR","metarType":"METAR","geometry_esri":{"x":53.53,"y":9.83,"z":13}}}