{"type":"Feature","geometry":{"type":"Point","coordinates":[53.53,9.83,13]},"properties":{"stationId":"EDHI","rawText":"EDHI 291920Z AUTO 24012KT 3000 // BKN004/// BKN009/// OVC011/// 08/07 Q1015","observationTime":"2018-12-29T19:20:00Z","temp":8,"dewpoint":7,"windDirection":240,"windSpeed":22.224,"visibility":1.86,"altim":29.970472,"flightCategory":"LIFR","metarType":"SPECI","geometry_esri":{"x":53.53,"y":9.83,"z":13}}}