{"type":"Feature","geometry":{"type":"Point","coordinates":[53.53,9.83,13]},"properties":{"stationId":"EDHI","rawText":"EDHI 212020Z AUTO 26021G31KT 7000 // BKN013/// OVC020/// 09/08 Q0994","observationTime":"2018-12-21T20:20:00Z","temp":9,"dewpoint":8,"windDirection":260,"windSpeed":38.892,"visibility":4.35,"altim":29.350393,"flightCategory":"MVFR","metarType":"METAR","geometry_esri":{"x":53.53,"y":9.83,"z":13}}}