{"type":"Feature","geometry":{"type":"Point","coordinates":[53.53,9.83,13]},"properties":{"stationId":"EDHI","rawText":"EDHI 111550Z 14010KT 100V180 9999 FEW015 04/02 Q1004","observationTime":"2019-11-11T15:50:00Z","temp":4,"dewpoint":2,"windDirection":140,"windSpeed":18.52,"visibility":6.21,"altim":29.64567,"flightCategory":"VFR","metarType":"METAR","geometry_esri":{"x":53.53,"y":9.83,"z":13}}}