{"type":"Feature","geometry":{"type":"Point","coordinates":[53.53,9.83,13]},"properties":{"stationId":"EDHI","rawText":"EDHI 192250Z AUTO 23008KT 9999 // NCD 03/01 Q1017","observationTime":"2020-02-19T22:50:00Z","temp":3,"dewpoint":1,"windDirection":230,"windSpeed":14.816,"visibility":6.21,"altim":30.029528,"flightCategory":"VFR","metarType":"METAR","geometry_esri":{"x":53.53,"y":9.83,"z":13}}}