{"type":"Feature","geometry":{"type":"Point","coordinates":[53.53,9.83,13]},"properties":{"stationId":"EDHI","rawText":"EDHI 211320Z AUTO 08012G22KT 040V110 9999 // FEW049/// 07/M05 Q1033","observationTime":"2020-03-21T13:20:00Z","temp":7,"dewpoint":-5,"windDirection":80,"windSpeed":22.224,"visibility":6.21,"altim":30.501968,"flightCategory":"VFR","metarType":"METAR","geometry_esri":{"x":53.53,"y":9.83,"z":13}}}