{"type":"Feature","geometry":{"type":"Point","coordinates":[53.53,9.83,13]},"properties":{"stationId":"EDHI","rawText":"EDHI 011350Z 36006KT 320V030 9999 -SHRA SCT005 BKN008 12/12 Q0996 RESHRA","observationTime":"2019-10-01T13:50:00Z","temp":12,"dewpoint":12,"windDirection":360,"windSpeed":11.112,"visibility":6.21,"altim":29.409449,"flightCategory":"IFR","metarType":"METAR","geometry_esri":{"x":53.53,"y":9.83,"z":13}}}