{"type":"Feature","geometry":{"type":"Point","coordinates":[53.53,9.83,13]},"properties":{"stationId":"EDHI","rawText":"EDHI 301550Z AUTO 29014KT 260V330 9999 // NCD 25/17 Q1012","observationTime":"2019-06-30T15:50:00Z","temp":25,"dewpoint":17,"windDirection":290,"windSpeed":25.928,"visibility":6.21,"altim":29.88189,"flightCategory":"VFR","metarType":"METAR","geometry_esri":{"x":53.53,"y":9.83,"z":13}}}