{"type":"Feature","geometry":{"type":"Point","coordinates":[53.53,9.83,13]},"properties":{"stationId":"EDHI","rawText":"EDHI 290820Z AUTO 03018KT 1800 1200 R23/P2000N // SCT009/// BKN012/// OVC019/// 02/00 Q1027","observationTime":"2020-03-29T08:20:00Z","temp":2,"dewpoint":0,"windDirection":30,"windSpeed":33.336,"visibility":1.12,"altim":30.324802,"flightCategory":"IFR","metarType":"METAR","geometry_esri":{"x":53.53,"y":9.83,"z":13}}}