{"type":"Feature","geometry":{"type":"Point","coordinates":[53.53,9.83,13]},"properties":{"stationId":"EDHI","rawText":"EDHI 151750Z 28029G42KT 9999 SCT032 BKN042 08/03 Q0995","observationTime":"2019-03-15T17:50:00Z","temp":8,"dewpoint":3,"windDirection":280,"windSpeed":53.708000000000006,"visibility":6.21,"altim":29.379921,"flightCategory":"VFR","metarType":"METAR","geometry_esri":{"x":53.53,"y":9.83,"z":13}}}