{"type":"Feature","geometry":{"type":"Point","coordinates":[53.53,9.83,13]},"properties":{"stationId":"EDHI","rawText":"EDHI 082350Z AUTO 15003KT 120V190 4300 // FEW021/// SCT043/// OVC059/// 07/07 Q1021","observationTime":"2020-01-08T23:50:00Z","temp":7,"dewpoint":7,"windDirection":150,"windSpeed":5.556,"visibility":2.67,"altim":30.147638,"flightCategory":"IFR","metarType":"METAR","geometry_esri":{"x":53.53,"y":9.83,"z":13}}}