{"type":"Feature","geometry":{"type":"Point","coordinates":[53.53,9.83,13]},"properties":{"stationId":"EDHI","rawText":"EDHI 232150Z AUTO 33005KT 290V010 5000 // BKN005/// OVC008/// 06/05 Q1013","observationTime":"2018-12-23T21:50:00Z","temp":6,"dewpoint":5,"windDirection":330,"windSpeed":9.26,"visibility":3.11,"altim":29.911417,"flightCategory":"IFR","metarType":"METAR","geometry_esri":{"x":53.53,"y":9.83,"z":13}}}