{"type":"Feature","geometry":{"type":"Point","coordinates":[53.53,9.83,13]},"properties":{"stationId":"EDHI","rawText":"EDHI 161420Z AUTO 29013KT 260V320 9999 // FEW057/// BKN065/// BKN089/// 15/04 Q1019","observationTime":"2020-05-16T14:20:00Z","temp":15,"dewpoint":4,"windDirection":290,"windSpeed":24.076,"visibility":6.21,"altim":30.088583,"flightCategory":"VFR","metarType":"METAR","geometry_esri":{"x":53.53,"y":9.83,"z":13}}}