{"type":"Feature","geometry":{"type":"Point","coordinates":[53.53,9.83,13]},"properties":{"stationId":"EDHI","rawText":"EDHI 311820Z AUTO 10003KT 070V130 9999 // NCD 04/00 Q1024","observationTime":"2019-10-31T18:20:00Z","temp":4,"dewpoint":0,"windDirection":100,"windSpeed":5.556,"visibility":6.21,"altim":30.236221,"flightCategory":"VFR","metarType":"METAR","geometry_esri":{"x":53.53,"y":9.83,"z":13}}}