{"type":"Feature","geometry":{"type":"Point","coordinates":[53.53,9.83,13]},"properties":{"stationId":"EDHI","rawText":"EDHI 070650Z 17005KT 110V210 7000 -RA BKN020 04/03 Q1007","observationTime":"2019-02-07T06:50:00Z","temp":4,"dewpoint":3,"windDirection":170,"windSpeed":9.26,"visibility":4.35,"altim":29.734253,"flightCategory":"MVFR","metarType":"METAR","geometry_esri":{"x":53.53,"y":9.83,"z":13}}}