{"type":"Feature","geometry":{"type":"Point","coordinates":[53.53,9.83,13]},"properties":{"stationId":"EDHI","rawText":"EDHI 070750Z 26018KT 9000 BKN014 OVC021 09/07 Q1003 RERA","observationTime":"2019-12-07T07:50:00Z","temp":9,"dewpoint":7,"windDirection":260,"windSpeed":33.336,"visibility":5.59,"altim":29.616142,"flightCategory":"MVFR","metarType":"METAR","geometry_esri":{"x":53.53,"y":9.83,"z":13}}}