{"type":"Feature","geometry":{"type":"Point","coordinates":[53.53,9.83,13]},"properties":{"stationId":"EDHI","rawText":"EDHI 180220Z AUTO 25020KT 9999 1700 // BKN014/// OVC016/// 04/02 Q1003","observationTime":"2019-03-18T02:20:00Z","temp":4,"dewpoint":2,"windDirection":250,"windSpeed":37.04,"visibility":6.21,"altim":29.616142,"flightCategory":"MVFR","metarType":"METAR","geometry_esri":{"x":53.53,"y":9.83,"z":13}}}