{"type":"Feature","geometry":{"type":"Point","coordinates":[53.53,9.83,13]},"properties":{"stationId":"EDHI","rawText":"EDHI 102150Z AUTO 21010KT 6000 // SCT006/// BKN014/// OVC021/// 02/01 Q0987","observationTime":"2020-02-10T21:50:00Z","temp":2,"dewpoint":1,"windDirection":210,"windSpeed":18.52,"visibility":3.73,"altim":29.143702,"flightCategory":"MVFR","metarType":"METAR","geometry_esri":{"x":53.53,"y":9.83,"z":13}}}