{"type":"Feature","geometry":{"type":"Point","coordinates":[53.53,9.83,13]},"properties":{"stationId":"EDHI","rawText":"EDHI 250320Z AUTO 24012KT 2200 // BKN012/// BKN017/// OVC022/// 04/03 Q1012","observationTime":"2019-03-25T03:20:00Z","temp":4,"dewpoint":3,"windDirection":240,"windSpeed":22.224,"visibility":1.37,"altim":29.88189,"flightCategory":"IFR","metarType":"METAR","geometry_esri":{"x":53.53,"y":9.83,"z":13}}}