{"type":"Feature","geometry":{"type":"Point","coordinates":[53.53,9.83,13]},"properties":{"stationId":"EDHI","rawText":"EDHI 101050Z AUTO 20006KT 170V230 9999 R/////// // NCD 06/03 Q1013","observationTime":"2019-11-10T10:50:00Z","temp":6,"dewpoint":3,"windDirection":200,"windSpeed":11.112,"visibility":6.21,"altim":29.911417,"flightCategory":"VFR","metarType":"METAR","geometry_esri":{"x":53.53,"y":9.83,"z":13}}}