{"type":"Feature","geometry":{"type":"Point","coordinates":[53.53,9.83,13]},"properties":{"stationId":"EDHI","rawText":"EDHI 121120Z 06007KT 030V100 9999 BKN014 19/16 Q1008","observationTime":"2019-06-12T11:20:00Z","temp":19,"dewpoint":16,"windDirection":60,"windSpeed":12.964,"visibility":6.21,"altim":29.763779,"flightCategory":"MVFR","metarType":"METAR","geometry_esri":{"x":53.53,"y":9.83,"z":13}}}