{"type":"Feature","geometry":{"type":"Point","coordinates":[53.53,9.83,13]},"properties":{"stationId":"EDHI","rawText":"EDHI 190020Z AUTO 21010KT 9999 3700 // BKN230/// 10/07 Q1007","observationTime":"2019-10-19T00:20:00Z","temp":10,"dewpoint":7,"windDirection":210,"windSpeed":18.52,"visibility":6.21,"altim":29.734253,"flightCategory":"VFR","metarType":"METAR","geometry_esri":{"x":53.53,"y":9.83,"z":13}}}