{"type":"Feature","geometry":{"type":"Point","coordinates":[53.53,9.83,13]},"properties":{"stationId":"EDHI","rawText":"EDHI 012320Z AUTO 14003KT 9999 // OVC067/// 18/14 Q1015","observationTime":"2019-08-01T23:20:00Z","temp":18,"dewpoint":14,"windDirection":140,"windSpeed":5.556,"visibility":6.21,"altim":29.970472,"flightCategory":"VFR","metarType":"SPECI","geometry_esri":{"x":53.53,"y":9.83,"z":13}}}