{"type":"Feature","geometry":{"type":"Point","coordinates":[53.53,9.83,13]},"properties":{"stationId":"EDHI","rawText":"EDHI 211420Z 23008KT 9999 FEW013 M01/M03 Q1018","observationTime":"2019-01-21T14:20:00Z","temp":-1,"dewpoint":-3,"windDirection":230,"windSpeed":14.816,"visibility":6.21,"altim":30.059055,"flightCategory":"VFR","metarType":"METAR","geometry_esri":{"x":53.53,"y":9.83,"z":13}}}