{"type":"Feature","geometry":{"type":"Point","coordinates":[53.53,9.83,13]},"properties":{"stationId":"EDHI","rawText":"EDHI 070450Z AUTO 08003KT 050V120 6000 // NCD 08/05 Q1007","observationTime":"2019-04-07T04:50:00Z","temp":8,"dewpoint":5,"windDirection":80,"windSpeed":5.556,"visibility":3.73,"altim":29.734253,"flightCategory":"MVFR","metarType":"METAR","geometry_esri":{"x":53.53,"y":9.83,"z":13}}}