{"type":"Feature","geometry":{"type":"Point","coordinates":[53.53,9.83,13]},"properties":{"stationId":"EDHI","rawText":"EDHI 011850Z AUTO 31021G38KT 9999 // FEW021/// BKN038/// 04/00 Q1018","observationTime":"2019-01-01T18:50:00Z","temp":4,"dewpoint":0,"windDirection":310,"windSpeed":38.892,"visibility":6.21,"altim":30.059055,"flightCategory":"VFR","metarType":"METAR","geometry_esri":{"x":53.53,"y":9.83,"z":13}}}