{"type":"Feature","geometry":{"type":"Point","coordinates":[53.53,9.83,13]},"properties":{"stationId":"EDHI","rawText":"EDHI 281820Z 26018KT 8000 -RA BKN008 02/01 Q0989","observationTime":"2020-01-28T18:20:00Z","temp":2,"dewpoint":1,"windDirection":260,"windSpeed":33.336,"visibility":4.97,"altim":29.202755,"flightCategory":"IFR","metarType":"METAR","geometry_esri":{"x":53.53,"y":9.83,"z":13}}}