{"type":"Feature","geometry":{"type":"Point","coordinates":[53.53,9.83,13]},"properties":{"stationId":"EDHI","rawText":"EDHI 140120Z AUTO 18008KT 130V220 9999 // BKN030/// BKN061/// OVC180/// 07/04 Q1006","observationTime":"2020-01-14T01:20:00Z","temp":7,"dewpoint":4,"windDirection":180,"windSpeed":14.816,"visibility":6.21,"altim":29.704725,"flightCategory":"MVFR","metarType":"METAR","geometry_esri":{"x":53.53,"y":9.83,"z":13}}}