{"type":"Feature","geometry":{"type":"Point","coordinates":[53.53,9.83,13]},"properties":{"stationId":"EDHI","rawText":"EDHI 200750Z 23008KT 6000 SCT009 BKN012 18/16 Q1009","observationTime":"2019-06-20T07:50:00Z","temp":18,"dewpoint":16,"windDirection":230,"windSpeed":14.816,"visibility":3.73,"altim":29.793306,"flightCategory":"MVFR","metarType":"METAR","geometry_esri":{"x":53.53,"y":9.83,"z":13}}}