{"type":"Feature","geometry":{"type":"Point","coordinates":[53.53,9.83,13]},"properties":{"stationId":"EDHI","rawText":"EDHI 202050Z AUTO 27007KT 3800 // SCT007/// BKN009/// OVC028/// 09/08 Q1032","observationTime":"2019-03-20T20:50:00Z","temp":9,"dewpoint":8,"windDirection":270,"windSpeed":12.964,"visibility":2.36,"altim":30.47244,"flightCategory":"IFR","metarType":"METAR","geometry_esri":{"x":53.53,"y":9.83,"z":13}}}