{"type":"Feature","geometry":{"type":"Point","coordinates":[53.53,9.83,13]},"properties":{"stationId":"EDHI","rawText":"EDHI 061050Z 15008KT 110V180 9999 FEW016 08/05 Q1003","observationTime":"2019-03-06T10:50:00Z","temp":8,"dewpoint":5,"windDirection":150,"windSpeed":14.816,"visibility":6.21,"altim":29.616142,"flightCategory":"VFR","metarType":"METAR","geometry_esri":{"x":53.53,"y":9.83,"z":13}}}