{"type":"Feature","geometry":{"type":"Point","coordinates":[53.53,9.83,13]},"properties":{"stationId":"EDHI","rawText":"EDHI 151250Z AUTO 24027G38KT 9999 // SCT044/// 08/00 Q0994","observationTime":"2019-12-15T12:50:00Z","temp":8,"dewpoint":0,"windDirection":240,"windSpeed":50.004000000000005,"visibility":6.21,"altim":29.350393,"flightCategory":"VFR","metarType":"METAR","geometry_esri":{"x":53.53,"y":9.83,"z":13}}}