{"type":"Feature","geometry":{"type":"Point","coordinates":[53.53,9.83,13]},"properties":{"stationId":"EDHI","rawText":"EDHI 012320Z AUTO 24010KT 9999 2000 // FEW024/// BKN028/// OVC061/// 16/12 Q1016","observationTime":"2019-07-01T23:20:00Z","temp":16,"dewpoint":12,"windDirection":240,"windSpeed":18.52,"visibility":6.21,"altim":30,"flightCategory":"MVFR","metarType":"METAR","geometry_esri":{"x":53.53,"y":9.83,"z":13}}}