{"type":"Feature","geometry":{"type":"Point","coordinates":[53.53,9.83,13]},"properties":{"stationId":"EDHI","rawText":"EDHI 301520Z AUTO 30012KT 9999 // FEW014/// BKN039/// OVC180/// 08/06 Q1028","observationTime":"2018-12-30T15:20:00Z","temp":8,"dewpoint":6,"windDirection":300,"windSpeed":22.224,"visibility":6.21,"altim":30.35433,"flightCategory":"VFR","metarType":"METAR","geometry_esri":{"x":53.53,"y":9.83,"z":13}}}