{"type":"Feature","geometry":{"type":"Point","coordinates":[53.53,9.83,13]},"properties":{"stationId":"EDHI","rawText":"EDHI 240550Z 35007KT 9999 FEW014 SCT019 BKN036 01/M01 Q1022","observationTime":"2018-12-24T05:50:00Z","temp":1,"dewpoint":-1,"windDirection":350,"windSpeed":12.964,"visibility":6.21,"altim":30.177166,"flightCategory":"VFR","metarType":"METAR","geometry_esri":{"x":53.53,"y":9.83,"z":13}}}