{"type":"Feature","geometry":{"type":"Point","coordinates":[53.53,9.83,13]},"properties":{"stationId":"EDHI","rawText":"EDHI 212250Z AUTO 23006KT 3500 // OVC002/// M01/M01 Q1016","observationTime":"2019-01-21T22:50:00Z","temp":-1,"dewpoint":-1,"windDirection":230,"windSpeed":11.112,"visibility":2.17,"altim":30,"flightCategory":"LIFR","metarType":"METAR","geometry_esri":{"x":53.53,"y":9.83,"z":13}}}