{"type":"Feature","geometry":{"type":"Point","coordinates":[53.53,9.83,13]},"properties":{"stationId":"EDHI","rawText":"EDHI 251250Z 11007KT 070V180 CAVOK 34/15 Q1016","observationTime":"2019-07-25T12:50:00Z","temp":34,"dewpoint":15,"windDirection":110,"windSpeed":12.964,"visibility":6.21,"altim":30,"flightCategory":"VFR","metarType":"METAR","geometry_esri":{"x":53.53,"y":9.83,"z":13}}}