{"type":"Feature","geometry":{"type":"Point","coordinates":[53.53,9.83,13]},"properties":{"stationId":"EDHI","rawText":"EDHI 100920Z 23015KT 200V260 9999 BKN012 11/08 Q1007","observationTime":"2019-10-10T09:20:00Z","temp":11,"dewpoint":8,"windDirection":230,"windSpeed":27.78,"visibility":6.21,"altim":29.734253,"flightCategory":"MVFR","metarType":"METAR","geometry_esri":{"x":53.53,"y":9.83,"z":13}}}