{"type":"Feature","geometry":{"type":"Point","coordinates":[53.53,9.83,13]},"properties":{"stationId":"EDHI","rawText":"EDHI 271250Z 28006KT 170V320 CAVOK 19/02 Q1006","observationTime":"2020-04-27T12:50:00Z","temp":19,"dewpoint":2,"windDirection":280,"windSpeed":11.112,"visibility":6.21,"altim":29.704725,"flightCategory":"VFR","metarType":"METAR","geometry_esri":{"x":53.53,"y":9.83,"z":13}}}