{"type":"Feature","geometry":{"type":"Point","coordinates":[53.53,9.83,13]},"properties":{"stationId":"EDHI","rawText":"EDHI 281550Z COR 31008KT 280V350 4800 -RADZ SCT005 BKN007 02/01 Q0992","observationTime":"2019-01-28T15:50:00Z","temp":2,"dewpoint":1,"windDirection":310,"windSpeed":14.816,"visibility":2.98,"altim":29.291338,"flightCategory":"IFR","metarType":"SPECI","geometry_esri":{"x":53.53,"y":9.83,"z":13}}}