{"type":"Feature","geometry":{"type":"Point","coordinates":[53.53,9.83,13]},"properties":{"stationId":"EDHI","rawText":"EDHI 030350Z AUTO 25005KT 3800 // BKN002/// BKN038/// 03/03 Q1025","observationTime":"2019-12-03T03:50:00Z","temp":3,"dewpoint":3,"windDirection":250,"windSpeed":9.26,"visibility":2.36,"altim":30.265747,"flightCategory":"LIFR","metarType":"METAR","geometry_esri":{"x":53.53,"y":9.83,"z":13}}}