{"type":"Feature","geometry":{"type":"Point","coordinates":[53.53,9.83,13]},"properties":{"stationId":"EDHI","rawText":"EDHI 070720Z 29006KT 250V330 9999 BKN016 10/06 Q1023","observationTime":"2020-05-07T07:20:00Z","temp":10,"dewpoint":6,"windDirection":290,"windSpeed":11.112,"visibility":6.21,"altim":30.206694,"flightCategory":"MVFR","metarType":"METAR","geometry_esri":{"x":53.53,"y":9.83,"z":13}}}