{"type":"Feature","geometry":{"type":"Point","coordinates":[53.53,9.83,13]},"properties":{"stationId":"EDHI","rawText":"EDHI 230350Z AUTO 25003KT 7000 // NCD 16/15 Q1021","observationTime":"2019-07-23T03:50:00Z","temp":16,"dewpoint":15,"windDirection":250,"windSpeed":5.556,"visibility":4.35,"altim":30.147638,"flightCategory":"MVFR","metarType":"METAR","geometry_esri":{"x":53.53,"y":9.83,"z":13}}}