{"type":"Feature","geometry":{"type":"Point","coordinates":[53.53,9.83,13]},"properties":{"stationId":"EDHI","rawText":"EDHI 191620Z AUTO 05011KT 020V100 9999 // FEW120/// SCT210/// 21/12 Q1004","observationTime":"2019-05-19T16:20:00Z","temp":21,"dewpoint":12,"windDirection":50,"windSpeed":20.372,"visibility":6.21,"altim":29.64567,"flightCategory":"VFR","metarType":"METAR","geometry_esri":{"x":53.53,"y":9.83,"z":13}}}