{"type":"Feature","geometry":{"type":"Point","coordinates":[53.53,9.83,13]},"properties":{"stationId":"EDHI","rawText":"EDHI 121920Z AUTO 23013KT 7000 // FEW010/// OVC013/// 08/07 Q1014","observationTime":"2020-01-12T19:20:00Z","temp":8,"dewpoint":7,"windDirection":230,"windSpeed":24.076,"visibility":4.35,"altim":29.940945,"flightCategory":"MVFR","metarType":"SPECI","geometry_esri":{"x":53.53,"y":9.83,"z":13}}}