{"type":"Feature","geometry":{"type":"Point","coordinates":[53.53,9.83,13]},"properties":{"stationId":"EDHI","rawText":"EDHI 160420Z AUTO 27014KT 9999 // BKN024/// BKN140/// BKN170/// 06/02 Q1004","observationTime":"2019-03-16T04:20:00Z","temp":6,"dewpoint":2,"windDirection":270,"windSpeed":25.928,"visibility":6.21,"altim":29.64567,"flightCategory":"MVFR","metarType":"SPECI","geometry_esri":{"x":53.53,"y":9.83,"z":13}}}