{"type":"Feature","geometry":{"type":"Point","coordinates":[53.53,9.83,13]},"properties":{"stationId":"EDHI","rawText":"EDHI 242250Z AUTO 10005KT 9999 // FEW054/// BKN110/// BKN150/// 14/12 Q1006","observationTime":"2019-09-24T22:50:00Z","temp":14,"dewpoint":12,"windDirection":100,"windSpeed":9.26,"visibility":6.21,"altim":29.704725,"flightCategory":"VFR","metarType":"METAR","geometry_esri":{"x":53.53,"y":9.83,"z":13}}}