{"type":"Feature","geometry":{"type":"Point","coordinates":[53.53,9.83,13]},"properties":{"stationId":"EDHI","rawText":"EDHI 071220Z 28012KT 9999 BKN025 13/07 Q1024","observationTime":"2020-05-07T12:20:00Z","temp":13,"dewpoint":7,"windDirection":280,"windSpeed":22.224,"visibility":6.21,"altim":30.236221,"flightCategory":"MVFR","metarType":"METAR","geometry_esri":{"x":53.53,"y":9.83,"z":13}}}