{"type":"Feature","geometry":{"type":"Point","coordinates":[53.53,9.83,13]},"properties":{"stationId":"EDHI","rawText":"EDHI 040450Z AUTO 28002KT 9999 // NCD M00/M02 Q1022","observationTime":"2020-04-04T04:50:00Z","temp":0,"dewpoint":-2,"windDirection":280,"windSpeed":3.704,"visibility":6.21,"altim":30.177166,"flightCategory":"VFR","metarType":"METAR","geometry_esri":{"x":53.53,"y":9.83,"z":13}}}