{"type":"Feature","geometry":{"type":"Point","coordinates":[53.53,9.83,13]},"properties":{"stationId":"EDHI","rawText":"EDHI 120050Z AUTO 33006KT 300V030 7000 // FEW005/// BKN012/// OVC024/// 15/15 Q1010","observationTime":"2019-07-12T00:50:00Z","temp":15,"dewpoint":15,"windDirection":330,"windSpeed":11.112,"visibility":4.35,"altim":29.822834,"flightCategory":"MVFR","metarType":"METAR","geometry_esri":{"x":53.53,"y":9.83,"z":13}}}