{"type":"Feature","geometry":{"type":"Point","coordinates":[53.53,9.83,13]},"properties":{"stationId":"EDHI","rawText":"EDHI 090450Z AUTO 18003KT 140V230 3100 // OVC005/// 08/08 Q1017","observationTime":"2020-01-09T04:50:00Z","temp":8,"dewpoint":8,"windDirection":180,"windSpeed":5.556,"visibility":1.93,"altim":30.029528,"flightCategory":"IFR","metarType":"METAR","geometry_esri":{"x":53.53,"y":9.83,"z":13}}}