{"type":"Feature","geometry":{"type":"Point","coordinates":[53.53,9.83,13]},"properties":{"stationId":"EDHI","rawText":"EDHI 240520Z 23008KT 0900 R23/1100U FZFG OVC002 00/M00 Q1022","observationTime":"2020-01-24T05:20:00Z","temp":0,"dewpoint":0,"windDirection":230,"windSpeed":14.816,"visibility":0.56,"altim":30.177166,"flightCategory":"LIFR","metarType":"METAR","geometry_esri":{"x":53.53,"y":9.83,"z":13}}}