{"type":"Feature","geometry":{"type":"Point","coordinates":[53.53,9.83,13]},"properties":{"stationId":"EDHI","rawText":"EDHI 190750Z 27016KT 9000 -SHRA SCT015TCU BKN017 BKN027 05/03 Q1009","observationTime":"2020-02-19T07:50:00Z","temp":5,"dewpoint":3,"windDirection":270,"windSpeed":29.632,"visibility":5.59,"altim":29.793306,"flightCategory":"MVFR","metarType":"METAR","geometry_esri":{"x":53.53,"y":9.83,"z":13}}}