{"type":"Feature","geometry":{"type":"Point","coordinates":[53.53,9.83,13]},"properties":{"stationId":"EDHI","rawText":"EDHI 270920Z 25010KT 2100 BR OVC004 06/05 Q1024","observationTime":"2018-12-27T09:20:00Z","temp":6,"dewpoint":5,"windDirection":250,"windSpeed":18.52,"visibility":1.3,"altim":30.236221,"flightCategory":"LIFR","metarType":"METAR","geometry_esri":{"x":53.53,"y":9.83,"z":13}}}