{"type":"Feature","geometry":{"type":"Point","coordinates":[53.53,9.83,13]},"properties":{"stationId":"EDHI","rawText":"EDHI 210120Z AUTO 14003KT 100V170 5000 // BKN007/// BKN027/// 04/03 Q1016","observationTime":"2019-11-21T01:20:00Z","temp":4,"dewpoint":3,"windDirection":140,"windSpeed":5.556,"visibility":3.11,"altim":30,"flightCategory":"IFR","metarType":"METAR","geometry_esri":{"x":53.53,"y":9.83,"z":13}}}