{"type":"Feature","geometry":{"type":"Point","coordinates":[53.53,9.83,13]},"properties":{"stationId":"EDHI","rawText":"EDHI 211020Z AUTO 09014G24KT 070V140 9999 // BKN047/// 06/M04 Q1033","observationTime":"2020-03-21T10:20:00Z","temp":6,"dewpoint":-4,"windDirection":90,"windSpeed":25.928,"visibility":6.21,"altim":30.501968,"flightCategory":"VFR","metarType":"METAR","geometry_esri":{"x":53.53,"y":9.83,"z":13}}}