{"type":"Feature","geometry":{"type":"Point","coordinates":[53.53,9.83,13]},"properties":{"stationId":"EDHI","rawText":"EDHI 170850Z AUTO 07003KT 030V100 7000 // NCD 06/03 Q1023","observationTime":"2019-02-17T08:50:00Z","temp":6,"dewpoint":3,"windDirection":70,"windSpeed":5.556,"visibility":4.35,"altim":30.206694,"flightCategory":"MVFR","metarType":"METAR","geometry_esri":{"x":53.53,"y":9.83,"z":13}}}