{"type":"Feature","geometry":{"type":"Point","coordinates":[53.53,9.83,13]},"properties":{"stationId":"EDHI","rawText":"EDHI 140250Z AUTO 33007KT 290V350 9999 // NCD 02/M02 Q1021","observationTime":"2020-04-14T02:50:00Z","temp":2,"dewpoint":-2,"windDirection":330,"windSpeed":12.964,"visibility":6.21,"altim":30.147638,"flightCategory":"VFR","metarType":"METAR","geometry_esri":{"x":53.53,"y":9.83,"z":13}}}