{"type":"Feature","geometry":{"type":"Point","coordinates":[53.53,9.83,13]},"properties":{"stationId":"EDHI","rawText":"EDHI 191050Z 31009KT 270V350 9999 FEW034 SCT041 14/07 Q1029","observationTime":"2019-09-19T10:50:00Z","temp":14,"dewpoint":7,"windDirection":310,"windSpeed":16.668,"visibility":6.21,"altim":30.383858,"flightCategory":"VFR","metarType":"METAR","geometry_esri":{"x":53.53,"y":9.83,"z":13}}}