{"type":"Feature","geometry":{"type":"Point","coordinates":[53.53,9.83,13]},"properties":{"stationId":"EDHI","rawText":"EDHI 060150Z AUTO 22009KT 9999 // BKN012/// 05/03 Q1027","observationTime":"2020-01-06T01:50:00Z","temp":5,"dewpoint":3,"windDirection":220,"windSpeed":16.668,"visibility":6.21,"altim":30.324802,"flightCategory":"MVFR","metarType":"METAR","geometry_esri":{"x":53.53,"y":9.83,"z":13}}}