{"type":"Feature","geometry":{"type":"Point","coordinates":[53.53,9.83,13]},"properties":{"stationId":"EDHI","rawText":"EDHI 071420Z AUTO 07007KT 030V100 9999 // FEW220/// 20/02 Q1008","observationTime":"2019-04-07T14:20:00Z","temp":20,"dewpoint":2,"windDirection":70,"windSpeed":12.964,"visibility":6.21,"altim":29.763779,"flightCategory":"VFR","metarType":"METAR","geometry_esri":{"x":53.53,"y":9.83,"z":13}}}