{"type":"Feature","geometry":{"type":"Point","coordinates":[53.53,9.83,13]},"properties":{"stationId":"EDHI","rawText":"EDHI 140850Z 22010KT 9999 SCT015 BKN017 05/03 Q0982","observationTime":"2019-12-14T08:50:00Z","temp":5,"dewpoint":3,"windDirection":220,"windSpeed":18.52,"visibility":6.21,"altim":28.996063,"flightCategory":"MVFR","metarType":"METAR","geometry_esri":{"x":53.53,"y":9.83,"z":13}}}