{"type":"Feature","geometry":{"type":"Point","coordinates":[53.53,9.83,13]},"properties":{"stationId":"EDHI","rawText":"EDHI 270020Z AUTO 19009KT 160V230 5000 // SCT006/// OVC018/// 05/04 Q0991","observationTime":"2019-01-27T00:20:00Z","temp":5,"dewpoint":4,"windDirection":190,"windSpeed":16.668,"visibility":3.11,"altim":29.26181,"flightCategory":"MVFR","metarType":"METAR","geometry_esri":{"x":53.53,"y":9.83,"z":13}}}