{"type":"Feature","geometry":{"type":"Point","coordinates":[53.53,9.83,13]},"properties":{"stationId":"EDHI","rawText":"EDHI 211550Z 14007KT 090V180 6000 -RA SCT005 BKN007 07/06 Q0993","observationTime":"2018-12-21T15:50:00Z","temp":7,"dewpoint":6,"windDirection":140,"windSpeed":12.964,"visibility":3.73,"altim":29.320866,"flightCategory":"IFR","metarType":"METAR","geometry_esri":{"x":53.53,"y":9.83,"z":13}}}