{"type":"Feature","geometry":{"type":"Point","coordinates":[53.53,9.83,13]},"properties":{"stationId":"EDHI","rawText":"EDHI 051420Z 30016KT 9999 VCSH FEW038TCU SCT045 16/11 Q1016","observationTime":"2019-09-05T14:20:00Z","temp":16,"dewpoint":11,"windDirection":300,"windSpeed":29.632,"visibility":6.21,"altim":30,"flightCategory":"VFR","metarType":"METAR","geometry_esri":{"x":53.53,"y":9.83,"z":13}}}