{"type":"Feature","geometry":{"type":"Point","coordinates":[53.53,9.83,13]},"properties":{"stationId":"EDHI","rawText":"EDHI 282120Z AUTO 32004KT 240V030 9999 // NCD 16/13 Q1024","observationTime":"2019-06-28T21:20:00Z","temp":16,"dewpoint":13,"windDirection":320,"windSpeed":7.408,"visibility":6.21,"altim":30.236221,"flightCategory":"VFR","metarType":"METAR","geometry_esri":{"x":53.53,"y":9.83,"z":13}}}