{"type":"Feature","geometry":{"type":"Point","coordinates":[53.53,9.83,13]},"properties":{"stationId":"EDHI","rawText":"EDHI 170420Z AUTO 15005KT 110V210 9999 // FEW240/// 07/04 Q1018","observationTime":"2020-01-17T04:20:00Z","temp":7,"dewpoint":4,"windDirection":150,"windSpeed":9.26,"visibility":6.21,"altim":30.059055,"flightCategory":"VFR","metarType":"METAR","geometry_esri":{"x":53.53,"y":9.83,"z":13}}}