{"type":"Feature","geometry":{"type":"Point","coordinates":[53.53,9.83,13]},"properties":{"stationId":"EDHI","rawText":"EDHI 231220Z 24010KT 9999 BKN022 06/02 Q1031","observationTime":"2020-01-23T12:20:00Z","temp":6,"dewpoint":2,"windDirection":240,"windSpeed":18.52,"visibility":6.21,"altim":30.442913,"flightCategory":"MVFR","metarType":"METAR","geometry_esri":{"x":53.53,"y":9.83,"z":13}}}