{"type":"Feature","geometry":{"type":"Point","coordinates":[53.53,9.83,13]},"properties":{"stationId":"EDHI","rawText":"EDHI 230250Z AUTO 14002KT 0900 0600 R23/P2000N // FEW015/// 07/07 Q1021","observationTime":"2019-10-23T02:50:00Z","temp":7,"dewpoint":7,"windDirection":140,"windSpeed":3.704,"visibility":0.56,"altim":30.147638,"flightCategory":"LIFR","metarType":"METAR","geometry_esri":{"x":53.53,"y":9.83,"z":13}}}