{"type":"Feature","geometry":{"type":"Point","coordinates":[53.53,9.83,13]},"properties":{"stationId":"EDHI","rawText":"EDHI 281120Z 21013KT 9999 -RA SCT015 BKN018 OVC029 09/08 Q0985","observationTime":"2019-11-28T11:20:00Z","temp":9,"dewpoint":8,"windDirection":210,"windSpeed":24.076,"visibility":6.21,"altim":29.084646,"flightCategory":"MVFR","metarType":"METAR","geometry_esri":{"x":53.53,"y":9.83,"z":13}}}