{"type":"Feature","geometry":{"type":"Point","coordinates":[53.53,9.83,13]},"properties":{"stationId":"EDHI","rawText":"EDHI 041920Z AUTO 29014KT 9999 // BKN007/// OVC013/// 06/05 Q1026","observationTime":"2019-01-04T19:20:00Z","temp":6,"dewpoint":5,"windDirection":290,"windSpeed":25.928,"visibility":6.21,"altim":30.295275,"flightCategory":"IFR","metarType":"METAR","geometry_esri":{"x":53.53,"y":9.83,"z":13}}}