{"type":"Feature","geometry":{"type":"Point","coordinates":[53.53,9.83,13]},"properties":{"stationId":"EDHI","rawText":"EDHI 202220Z AUTO 26005KT 4500 // OVC008/// 09/08 Q1032","observationTime":"2019-03-20T22:20:00Z","temp":9,"dewpoint":8,"windDirection":260,"windSpeed":9.26,"visibility":2.8,"altim":30.47244,"flightCategory":"IFR","metarType":"METAR","geometry_esri":{"x":53.53,"y":9.83,"z":13}}}