{"type":"Feature","geometry":{"type":"Point","coordinates":[53.53,9.83,13]},"properties":{"stationId":"EDHI","rawText":"EDHI 180150Z AUTO 07007KT 5000 // SCT074/// 11/10 Q1008","observationTime":"2019-05-18T01:50:00Z","temp":11,"dewpoint":10,"windDirection":70,"windSpeed":12.964,"visibility":3.11,"altim":29.763779,"flightCategory":"MVFR","metarType":"METAR","geometry_esri":{"x":53.53,"y":9.83,"z":13}}}