{"type":"Feature","geometry":{"type":"Point","coordinates":[53.53,9.83,13]},"properties":{"stationId":"EDHI","rawText":"EDHI 191020Z 14006KT 100V170 9999 SCT022 OVC039 03/01 Q1012","observationTime":"2018-12-19T10:20:00Z","temp":3,"dewpoint":1,"windDirection":140,"windSpeed":11.112,"visibility":6.21,"altim":29.88189,"flightCategory":"VFR","metarType":"METAR","geometry_esri":{"x":53.53,"y":9.83,"z":13}}}