{"type":"Feature","geometry":{"type":"Point","coordinates":[53.53,9.83,13]},"properties":{"stationId":"EDHI","rawText":"EDHI 111620Z 01013KT 340V040 CAVOK 10/M07 Q1012","observationTime":"2020-05-11T16:20:00Z","temp":10,"dewpoint":-7,"windDirection":10,"windSpeed":24.076,"visibility":6.21,"altim":29.88189,"flightCategory":"VFR","metarType":"METAR","geometry_esri":{"x":53.53,"y":9.83,"z":13}}}