{"type":"Feature","geometry":{"type":"Point","coordinates":[53.53,9.83,13]},"properties":{"stationId":"EDHI","rawText":"EDHI 291550Z 34009KT 9999 SCT023 BKN034 23/18 Q1010","observationTime":"2019-07-29T15:50:00Z","temp":23,"dewpoint":18,"windDirection":340,"windSpeed":16.668,"visibility":6.21,"altim":29.822834,"flightCategory":"VFR","metarType":"METAR","geometry_esri":{"x":53.53,"y":9.83,"z":13}}}