{"type":"Feature","geometry":{"type":"Point","coordinates":[53.53,9.83,13]},"properties":{"stationId":"EDHI","rawText":"EDHI 300220Z AUTO 05002KT 0900 0400 R23/P2000N // FEW007/// 04/03 Q1024","observationTime":"2019-03-30T02:20:00Z","temp":4,"dewpoint":3,"windDirection":50,"windSpeed":3.704,"visibility":0.56,"altim":30.236221,"flightCategory":"LIFR","metarType":"METAR","geometry_esri":{"x":53.53,"y":9.83,"z":13}}}