{"type":"Feature","geometry":{"type":"Point","coordinates":[53.53,9.83,13]},"properties":{"stationId":"EDHI","rawText":"EDHI 302020Z AUTO 30009KT 8000 // BKN008/// 10/08 Q1019","observationTime":"2019-04-30T20:20:00Z","temp":10,"dewpoint":8,"windDirection":300,"windSpeed":16.668,"visibility":4.97,"altim":30.088583,"flightCategory":"IFR","metarType":"METAR","geometry_esri":{"x":53.53,"y":9.83,"z":13}}}