{"type":"Feature","geometry":{"type":"Point","coordinates":[53.53,9.83,13]},"properties":{"stationId":"EDHI","rawText":"EDHI 070520Z 18006KT 120V220 9999 -RA BKN033 BKN047 11/07 Q0989","observationTime":"2019-03-07T05:20:00Z","temp":11,"dewpoint":7,"windDirection":180,"windSpeed":11.112,"visibility":6.21,"altim":29.202755,"flightCategory":"VFR","metarType":"METAR","geometry_esri":{"x":53.53,"y":9.83,"z":13}}}