{"type":"Feature","geometry":{"type":"Point","coordinates":[53.53,9.83,13]},"properties":{"stationId":"EDHI","rawText":"EDHI 290050Z AUTO 25016KT 9999 1900 // BKN013/// BKN015/// BKN019/// 03/01 Q0994","observationTime":"2020-01-29T00:50:00Z","temp":3,"dewpoint":1,"windDirection":250,"windSpeed":29.632,"visibility":6.21,"altim":29.350393,"flightCategory":"MVFR","metarType":"METAR","geometry_esri":{"x":53.53,"y":9.83,"z":13}}}