{"type":"Feature","geometry":{"type":"Point","coordinates":[53.53,9.83,13]},"properties":{"stationId":"EDHI","rawText":"EDHI 290050Z AUTO 23011KT 9999 3300 // FEW014/// BKN078/// OVC092/// 14/12 Q1005","observationTime":"2019-09-29T00:50:00Z","temp":14,"dewpoint":12,"windDirection":230,"windSpeed":20.372,"visibility":6.21,"altim":29.675198,"flightCategory":"VFR","metarType":"METAR","geometry_esri":{"x":53.53,"y":9.83,"z":13}}}