{"type":"Feature","geometry":{"type":"Point","coordinates":[53.53,9.83,13]},"properties":{"stationId":"EDHI","rawText":"EDHI 181050Z VRB03KT 9999 SCT044 23/11 Q1011","observationTime":"2019-07-18T10:50:00Z","temp":23,"dewpoint":11,"windDirection":0,"windSpeed":5.556,"visibility":6.21,"altim":29.852362,"flightCategory":"VFR","metarType":"METAR","geometry_esri":{"x":53.53,"y":9.83,"z":13}}}