{"type":"Feature","geometry":{"type":"Point","coordinates":[53.53,9.83,13]},"properties":{"stationId":"EDHI","rawText":"EDHI 031020Z AUTO VRB02KT 9999 // BKN096/// 22/13 Q1015","observationTime":"2019-08-03T10:20:00Z","temp":22,"dewpoint":13,"windDirection":0,"windSpeed":3.704,"visibility":6.21,"altim":29.970472,"flightCategory":"VFR","metarType":"METAR","geometry_esri":{"x":53.53,"y":9.83,"z":13}}}