{"type":"Feature","geometry":{"type":"Point","coordinates":[53.53,9.83,13]},"properties":{"stationId":"EDHI","rawText":"EDHI 031250Z 24013KT 9999 FEW013 SCT047 18/16 Q1019","observationTime":"2019-09-03T12:50:00Z","temp":18,"dewpoint":16,"windDirection":240,"windSpeed":24.076,"visibility":6.21,"altim":30.088583,"flightCategory":"VFR","metarType":"METAR","geometry_esri":{"x":53.53,"y":9.83,"z":13}}}