{"type":"Feature","geometry":{"type":"Point","coordinates":[53.53,9.83,13]},"properties":{"stationId":"EDHI","rawText":"EDHI 270020Z AUTO 00000KT 1900 0650 R23/P2000N // OVC043/// 01/01 Q1023","observationTime":"2019-12-27T00:20:00Z","temp":1,"dewpoint":1,"windDirection":0,"windSpeed":0,"visibility":1.18,"altim":30.206694,"flightCategory":"IFR","metarType":"METAR","geometry_esri":{"x":53.53,"y":9.83,"z":13}}}