{"type":"Feature","geometry":{"type":"Point","coordinates":[53.53,9.83,13]},"properties":{"stationId":"EDHI","rawText":"EDHI 100350Z AUTO 19012KT 150V210 9999 // FEW026/// OVC031/// 06/03 Q1004","observationTime":"2020-03-10T03:50:00Z","temp":6,"dewpoint":3,"windDirection":190,"windSpeed":22.224,"visibility":6.21,"altim":29.64567,"flightCategory":"VFR","metarType":"METAR","geometry_esri":{"x":53.53,"y":9.83,"z":13}}}