{"type":"Feature","geometry":{"type":"Point","coordinates":[53.53,9.83,13]},"properties":{"stationId":"EDHI","rawText":"EDHI 221250Z 26004KT 9000 -DZ FEW008 SCT010 BKN012 07/06 Q1008","observationTime":"2018-12-22T12:50:00Z","temp":7,"dewpoint":6,"windDirection":260,"windSpeed":7.408,"visibility":5.59,"altim":29.763779,"flightCategory":"MVFR","metarType":"METAR","geometry_esri":{"x":53.53,"y":9.83,"z":13}}}