{"type":"Feature","geometry":{"type":"Point","coordinates":[53.53,9.83,13]},"properties":{"stationId":"EDHI","rawText":"EDHI 300420Z AUTO 31013KT 280V350 9999 // OVC020/// 07/04 Q1023","observationTime":"2018-12-30T04:20:00Z","temp":7,"dewpoint":4,"windDirection":310,"windSpeed":24.076,"visibility":6.21,"altim":30.206694,"flightCategory":"MVFR","metarType":"METAR","geometry_esri":{"x":53.53,"y":9.83,"z":13}}}