{"type":"Feature","geometry":{"type":"Point","coordinates":[53.53,9.83,13]},"properties":{"stationId":"EDHI","rawText":"EDHI 111320Z 25014KT 9999 SCT015 BKN024 06/03 Q1009","observationTime":"2019-03-11T13:20:00Z","temp":6,"dewpoint":3,"windDirection":250,"windSpeed":25.928,"visibility":6.21,"altim":29.793306,"flightCategory":"MVFR","metarType":"METAR","geometry_esri":{"x":53.53,"y":9.83,"z":13}}}