{"type":"Feature","geometry":{"type":"Point","coordinates":[53.53,9.83,13]},"properties":{"stationId":"EDHI","rawText":"EDHI 281950Z AUTO 28014KT 250V310 2500 // BKN009/// BKN013/// OVC020/// 02/01 Q0991","observationTime":"2020-01-28T19:50:00Z","temp":2,"dewpoint":1,"windDirection":280,"windSpeed":25.928,"visibility":1.55,"altim":29.26181,"flightCategory":"IFR","metarType":"METAR","geometry_esri":{"x":53.53,"y":9.83,"z":13}}}