{"type":"Feature","geometry":{"type":"Point","coordinates":[53.53,9.83,13]},"properties":{"stationId":"EDHI","rawText":"EDHI 242350Z AUTO 24017KT 9999 1200 R23/P2000N // BKN015/// OVC023/// 10/08 Q0995","observationTime":"2020-02-24T23:50:00Z","temp":10,"dewpoint":8,"windDirection":240,"windSpeed":31.484,"visibility":6.21,"altim":29.379921,"flightCategory":"MVFR","metarType":"METAR","geometry_esri":{"x":53.53,"y":9.83,"z":13}}}