{"type":"Feature","geometry":{"type":"Point","coordinates":[53.53,9.83,13]},"properties":{"stationId":"EDHI","rawText":"EDHI 060650Z AUTO 28004KT 3400 // SCT004/// OVC006/// 05/05 Q1027","observationTime":"2019-01-06T06:50:00Z","temp":5,"dewpoint":5,"windDirection":280,"windSpeed":7.408,"visibility":2.11,"altim":30.324802,"flightCategory":"IFR","metarType":"METAR","geometry_esri":{"x":53.53,"y":9.83,"z":13}}}