{"type":"Feature","geometry":{"type":"Point","coordinates":[53.53,9.83,13]},"properties":{"stationId":"EDHI","rawText":"EDHI 110020Z AUTO 24013KT 9999 // FEW005/// BKN009/// 02/01 Q0988","observationTime":"2020-02-11T00:20:00Z","temp":2,"dewpoint":1,"windDirection":240,"windSpeed":24.076,"visibility":6.21,"altim":29.17323,"flightCategory":"IFR","metarType":"METAR","geometry_esri":{"x":53.53,"y":9.83,"z":13}}}