{"type":"Feature","geometry":{"type":"Point","coordinates":[53.53,9.83,13]},"properties":{"stationId":"EDHI","rawText":"EDHI 132120Z AUTO 28021KT 8000 3800 // FEW011/// BKN013/// OVC017/// 06/05 Q0995","observationTime":"2019-03-13T21:20:00Z","temp":6,"dewpoint":5,"windDirection":280,"windSpeed":38.892,"visibility":4.97,"altim":29.379921,"flightCategory":"MVFR","metarType":"SPECI","geometry_esri":{"x":53.53,"y":9.83,"z":13}}}