{"type":"Feature","geometry":{"type":"Point","coordinates":[53.53,9.83,13]},"properties":{"stationId":"EDHI","rawText":"EDHI 190350Z AUTO 09004KT 060V170 9000 // NCD 04/02 Q1015","observationTime":"2019-12-19T03:50:00Z","temp":4,"dewpoint":2,"windDirection":90,"windSpeed":7.408,"visibility":5.59,"altim":29.970472,"flightCategory":"VFR","metarType":"METAR","geometry_esri":{"x":53.53,"y":9.83,"z":13}}}