{"type":"Feature","geometry":{"type":"Point","coordinates":[53.53,9.83,13]},"properties":{"stationId":"EDHI","rawText":"EDHI 040720Z 23005KT 7000 BKN009 03/02 Q1008","observationTime":"2020-03-04T07:20:00Z","temp":3,"dewpoint":2,"windDirection":230,"windSpeed":9.26,"visibility":4.35,"altim":29.763779,"flightCategory":"IFR","metarType":"METAR","geometry_esri":{"x":53.53,"y":9.83,"z":13}}}