{"type":"Feature","geometry":{"type":"Point","coordinates":[53.53,9.83,13]},"properties":{"stationId":"EDHI","rawText":"EDHI 281220Z 27009KT 9000 -RA FEW016 BKN042 BKN058 10/08 Q1020","observationTime":"2019-10-28T12:20:00Z","temp":10,"dewpoint":8,"windDirection":270,"windSpeed":16.668,"visibility":5.59,"altim":30.11811,"flightCategory":"VFR","metarType":"METAR","geometry_esri":{"x":53.53,"y":9.83,"z":13}}}