{"type":"Feature","geometry":{"type":"Point","coordinates":[53.53,9.83,13]},"properties":{"stationId":"EDHI","rawText":"EDHI 190750Z 04003KT 350V070 9999 SCT008 BKN045 07/05 Q1025","observationTime":"2020-03-19T07:50:00Z","temp":7,"dewpoint":5,"windDirection":40,"windSpeed":5.556,"visibility":6.21,"altim":30.265747,"flightCategory":"VFR","metarType":"METAR","geometry_esri":{"x":53.53,"y":9.83,"z":13}}}