{"type":"Feature","geometry":{"type":"Point","coordinates":[53.53,9.83,13]},"properties":{"stationId":"EDHI","rawText":"EDHI 220520Z 29016KT 7000 -DZRA OVC006 11/10 Q1013","observationTime":"2019-05-22T05:20:00Z","temp":11,"dewpoint":10,"windDirection":290,"windSpeed":29.632,"visibility":4.35,"altim":29.911417,"flightCategory":"IFR","metarType":"METAR","geometry_esri":{"x":53.53,"y":9.83,"z":13}}}