{"type":"Feature","geometry":{"type":"Point","coordinates":[53.53,9.83,13]},"properties":{"stationId":"EDHI","rawText":"EDHI 291220Z 19011KT 160V220 CAVOK 11/07 Q0989","observationTime":"2020-02-29T12:20:00Z","temp":11,"dewpoint":7,"windDirection":190,"windSpeed":20.372,"visibility":6.21,"altim":29.202755,"flightCategory":"VFR","metarType":"METAR","geometry_esri":{"x":53.53,"y":9.83,"z":13}}}