{"type":"Feature","geometry":{"type":"Point","coordinates":[53.53,9.83,13]},"properties":{"stationId":"EDHI","rawText":"EDHI 280720Z AUTO 24006KT 3900 // FEW006/// BKN029/// OVC036/// 07/07 Q1016","observationTime":"2019-04-28T07:20:00Z","temp":7,"dewpoint":7,"windDirection":240,"windSpeed":11.112,"visibility":2.42,"altim":30,"flightCategory":"IFR","metarType":"METAR","geometry_esri":{"x":53.53,"y":9.83,"z":13}}}