{"type":"Feature","geometry":{"type":"Point","coordinates":[53.53,9.83,13]},"properties":{"stationId":"EDHI","rawText":"EDHI 072150Z AUTO 14009KT 110V190 9000 // FEW020/// OVC047/// 16/14 Q1010","observationTime":"2019-06-07T21:50:00Z","temp":16,"dewpoint":14,"windDirection":140,"windSpeed":16.668,"visibility":5.59,"altim":29.822834,"flightCategory":"VFR","metarType":"METAR","geometry_esri":{"x":53.53,"y":9.83,"z":13}}}