{"type":"Feature","geometry":{"type":"Point","coordinates":[53.53,9.83,13]},"properties":{"stationId":"EDHI","rawText":"EDHI 192320Z AUTO 10003KT 6000 // NCD M02/M03 Q1017","observationTime":"2019-01-19T23:20:00Z","temp":-2,"dewpoint":-3,"windDirection":100,"windSpeed":5.556,"visibility":3.73,"altim":30.029528,"flightCategory":"MVFR","metarType":"METAR","geometry_esri":{"x":53.53,"y":9.83,"z":13}}}