{"type":"Feature","geometry":{"type":"Point","coordinates":[53.53,9.83,13]},"properties":{"stationId":"EDHI","rawText":"EDHI 060420Z AUTO 09010G20KT 060V120 9999 // SCT020/// OVC031/// 05/02 Q0991","observationTime":"2020-03-06T04:20:00Z","temp":5,"dewpoint":2,"windDirection":90,"windSpeed":18.52,"visibility":6.21,"altim":29.26181,"flightCategory":"VFR","metarType":"METAR","geometry_esri":{"x":53.53,"y":9.83,"z":13}}}