{"type":"Feature","geometry":{"type":"Point","coordinates":[53.53,9.83,13]},"properties":{"stationId":"EDHI","rawText":"EDHI 111820Z AUTO 20003KT 170V250 9999 // BKN160/// BKN180/// 21/12 Q1011","observationTime":"2019-08-11T18:20:00Z","temp":21,"dewpoint":12,"windDirection":200,"windSpeed":5.556,"visibility":6.21,"altim":29.852362,"flightCategory":"VFR","metarType":"METAR","geometry_esri":{"x":53.53,"y":9.83,"z":13}}}