{"type":"Feature","geometry":{"type":"Point","coordinates":[53.53,9.83,13]},"properties":{"stationId":"EDHI","rawText":"EDHI 200650Z 10009KT 070V150 2200 BR SCT002 OVC003 04/04 Q0995","observationTime":"2019-12-20T06:50:00Z","temp":4,"dewpoint":4,"windDirection":100,"windSpeed":16.668,"visibility":1.37,"altim":29.379921,"flightCategory":"LIFR","metarType":"METAR","geometry_esri":{"x":53.53,"y":9.83,"z":13}}}