{"type":"Feature","geometry":{"type":"Point","coordinates":[53.53,9.83,13]},"properties":{"stationId":"EDHI","rawText":"EDHI 031220Z 26012KT 9999 -SHRA FEW007 SCT023 17/15 Q1020","observationTime":"2019-09-03T12:20:00Z","temp":17,"dewpoint":15,"windDirection":260,"windSpeed":22.224,"visibility":6.21,"altim":30.11811,"flightCategory":"VFR","metarType":"METAR","geometry_esri":{"x":53.53,"y":9.83,"z":13}}}