{"type":"Feature","geometry":{"type":"Point","coordinates":[53.53,9.83,13]},"properties":{"stationId":"EDHI","rawText":"EDHI 161350Z AUTO 29013KT 9999 // BKN057/// BKN079/// 15/05 Q1019","observationTime":"2020-05-16T13:50:00Z","temp":15,"dewpoint":5,"windDirection":290,"windSpeed":24.076,"visibility":6.21,"altim":30.088583,"flightCategory":"VFR","metarType":"METAR","geometry_esri":{"x":53.53,"y":9.83,"z":13}}}