{"type":"Feature","geometry":{"type":"Point","coordinates":[53.53,9.83,13]},"properties":{"stationId":"EDHI","rawText":"EDHI 021520Z 24019KT 9999 FEW040 BKN047 10/01 Q1006","observationTime":"2020-04-02T15:20:00Z","temp":10,"dewpoint":1,"windDirection":240,"windSpeed":35.188,"visibility":6.21,"altim":29.704725,"flightCategory":"VFR","metarType":"METAR","geometry_esri":{"x":53.53,"y":9.83,"z":13}}}