{"type":"Feature","geometry":{"type":"Point","coordinates":[53.53,9.83,13]},"properties":{"stationId":"EDHI","rawText":"EDHI 142350Z AUTO 17003KT 130V210 9999 // BKN083/// OVC100/// 17/07 Q1012","observationTime":"2019-08-14T23:50:00Z","temp":17,"dewpoint":7,"windDirection":170,"windSpeed":5.556,"visibility":6.21,"altim":29.88189,"flightCategory":"VFR","metarType":"METAR","geometry_esri":{"x":53.53,"y":9.83,"z":13}}}