{"type":"Feature","geometry":{"type":"Point","coordinates":[53.53,9.83,13]},"properties":{"stationId":"EDHI","rawText":"EDHI 021250Z 36008KT 320V030 9999 TS VCSH SCT036CB BKN057 22/13 Q1014","observationTime":"2019-08-02T12:50:00Z","temp":22,"dewpoint":13,"windDirection":360,"windSpeed":14.816,"visibility":6.21,"altim":29.940945,"flightCategory":"VFR","metarType":"METAR","geometry_esri":{"x":53.53,"y":9.83,"z":13}}}