{"type":"Feature","geometry":{"type":"Point","coordinates":[53.53,9.83,13]},"properties":{"stationId":"EDHI","rawText":"EDHI 092020Z AUTO 26018KT 3800 // FEW024/// BKN028/// OVC036/// 05/02 Q1004","observationTime":"2019-03-09T20:20:00Z","temp":5,"dewpoint":2,"windDirection":260,"windSpeed":33.336,"visibility":2.36,"altim":29.64567,"flightCategory":"IFR","metarType":"METAR","geometry_esri":{"x":53.53,"y":9.83,"z":13}}}