{"type":"Feature","geometry":{"type":"Point","coordinates":[53.53,9.83,13]},"properties":{"stationId":"EDHI","rawText":"EDHI 150650Z 24008KT 210V270 9999 FEW025 08/03 Q1020","observationTime":"2020-05-15T06:50:00Z","temp":8,"dewpoint":3,"windDirection":240,"windSpeed":14.816,"visibility":6.21,"altim":30.11811,"flightCategory":"VFR","metarType":"METAR","geometry_esri":{"x":53.53,"y":9.83,"z":13}}}