{"type":"Feature","geometry":{"type":"Point","coordinates":[53.53,9.83,13]},"properties":{"stationId":"EDHI","rawText":"EDHI 022120Z AUTO 30009KT 4200 // FEW012/// SCT014/// OVC023/// 01/M00 Q1005","observationTime":"2019-02-02T21:20:00Z","temp":1,"dewpoint":0,"windDirection":300,"windSpeed":16.668,"visibility":2.61,"altim":29.675198,"flightCategory":"IFR","metarType":"METAR","geometry_esri":{"x":53.53,"y":9.83,"z":13}}}