{"type":"Feature","geometry":{"type":"Point","coordinates":[53.53,9.83,13]},"properties":{"stationId":"EDHI","rawText":"EDHI 110120Z AUTO 29020G31KT 9999 // OVC022/// 09/05 Q1001","observationTime":"2020-03-11T01:20:00Z","temp":9,"dewpoint":5,"windDirection":290,"windSpeed":37.04,"visibility":6.21,"altim":29.557087,"flightCategory":"MVFR","metarType":"METAR","geometry_esri":{"x":53.53,"y":9.83,"z":13}}}