{"type":"Feature","geometry":{"type":"Point","coordinates":[53.53,9.83,13]},"properties":{"stationId":"EDHI","rawText":"EDHI 250750Z 26003KT CAVOK 01/M01 Q1039","observationTime":"2019-02-25T07:50:00Z","temp":1,"dewpoint":-1,"windDirection":260,"windSpeed":5.556,"visibility":6.21,"altim":30.679134,"flightCategory":"VFR","metarType":"METAR","geometry_esri":{"x":53.53,"y":9.83,"z":13}}}