{"type":"Feature","geometry":{"type":"Point","coordinates":[53.53,9.83,13]},"properties":{"stationId":"EDHI","rawText":"EDHI 170420Z AUTO 14003KT 110V170 3200 // OVC003/// M00/M01 Q1015","observationTime":"2018-12-17T04:20:00Z","temp":0,"dewpoint":-1,"windDirection":140,"windSpeed":5.556,"visibility":1.99,"altim":29.970472,"flightCategory":"LIFR","metarType":"METAR","geometry_esri":{"x":53.53,"y":9.83,"z":13}}}