{"type":"Feature","geometry":{"type":"Point","coordinates":[53.53,9.83,13]},"properties":{"stationId":"EDHI","rawText":"EDHI 140120Z AUTO 27009KT 9999 // FEW011/// OVC030/// 14/12 Q1016","observationTime":"2019-07-14T01:20:00Z","temp":14,"dewpoint":12,"windDirection":270,"windSpeed":16.668,"visibility":6.21,"altim":30,"flightCategory":"MVFR","metarType":"METAR","geometry_esri":{"x":53.53,"y":9.83,"z":13}}}