{"type":"Feature","geometry":{"type":"Point","coordinates":[53.53,9.83,13]},"properties":{"stationId":"EDHI","rawText":"EDHI 221850Z AUTO 24003KT 9000 // NCD 21/12 Q1024","observationTime":"2019-08-22T18:50:00Z","temp":21,"dewpoint":12,"windDirection":240,"windSpeed":5.556,"visibility":5.59,"altim":30.236221,"flightCategory":"VFR","metarType":"METAR","geometry_esri":{"x":53.53,"y":9.83,"z":13}}}