{"type":"Feature","geometry":{"type":"Point","coordinates":[53.53,9.83,13]},"properties":{"stationId":"EDHI","rawText":"EDHI 102120Z AUTO 31004KT 290V350 9999 // NCD 06/03 Q1027","observationTime":"2020-04-10T21:20:00Z","temp":6,"dewpoint":3,"windDirection":310,"windSpeed":7.408,"visibility":6.21,"altim":30.324802,"flightCategory":"VFR","metarType":"METAR","geometry_esri":{"x":53.53,"y":9.83,"z":13}}}