{"type":"Feature","geometry":{"type":"Point","coordinates":[53.53,9.83,13]},"properties":{"stationId":"EDHI","rawText":"EDHI 210450Z 19007KT 150V220 9999 SCT031 06/05 Q1007","observationTime":"2018-12-21T04:50:00Z","temp":6,"dewpoint":5,"windDirection":190,"windSpeed":12.964,"visibility":6.21,"altim":29.734253,"flightCategory":"VFR","metarType":"METAR","geometry_esri":{"x":53.53,"y":9.83,"z":13}}}