{"type":"Feature","geometry":{"type":"Point","coordinates":[53.53,9.83,13]},"properties":{"stationId":"EDHI","rawText":"EDHI 290250Z AUTO 00000KT 6000 0500 R23/P2000N // SCT005/// 10/10 Q1023","observationTime":"2019-06-29T02:50:00Z","temp":10,"dewpoint":10,"windDirection":0,"windSpeed":0,"visibility":3.73,"altim":30.206694,"flightCategory":"MVFR","metarType":"METAR","geometry_esri":{"x":53.53,"y":9.83,"z":13}}}