{"type":"Feature","geometry":{"type":"Point","coordinates":[53.53,9.83,13]},"properties":{"stationId":"EDHI","rawText":"EDHI 301220Z 23008KT 9999 FEW040 SCT048 16/05 Q1019","observationTime":"2019-03-30T12:20:00Z","temp":16,"dewpoint":5,"windDirection":230,"windSpeed":14.816,"visibility":6.21,"altim":30.088583,"flightCategory":"VFR","metarType":"METAR","geometry_esri":{"x":53.53,"y":9.83,"z":13}}}