{"type":"Feature","geometry":{"type":"Point","coordinates":[53.53,9.83,13]},"properties":{"stationId":"EDHI","rawText":"EDHI 260520Z 24003KT 8000 BKN027 01/M00 Q0990","observationTime":"2020-02-26T05:20:00Z","temp":1,"dewpoint":0,"windDirection":240,"windSpeed":5.556,"visibility":4.97,"altim":29.232283,"flightCategory":"MVFR","metarType":"METAR","geometry_esri":{"x":53.53,"y":9.83,"z":13}}}