{"type":"Feature","geometry":{"type":"Point","coordinates":[53.53,9.83,13]},"properties":{"stationId":"EDHI","rawText":"EDHI 140120Z AUTO 19006KT 160V220 4700 // OVC005/// 02/01 Q0981","observationTime":"2019-12-14T01:20:00Z","temp":2,"dewpoint":1,"windDirection":190,"windSpeed":11.112,"visibility":2.92,"altim":28.966536,"flightCategory":"IFR","metarType":"METAR","geometry_esri":{"x":53.53,"y":9.83,"z":13}}}