{"type":"Feature","geometry":{"type":"Point","coordinates":[53.53,9.83,13]},"properties":{"stationId":"EDHI","rawText":"EDHI 250720Z AUTO 27013KT 9999 // FEW029/// OVC039/// 05/03 Q1029","observationTime":"2018-12-25T07:20:00Z","temp":5,"dewpoint":3,"windDirection":270,"windSpeed":24.076,"visibility":6.21,"altim":30.383858,"flightCategory":"VFR","metarType":"METAR","geometry_esri":{"x":53.53,"y":9.83,"z":13}}}