{"type":"Feature","geometry":{"type":"Point","coordinates":[53.53,9.83,13]},"properties":{"stationId":"EDHI","rawText":"EDHI 101250Z AUTO 22005KT 180V240 9999 R/////// // NCD 08/03 Q1013","observationTime":"2019-11-10T12:50:00Z","temp":8,"dewpoint":3,"windDirection":220,"windSpeed":9.26,"visibility":6.21,"altim":29.911417,"flightCategory":"VFR","metarType":"METAR","geometry_esri":{"x":53.53,"y":9.83,"z":13}}}