{"type":"Feature","geometry":{"type":"Point","coordinates":[53.53,9.83,13]},"properties":{"stationId":"EDHI","rawText":"EDHI 020950Z 12010KT 090V150 CAVOK 10/M02 Q1010","observationTime":"2019-04-02T09:50:00Z","temp":10,"dewpoint":-2,"windDirection":120,"windSpeed":18.52,"visibility":6.21,"altim":29.822834,"flightCategory":"VFR","metarType":"METAR","geometry_esri":{"x":53.53,"y":9.83,"z":13}}}