{"type":"Feature","geometry":{"type":"Point","coordinates":[53.53,9.83,13]},"properties":{"stationId":"EDHI","rawText":"EDHI 250420Z AUTO VRB01KT 9000 // NCD M02/M04 Q1038","observationTime":"2019-02-25T04:20:00Z","temp":-2,"dewpoint":-4,"windDirection":0,"windSpeed":1.852,"visibility":5.59,"altim":30.649607,"flightCategory":"VFR","metarType":"METAR","geometry_esri":{"x":53.53,"y":9.83,"z":13}}}