{"type":"Feature","geometry":{"type":"Point","coordinates":[53.53,9.83,13]},"properties":{"stationId":"EDHI","rawText":"EDHI 030520Z AUTO VRB01KT 0200 0150 R05/0275N // SCT003/// 14/14 Q1015","observationTime":"2019-08-03T05:20:00Z","temp":14,"dewpoint":14,"windDirection":0,"windSpeed":1.852,"visibility":0.12,"altim":29.970472,"flightCategory":"LIFR","metarType":"METAR","geometry_esri":{"x":53.53,"y":9.83,"z":13}}}