{"type":"Feature","geometry":{"type":"Point","coordinates":[53.53,9.83,13]},"properties":{"stationId":"EDHI","rawText":"EDHI 260450Z AUTO 27012KT 1400 1100 R23/P2000N // OVC004/// 05/05 Q1026","observationTime":"2018-12-26T04:50:00Z","temp":5,"dewpoint":5,"windDirection":270,"windSpeed":22.224,"visibility":0.87,"altim":30.295275,"flightCategory":"LIFR","metarType":"METAR","geometry_esri":{"x":53.53,"y":9.83,"z":13}}}