{"type":"Feature","geometry":{"type":"Point","coordinates":[53.53,9.83,13]},"properties":{"stationId":"EDHI","rawText":"EDHI 230320Z AUTO 13005KT 100V170 5000 // FEW230/// M05/M07 Q1001","observationTime":"2019-01-23T03:20:00Z","temp":-5,"dewpoint":-7,"windDirection":130,"windSpeed":9.26,"visibility":3.11,"altim":29.557087,"flightCategory":"MVFR","metarType":"METAR","geometry_esri":{"x":53.53,"y":9.83,"z":13}}}