{"type":"Feature","geometry":{"type":"Point","coordinates":[53.53,9.83,13]},"properties":{"stationId":"EDHI","rawText":"EDHI 031020Z 11007KT 070V170 9999 -RA NSC 10/08 Q1004","observationTime":"2019-04-03T10:20:00Z","temp":10,"dewpoint":8,"windDirection":110,"windSpeed":12.964,"visibility":6.21,"altim":29.64567,"flightCategory":"VFR","metarType":"METAR","geometry_esri":{"x":53.53,"y":9.83,"z":13}}}