{"type":"Feature","geometry":{"type":"Point","coordinates":[53.53,9.83,13]},"properties":{"stationId":"EDHI","rawText":"EDHI 130650Z 26011KT 3800 -DZ BR OVC007 06/05 Q1030","observationTime":"2019-02-13T06:50:00Z","temp":6,"dewpoint":5,"windDirection":260,"windSpeed":20.372,"visibility":2.36,"altim":30.413385,"flightCategory":"IFR","metarType":"METAR","geometry_esri":{"x":53.53,"y":9.83,"z":13}}}