{"type":"Feature","geometry":{"type":"Point","coordinates":[53.53,9.83,13]},"properties":{"stationId":"EDHI","rawText":"EDHI 181520Z 29012KT 9999 FEW029 SCT037 17/11 Q1020","observationTime":"2020-05-18T15:20:00Z","temp":17,"dewpoint":11,"windDirection":290,"windSpeed":22.224,"visibility":6.21,"altim":30.11811,"flightCategory":"VFR","metarType":"METAR","geometry_esri":{"x":53.53,"y":9.83,"z":13}}}