{"type":"Feature","geometry":{"type":"Point","coordinates":[53.53,9.83,13]},"properties":{"stationId":"EDHI","rawText":"EDHI 081220Z 29017G29KT 260V320 9999 SCT042 BKN048 08/01 Q1007","observationTime":"2019-03-08T12:20:00Z","temp":8,"dewpoint":1,"windDirection":290,"windSpeed":31.484,"visibility":6.21,"altim":29.734253,"flightCategory":"VFR","metarType":"METAR","geometry_esri":{"x":53.53,"y":9.83,"z":13}}}