{"type":"Feature","geometry":{"type":"Point","coordinates":[53.53,9.83,13]},"properties":{"stationId":"EDHI","rawText":"EDHI 212220Z AUTO 23007KT 4300 // OVC004/// M01/M01 Q1016","observationTime":"2019-01-21T22:20:00Z","temp":-1,"dewpoint":-1,"windDirection":230,"windSpeed":12.964,"visibility":2.67,"altim":30,"flightCategory":"LIFR","metarType":"METAR","geometry_esri":{"x":53.53,"y":9.83,"z":13}}}