{"type":"Feature","geometry":{"type":"Point","coordinates":[53.53,9.83,13]},"properties":{"stationId":"EDHI","rawText":"EDHI 310150Z AUTO 28006KT 9999 // BKN052/// BKN061/// 19/17 Q1012","observationTime":"2019-07-31T01:50:00Z","temp":19,"dewpoint":17,"windDirection":280,"windSpeed":11.112,"visibility":6.21,"altim":29.88189,"flightCategory":"VFR","metarType":"METAR","geometry_esri":{"x":53.53,"y":9.83,"z":13}}}