{"type":"Feature","geometry":{"type":"Point","coordinates":[53.53,9.83,13]},"properties":{"stationId":"EDHI","rawText":"EDHI 311220Z 20008KT 180V240 9999 FEW017 BKN021 02/M02 Q0998","observationTime":"2019-01-31T12:20:00Z","temp":2,"dewpoint":-2,"windDirection":200,"windSpeed":14.816,"visibility":6.21,"altim":29.468504,"flightCategory":"MVFR","metarType":"METAR","geometry_esri":{"x":53.53,"y":9.83,"z":13}}}