{"type":"Feature","geometry":{"type":"Point","coordinates":[53.53,9.83,13]},"properties":{"stationId":"EDHI","rawText":"EDHI 070250Z AUTO 28010KT 9999 // SCT029/// BKN041/// BKN056/// 12/10 Q1008","observationTime":"2019-07-07T02:50:00Z","temp":12,"dewpoint":10,"windDirection":280,"windSpeed":18.52,"visibility":6.21,"altim":29.763779,"flightCategory":"VFR","metarType":"METAR","geometry_esri":{"x":53.53,"y":9.83,"z":13}}}