{"type":"Feature","geometry":{"type":"Point","coordinates":[53.53,9.83,13]},"properties":{"stationId":"EDHI","rawText":"EDHI 120220Z AUTO 24019KT 9999 3700 // FEW019/// SCT027/// BKN031/// 03/00 Q0999","observationTime":"2020-02-12T02:20:00Z","temp":3,"dewpoint":0,"windDirection":240,"windSpeed":35.188,"visibility":6.21,"altim":29.498032,"flightCategory":"VFR","metarType":"METAR","geometry_esri":{"x":53.53,"y":9.83,"z":13}}}