{"type":"Feature","geometry":{"type":"Point","coordinates":[53.53,9.83,13]},"properties":{"stationId":"EDHI","rawText":"EDHI 131120Z AUTO 18004KT 140V220 9999 // FEW023/// SCT100/// BKN160/// 18/16 Q1008","observationTime":"2019-10-13T11:20:00Z","temp":18,"dewpoint":16,"windDirection":180,"windSpeed":7.408,"visibility":6.21,"altim":29.763779,"flightCategory":"VFR","metarType":"METAR","geometry_esri":{"x":53.53,"y":9.83,"z":13}}}