{"type":"Feature","geometry":{"type":"Point","coordinates":[53.53,9.83,13]},"properties":{"stationId":"EDHI","rawText":"EDHI 250520Z AUTO 25008KT 9999 // FEW015/// OVC032/// 11/09 Q1014","observationTime":"2019-05-25T05:20:00Z","temp":11,"dewpoint":9,"windDirection":250,"windSpeed":14.816,"visibility":6.21,"altim":29.940945,"flightCategory":"VFR","metarType":"METAR","geometry_esri":{"x":53.53,"y":9.83,"z":13}}}