{"type":"Feature","geometry":{"type":"Point","coordinates":[53.53,9.83,13]},"properties":{"stationId":"EDHI","rawText":"EDHI 181750Z AUTO 23004KT 9999 // FEW010/// SCT057/// BKN076/// 03/02 Q1022","observationTime":"2020-01-18T17:50:00Z","temp":3,"dewpoint":2,"windDirection":230,"windSpeed":7.408,"visibility":6.21,"altim":30.177166,"flightCategory":"VFR","metarType":"METAR","geometry_esri":{"x":53.53,"y":9.83,"z":13}}}