{"type":"Feature","geometry":{"type":"Point","coordinates":[53.53,9.83,13]},"properties":{"stationId":"EDHI","rawText":"EDHI 301020Z 28006KT 240V320 9999 FEW044 22/14 Q1012","observationTime":"2019-07-30T10:20:00Z","temp":22,"dewpoint":14,"windDirection":280,"windSpeed":11.112,"visibility":6.21,"altim":29.88189,"flightCategory":"VFR","metarType":"METAR","geometry_esri":{"x":53.53,"y":9.83,"z":13}}}