{"type":"Feature","geometry":{"type":"Point","coordinates":[53.53,9.83,13]},"properties":{"stationId":"EDHI","rawText":"EDHI 301120Z 29020KT 9999 FEW021TCU BKN027 14/11 Q1002","observationTime":"2019-09-30T11:20:00Z","temp":14,"dewpoint":11,"windDirection":290,"windSpeed":37.04,"visibility":6.21,"altim":29.586615,"flightCategory":"MVFR","metarType":"METAR","geometry_esri":{"x":53.53,"y":9.83,"z":13}}}