{"type":"Feature","geometry":{"type":"Point","coordinates":[53.53,9.83,13]},"properties":{"stationId":"EDHI","rawText":"EDHI 300550Z AUTO 26008KT 9999 // FEW006/// BKN035/// 02/01 Q1019","observationTime":"2019-11-30T05:50:00Z","temp":2,"dewpoint":1,"windDirection":260,"windSpeed":14.816,"visibility":6.21,"altim":30.088583,"flightCategory":"VFR","metarType":"METAR","geometry_esri":{"x":53.53,"y":9.83,"z":13}}}