{"type":"Feature","geometry":{"type":"Point","coordinates":[53.53,9.83,13]},"properties":{"stationId":"EDHI","rawText":"EDHI 080520Z 23003KT 0400 R23/P2000N FG FEW001 SCT003 05/05 Q1019","observationTime":"2020-05-08T05:20:00Z","temp":5,"dewpoint":5,"windDirection":230,"windSpeed":5.556,"visibility":0.25,"altim":30.088583,"flightCategory":"LIFR","metarType":"METAR","geometry_esri":{"x":53.53,"y":9.83,"z":13}}}