{"type":"Feature","geometry":{"type":"Point","coordinates":[53.53,9.83,13]},"properties":{"stationId":"EDHI","rawText":"EDHI 090820Z AUTO 26024G35KT 9999 // BKN026/// OVC035/// 07/03 Q1001","observationTime":"2019-03-09T08:20:00Z","temp":7,"dewpoint":3,"windDirection":260,"windSpeed":44.448,"visibility":6.21,"altim":29.557087,"flightCategory":"MVFR","metarType":"METAR","geometry_esri":{"x":53.53,"y":9.83,"z":13}}}