{"type":"Feature","geometry":{"type":"Point","coordinates":[53.53,9.83,13]},"properties":{"stationId":"EDHI","rawText":"EDHI 071850Z AUTO 29015KT 260V320 9999 // FEW029/// SCT036/// OVC052/// 14/08 Q1013","observationTime":"2019-07-07T18:50:00Z","temp":14,"dewpoint":8,"windDirection":290,"windSpeed":27.78,"visibility":6.21,"altim":29.911417,"flightCategory":"VFR","metarType":"METAR","geometry_esri":{"x":53.53,"y":9.83,"z":13}}}