{"type":"Feature","geometry":{"type":"Point","coordinates":[53.53,9.83,13]},"properties":{"stationId":"EDHI","rawText":"EDHI 292120Z AUTO 10002KT 9999 // NCD 21/13 Q1015","observationTime":"2019-06-29T21:20:00Z","temp":21,"dewpoint":13,"windDirection":100,"windSpeed":3.704,"visibility":6.21,"altim":29.970472,"flightCategory":"VFR","metarType":"METAR","geometry_esri":{"x":53.53,"y":9.83,"z":13}}}