{"type":"Feature","geometry":{"type":"Point","coordinates":[53.53,9.83,13]},"properties":{"stationId":"EDHI","rawText":"EDHI 192050Z AUTO 25014KT 9999 // BKN045/// 05/01 Q1017","observationTime":"2020-02-19T20:50:00Z","temp":5,"dewpoint":1,"windDirection":250,"windSpeed":25.928,"visibility":6.21,"altim":30.029528,"flightCategory":"VFR","metarType":"METAR","geometry_esri":{"x":53.53,"y":9.83,"z":13}}}