{"type":"Feature","geometry":{"type":"Point","coordinates":[53.53,9.83,13]},"properties":{"stationId":"EDHI","rawText":"EDHI 141420Z 27009KT CAVOK 21/08 Q1015","observationTime":"2019-08-14T14:20:00Z","temp":21,"dewpoint":8,"windDirection":270,"windSpeed":16.668,"visibility":6.21,"altim":29.970472,"flightCategory":"VFR","metarType":"METAR","geometry_esri":{"x":53.53,"y":9.83,"z":13}}}