{"type":"Feature","geometry":{"type":"Point","coordinates":[53.53,9.83,13]},"properties":{"stationId":"EDHI","rawText":"EDHI 100120Z AUTO 29015KT 9999 // FEW027/// SCT034/// BKN092/// 06/02 Q1006","observationTime":"2018-12-10T01:20:00Z","temp":6,"dewpoint":2,"windDirection":290,"windSpeed":27.78,"visibility":6.21,"altim":29.704725,"skyCondition1a":"FEW","skyCondition1b":2700,"skyCondition2a":"SCT","skyCondition2b":3400,"flightCategory":"VFR","metarType":"METAR","geometry_esri":{"x":53.53,"y":9.83,"z":13}}}