{"type":"Feature","geometry":{"type":"Point","coordinates":[53.53,9.83,13]},"properties":{"stationId":"EDHI","rawText":"EDHI 140620Z 23013KT 9999 -DZ BKN010 06/05 Q0999","observationTime":"2019-03-14T06:20:00Z","temp":6,"dewpoint":5,"windDirection":230,"windSpeed":24.076,"visibility":6.21,"altim":29.498032,"flightCategory":"MVFR","metarType":"METAR","geometry_esri":{"x":53.53,"y":9.83,"z":13}}}