{"type":"Feature","geometry":{"type":"Point","coordinates":[53.53,9.83,13]},"properties":{"stationId":"EDHI","rawText":"EDHI 281320Z 28011KT CAVOK 11/M02 Q1022","observationTime":"2020-03-28T13:20:00Z","temp":11,"dewpoint":-2,"windDirection":280,"windSpeed":20.372,"visibility":6.21,"altim":30.177166,"flightCategory":"VFR","metarType":"METAR","geometry_esri":{"x":53.53,"y":9.83,"z":13}}}