{"type":"Feature","geometry":{"type":"Point","coordinates":[53.53,9.83,13]},"properties":{"stationId":"EDHI","rawText":"EDHI 220550Z 25003KT 4500 BR OVC008 09/07 Q1033","observationTime":"2019-03-22T05:50:00Z","temp":9,"dewpoint":7,"windDirection":250,"windSpeed":5.556,"visibility":2.8,"altim":30.501968,"flightCategory":"IFR","metarType":"METAR","geometry_esri":{"x":53.53,"y":9.83,"z":13}}}