{"type":"Feature","geometry":{"type":"Point","coordinates":[53.53,9.83,13]},"properties":{"stationId":"EDHI","rawText":"EDHI 210450Z AUTO 05011KT 9999 // FEW040/// 02/M02 Q1032","observationTime":"2020-03-21T04:50:00Z","temp":2,"dewpoint":-2,"windDirection":50,"windSpeed":20.372,"visibility":6.21,"altim":30.47244,"flightCategory":"VFR","metarType":"METAR","geometry_esri":{"x":53.53,"y":9.83,"z":13}}}