{"type":"Feature","geometry":{"type":"Point","coordinates":[53.53,9.83,13]},"properties":{"stationId":"EDHI","rawText":"EDHI 251150Z 13006KT 050V200 CAVOK 34/17 Q1016","observationTime":"2019-07-25T11:50:00Z","temp":34,"dewpoint":17,"windDirection":130,"windSpeed":11.112,"visibility":6.21,"altim":30,"flightCategory":"VFR","metarType":"METAR","geometry_esri":{"x":53.53,"y":9.83,"z":13}}}