{"type":"Feature","geometry":{"type":"Point","coordinates":[53.53,9.83,13]},"properties":{"stationId":"EDHI","rawText":"EDHI 200420Z 24005KT CAVOK 07/06 Q1028","observationTime":"2019-09-20T04:20:00Z","temp":7,"dewpoint":6,"windDirection":240,"windSpeed":9.26,"visibility":6.21,"altim":30.35433,"flightCategory":"VFR","metarType":"METAR","geometry_esri":{"x":53.53,"y":9.83,"z":13}}}