{"type":"Feature","geometry":{"type":"Point","coordinates":[53.53,9.83,13]},"properties":{"stationId":"EDHI","rawText":"EDHI 202320Z AUTO 09009KT 050V120 9999 // NCD 09/M02 Q1026","observationTime":"2020-04-20T23:20:00Z","temp":9,"dewpoint":-2,"windDirection":90,"windSpeed":16.668,"visibility":6.21,"altim":30.295275,"flightCategory":"VFR","metarType":"METAR","geometry_esri":{"x":53.53,"y":9.83,"z":13}}}