{"type":"Feature","geometry":{"type":"Point","coordinates":[53.53,9.83,13]},"properties":{"stationId":"EDHI","rawText":"EDHI 021120Z 02006KT 2900 BR FEW008 SCT033 01/M00 Q0998","observationTime":"2019-02-02T11:20:00Z","temp":1,"dewpoint":0,"windDirection":20,"windSpeed":11.112,"visibility":1.8,"altim":29.468504,"flightCategory":"IFR","metarType":"METAR","geometry_esri":{"x":53.53,"y":9.83,"z":13}}}