{"type":"Feature","geometry":{"type":"Point","coordinates":[53.53,9.83,13]},"properties":{"stationId":"EDHI","rawText":"EDHI 060720Z 05013KT 7000 -RA FEW013 BKN046 04/02 Q0991","observationTime":"2020-03-06T07:20:00Z","temp":4,"dewpoint":2,"windDirection":50,"windSpeed":24.076,"visibility":4.35,"altim":29.26181,"flightCategory":"MVFR","metarType":"METAR","geometry_esri":{"x":53.53,"y":9.83,"z":13}}}