{"type":"Feature","geometry":{"type":"Point","coordinates":[53.53,9.83,13]},"properties":{"stationId":"EDHI","rawText":"EDHI 230150Z AUTO 26016KT //// R23/P2000N // FEW050/// OVC120/// 07/01 Q1012","observationTime":"2020-02-23T01:50:00Z","temp":7,"dewpoint":1,"windDirection":260,"windSpeed":29.632,"visibility":1.24,"altim":29.88189,"flightCategory":"IFR","metarType":"METAR","geometry_esri":{"x":53.53,"y":9.83,"z":13}}}