{"type":"Feature","geometry":{"type":"Point","coordinates":[53.53,9.83,13]},"properties":{"stationId":"EDHI","rawText":"EDHI 182250Z AUTO 11004KT 080V150 8000 // SCT220/// 05/04 Q1018","observationTime":"2019-12-18T22:50:00Z","temp":5,"dewpoint":4,"windDirection":110,"windSpeed":7.408,"visibility":4.97,"altim":30.059055,"flightCategory":"MVFR","metarType":"METAR","geometry_esri":{"x":53.53,"y":9.83,"z":13}}}