{"type":"Feature","geometry":{"type":"Point","coordinates":[53.53,9.83,13]},"properties":{"stationId":"EDHI","rawText":"EDHI 310020Z AUTO VRB02KT 1100 0400 R05/0400D // NCD M00/M01 Q1028","observationTime":"2019-10-31T00:20:00Z","temp":0,"dewpoint":-1,"windDirection":0,"windSpeed":3.704,"visibility":0.68,"altim":30.35433,"flightCategory":"LIFR","metarType":"METAR","geometry_esri":{"x":53.53,"y":9.83,"z":13}}}