{"type":"Feature","geometry":{"type":"Point","coordinates":[53.53,9.83,13]},"properties":{"stationId":"EDHI","rawText":"EDHI 081520Z AUTO 25017KT 9999 // SCT025/// BKN058/// BKN093/// 09/06 Q0994","observationTime":"2019-12-08T15:20:00Z","temp":9,"dewpoint":6,"windDirection":250,"windSpeed":31.484,"visibility":6.21,"altim":29.350393,"flightCategory":"VFR","metarType":"METAR","geometry_esri":{"x":53.53,"y":9.83,"z":13}}}