{"type":"Feature","geometry":{"type":"Point","coordinates":[53.53,9.83,13]},"properties":{"stationId":"EDHI","rawText":"EDHI 140150Z AUTO 00000KT 4200 // BKN013/// OVC035/// 02/02 Q1005","observationTime":"2020-02-14T01:50:00Z","temp":2,"dewpoint":2,"windDirection":0,"windSpeed":0,"visibility":2.61,"altim":29.675198,"flightCategory":"IFR","metarType":"METAR","geometry_esri":{"x":53.53,"y":9.83,"z":13}}}