{"type":"Feature","geometry":{"type":"Point","coordinates":[53.53,9.83,13]},"properties":{"stationId":"EDHI","rawText":"EDHI 231620Z 09011G21KT 050V130 8000 FEW014 SCT016 BKN023 07/05 Q1006","observationTime":"2019-11-23T16:20:00Z","temp":7,"dewpoint":5,"windDirection":90,"windSpeed":20.372,"visibility":4.97,"altim":29.704725,"flightCategory":"MVFR","metarType":"METAR","geometry_esri":{"x":53.53,"y":9.83,"z":13}}}