{"type":"Feature","geometry":{"type":"Point","coordinates":[53.53,9.83,13]},"properties":{"stationId":"EDHI","rawText":"EDHI 210320Z AUTO 11001KT 5000 // FEW110/// M07/M08 Q1022","observationTime":"2019-01-21T03:20:00Z","temp":-7,"dewpoint":-8,"windDirection":110,"windSpeed":1.852,"visibility":3.11,"altim":30.177166,"flightCategory":"MVFR","metarType":"METAR","geometry_esri":{"x":53.53,"y":9.83,"z":13}}}