{"type":"Feature","geometry":{"type":"Point","coordinates":[53.53,9.83,13]},"properties":{"stationId":"EDHI","rawText":"EDHI 300050Z AUTO 10004KT 060V130 7000 // BKN190/// M01/M02 Q0999","observationTime":"2019-01-30T00:50:00Z","temp":-1,"dewpoint":-2,"windDirection":100,"windSpeed":7.408,"visibility":4.35,"altim":29.498032,"flightCategory":"MVFR","metarType":"METAR","geometry_esri":{"x":53.53,"y":9.83,"z":13}}}