{"type":"Feature","geometry":{"type":"Point","coordinates":[53.53,9.83,13]},"properties":{"stationId":"EDHI","rawText":"EDHI 120750Z 22005KT 3800 OVC004 11/11 Q1006","observationTime":"2019-10-12T07:50:00Z","temp":11,"dewpoint":11,"windDirection":220,"windSpeed":9.26,"visibility":2.36,"altim":29.704725,"flightCategory":"LIFR","metarType":"METAR","geometry_esri":{"x":53.53,"y":9.83,"z":13}}}