{"type":"Feature","geometry":{"type":"Point","coordinates":[53.53,9.83,13]},"properties":{"stationId":"EDHI","rawText":"EDHI 260320Z AUTO 24005KT 0900 0750 R23/1100D // VV002 02/02 Q1002","observationTime":"2019-01-26T03:20:00Z","temp":2,"dewpoint":2,"windDirection":240,"windSpeed":9.26,"visibility":0.56,"altim":29.586615,"flightCategory":"LIFR","metarType":"METAR","geometry_esri":{"x":53.53,"y":9.83,"z":13}}}