{"type":"Feature","geometry":{"type":"Point","coordinates":[53.53,9.83,13]},"properties":{"stationId":"EDHI","rawText":"EDHI 140150Z AUTO 27008KT 9999 // FEW014/// SCT021/// OVC026/// 14/12 Q1016","observationTime":"2019-07-14T01:50:00Z","temp":14,"dewpoint":12,"windDirection":270,"windSpeed":14.816,"visibility":6.21,"altim":30,"flightCategory":"MVFR","metarType":"METAR","geometry_esri":{"x":53.53,"y":9.83,"z":13}}}