{"type":"Feature","geometry":{"type":"Point","coordinates":[53.53,9.83,13]},"properties":{"stationId":"EDHI","rawText":"EDHI 180720Z 21004KT 6000 BKN009 05/04 Q1023","observationTime":"2018-12-18T07:20:00Z","temp":5,"dewpoint":4,"windDirection":210,"windSpeed":7.408,"visibility":3.73,"altim":30.206694,"flightCategory":"IFR","metarType":"METAR","geometry_esri":{"x":53.53,"y":9.83,"z":13}}}