{"type":"Feature","geometry":{"type":"Point","coordinates":[53.53,9.83,13]},"properties":{"stationId":"EDHI","rawText":"EDHI 031650Z AUTO 23013KT 7000 // SCT006/// OVC008/// 11/10 Q0998","observationTime":"2019-03-03T16:50:00Z","temp":11,"dewpoint":10,"windDirection":230,"windSpeed":24.076,"visibility":4.35,"altim":29.468504,"flightCategory":"IFR","metarType":"METAR","geometry_esri":{"x":53.53,"y":9.83,"z":13}}}