{"type":"Feature","geometry":{"type":"Point","coordinates":[53.53,9.83,13]},"properties":{"stationId":"EDHI","rawText":"EDHI 310420Z 07006KT 8000 -TSRA FEW069CB 19/18 Q1012","observationTime":"2019-07-31T04:20:00Z","temp":19,"dewpoint":18,"windDirection":70,"windSpeed":11.112,"visibility":4.97,"altim":29.88189,"flightCategory":"MVFR","metarType":"METAR","geometry_esri":{"x":53.53,"y":9.83,"z":13}}}