{"type":"Feature","geometry":{"type":"Point","coordinates":[53.53,9.83,13]},"properties":{"stationId":"EDHI","rawText":"EDHI 180720Z AUTO 21005KT 9000 // FEW005/// SCT007/// OVC081/// 18/16 Q1005","observationTime":"2019-08-18T07:20:00Z","temp":18,"dewpoint":16,"windDirection":210,"windSpeed":9.26,"visibility":5.59,"altim":29.675198,"flightCategory":"VFR","metarType":"METAR","geometry_esri":{"x":53.53,"y":9.83,"z":13}}}