{"type":"Feature","geometry":{"type":"Point","coordinates":[53.53,9.83,13]},"properties":{"stationId":"EDHI","rawText":"EDHI 022220Z AUTO 30007KT 4400 // FEW028/// OVC032/// 01/M00 Q1006","observationTime":"2019-02-02T22:20:00Z","temp":1,"dewpoint":0,"windDirection":300,"windSpeed":12.964,"visibility":2.73,"altim":29.704725,"flightCategory":"IFR","metarType":"METAR","geometry_esri":{"x":53.53,"y":9.83,"z":13}}}