{"type":"Feature","geometry":{"type":"Point","coordinates":[53.53,9.83,13]},"properties":{"stationId":"EDHI","rawText":"EDHI 202220Z AUTO 03014KT 9999 // NCD 04/M02 Q1031","observationTime":"2020-03-20T22:20:00Z","temp":4,"dewpoint":-2,"windDirection":30,"windSpeed":25.928,"visibility":6.21,"altim":30.442913,"flightCategory":"VFR","metarType":"METAR","geometry_esri":{"x":53.53,"y":9.83,"z":13}}}