{"type":"Feature","geometry":{"type":"Point","coordinates":[53.53,9.83,13]},"properties":{"stationId":"EDHI","rawText":"EDHI 150850Z AUTO 21017KT 9999 // SCT015/// BKN039/// BKN140/// 08/06 Q0990","observationTime":"2019-12-15T08:50:00Z","temp":8,"dewpoint":6,"windDirection":210,"windSpeed":31.484,"visibility":6.21,"altim":29.232283,"flightCategory":"VFR","metarType":"METAR","geometry_esri":{"x":53.53,"y":9.83,"z":13}}}