{"type":"Feature","geometry":{"type":"Point","coordinates":[53.53,9.83,13]},"properties":{"stationId":"EDHI","rawText":"EDHI 172220Z AUTO 21008KT 180V250 9999 // SCT046/// BKN072/// OVC130/// 12/07 Q1000","observationTime":"2019-12-17T22:20:00Z","temp":12,"dewpoint":7,"windDirection":210,"windSpeed":14.816,"visibility":6.21,"altim":29.52756,"flightCategory":"VFR","metarType":"METAR","geometry_esri":{"x":53.53,"y":9.83,"z":13}}}