{"type":"Feature","geometry":{"type":"Point","coordinates":[53.53,9.83,13]},"properties":{"stationId":"EDHI","rawText":"EDHI 050550Z 21004KT 170V250 4300 BR NSC M01/M02 Q1018","observationTime":"2019-12-05T05:50:00Z","temp":-1,"dewpoint":-2,"windDirection":210,"windSpeed":7.408,"visibility":2.67,"altim":30.059055,"flightCategory":"IFR","metarType":"METAR","geometry_esri":{"x":53.53,"y":9.83,"z":13}}}