{"type":"Feature","geometry":{"type":"Point","coordinates":[53.53,9.83,13]},"properties":{"stationId":"EDHI","rawText":"EDHI 040320Z AUTO 21004KT 180V240 9999 // NCD M03/M03 Q1024","observationTime":"2019-02-04T03:20:00Z","temp":-3,"dewpoint":-3,"windDirection":210,"windSpeed":7.408,"visibility":6.21,"altim":30.236221,"flightCategory":"VFR","metarType":"METAR","geometry_esri":{"x":53.53,"y":9.83,"z":13}}}