{"type":"Feature","geometry":{"type":"Point","coordinates":[53.53,9.83,13]},"properties":{"stationId":"EDHI","rawText":"EDHI 221350Z 13009KT 100V160 CAVOK 01/M05 Q1006","observationTime":"2019-01-22T13:50:00Z","temp":1,"dewpoint":-5,"windDirection":130,"windSpeed":16.668,"visibility":6.21,"altim":29.704725,"flightCategory":"VFR","metarType":"METAR","geometry_esri":{"x":53.53,"y":9.83,"z":13}}}