{"type":"Feature","geometry":{"type":"Point","coordinates":[53.53,9.83,13]},"properties":{"stationId":"EDHI","rawText":"EDHI 201220Z AUTO 05008KT 320V090 9999 // NCD 19/M04 Q1031","observationTime":"2019-04-20T12:20:00Z","temp":19,"dewpoint":-4,"windDirection":50,"windSpeed":14.816,"visibility":6.21,"altim":30.442913,"flightCategory":"VFR","metarType":"METAR","geometry_esri":{"x":53.53,"y":9.83,"z":13}}}