{"type":"Feature","geometry":{"type":"Point","coordinates":[53.53,9.83,13]},"properties":{"stationId":"EDHI","rawText":"EDHI 030950Z 27011KT 9999 FEW010 SCT012 BKN017 06/05 Q0998","observationTime":"2020-03-03T09:50:00Z","temp":6,"dewpoint":5,"windDirection":270,"windSpeed":20.372,"visibility":6.21,"altim":29.468504,"flightCategory":"MVFR","metarType":"METAR","geometry_esri":{"x":53.53,"y":9.83,"z":13}}}