{"type":"Feature","geometry":{"type":"Point","coordinates":[53.53,9.83,13]},"properties":{"stationId":"EDHI","rawText":"EDHI 171050Z AUTO 21012KT 170V240 9999 // BKN025/// OVC031/// 20/15 Q1006","observationTime":"2019-08-17T10:50:00Z","temp":20,"dewpoint":15,"windDirection":210,"windSpeed":22.224,"visibility":6.21,"altim":29.704725,"flightCategory":"MVFR","metarType":"METAR","geometry_esri":{"x":53.53,"y":9.83,"z":13}}}