{"type":"Feature","geometry":{"type":"Point","coordinates":[53.53,9.83,13]},"properties":{"stationId":"EDHI","rawText":"EDHI 092050Z AUTO 10006KT 050V140 9999 // BKN140/// 20/17 Q1005","observationTime":"2019-08-09T20:50:00Z","temp":20,"dewpoint":17,"windDirection":100,"windSpeed":11.112,"visibility":6.21,"altim":29.675198,"flightCategory":"VFR","metarType":"METAR","geometry_esri":{"x":53.53,"y":9.83,"z":13}}}