{"type":"Feature","geometry":{"type":"Point","coordinates":[53.53,9.83,13]},"properties":{"stationId":"EDHI","rawText":"EDHI 272320Z AUTO 25014KT 9999 // FEW032/// SCT036/// 08/05 Q1017","observationTime":"2019-10-27T23:20:00Z","temp":8,"dewpoint":5,"windDirection":250,"windSpeed":25.928,"visibility":6.21,"altim":30.029528,"flightCategory":"VFR","metarType":"METAR","geometry_esri":{"x":53.53,"y":9.83,"z":13}}}