{"type":"Feature","geometry":{"type":"Point","coordinates":[53.53,9.83,13]},"properties":{"stationId":"EDHI","rawText":"EDHI 242020Z AUTO 21010KT 2100 1200 R23/P2000N // OVC005/// 07/07 Q0997","observationTime":"2020-02-24T20:20:00Z","temp":7,"dewpoint":7,"windDirection":210,"windSpeed":18.52,"visibility":1.3,"altim":29.438976,"flightCategory":"IFR","metarType":"METAR","geometry_esri":{"x":53.53,"y":9.83,"z":13}}}