{"type":"Feature","geometry":{"type":"Point","coordinates":[53.53,9.83,13]},"properties":{"stationId":"EDHI","rawText":"EDHI 191250Z AUTO 33009KT 270V010 9999 // SCT032/// 07/01 Q1035","observationTime":"2020-01-19T12:50:00Z","temp":7,"dewpoint":1,"windDirection":330,"windSpeed":16.668,"visibility":6.21,"altim":30.561024,"flightCategory":"VFR","metarType":"METAR","geometry_esri":{"x":53.53,"y":9.83,"z":13}}}