{"type":"Feature","geometry":{"type":"Point","coordinates":[53.53,9.83,13]},"properties":{"stationId":"EDHI","rawText":"EDHI 051720Z AUTO 08004KT 050V130 9999 // SCT150/// 27/17 Q1006","observationTime":"2019-06-05T17:20:00Z","temp":27,"dewpoint":17,"windDirection":80,"windSpeed":7.408,"visibility":6.21,"altim":29.704725,"flightCategory":"VFR","metarType":"METAR","geometry_esri":{"x":53.53,"y":9.83,"z":13}}}