{"type":"Feature","geometry":{"type":"Point","coordinates":[53.53,9.83,13]},"properties":{"stationId":"EDHI","rawText":"EDHI 131650Z 13010KT 100V180 9999 -RA SCT010 BKN015 OVC017 03/02 Q0999","observationTime":"2020-02-13T16:50:00Z","temp":3,"dewpoint":2,"windDirection":130,"windSpeed":18.52,"visibility":6.21,"altim":29.498032,"flightCategory":"MVFR","metarType":"METAR","geometry_esri":{"x":53.53,"y":9.83,"z":13}}}