{"type":"Feature","geometry":{"type":"Point","coordinates":[53.53,9.83,13]},"properties":{"stationId":"EDHI","rawText":"EDHI 151520Z 26018KT 3200 -RADZ SCT005 BKN008 07/06 Q1007","observationTime":"2019-01-15T15:20:00Z","temp":7,"dewpoint":6,"windDirection":260,"windSpeed":33.336,"visibility":1.99,"altim":29.734253,"flightCategory":"IFR","metarType":"METAR","geometry_esri":{"x":53.53,"y":9.83,"z":13}}}