{"type":"Feature","geometry":{"type":"Point","coordinates":[53.53,9.83,13]},"properties":{"stationId":"EDHI","rawText":"EDHI 300220Z AUTO 32017G28KT 280V350 9999 // OVC021/// 07/04 Q1021","observationTime":"2018-12-30T02:20:00Z","temp":7,"dewpoint":4,"windDirection":320,"windSpeed":31.484,"visibility":6.21,"altim":30.147638,"flightCategory":"MVFR","metarType":"METAR","geometry_esri":{"x":53.53,"y":9.83,"z":13}}}