{"type":"Feature","geometry":{"type":"Point","coordinates":[53.53,9.83,13]},"properties":{"stationId":"EDHI","rawText":"EDHI 250020Z AUTO 27009KT 9999 // FEW038/// OVC043/// 05/03 Q1030","observationTime":"2018-12-25T00:20:00Z","temp":5,"dewpoint":3,"windDirection":270,"windSpeed":16.668,"visibility":6.21,"altim":30.413385,"flightCategory":"VFR","metarType":"METAR","geometry_esri":{"x":53.53,"y":9.83,"z":13}}}