{"type":"Feature","geometry":{"type":"Point","coordinates":[53.53,9.83,13]},"properties":{"stationId":"EDHI","rawText":"EDHI 071620Z AUTO 25010KT 9999 // FEW016/// SCT043/// BKN050/// 08/06 Q1008","observationTime":"2019-12-07T16:20:00Z","temp":8,"dewpoint":6,"windDirection":250,"windSpeed":18.52,"visibility":6.21,"altim":29.763779,"flightCategory":"VFR","metarType":"METAR","geometry_esri":{"x":53.53,"y":9.83,"z":13}}}