{"type":"Feature","geometry":{"type":"Point","coordinates":[53.53,9.83,13]},"properties":{"stationId":"EDHI","rawText":"EDHI 211350Z 06003KT 010V130 CAVOK 21/11 Q1020","observationTime":"2019-09-21T13:50:00Z","temp":21,"dewpoint":11,"windDirection":60,"windSpeed":5.556,"visibility":6.21,"altim":30.11811,"flightCategory":"VFR","metarType":"METAR","geometry_esri":{"x":53.53,"y":9.83,"z":13}}}