{"type":"Feature","geometry":{"type":"Point","coordinates":[53.53,9.83,13]},"properties":{"stationId":"EDHI","rawText":"EDHI 092120Z AUTO 22027G41KT 2300 // BKN020/// BKN028/// OVC032/// 12/09 Q0981","observationTime":"2020-02-09T21:20:00Z","temp":12,"dewpoint":9,"windDirection":220,"windSpeed":50.004000000000005,"visibility":1.43,"altim":28.966536,"flightCategory":"IFR","metarType":"METAR","geometry_esri":{"x":53.53,"y":9.83,"z":13}}}