{"type":"Feature","geometry":{"type":"Point","coordinates":[53.53,9.83,13]},"properties":{"stationId":"EDHI","rawText":"EDHI 300250Z AUTO 23008KT 9000 // BKN005/// OVC015/// 15/15 Q0988","observationTime":"2019-09-30T02:50:00Z","temp":15,"dewpoint":15,"windDirection":230,"windSpeed":14.816,"visibility":5.59,"altim":29.17323,"flightCategory":"IFR","metarType":"METAR","geometry_esri":{"x":53.53,"y":9.83,"z":13}}}