{"type":"Feature","geometry":{"type":"Point","coordinates":[53.53,9.83,13]},"properties":{"stationId":"EDHI","rawText":"EDHI 091750Z 22004KT 190V250 CAVOK 16/08 Q0998","observationTime":"2019-05-09T17:50:00Z","temp":16,"dewpoint":8,"windDirection":220,"windSpeed":7.408,"visibility":6.21,"altim":29.468504,"flightCategory":"VFR","metarType":"METAR","geometry_esri":{"x":53.53,"y":9.83,"z":13}}}