{"type":"Feature","geometry":{"type":"Point","coordinates":[53.53,9.83,13]},"properties":{"stationId":"EDHI","rawText":"EDHI 201520Z 03009KT 360V060 CAVOK 22/15 Q1004","observationTime":"2019-05-20T15:20:00Z","temp":22,"dewpoint":15,"windDirection":30,"windSpeed":16.668,"visibility":6.21,"altim":29.64567,"flightCategory":"VFR","metarType":"METAR","geometry_esri":{"x":53.53,"y":9.83,"z":13}}}