{"type":"Feature","geometry":{"type":"Point","coordinates":[53.53,9.83,13]},"properties":{"stationId":"EDHI","rawText":"EDHI 171750Z 26018KT 9000 -SHSNRA FEW007CB SCT011 BKN019 02/01 Q0998","observationTime":"2019-01-17T17:50:00Z","temp":2,"dewpoint":1,"windDirection":260,"windSpeed":33.336,"visibility":5.59,"altim":29.468504,"flightCategory":"MVFR","metarType":"METAR","geometry_esri":{"x":53.53,"y":9.83,"z":13}}}