{"type":"Feature","geometry":{"type":"Point","coordinates":[53.53,9.83,13]},"properties":{"stationId":"EDHI","rawText":"EDHI 081220Z 06012KT CAVOK 15/07 Q1012","observationTime":"2019-04-08T12:20:00Z","temp":15,"dewpoint":7,"windDirection":60,"windSpeed":22.224,"visibility":6.21,"altim":29.88189,"flightCategory":"VFR","metarType":"METAR","geometry_esri":{"x":53.53,"y":9.83,"z":13}}}