{"type":"Feature","geometry":{"type":"Point","coordinates":[53.53,9.83,13]},"properties":{"stationId":"EDHI","rawText":"EDHI 141750Z AUTO 27012KT 9999 // OVC018/// 15/12 Q1017","observationTime":"2019-07-14T17:50:00Z","temp":15,"dewpoint":12,"windDirection":270,"windSpeed":22.224,"visibility":6.21,"altim":30.029528,"flightCategory":"MVFR","metarType":"METAR","geometry_esri":{"x":53.53,"y":9.83,"z":13}}}