{"type":"Feature","geometry":{"type":"Point","coordinates":[53.53,9.83,13]},"properties":{"stationId":"EDHI","rawText":"EDHI 061020Z 15006KT 080V200 9999 FEW015 07/05 Q1004","observationTime":"2019-03-06T10:20:00Z","temp":7,"dewpoint":5,"windDirection":150,"windSpeed":11.112,"visibility":6.21,"altim":29.64567,"flightCategory":"VFR","metarType":"METAR","geometry_esri":{"x":53.53,"y":9.83,"z":13}}}