{"type":"Feature","geometry":{"type":"Point","coordinates":[53.53,9.83,13]},"properties":{"stationId":"EDHI","rawText":"EDHI 081550Z 25005KT 220V280 9999 -SHRA SCT014TCU BKN030 14/12 Q1002","observationTime":"2019-10-08T15:50:00Z","temp":14,"dewpoint":12,"windDirection":250,"windSpeed":9.26,"visibility":6.21,"altim":29.586615,"flightCategory":"MVFR","metarType":"METAR","geometry_esri":{"x":53.53,"y":9.83,"z":13}}}