{"type":"Feature","geometry":{"type":"Point","coordinates":[53.53,9.83,13]},"properties":{"stationId":"EDHI","rawText":"EDHI 140050Z AUTO 19005KT 150V220 5000 // BKN006/// OVC013/// 02/01 Q0982","observationTime":"2019-12-14T00:50:00Z","temp":2,"dewpoint":1,"windDirection":190,"windSpeed":9.26,"visibility":3.11,"altim":28.996063,"flightCategory":"IFR","metarType":"METAR","geometry_esri":{"x":53.53,"y":9.83,"z":13}}}