{"type":"Feature","geometry":{"type":"Point","coordinates":[53.53,9.83,13]},"properties":{"stationId":"EDHI","rawText":"EDHI 061120Z 05013KT 7000 -RA BKN010 04/03 Q0993","observationTime":"2020-03-06T11:20:00Z","temp":4,"dewpoint":3,"windDirection":50,"windSpeed":24.076,"visibility":4.35,"altim":29.320866,"flightCategory":"MVFR","metarType":"METAR","geometry_esri":{"x":53.53,"y":9.83,"z":13}}}