{"type":"Feature","geometry":{"type":"Point","coordinates":[53.53,9.83,13]},"properties":{"stationId":"EDHI","rawText":"EDHI 050750Z 31008KT 270V330 4500 -DZ BR FEW005 BKN006 07/07 Q1021","observationTime":"2019-01-05T07:50:00Z","temp":7,"dewpoint":7,"windDirection":310,"windSpeed":14.816,"visibility":2.8,"altim":30.147638,"flightCategory":"IFR","metarType":"METAR","geometry_esri":{"x":53.53,"y":9.83,"z":13}}}