{"type":"Feature","geometry":{"type":"Point","coordinates":[53.53,9.83,13]},"properties":{"stationId":"EDHI","rawText":"EDHI 271250Z 13005KT 060V190 CAVOK 31/18 Q1016","observationTime":"2019-08-27T12:50:00Z","temp":31,"dewpoint":18,"windDirection":130,"windSpeed":9.26,"visibility":6.21,"altim":30,"flightCategory":"VFR","metarType":"METAR","geometry_esri":{"x":53.53,"y":9.83,"z":13}}}