{"type":"Feature","geometry":{"type":"Point","coordinates":[53.53,9.83,13]},"properties":{"stationId":"EDHI","rawText":"EDHI 241120Z 23013KT 210V270 9999 FEW048 SCT060 21/10 Q1011","observationTime":"2019-05-24T11:20:00Z","temp":21,"dewpoint":10,"windDirection":230,"windSpeed":24.076,"visibility":6.21,"altim":29.852362,"flightCategory":"VFR","metarType":"METAR","geometry_esri":{"x":53.53,"y":9.83,"z":13}}}