{"type":"Feature","geometry":{"type":"Point","coordinates":[53.53,9.83,13]},"properties":{"stationId":"EDHI","rawText":"EDHI 152020Z 26012KT 3900 -RADZ OVC005 07/06 Q1007","observationTime":"2019-01-15T20:20:00Z","temp":7,"dewpoint":6,"windDirection":260,"windSpeed":22.224,"visibility":2.42,"altim":29.734253,"flightCategory":"IFR","metarType":"METAR","geometry_esri":{"x":53.53,"y":9.83,"z":13}}}