{"type":"Feature","geometry":{"type":"Point","coordinates":[53.53,9.83,13]},"properties":{"stationId":"EDHI","rawText":"EDHI 192150Z AUTO 18004KT 130V210 9999 // FEW042/// OVC240/// 11/11 Q1006","observationTime":"2019-10-19T21:50:00Z","temp":11,"dewpoint":11,"windDirection":180,"windSpeed":7.408,"visibility":6.21,"altim":29.704725,"flightCategory":"VFR","metarType":"METAR","geometry_esri":{"x":53.53,"y":9.83,"z":13}}}