{"type":"Feature","geometry":{"type":"Point","coordinates":[53.53,9.83,13]},"properties":{"stationId":"EDHI","rawText":"EDHI 031220Z COR 29016KT 270V330 9999 VCSH SCT044CB 10/01 Q1008","observationTime":"2019-05-03T12:20:00Z","temp":10,"dewpoint":1,"windDirection":290,"windSpeed":29.632,"visibility":6.21,"altim":29.763779,"flightCategory":"VFR","metarType":"SPECI","geometry_esri":{"x":53.53,"y":9.83,"z":13}}}