{"type":"Feature","geometry":{"type":"Point","coordinates":[53.53,9.83,13]},"properties":{"stationId":"EDHI","rawText":"EDHI 272250Z AUTO 09004KT 9999 // FEW160/// BKN210/// 22/19 Q1014","observationTime":"2019-08-27T22:50:00Z","temp":22,"dewpoint":19,"windDirection":90,"windSpeed":7.408,"visibility":6.21,"altim":29.940945,"flightCategory":"VFR","metarType":"METAR","geometry_esri":{"x":53.53,"y":9.83,"z":13}}}