{"type":"Feature","geometry":{"type":"Point","coordinates":[53.53,9.83,13]},"properties":{"stationId":"EDHI","rawText":"EDHI 201520Z AUTO 36002KT 9999 // BKN046/// BKN059/// OVC074/// 12/09 Q1011","observationTime":"2019-10-20T15:20:00Z","temp":12,"dewpoint":9,"windDirection":360,"windSpeed":3.704,"visibility":6.21,"altim":29.852362,"flightCategory":"VFR","metarType":"METAR","geometry_esri":{"x":53.53,"y":9.83,"z":13}}}