{"type":"Feature","geometry":{"type":"Point","coordinates":[53.53,9.83,13]},"properties":{"stationId":"EDHI","rawText":"EDHI 070820Z AUTO 08006KT 050V110 9999 // NCD 14/06 Q1008","observationTime":"2019-04-07T08:20:00Z","temp":14,"dewpoint":6,"windDirection":80,"windSpeed":11.112,"visibility":6.21,"altim":29.763779,"flightCategory":"VFR","metarType":"METAR","geometry_esri":{"x":53.53,"y":9.83,"z":13}}}