{"type":"Feature","geometry":{"type":"Point","coordinates":[53.53,9.83,13]},"properties":{"stationId":"EDHI","rawText":"EDHI 150220Z AUTO 22018KT 9999 // FEW009/// SCT043/// OVC078/// 12/07 Q1005","observationTime":"2020-01-15T02:20:00Z","temp":12,"dewpoint":7,"windDirection":220,"windSpeed":33.336,"visibility":6.21,"altim":29.675198,"flightCategory":"VFR","metarType":"METAR","geometry_esri":{"x":53.53,"y":9.83,"z":13}}}