{"type":"Feature","geometry":{"type":"Point","coordinates":[53.53,9.83,13]},"properties":{"stationId":"EDHI","rawText":"EDHI 130820Z 21015G25KT 9999 BKN027 06/02 Q0996","observationTime":"2019-03-13T08:20:00Z","temp":6,"dewpoint":2,"windDirection":210,"windSpeed":27.78,"visibility":6.21,"altim":29.409449,"flightCategory":"MVFR","metarType":"METAR","geometry_esri":{"x":53.53,"y":9.83,"z":13}}}