{"type":"Feature","geometry":{"type":"Point","coordinates":[53.53,9.83,13]},"properties":{"stationId":"EDHI","rawText":"EDHI 152150Z AUTO 05008KT 9999 // FEW087/// OVC099/// 10/M01 Q1025","observationTime":"2019-05-15T21:50:00Z","temp":10,"dewpoint":-1,"windDirection":50,"windSpeed":14.816,"visibility":6.21,"altim":30.265747,"flightCategory":"VFR","metarType":"METAR","geometry_esri":{"x":53.53,"y":9.83,"z":13}}}