{"type":"Feature","geometry":{"type":"Point","coordinates":[53.53,9.83,13]},"properties":{"stationId":"EDHI","rawText":"EDHI 020850Z 25009KT 9999 FEW026 BKN033 05/01 Q1014","observationTime":"2019-03-02T08:50:00Z","temp":5,"dewpoint":1,"windDirection":250,"windSpeed":16.668,"visibility":6.21,"altim":29.940945,"flightCategory":"VFR","metarType":"METAR","geometry_esri":{"x":53.53,"y":9.83,"z":13}}}