{"type":"Feature","geometry":{"type":"Point","coordinates":[53.53,9.83,13]},"properties":{"stationId":"EDHI","rawText":"EDHI 130520Z AUTO 26014KT 9000 // SCT010/// OVC012/// 07/05 Q1001","observationTime":"2019-01-13T05:20:00Z","temp":7,"dewpoint":5,"windDirection":260,"windSpeed":25.928,"visibility":5.59,"altim":29.557087,"flightCategory":"MVFR","metarType":"SPECI","geometry_esri":{"x":53.53,"y":9.83,"z":13}}}