{"type":"Feature","geometry":{"type":"Point","coordinates":[53.53,9.83,13]},"properties":{"stationId":"EDHI","rawText":"EDHI 250720Z 14007KT 110V170 CAVOK 02/M08 Q1033","observationTime":"2020-03-25T07:20:00Z","temp":2,"dewpoint":-8,"windDirection":140,"windSpeed":12.964,"visibility":6.21,"altim":30.501968,"flightCategory":"VFR","metarType":"METAR","geometry_esri":{"x":53.53,"y":9.83,"z":13}}}