{"type":"Feature","geometry":{"type":"Point","coordinates":[53.53,9.83,13]},"properties":{"stationId":"EDHI","rawText":"EDHI 281850Z AUTO 05007KT 9999 // FEW093/// SCT110/// BKN130/// 26/17 Q1003","observationTime":"2019-07-28T18:50:00Z","temp":26,"dewpoint":17,"windDirection":50,"windSpeed":12.964,"visibility":6.21,"altim":29.616142,"flightCategory":"VFR","metarType":"METAR","geometry_esri":{"x":53.53,"y":9.83,"z":13}}}