{"type":"Feature","geometry":{"type":"Point","coordinates":[53.53,9.83,13]},"properties":{"stationId":"EDHI","rawText":"EDHI 130020Z AUTO 25012KT 9000 // OVC016/// 06/03 Q1030","observationTime":"2019-02-13T00:20:00Z","temp":6,"dewpoint":3,"windDirection":250,"windSpeed":22.224,"visibility":5.59,"altim":30.413385,"flightCategory":"MVFR","metarType":"METAR","geometry_esri":{"x":53.53,"y":9.83,"z":13}}}