{"type":"Feature","geometry":{"type":"Point","coordinates":[53.53,9.83,13]},"properties":{"stationId":"EDHI","rawText":"EDHI 261950Z AUTO 22009KT 8000 2400 // FEW008/// SCT027/// OVC045/// 15/14 Q1006","observationTime":"2019-05-26T19:50:00Z","temp":15,"dewpoint":14,"windDirection":220,"windSpeed":16.668,"visibility":4.97,"altim":29.704725,"flightCategory":"MVFR","metarType":"METAR","geometry_esri":{"x":53.53,"y":9.83,"z":13}}}