{"type":"Feature","geometry":{"type":"Point","coordinates":[53.53,9.83,13]},"properties":{"stationId":"EDHI","rawText":"EDHI 021420Z 25012KT 2400 BR OVC004 M00/M01 Q1023","observationTime":"2020-01-02T14:20:00Z","temp":0,"dewpoint":-1,"windDirection":250,"windSpeed":22.224,"visibility":1.49,"altim":30.206694,"flightCategory":"LIFR","metarType":"METAR","geometry_esri":{"x":53.53,"y":9.83,"z":13}}}