{"type":"Feature","geometry":{"type":"Point","coordinates":[53.53,9.83,13]},"properties":{"stationId":"EDHI","rawText":"EDHI 240920Z 21005KT 0650 R05/0800U FZFG VV/// 00/00 Q1022","observationTime":"2020-01-24T09:20:00Z","temp":0,"dewpoint":0,"windDirection":210,"windSpeed":9.26,"visibility":0.4,"altim":30.177166,"flightCategory":"LIFR","metarType":"METAR","geometry_esri":{"x":53.53,"y":9.83,"z":13}}}