{"type":"Feature","geometry":{"type":"Point","coordinates":[53.53,9.83,13]},"properties":{"stationId":"EDHI","rawText":"EDHI 180150Z AUTO 32008KT 280V350 9999 // NCD M01/M04 Q1011","observationTime":"2019-01-18T01:50:00Z","temp":-1,"dewpoint":-4,"windDirection":320,"windSpeed":14.816,"visibility":6.21,"altim":29.852362,"flightCategory":"VFR","metarType":"METAR","geometry_esri":{"x":53.53,"y":9.83,"z":13}}}