{"type":"Feature","geometry":{"type":"Point","coordinates":[53.53,9.83,13]},"properties":{"stationId":"EDHI","rawText":"EDHI 120350Z AUTO 30006KT 270V330 4600 // SCT005/// BKN012/// 16/15 Q1009","observationTime":"2019-06-12T03:50:00Z","temp":16,"dewpoint":15,"windDirection":300,"windSpeed":11.112,"visibility":2.86,"altim":29.793306,"flightCategory":"IFR","metarType":"METAR","geometry_esri":{"x":53.53,"y":9.83,"z":13}}}