{"type":"Feature","geometry":{"type":"Point","coordinates":[53.53,9.83,13]},"properties":{"stationId":"EDHI","rawText":"EDHI 221620Z AUTO 11007KT 060V140 9999 // BKN034/// OVC046/// 05/04 Q0986","observationTime":"2019-12-22T16:20:00Z","temp":5,"dewpoint":4,"windDirection":110,"windSpeed":12.964,"visibility":6.21,"altim":29.114174,"flightCategory":"VFR","metarType":"METAR","geometry_esri":{"x":53.53,"y":9.83,"z":13}}}