{"type":"Feature","geometry":{"type":"Point","coordinates":[53.53,9.83,13]},"properties":{"stationId":"EDHI","rawText":"EDHI 260020Z AUTO 23007KT 2200 // OVC004/// M00/M01 Q1003","observationTime":"2019-01-26T00:20:00Z","temp":0,"dewpoint":-1,"windDirection":230,"windSpeed":12.964,"visibility":1.37,"altim":29.616142,"flightCategory":"LIFR","metarType":"METAR","geometry_esri":{"x":53.53,"y":9.83,"z":13}}}