{"type":"Feature","geometry":{"type":"Point","coordinates":[53.53,9.83,13]},"properties":{"stationId":"EDHI","rawText":"EDHI 180450Z AUTO 06005KT 5000 // FEW064/// 12/11 Q1008","observationTime":"2019-05-18T04:50:00Z","temp":12,"dewpoint":11,"windDirection":60,"windSpeed":9.26,"visibility":3.11,"altim":29.763779,"flightCategory":"MVFR","metarType":"SPECI","geometry_esri":{"x":53.53,"y":9.83,"z":13}}}