{"type":"Feature","geometry":{"type":"Point","coordinates":[53.53,9.83,13]},"properties":{"stationId":"EDHI","rawText":"EDHI 171820Z AUTO 03008KT 7000 // FEW020/// BKN024/// OVC036/// 06/04 Q1011","observationTime":"2019-11-17T18:20:00Z","temp":6,"dewpoint":4,"windDirection":30,"windSpeed":14.816,"visibility":4.35,"altim":29.852362,"flightCategory":"MVFR","metarType":"METAR","geometry_esri":{"x":53.53,"y":9.83,"z":13}}}