{"type":"Feature","geometry":{"type":"Point","coordinates":[53.53,9.83,13]},"properties":{"stationId":"EDHI","rawText":"EDHI 151120Z 21013G23KT 9999 -RA BKN014 OVC018 08/05 Q0994","observationTime":"2019-03-15T11:20:00Z","temp":8,"dewpoint":5,"windDirection":210,"windSpeed":24.076,"visibility":6.21,"altim":29.350393,"flightCategory":"MVFR","metarType":"METAR","geometry_esri":{"x":53.53,"y":9.83,"z":13}}}