{"type":"Feature","geometry":{"type":"Point","coordinates":[53.53,9.83,13]},"properties":{"stationId":"EDHI","rawText":"EDHI 191650Z 20007KT 110V230 9999 -SHRA VCTS FEW044CB 21/14 Q1005 RETS","observationTime":"2019-06-19T16:50:00Z","temp":21,"dewpoint":14,"windDirection":200,"windSpeed":12.964,"visibility":6.21,"altim":29.675198,"flightCategory":"VFR","metarType":"METAR","geometry_esri":{"x":53.53,"y":9.83,"z":13}}}