{"type":"Feature","geometry":{"type":"Point","coordinates":[53.53,9.83,13]},"properties":{"stationId":"EDHI","rawText":"EDHI 160020Z AUTO 30010KT 5000 // SCT007/// BKN009/// OVC019/// 14/13 Q1005","observationTime":"2019-10-16T00:20:00Z","temp":14,"dewpoint":13,"windDirection":300,"windSpeed":18.52,"visibility":3.11,"altim":29.675198,"flightCategory":"IFR","metarType":"METAR","geometry_esri":{"x":53.53,"y":9.83,"z":13}}}