{"type":"Feature","geometry":{"type":"Point","coordinates":[53.53,9.83,13]},"properties":{"stationId":"EDHI","rawText":"EDHI 132250Z AUTO 19004KT 160V240 4200 // OVC005/// 01/01 Q0982","observationTime":"2019-12-13T22:50:00Z","temp":1,"dewpoint":1,"windDirection":190,"windSpeed":7.408,"visibility":2.61,"altim":28.996063,"flightCategory":"IFR","metarType":"METAR","geometry_esri":{"x":53.53,"y":9.83,"z":13}}}