{"type":"Feature","geometry":{"type":"Point","coordinates":[53.53,9.83,13]},"properties":{"stationId":"EDHI","rawText":"EDHI 311020Z 21006KT 130V240 9999 FEW020 23/15 Q1014","observationTime":"2019-07-31T10:20:00Z","temp":23,"dewpoint":15,"windDirection":210,"windSpeed":11.112,"visibility":6.21,"altim":29.940945,"flightCategory":"VFR","metarType":"METAR","geometry_esri":{"x":53.53,"y":9.83,"z":13}}}