{"type":"Feature","geometry":{"type":"Point","coordinates":[53.53,9.83,13]},"properties":{"stationId":"EDHI","rawText":"EDHI 101820Z AUTO 33016G26KT 290V360 9999 // BKN028/// 14/06 Q1006","observationTime":"2020-05-10T18:20:00Z","temp":14,"dewpoint":6,"windDirection":330,"windSpeed":29.632,"visibility":6.21,"altim":29.704725,"flightCategory":"MVFR","metarType":"METAR","geometry_esri":{"x":53.53,"y":9.83,"z":13}}}