{"type":"Feature","geometry":{"type":"Point","coordinates":[53.53,9.83,13]},"properties":{"stationId":"EDHI","rawText":"EDHI 010150Z AUTO 14005KT 100V170 9999 // SCT049/// OVC059/// 09/07 Q0999","observationTime":"2020-05-01T01:50:00Z","temp":9,"dewpoint":7,"windDirection":140,"windSpeed":9.26,"visibility":6.21,"altim":29.498032,"flightCategory":"VFR","metarType":"METAR","geometry_esri":{"x":53.53,"y":9.83,"z":13}}}