{"type":"Feature","geometry":{"type":"Point","coordinates":[53.53,9.83,13]},"properties":{"stationId":"EDHI","rawText":"EDHI 031620Z 29004KT 260V350 9999 FEW029 08/02 Q1001","observationTime":"2020-03-03T16:20:00Z","temp":8,"dewpoint":2,"windDirection":290,"windSpeed":7.408,"visibility":6.21,"altim":29.557087,"flightCategory":"VFR","metarType":"METAR","geometry_esri":{"x":53.53,"y":9.83,"z":13}}}