{"type":"Feature","geometry":{"type":"Point","coordinates":[53.53,9.83,13]},"properties":{"stationId":"EDHI","rawText":"EDHI 241420Z 13003KT 090V190 9999 BKN025 M03/M08 Q1012","observationTime":"2019-01-24T14:20:00Z","temp":-3,"dewpoint":-8,"windDirection":130,"windSpeed":5.556,"visibility":6.21,"altim":29.88189,"flightCategory":"MVFR","metarType":"METAR","geometry_esri":{"x":53.53,"y":9.83,"z":13}}}