{"type":"Feature","geometry":{"type":"Point","coordinates":[53.53,9.83,13]},"properties":{"stationId":"EDHI","rawText":"EDHI 061950Z AUTO 21007KT 180V240 9999 // OVC078/// 16/08 Q1017","observationTime":"2019-09-06T19:50:00Z","temp":16,"dewpoint":8,"windDirection":210,"windSpeed":12.964,"visibility":6.21,"altim":30.029528,"flightCategory":"VFR","metarType":"METAR","geometry_esri":{"x":53.53,"y":9.83,"z":13}}}