{"type":"Feature","geometry":{"type":"Point","coordinates":[53.53,9.83,13]},"properties":{"stationId":"EDHI","rawText":"EDHI 051520Z 14005KT 100V180 5000 HZ BKN017 11/07 Q1005","observationTime":"2019-04-05T15:20:00Z","temp":11,"dewpoint":7,"windDirection":140,"windSpeed":9.26,"visibility":3.11,"altim":29.675198,"flightCategory":"MVFR","metarType":"METAR","geometry_esri":{"x":53.53,"y":9.83,"z":13}}}