{"type":"Feature","geometry":{"type":"Point","coordinates":[53.53,9.83,13]},"properties":{"stationId":"EDHI","rawText":"EDHI 302320Z AUTO 23003KT 6000 // SCT004/// SCT008/// OVC100/// 05/04 Q1029","observationTime":"2018-12-30T23:20:00Z","temp":5,"dewpoint":4,"windDirection":230,"windSpeed":5.556,"visibility":3.73,"altim":30.383858,"flightCategory":"MVFR","metarType":"METAR","geometry_esri":{"x":53.53,"y":9.83,"z":13}}}