{"type":"Feature","geometry":{"type":"Point","coordinates":[53.53,9.83,13]},"properties":{"stationId":"EDHI","rawText":"EDHI 082150Z AUTO 32015G26KT 280V350 9999 // SCT019/// BKN022/// OVC057/// 04/00 Q1005","observationTime":"2019-01-08T21:50:00Z","temp":4,"dewpoint":0,"windDirection":320,"windSpeed":27.78,"visibility":6.21,"altim":29.675198,"flightCategory":"MVFR","metarType":"METAR","geometry_esri":{"x":53.53,"y":9.83,"z":13}}}