{"type":"Feature","geometry":{"type":"Point","coordinates":[53.53,9.83,13]},"properties":{"stationId":"EDHI","rawText":"EDHI 270050Z AUTO 24008KT 6000 // BKN007/// BKN012/// OVC047/// 14/13 Q1004","observationTime":"2019-05-27T00:50:00Z","temp":14,"dewpoint":13,"windDirection":240,"windSpeed":14.816,"visibility":3.73,"altim":29.64567,"flightCategory":"IFR","metarType":"METAR","geometry_esri":{"x":53.53,"y":9.83,"z":13}}}