{"type":"Feature","geometry":{"type":"Point","coordinates":[53.53,9.83,13]},"properties":{"stationId":"EDHI","rawText":"EDHI 201750Z 17004KT 140V240 9999 FEW030 SCT047 BKN058 06/05 Q1010","observationTime":"2018-12-20T17:50:00Z","temp":6,"dewpoint":5,"windDirection":170,"windSpeed":7.408,"visibility":6.21,"altim":29.822834,"flightCategory":"VFR","metarType":"METAR","geometry_esri":{"x":53.53,"y":9.83,"z":13}}}