{"type":"Feature","geometry":{"type":"Point","coordinates":[53.53,9.83,13]},"properties":{"stationId":"EDHI","rawText":"EDHI 051150Z 31006KT 280V020 CAVOK 27/17 Q1008","observationTime":"2019-06-05T11:50:00Z","temp":27,"dewpoint":17,"windDirection":310,"windSpeed":11.112,"visibility":6.21,"altim":29.763779,"flightCategory":"VFR","metarType":"METAR","geometry_esri":{"x":53.53,"y":9.83,"z":13}}}