{"type":"Feature","geometry":{"type":"Point","coordinates":[53.53,9.83,13]},"properties":{"stationId":"EDHI","rawText":"EDHI 210220Z AUTO 24007KT 4200 // FEW082/// 03/02 Q1041","observationTime":"2020-01-21T02:20:00Z","temp":3,"dewpoint":2,"windDirection":240,"windSpeed":12.964,"visibility":2.61,"altim":30.73819,"flightCategory":"IFR","metarType":"METAR","geometry_esri":{"x":53.53,"y":9.83,"z":13}}}