{"type":"Feature","geometry":{"type":"Point","coordinates":[53.53,9.83,13]},"properties":{"stationId":"EDHI","rawText":"EDHI 170050Z AUTO 22003KT 180V250 0350 R23/P2000N // SCT003/// 13/13 Q1021","observationTime":"2019-06-17T00:50:00Z","temp":13,"dewpoint":13,"windDirection":220,"windSpeed":5.556,"visibility":0.22,"altim":30.147638,"flightCategory":"LIFR","metarType":"METAR","geometry_esri":{"x":53.53,"y":9.83,"z":13}}}