{"type":"Feature","geometry":{"type":"Point","coordinates":[53.53,9.83,13]},"properties":{"stationId":"EDHI","rawText":"EDHI 230320Z AUTO 28003KT 9999 // FEW011/// OVC019/// 05/03 Q1034","observationTime":"2020-01-23T03:20:00Z","temp":5,"dewpoint":3,"windDirection":280,"windSpeed":5.556,"visibility":6.21,"altim":30.531496,"flightCategory":"MVFR","metarType":"METAR","geometry_esri":{"x":53.53,"y":9.83,"z":13}}}