{"type":"Feature","geometry":{"type":"Point","coordinates":[53.53,9.83,13]},"properties":{"stationId":"EDHI","rawText":"EDHI 132220Z AUTO VRB02KT 7000 // FEW028/// 02/01 Q1001","observationTime":"2020-02-13T22:20:00Z","temp":2,"dewpoint":1,"windDirection":0,"windSpeed":3.704,"visibility":4.35,"altim":29.557087,"flightCategory":"MVFR","metarType":"METAR","geometry_esri":{"x":53.53,"y":9.83,"z":13}}}