{"type":"Feature","geometry":{"type":"Point","coordinates":[53.53,9.83,13]},"properties":{"stationId":"EDHI","rawText":"EDHI 222120Z AUTO 25004KT 9999 // FEW019/// OVC040/// 06/05 Q1014","observationTime":"2018-12-22T21:20:00Z","temp":6,"dewpoint":5,"windDirection":250,"windSpeed":7.408,"visibility":6.21,"altim":29.940945,"flightCategory":"VFR","metarType":"METAR","geometry_esri":{"x":53.53,"y":9.83,"z":13}}}