{"type":"Feature","geometry":{"type":"Point","coordinates":[53.53,9.83,13]},"properties":{"stationId":"EDHI","rawText":"EDHI 171120Z 23014KT 190V250 9000 -SHRA OVC025 20/15 Q1007","observationTime":"2019-08-17T11:20:00Z","temp":20,"dewpoint":15,"windDirection":230,"windSpeed":25.928,"visibility":5.59,"altim":29.734253,"flightCategory":"MVFR","metarType":"METAR","geometry_esri":{"x":53.53,"y":9.83,"z":13}}}