{"type":"Feature","geometry":{"type":"Point","coordinates":[53.53,9.83,13]},"properties":{"stationId":"EDHI","rawText":"EDHI 120950Z 29011KT 9999 -SHRA SCT015CB BKN044 17/15 Q1009","observationTime":"2019-07-12T09:50:00Z","temp":17,"dewpoint":15,"windDirection":290,"windSpeed":20.372,"visibility":6.21,"altim":29.793306,"flightCategory":"VFR","metarType":"METAR","geometry_esri":{"x":53.53,"y":9.83,"z":13}}}