{"type":"Feature","geometry":{"type":"Point","coordinates":[53.53,9.83,13]},"properties":{"stationId":"EDHI","rawText":"EDHI 071050Z 10006KT 050V150 CAVOK 19/06 Q1014","observationTime":"2019-06-07T10:50:00Z","temp":19,"dewpoint":6,"windDirection":100,"windSpeed":11.112,"visibility":6.21,"altim":29.940945,"flightCategory":"VFR","metarType":"METAR","geometry_esri":{"x":53.53,"y":9.83,"z":13}}}