{"type":"Feature","geometry":{"type":"Point","coordinates":[53.53,9.83,13]},"properties":{"stationId":"EDHI","rawText":"EDHI 202020Z AUTO 01009KT 9999 // FEW035/// BKN091/// BKN230/// 19/14 Q1005","observationTime":"2019-05-20T20:20:00Z","temp":19,"dewpoint":14,"windDirection":10,"windSpeed":16.668,"visibility":6.21,"altim":29.675198,"flightCategory":"VFR","metarType":"METAR","geometry_esri":{"x":53.53,"y":9.83,"z":13}}}