{"type":"Feature","geometry":{"type":"Point","coordinates":[53.53,9.83,13]},"properties":{"stationId":"EDHI","rawText":"EDHI 120550Z AUTO 27014KT 3600 // OVC006/// 06/05 Q1014","observationTime":"2019-01-12T05:50:00Z","temp":6,"dewpoint":5,"windDirection":270,"windSpeed":25.928,"visibility":2.24,"altim":29.940945,"flightCategory":"IFR","metarType":"METAR","geometry_esri":{"x":53.53,"y":9.83,"z":13}}}