{"type":"Feature","geometry":{"type":"Point","coordinates":[53.53,9.83,13]},"properties":{"stationId":"EDHI","rawText":"EDHI 030820Z 23005KT 3500 BR OVC003 05/05 Q1026","observationTime":"2019-12-03T08:20:00Z","temp":5,"dewpoint":5,"windDirection":230,"windSpeed":9.26,"visibility":2.17,"altim":30.295275,"flightCategory":"LIFR","metarType":"METAR","geometry_esri":{"x":53.53,"y":9.83,"z":13}}}