{"type":"Feature","geometry":{"type":"Point","coordinates":[53.53,9.83,13]},"properties":{"stationId":"EDHI","rawText":"EDHI 311420Z AUTO 31008KT 250V010 9999 // FEW052/// 10/M02 Q1025","observationTime":"2019-03-31T14:20:00Z","temp":10,"dewpoint":-2,"windDirection":310,"windSpeed":14.816,"visibility":6.21,"altim":30.265747,"flightCategory":"VFR","metarType":"METAR","geometry_esri":{"x":53.53,"y":9.83,"z":13}}}