{"type":"Feature","geometry":{"type":"Point","coordinates":[53.53,9.83,13]},"properties":{"stationId":"EDHI","rawText":"EDHI 051620Z 36007KT 320V040 CAVOK 13/M03 Q1021","observationTime":"2020-05-05T16:20:00Z","temp":13,"dewpoint":-3,"windDirection":360,"windSpeed":12.964,"visibility":6.21,"altim":30.147638,"flightCategory":"VFR","metarType":"METAR","geometry_esri":{"x":53.53,"y":9.83,"z":13}}}