{"type":"Feature","geometry":{"type":"Point","coordinates":[53.53,9.83,13]},"properties":{"stationId":"EDHI","rawText":"EDHI 310620Z 17003KT 130V220 CAVOK 19/18 Q1013","observationTime":"2019-07-31T06:20:00Z","temp":19,"dewpoint":18,"windDirection":170,"windSpeed":5.556,"visibility":6.21,"altim":29.911417,"flightCategory":"VFR","metarType":"METAR","geometry_esri":{"x":53.53,"y":9.83,"z":13}}}