{"type":"Feature","geometry":{"type":"Point","coordinates":[53.53,9.83,13]},"properties":{"stationId":"EDHI","rawText":"EDHI 100820Z AUTO 05005KT 020V100 9999 // NCD 21/08 Q1006","observationTime":"2020-05-10T08:20:00Z","temp":21,"dewpoint":8,"windDirection":50,"windSpeed":9.26,"visibility":6.21,"altim":29.704725,"flightCategory":"VFR","metarType":"METAR","geometry_esri":{"x":53.53,"y":9.83,"z":13}}}