{"type":"Feature","geometry":{"type":"Point","coordinates":[53.53,9.83,13]},"properties":{"stationId":"EDHI","rawText":"EDHI 011820Z AUTO 34005KT 300V020 9999 // SCT008/// BKN030/// OVC037/// 10/08 Q0999","observationTime":"2019-10-01T18:20:00Z","temp":10,"dewpoint":8,"windDirection":340,"windSpeed":9.26,"visibility":6.21,"altim":29.498032,"flightCategory":"MVFR","metarType":"METAR","geometry_esri":{"x":53.53,"y":9.83,"z":13}}}