{"type":"Feature","geometry":{"type":"Point","coordinates":[53.53,9.83,13]},"properties":{"stationId":"EDHI","rawText":"EDHI 180220Z AUTO 21004KT 9999 // FEW010/// BKN012/// BKN037/// 14/13 Q1008","observationTime":"2019-10-18T02:20:00Z","temp":14,"dewpoint":13,"windDirection":210,"windSpeed":7.408,"visibility":6.21,"altim":29.763779,"flightCategory":"MVFR","metarType":"METAR","geometry_esri":{"x":53.53,"y":9.83,"z":13}}}