{"type":"Feature","geometry":{"type":"Point","coordinates":[53.53,9.83,13]},"properties":{"stationId":"EDHI","rawText":"EDHI 241850Z AUTO 08003KT 050V110 9999 // NCD 30/15 Q1015","observationTime":"2019-07-24T18:50:00Z","temp":30,"dewpoint":15,"windDirection":80,"windSpeed":5.556,"visibility":6.21,"altim":29.970472,"flightCategory":"VFR","metarType":"METAR","geometry_esri":{"x":53.53,"y":9.83,"z":13}}}