{"type":"Feature","geometry":{"type":"Point","coordinates":[53.53,9.83,13]},"properties":{"stationId":"EDHI","rawText":"EDHI 062120Z AUTO 17007KT 140V210 9999 // OVC036/// 10/06 Q0994","observationTime":"2019-03-06T21:20:00Z","temp":10,"dewpoint":6,"windDirection":170,"windSpeed":12.964,"visibility":6.21,"altim":29.350393,"flightCategory":"VFR","metarType":"METAR","geometry_esri":{"x":53.53,"y":9.83,"z":13}}}