{"type":"Feature","geometry":{"type":"Point","coordinates":[53.53,9.83,13]},"properties":{"stationId":"EDHI","rawText":"EDHI 251150Z 25025KT 9999 FEW023 SCT029 07/02 Q0992","observationTime":"2020-02-25T11:50:00Z","temp":7,"dewpoint":2,"windDirection":250,"windSpeed":46.300000000000004,"visibility":6.21,"altim":29.291338,"flightCategory":"VFR","metarType":"METAR","geometry_esri":{"x":53.53,"y":9.83,"z":13}}}