{"type":"Feature","geometry":{"type":"Point","coordinates":[53.53,9.83,13]},"properties":{"stationId":"EDHI","rawText":"EDHI 290420Z AUTO 17005KT 110V220 9000 2200 // OVC007/// 04/03 Q0995","observationTime":"2020-02-29T04:20:00Z","temp":4,"dewpoint":3,"windDirection":170,"windSpeed":9.26,"visibility":5.59,"altim":29.379921,"flightCategory":"IFR","metarType":"METAR","geometry_esri":{"x":53.53,"y":9.83,"z":13}}}