{"type":"Feature","geometry":{"type":"Point","coordinates":[53.53,9.83,13]},"properties":{"stationId":"EDHI","rawText":"EDHI 301820Z AUTO 30016KT 9999 // SCT210/// 21/13 Q1013","observationTime":"2019-06-30T18:20:00Z","temp":21,"dewpoint":13,"windDirection":300,"windSpeed":29.632,"visibility":6.21,"altim":29.911417,"flightCategory":"VFR","metarType":"METAR","geometry_esri":{"x":53.53,"y":9.83,"z":13}}}