{"type":"Feature","geometry":{"type":"Point","coordinates":[53.53,9.83,13]},"properties":{"stationId":"EDHI","rawText":"EDHI 130850Z AUTO 24016KT 1500 1300 R23/P2000N // OVC007/// 07/07 Q0997","observationTime":"2019-01-13T08:50:00Z","temp":7,"dewpoint":7,"windDirection":240,"windSpeed":29.632,"visibility":0.93,"altim":29.438976,"flightCategory":"LIFR","metarType":"METAR","geometry_esri":{"x":53.53,"y":9.83,"z":13}}}