{"type":"Feature","geometry":{"type":"Point","coordinates":[53.53,9.83,13]},"properties":{"stationId":"EDHI","rawText":"EDHI 180120Z AUTO 21004KT 170V230 9999 // FEW011/// SCT056/// BKN200/// 18/17 Q1005","observationTime":"2019-08-18T01:20:00Z","temp":18,"dewpoint":17,"windDirection":210,"windSpeed":7.408,"visibility":6.21,"altim":29.675198,"flightCategory":"VFR","metarType":"METAR","geometry_esri":{"x":53.53,"y":9.83,"z":13}}}