{"type":"Feature","geometry":{"type":"Point","coordinates":[53.53,9.83,13]},"properties":{"stationId":"EDHI","rawText":"EDHI 130750Z 29006KT 270V340 9000 SCT012 BKN022 18/15 Q1013","observationTime":"2019-07-13T07:50:00Z","temp":18,"dewpoint":15,"windDirection":290,"windSpeed":11.112,"visibility":5.59,"altim":29.911417,"flightCategory":"MVFR","metarType":"METAR","geometry_esri":{"x":53.53,"y":9.83,"z":13}}}