{"type":"Feature","geometry":{"type":"Point","coordinates":[53.53,9.83,13]},"properties":{"stationId":"EDHI","rawText":"EDHI 122120Z AUTO 27013KT 240V300 7000 2200 // SCT012/// BKN021/// BKN025/// 03/01 Q1009","observationTime":"2020-02-12T21:20:00Z","temp":3,"dewpoint":1,"windDirection":270,"windSpeed":24.076,"visibility":4.35,"altim":29.793306,"flightCategory":"MVFR","metarType":"METAR","geometry_esri":{"x":53.53,"y":9.83,"z":13}}}