{"type":"Feature","geometry":{"type":"Point","coordinates":[53.53,9.83,13]},"properties":{"stationId":"EDHI","rawText":"EDHI 070050Z AUTO 22013KT 3300 // OVC009/// 08/07 Q0998","observationTime":"2019-12-07T00:50:00Z","temp":8,"dewpoint":7,"windDirection":220,"windSpeed":24.076,"visibility":2.05,"altim":29.468504,"flightCategory":"IFR","metarType":"METAR","geometry_esri":{"x":53.53,"y":9.83,"z":13}}}