{"type":"Feature","geometry":{"type":"Point","coordinates":[53.53,9.83,13]},"properties":{"stationId":"EDHI","rawText":"EDHI 031920Z 26015KT 9999 FEW025 07/03 Q1006","observationTime":"2020-02-03T19:20:00Z","temp":7,"dewpoint":3,"windDirection":260,"windSpeed":27.78,"visibility":6.21,"altim":29.704725,"flightCategory":"VFR","metarType":"METAR","geometry_esri":{"x":53.53,"y":9.83,"z":13}}}