{"type":"Feature","geometry":{"type":"Point","coordinates":[53.53,9.83,13]},"properties":{"stationId":"EDHI","rawText":"EDHI 080550Z 20010KT 3000 -RA FEW006 BKN011 11/10 Q1004","observationTime":"2019-10-08T05:50:00Z","temp":11,"dewpoint":10,"windDirection":200,"windSpeed":18.52,"visibility":1.86,"altim":29.64567,"flightCategory":"IFR","metarType":"METAR","geometry_esri":{"x":53.53,"y":9.83,"z":13}}}