{"type":"Feature","geometry":{"type":"Point","coordinates":[53.53,9.83,13]},"properties":{"stationId":"EDHI","rawText":"EDHI 161720Z AUTO 13006KT 5000 // FEW026/// SCT033/// OVC051/// M00/M03 Q1012","observationTime":"2018-12-16T17:20:00Z","temp":0,"dewpoint":-3,"windDirection":130,"windSpeed":11.112,"visibility":3.11,"altim":29.88189,"flightCategory":"MVFR","metarType":"METAR","geometry_esri":{"x":53.53,"y":9.83,"z":13}}}