{"type":"Feature","geometry":{"type":"Point","coordinates":[53.53,9.83,13]},"properties":{"stationId":"EDHI","rawText":"EDHI 281520Z 25006KT 4500 -DZ BR SCT005 BKN007 OVC015 07/07 Q1026","observationTime":"2018-12-28T15:20:00Z","temp":7,"dewpoint":7,"windDirection":250,"windSpeed":11.112,"visibility":2.8,"altim":30.295275,"flightCategory":"IFR","metarType":"METAR","geometry_esri":{"x":53.53,"y":9.83,"z":13}}}