{"type":"Feature","geometry":{"type":"Point","coordinates":[53.53,9.83,13]},"properties":{"stationId":"EDHI","rawText":"EDHI 172020Z AUTO 27009KT 9999 2800 // FEW008/// SCT010/// OVC012/// 01/00 Q1001","observationTime":"2019-01-17T20:20:00Z","temp":1,"dewpoint":0,"windDirection":270,"windSpeed":16.668,"visibility":6.21,"altim":29.557087,"flightCategory":"MVFR","metarType":"METAR","geometry_esri":{"x":53.53,"y":9.83,"z":13}}}