{"type":"Feature","geometry":{"type":"Point","coordinates":[53.53,9.83,13]},"properties":{"stationId":"EDHI","rawText":"EDHI 050220Z AUTO 22006KT 9999 // NCD 11/10 Q1011","observationTime":"2019-09-05T02:20:00Z","temp":11,"dewpoint":10,"windDirection":220,"windSpeed":11.112,"visibility":6.21,"altim":29.852362,"flightCategory":"VFR","metarType":"METAR","geometry_esri":{"x":53.53,"y":9.83,"z":13}}}