{"type":"Feature","geometry":{"type":"Point","coordinates":[53.53,9.83,13]},"properties":{"stationId":"EDHI","rawText":"EDHI 171220Z 12008KT 060V210 CAVOK 16/M04 Q1027","observationTime":"2019-04-17T12:20:00Z","temp":16,"dewpoint":-4,"windDirection":120,"windSpeed":14.816,"visibility":6.21,"altim":30.324802,"flightCategory":"VFR","metarType":"METAR","geometry_esri":{"x":53.53,"y":9.83,"z":13}}}