{"type":"Feature","geometry":{"type":"Point","coordinates":[53.53,9.83,13]},"properties":{"stationId":"EDHI","rawText":"EDHI 290920Z 03006KT CAVOK 08/05 Q1025","observationTime":"2019-10-29T09:20:00Z","temp":8,"dewpoint":5,"windDirection":30,"windSpeed":11.112,"visibility":6.21,"altim":30.265747,"flightCategory":"VFR","metarType":"METAR","geometry_esri":{"x":53.53,"y":9.83,"z":13}}}