{"type":"Feature","geometry":{"type":"Point","coordinates":[53.53,9.83,13]},"properties":{"stationId":"EDHI","rawText":"EDHI 150850Z 08012KT 050V120 7000 OVC012 05/02 Q1006","observationTime":"2019-11-15T08:50:00Z","temp":5,"dewpoint":2,"windDirection":80,"windSpeed":22.224,"visibility":4.35,"altim":29.704725,"flightCategory":"MVFR","metarType":"METAR","geometry_esri":{"x":53.53,"y":9.83,"z":13}}}