{"type":"Feature","geometry":{"type":"Point","coordinates":[53.53,9.83,13]},"properties":{"stationId":"EDHI","rawText":"EDHI 122120Z AUTO 23016KT 9999 // FEW018/// SCT062/// BKN074/// 04/01 Q1006","observationTime":"2020-03-12T21:20:00Z","temp":4,"dewpoint":1,"windDirection":230,"windSpeed":29.632,"visibility":6.21,"altim":29.704725,"flightCategory":"VFR","metarType":"METAR","geometry_esri":{"x":53.53,"y":9.83,"z":13}}}