{"type":"Feature","geometry":{"type":"Point","coordinates":[53.53,9.83,13]},"properties":{"stationId":"EDHI","rawText":"EDHI 170920Z 10011G22KT 040V160 CAVOK 14/M04 Q1027","observationTime":"2019-04-17T09:20:00Z","temp":14,"dewpoint":-4,"windDirection":100,"windSpeed":20.372,"visibility":6.21,"altim":30.324802,"flightCategory":"VFR","metarType":"METAR","geometry_esri":{"x":53.53,"y":9.83,"z":13}}}