{"type":"Feature","geometry":{"type":"Point","coordinates":[53.53,9.83,13]},"properties":{"stationId":"EDHI","rawText":"EDHI 081850Z 23018KT 9999 -RA BKN021 BKN041 BKN053 08/05 Q0992","observationTime":"2018-12-08T18:50:00Z","temp":8,"dewpoint":5,"windDirection":230,"windSpeed":33.336,"visibility":6.21,"altim":29.291338,"skyCondition1a":"BKN","skyCondition1b":2100,"skyCondition2a":"BKN","skyCondition2b":4100,"flightCategory":"MVFR","metarType":"METAR","geometry_esri":{"x":53.53,"y":9.83,"z":13}}}