{"type":"Feature","geometry":{"type":"Point","coordinates":[53.53,9.83,13]},"properties":{"stationId":"EDHI","rawText":"EDHI 040550Z 13003KT 090V160 6000 -RA SCT008 BKN013 10/10 Q0986","observationTime":"2019-11-04T05:50:00Z","temp":10,"dewpoint":10,"windDirection":130,"windSpeed":5.556,"visibility":3.73,"altim":29.114174,"flightCategory":"MVFR","metarType":"METAR","geometry_esri":{"x":53.53,"y":9.83,"z":13}}}