{"type":"Feature","geometry":{"type":"Point","coordinates":[53.53,9.83,13]},"properties":{"stationId":"EDHI","rawText":"EDHI 141820Z AUTO 21008KT 9999 // FEW030/// BKN055/// OVC100/// 05/02 Q0989","observationTime":"2019-12-14T18:20:00Z","temp":5,"dewpoint":2,"windDirection":210,"windSpeed":14.816,"visibility":6.21,"altim":29.202755,"flightCategory":"VFR","metarType":"METAR","geometry_esri":{"x":53.53,"y":9.83,"z":13}}}