{"type":"Feature","geometry":{"type":"Point","coordinates":[53.53,9.83,13]},"properties":{"stationId":"EDHI","rawText":"EDHI 301120Z 27007KT 210V300 CAVOK 23/14 Q1022","observationTime":"2019-08-30T11:20:00Z","temp":23,"dewpoint":14,"windDirection":270,"windSpeed":12.964,"visibility":6.21,"altim":30.177166,"flightCategory":"VFR","metarType":"METAR","geometry_esri":{"x":53.53,"y":9.83,"z":13}}}