{"type":"Feature","geometry":{"type":"Point","coordinates":[53.53,9.83,13]},"properties":{"stationId":"EDHI","rawText":"EDHI 120850Z 19010KT 150V220 9999 FEW024 BKN029 06/02 Q1001","observationTime":"2019-11-12T08:50:00Z","temp":6,"dewpoint":2,"windDirection":190,"windSpeed":18.52,"visibility":6.21,"altim":29.557087,"flightCategory":"MVFR","metarType":"METAR","geometry_esri":{"x":53.53,"y":9.83,"z":13}}}