{"type":"Feature","geometry":{"type":"Point","coordinates":[53.53,9.83,13]},"properties":{"stationId":"EDHI","rawText":"EDHI 111920Z AUTO 25021KT 9999 // SCT029/// BKN044/// 04/M00 Q0998","observationTime":"2020-02-11T19:20:00Z","temp":4,"dewpoint":0,"windDirection":250,"windSpeed":38.892,"visibility":6.21,"altim":29.468504,"flightCategory":"VFR","metarType":"METAR","geometry_esri":{"x":53.53,"y":9.83,"z":13}}}