{"type":"Feature","geometry":{"type":"Point","coordinates":[53.53,9.83,13]},"properties":{"stationId":"EDHI","rawText":"EDHI 012120Z AUTO 23006KT 1600 1300 R23/1700U // VV002 M02/M02 Q1029","observationTime":"2020-01-01T21:20:00Z","temp":-2,"dewpoint":-2,"windDirection":230,"windSpeed":11.112,"visibility":0.99,"altim":30.383858,"flightCategory":"LIFR","metarType":"METAR","geometry_esri":{"x":53.53,"y":9.83,"z":13}}}