{"type":"Feature","geometry":{"type":"Point","coordinates":[53.53,9.83,13]},"properties":{"stationId":"EDHI","rawText":"EDHI 181220Z 18009KT 130V240 9999 FEW026 SCT041 18/12 Q1003","observationTime":"2019-10-18T12:20:00Z","temp":18,"dewpoint":12,"windDirection":180,"windSpeed":16.668,"visibility":6.21,"altim":29.616142,"flightCategory":"VFR","metarType":"METAR","geometry_esri":{"x":53.53,"y":9.83,"z":13}}}