{"type":"Feature","geometry":{"type":"Point","coordinates":[53.53,9.83,13]},"properties":{"stationId":"EDHI","rawText":"EDHI 121850Z AUTO 21003KT 180V260 9999 // NCD 15/13 Q1025","observationTime":"2019-09-12T18:50:00Z","temp":15,"dewpoint":13,"windDirection":210,"windSpeed":5.556,"visibility":6.21,"altim":30.265747,"flightCategory":"VFR","metarType":"METAR","geometry_esri":{"x":53.53,"y":9.83,"z":13}}}