{"type":"Feature","geometry":{"type":"Point","coordinates":[53.53,9.83,13]},"properties":{"stationId":"EDHI","rawText":"EDHI 290820Z VRB03KT CAVOK 20/11 Q1022","observationTime":"2019-06-29T08:20:00Z","temp":20,"dewpoint":11,"windDirection":0,"windSpeed":5.556,"visibility":6.21,"altim":30.177166,"flightCategory":"VFR","metarType":"METAR","geometry_esri":{"x":53.53,"y":9.83,"z":13}}}