{"type":"Feature","geometry":{"type":"Point","coordinates":[53.53,9.83,13]},"properties":{"stationId":"EDHI","rawText":"EDHI 031520Z AUTO 27006KT 3100 // OVC004/// 09/09 Q1000","observationTime":"2019-03-03T15:20:00Z","temp":9,"dewpoint":9,"windDirection":270,"windSpeed":11.112,"visibility":1.93,"altim":29.52756,"flightCategory":"LIFR","metarType":"METAR","geometry_esri":{"x":53.53,"y":9.83,"z":13}}}