{"type":"Feature","geometry":{"type":"Point","coordinates":[53.53,9.83,13]},"properties":{"stationId":"EDHI","rawText":"EDHI 291620Z AUTO 03015G25KT 360V060 9999 // FEW066/// 04/M12 Q1032","observationTime":"2020-03-29T16:20:00Z","temp":4,"dewpoint":-12,"windDirection":30,"windSpeed":27.78,"visibility":6.21,"altim":30.47244,"flightCategory":"VFR","metarType":"METAR","geometry_esri":{"x":53.53,"y":9.83,"z":13}}}