{"type":"Feature","geometry":{"type":"Point","coordinates":[53.53,9.83,13]},"properties":{"stationId":"EDHI","rawText":"EDHI 291820Z AUTO 23011KT 5000 // BKN007/// BKN009/// OVC015/// 08/07 Q1016","observationTime":"2018-12-29T18:20:00Z","temp":8,"dewpoint":7,"windDirection":230,"windSpeed":20.372,"visibility":3.11,"altim":30,"flightCategory":"IFR","metarType":"METAR","geometry_esri":{"x":53.53,"y":9.83,"z":13}}}