{"type":"Feature","geometry":{"type":"Point","coordinates":[53.53,9.83,13]},"properties":{"stationId":"EDHI","rawText":"EDHI 230050Z AUTO 26020KT //// R23/P2000N // BKN180/// 07/01 Q1013","observationTime":"2020-02-23T00:50:00Z","temp":7,"dewpoint":1,"windDirection":260,"windSpeed":37.04,"visibility":1.24,"altim":29.911417,"flightCategory":"IFR","metarType":"METAR","geometry_esri":{"x":53.53,"y":9.83,"z":13}}}