{"type":"Feature","geometry":{"type":"Point","coordinates":[53.53,9.83,13]},"properties":{"stationId":"EDHI","rawText":"EDHI 280950Z 28007KT 4500 BR SCT002 BKN004 07/07 Q1025","observationTime":"2018-12-28T09:50:00Z","temp":7,"dewpoint":7,"windDirection":280,"windSpeed":12.964,"visibility":2.8,"altim":30.265747,"flightCategory":"LIFR","metarType":"METAR","geometry_esri":{"x":53.53,"y":9.83,"z":13}}}