{"type":"Feature","geometry":{"type":"Point","coordinates":[53.53,9.83,13]},"properties":{"stationId":"EDHI","rawText":"EDHI 081750Z AUTO 21010KT 9999 1900 // SCT013/// BKN036/// OVC069/// 08/07 Q1009","observationTime":"2020-03-08T17:50:00Z","temp":8,"dewpoint":7,"windDirection":210,"windSpeed":18.52,"visibility":6.21,"altim":29.793306,"flightCategory":"VFR","metarType":"METAR","geometry_esri":{"x":53.53,"y":9.83,"z":13}}}