{"type":"Feature","geometry":{"type":"Point","coordinates":[53.53,9.83,13]},"properties":{"stationId":"EDHI","rawText":"EDHI 190850Z 10006KT 070V130 9000 NSC 05/04 Q1014","observationTime":"2019-12-19T08:50:00Z","temp":5,"dewpoint":4,"windDirection":100,"windSpeed":11.112,"visibility":5.59,"altim":29.940945,"flightCategory":"VFR","metarType":"METAR","geometry_esri":{"x":53.53,"y":9.83,"z":13}}}