{"type":"Feature","geometry":{"type":"Point","coordinates":[53.53,9.83,13]},"properties":{"stationId":"EDHI","rawText":"EDHI 301820Z 30010KT CAVOK 11/09 Q1019","observationTime":"2019-04-30T18:20:00Z","temp":11,"dewpoint":9,"windDirection":300,"windSpeed":18.52,"visibility":6.21,"altim":30.088583,"flightCategory":"VFR","metarType":"METAR","geometry_esri":{"x":53.53,"y":9.83,"z":13}}}