{"type":"Feature","geometry":{"type":"Point","coordinates":[53.53,9.83,13]},"properties":{"stationId":"EDHI","rawText":"EDHI 102050Z AUTO 22009KT 180V240 9999 // SCT041/// OVC050/// 05/01 Q0987","observationTime":"2020-02-10T20:50:00Z","temp":5,"dewpoint":1,"windDirection":220,"windSpeed":16.668,"visibility":6.21,"altim":29.143702,"flightCategory":"VFR","metarType":"METAR","geometry_esri":{"x":53.53,"y":9.83,"z":13}}}