{"type":"Feature","geometry":{"type":"Point","coordinates":[53.53,9.83,13]},"properties":{"stationId":"EDHI","rawText":"EDHI 190320Z AUTO 25006KT 9999 // FEW027/// BKN031/// BKN043/// 01/01 Q1028","observationTime":"2020-01-19T03:20:00Z","temp":1,"dewpoint":1,"windDirection":250,"windSpeed":11.112,"visibility":6.21,"altim":30.35433,"flightCategory":"VFR","metarType":"METAR","geometry_esri":{"x":53.53,"y":9.83,"z":13}}}