{"type":"Feature","geometry":{"type":"Point","coordinates":[53.53,9.83,13]},"properties":{"stationId":"EDHI","rawText":"EDHI 040320Z AUTO 26007KT 230V290 4100 // FEW014/// BKN016/// BKN120/// 03/01 Q1005","observationTime":"2019-05-04T03:20:00Z","temp":3,"dewpoint":1,"windDirection":260,"windSpeed":12.964,"visibility":2.55,"altim":29.675198,"flightCategory":"IFR","metarType":"METAR","geometry_esri":{"x":53.53,"y":9.83,"z":13}}}