{"type":"Feature","geometry":{"type":"Point","coordinates":[53.53,9.83,13]},"properties":{"stationId":"EDHI","rawText":"EDHI 051620Z 08008KT 040V120 CAVOK 27/18 Q1006","observationTime":"2019-06-05T16:20:00Z","temp":27,"dewpoint":18,"windDirection":80,"windSpeed":14.816,"visibility":6.21,"altim":29.704725,"flightCategory":"VFR","metarType":"METAR","geometry_esri":{"x":53.53,"y":9.83,"z":13}}}