{"type":"Feature","geometry":{"type":"Point","coordinates":[53.53,9.83,13]},"properties":{"stationId":"EDHI","rawText":"EDHI 300450Z 24006KT 3600 -SN SCT013 BKN022 OVC028 M01/M02 Q1028","observationTime":"2020-03-30T04:50:00Z","temp":-1,"dewpoint":-2,"windDirection":240,"windSpeed":11.112,"visibility":2.24,"altim":30.35433,"flightCategory":"IFR","metarType":"METAR","geometry_esri":{"x":53.53,"y":9.83,"z":13}}}