{"type":"Feature","geometry":{"type":"Point","coordinates":[53.53,9.83,13]},"properties":{"stationId":"EDHI","rawText":"EDHI 052250Z AUTO 09011KT 060V120 9999 // BKN077/// OVC096/// 07/M00 Q0992","observationTime":"2020-03-05T22:50:00Z","temp":7,"dewpoint":0,"windDirection":90,"windSpeed":20.372,"visibility":6.21,"altim":29.291338,"flightCategory":"VFR","metarType":"METAR","geometry_esri":{"x":53.53,"y":9.83,"z":13}}}