{"type":"Feature","geometry":{"type":"Point","coordinates":[53.53,9.83,13]},"properties":{"stationId":"EDHI","rawText":"EDHI 010120Z AUTO 05009KT 9999 // BKN130/// OVC160/// 20/15 Q1006","observationTime":"2019-09-01T01:20:00Z","temp":20,"dewpoint":15,"windDirection":50,"windSpeed":16.668,"visibility":6.21,"altim":29.704725,"flightCategory":"VFR","metarType":"METAR","geometry_esri":{"x":53.53,"y":9.83,"z":13}}}