{"type":"Feature","geometry":{"type":"Point","coordinates":[53.53,9.83,13]},"properties":{"stationId":"EDHI","rawText":"EDHI 051620Z 15004KT 100V170 6000 BKN018 11/07 Q1005","observationTime":"2019-04-05T16:20:00Z","temp":11,"dewpoint":7,"windDirection":150,"windSpeed":7.408,"visibility":3.73,"altim":29.675198,"flightCategory":"MVFR","metarType":"METAR","geometry_esri":{"x":53.53,"y":9.83,"z":13}}}