{"type":"Feature","geometry":{"type":"Point","coordinates":[53.53,9.83,13]},"properties":{"stationId":"EDHI","rawText":"EDHI 011450Z AUTO 24003KT 200V300 0300 R23/0325N // VV001 M01/M01 Q1031","observationTime":"2020-01-01T14:50:00Z","temp":-1,"dewpoint":-1,"windDirection":240,"windSpeed":5.556,"visibility":0.19,"altim":30.442913,"flightCategory":"LIFR","metarType":"METAR","geometry_esri":{"x":53.53,"y":9.83,"z":13}}}