{"type":"Feature","geometry":{"type":"Point","coordinates":[53.53,9.83,13]},"properties":{"stationId":"EDHI","rawText":"EDHI 090120Z AUTO 26016G27KT 230V290 8000 // FEW011/// BKN013/// OVC021/// 08/07 Q0984","observationTime":"2018-12-09T01:20:00Z","temp":8,"dewpoint":7,"windDirection":260,"windSpeed":29.632,"visibility":4.97,"altim":29.055119,"skyCondition1a":"FEW","skyCondition1b":1100,"skyCondition2a":"BKN","skyCondition2b":1300,"flightCategory":"MVFR","metarType":"METAR","geometry_esri":{"x":53.53,"y":9.83,"z":13}}}