{"type":"Feature","geometry":{"type":"Point","coordinates":[53.53,9.83,13]},"properties":{"stationId":"EDHI","rawText":"EDHI 211850Z AUTO 36003KT 310V110 9000 // NCD 19/10 Q1027","observationTime":"2019-08-21T18:50:00Z","temp":19,"dewpoint":10,"windDirection":360,"windSpeed":5.556,"visibility":5.59,"altim":30.324802,"flightCategory":"VFR","metarType":"METAR","geometry_esri":{"x":53.53,"y":9.83,"z":13}}}