{"type":"Feature","geometry":{"type":"Point","coordinates":[53.53,9.83,13]},"properties":{"stationId":"EDHI","rawText":"EDHI 050650Z 24012KT 8000 BKN009 03/02 Q1022","observationTime":"2019-02-05T06:50:00Z","temp":3,"dewpoint":2,"windDirection":240,"windSpeed":22.224,"visibility":4.97,"altim":30.177166,"flightCategory":"IFR","metarType":"METAR","geometry_esri":{"x":53.53,"y":9.83,"z":13}}}