{"type":"Feature","geometry":{"type":"Point","coordinates":[53.53,9.83,13]},"properties":{"stationId":"EDHI","rawText":"EDHI 040620Z 15003KT 080V200 9999 -RA FEW028 OVC044 15/12 Q1014","observationTime":"2019-06-04T06:20:00Z","temp":15,"dewpoint":12,"windDirection":150,"windSpeed":5.556,"visibility":6.21,"altim":29.940945,"flightCategory":"VFR","metarType":"METAR","geometry_esri":{"x":53.53,"y":9.83,"z":13}}}