{"type":"Feature","geometry":{"type":"Point","coordinates":[53.53,9.83,13]},"properties":{"stationId":"EDHI","rawText":"EDHI 120220Z AUTO 34005KT 9999 // BKN025/// OVC034/// 03/02 Q1024","observationTime":"2018-12-12T02:20:00Z","temp":3,"dewpoint":2,"windDirection":340,"windSpeed":9.26,"visibility":6.21,"altim":30.236221,"skyCondition1a":"BKN","skyCondition1b":2500,"skyCondition2a":"OVC","skyCondition2b":3400,"flightCategory":"MVFR","metarType":"METAR","geometry_esri":{"x":53.53,"y":9.83,"z":13}}}