{"type":"Feature","geometry":{"type":"Point","coordinates":[53.53,9.83,13]},"properties":{"stationId":"EDHI","rawText":"EDHI 270220Z AUTO 24020KT 2400 1100 R23/P2000N // BKN016/// BKN018/// OVC021/// 15/13 Q1007","observationTime":"2019-10-27T02:20:00Z","temp":15,"dewpoint":13,"windDirection":240,"windSpeed":37.04,"visibility":1.49,"altim":29.734253,"flightCategory":"IFR","metarType":"METAR","geometry_esri":{"x":53.53,"y":9.83,"z":13}}}