{"type":"Feature","geometry":{"type":"Point","coordinates":[53.53,9.83,13]},"properties":{"stationId":"EDHI","rawText":"EDHI 020720Z 27007KT 9999 FEW025 10/06 Q1003","observationTime":"2019-10-02T07:20:00Z","temp":10,"dewpoint":6,"windDirection":270,"windSpeed":12.964,"visibility":6.21,"altim":29.616142,"flightCategory":"VFR","metarType":"METAR","geometry_esri":{"x":53.53,"y":9.83,"z":13}}}