{"type":"Feature","geometry":{"type":"Point","coordinates":[53.53,9.83,13]},"properties":{"stationId":"EDHI","rawText":"EDHI 200150Z AUTO 10006KT 070V150 3700 // OVC002/// 05/05 Q1001","observationTime":"2019-12-20T01:50:00Z","temp":5,"dewpoint":5,"windDirection":100,"windSpeed":11.112,"visibility":2.3,"altim":29.557087,"flightCategory":"LIFR","metarType":"METAR","geometry_esri":{"x":53.53,"y":9.83,"z":13}}}