{"type":"Feature","geometry":{"type":"Point","coordinates":[53.53,9.83,13]},"properties":{"stationId":"EDHI","rawText":"EDHI 082350Z AUTO 22015KT 9999 // BKN011/// OVC018/// 09/07 Q0984","observationTime":"2018-12-08T23:50:00Z","temp":9,"dewpoint":7,"windDirection":220,"windSpeed":27.78,"visibility":6.21,"altim":29.055119,"skyCondition1a":"BKN","skyCondition1b":1100,"skyCondition2a":"OVC","skyCondition2b":1800,"flightCategory":"MVFR","metarType":"METAR","geometry_esri":{"x":53.53,"y":9.83,"z":13}}}