{"type":"Feature","geometry":{"type":"Point","coordinates":[53.53,9.83,13]},"properties":{"stationId":"EDHI","rawText":"EDHI 200650Z 09007KT 060V120 CAVOK 08/M01 Q1027","observationTime":"2020-04-20T06:50:00Z","temp":8,"dewpoint":-1,"windDirection":90,"windSpeed":12.964,"visibility":6.21,"altim":30.324802,"flightCategory":"VFR","metarType":"METAR","geometry_esri":{"x":53.53,"y":9.83,"z":13}}}