{"type":"Feature","geometry":{"type":"Point","coordinates":[53.53,9.83,13]},"properties":{"stationId":"EDHI","rawText":"EDHI 080920Z 27007KT 240V310 CAVOK 14/06 Q1019","observationTime":"2020-05-08T09:20:00Z","temp":14,"dewpoint":6,"windDirection":270,"windSpeed":12.964,"visibility":6.21,"altim":30.088583,"flightCategory":"VFR","metarType":"METAR","geometry_esri":{"x":53.53,"y":9.83,"z":13}}}