{"type":"Feature","geometry":{"type":"Point","coordinates":[53.53,9.83,13]},"properties":{"stationId":"EDHI","rawText":"EDHI 101520Z 26024G34KT 230V290 9999 VCSH FEW037 06/01 Q0991","observationTime":"2020-02-10T15:20:00Z","temp":6,"dewpoint":1,"windDirection":260,"windSpeed":44.448,"visibility":6.21,"altim":29.26181,"flightCategory":"VFR","metarType":"METAR","geometry_esri":{"x":53.53,"y":9.83,"z":13}}}