{"type":"Feature","geometry":{"type":"Point","coordinates":[53.53,9.83,13]},"properties":{"stationId":"EDHI","rawText":"EDHI 300250Z AUTO 21004KT 0300 R05/0375N // VV001 05/04 Q1021","observationTime":"2019-04-30T02:50:00Z","temp":5,"dewpoint":4,"windDirection":210,"windSpeed":7.408,"visibility":0.19,"altim":30.147638,"flightCategory":"LIFR","metarType":"METAR","geometry_esri":{"x":53.53,"y":9.83,"z":13}}}