{"type":"Feature","geometry":{"type":"Point","coordinates":[53.53,9.83,13]},"properties":{"stationId":"EDHI","rawText":"EDHI 090850Z 34010KT 9999 FEW023 SCT026 BKN040 03/M02 Q1012","observationTime":"2019-01-09T08:50:00Z","temp":3,"dewpoint":-2,"windDirection":340,"windSpeed":18.52,"visibility":6.21,"altim":29.88189,"flightCategory":"VFR","metarType":"METAR","geometry_esri":{"x":53.53,"y":9.83,"z":13}}}