{"type":"Feature","geometry":{"type":"Point","coordinates":[53.53,9.83,13]},"properties":{"stationId":"EDHI","rawText":"EDHI 212350Z AUTO 11003KT 9999 // NCD 12/10 Q1027","observationTime":"2019-08-21T23:50:00Z","temp":12,"dewpoint":10,"windDirection":110,"windSpeed":5.556,"visibility":6.21,"altim":30.324802,"flightCategory":"VFR","metarType":"METAR","geometry_esri":{"x":53.53,"y":9.83,"z":13}}}