{"type":"Feature","geometry":{"type":"Point","coordinates":[53.53,9.83,13]},"properties":{"stationId":"EDHI","rawText":"EDHI 290820Z 24007KT 9999 VCSH FEW014CB SCT041 00/M00 Q1003","observationTime":"2019-01-29T08:20:00Z","temp":0,"dewpoint":0,"windDirection":240,"windSpeed":12.964,"visibility":6.21,"altim":29.616142,"flightCategory":"VFR","metarType":"METAR","geometry_esri":{"x":53.53,"y":9.83,"z":13}}}