{"type":"Feature","geometry":{"type":"Point","coordinates":[53.53,9.83,13]},"properties":{"stationId":"EDHI","rawText":"EDHI 281820Z 32011KT 9999 -SN BKN006 OVC013 01/00 Q0994","observationTime":"2019-01-28T18:20:00Z","temp":1,"dewpoint":0,"windDirection":320,"windSpeed":20.372,"visibility":6.21,"altim":29.350393,"flightCategory":"IFR","metarType":"METAR","geometry_esri":{"x":53.53,"y":9.83,"z":13}}}