{"type":"Feature","geometry":{"type":"Point","coordinates":[53.53,9.83,13]},"properties":{"stationId":"EDHI","rawText":"EDHI 071120Z AUTO 08007KT 030V120 9999 // NCD 19/04 Q1008","observationTime":"2019-04-07T11:20:00Z","temp":19,"dewpoint":4,"windDirection":80,"windSpeed":12.964,"visibility":6.21,"altim":29.763779,"flightCategory":"VFR","metarType":"METAR","geometry_esri":{"x":53.53,"y":9.83,"z":13}}}