{"type":"Feature","geometry":{"type":"Point","coordinates":[53.53,9.83,13]},"properties":{"stationId":"EDHI","rawText":"EDHI 021520Z 30014KT 270V340 9999 SCT040 17/08 Q1021","observationTime":"2019-07-02T15:20:00Z","temp":17,"dewpoint":8,"windDirection":300,"windSpeed":25.928,"visibility":6.21,"altim":30.147638,"flightCategory":"VFR","metarType":"METAR","geometry_esri":{"x":53.53,"y":9.83,"z":13}}}