{"type":"Feature","geometry":{"type":"Point","coordinates":[53.53,9.83,13]},"properties":{"stationId":"EDHI","rawText":"EDHI 310620Z 15005KT 120V180 9999 OVC016 00/M02 Q0996","observationTime":"2019-01-31T06:20:00Z","temp":0,"dewpoint":-2,"windDirection":150,"windSpeed":9.26,"visibility":6.21,"altim":29.409449,"flightCategory":"MVFR","metarType":"METAR","geometry_esri":{"x":53.53,"y":9.83,"z":13}}}