{"type":"Feature","geometry":{"type":"Point","coordinates":[53.53,9.83,13]},"properties":{"stationId":"EDHI","rawText":"EDHI 231350Z 09010G21KT 050V120 8000 FEW012 SCT015 BKN017 08/05 Q1005","observationTime":"2019-11-23T13:50:00Z","temp":8,"dewpoint":5,"windDirection":90,"windSpeed":18.52,"visibility":4.97,"altim":29.675198,"flightCategory":"MVFR","metarType":"METAR","geometry_esri":{"x":53.53,"y":9.83,"z":13}}}