{"type":"Feature","geometry":{"type":"Point","coordinates":[53.53,9.83,13]},"properties":{"stationId":"EDHI","rawText":"EDHI 050750Z 23012KT 9000 BKN009 03/02 Q1023","observationTime":"2019-02-05T07:50:00Z","temp":3,"dewpoint":2,"windDirection":230,"windSpeed":22.224,"visibility":5.59,"altim":30.206694,"flightCategory":"IFR","metarType":"METAR","geometry_esri":{"x":53.53,"y":9.83,"z":13}}}