{"type":"Feature","geometry":{"type":"Point","coordinates":[53.53,9.83,13]},"properties":{"stationId":"EDHI","rawText":"EDHI 111520Z 16007KT 130V190 9999 FEW014 04/02 Q1004","observationTime":"2019-11-11T15:20:00Z","temp":4,"dewpoint":2,"windDirection":160,"windSpeed":12.964,"visibility":6.21,"altim":29.64567,"flightCategory":"VFR","metarType":"METAR","geometry_esri":{"x":53.53,"y":9.83,"z":13}}}