{"type":"Feature","geometry":{"type":"Point","coordinates":[53.53,9.83,13]},"properties":{"stationId":"EDHI","rawText":"EDHI 141420Z AUTO 28009KT 260V320 9999 // FEW020/// OVC027/// 16/12 Q1018","observationTime":"2019-07-14T14:20:00Z","temp":16,"dewpoint":12,"windDirection":280,"windSpeed":16.668,"visibility":6.21,"altim":30.059055,"flightCategory":"MVFR","metarType":"METAR","geometry_esri":{"x":53.53,"y":9.83,"z":13}}}