{"type":"Feature","geometry":{"type":"Point","coordinates":[53.53,9.83,13]},"properties":{"stationId":"EDHI","rawText":"EDHI 110620Z AUTO 05003KT 8000 // NCD 05/03 Q1027","observationTime":"2020-04-11T06:20:00Z","temp":5,"dewpoint":3,"windDirection":50,"windSpeed":5.556,"visibility":4.97,"altim":30.324802,"flightCategory":"MVFR","metarType":"METAR","geometry_esri":{"x":53.53,"y":9.83,"z":13}}}