{"type":"Feature","geometry":{"type":"Point","coordinates":[53.53,9.83,13]},"properties":{"stationId":"EDHI","rawText":"EDHI 081820Z 05012KT CAVOK 09/01 Q1013","observationTime":"2019-04-08T18:20:00Z","temp":9,"dewpoint":1,"windDirection":50,"windSpeed":22.224,"visibility":6.21,"altim":29.911417,"flightCategory":"VFR","metarType":"METAR","geometry_esri":{"x":53.53,"y":9.83,"z":13}}}