{"type":"Feature","geometry":{"type":"Point","coordinates":[53.53,9.83,13]},"properties":{"stationId":"EDHI","rawText":"EDHI 232320Z AUTO 06004KT 9999 // NCD 17/14 Q1025","observationTime":"2019-08-23T23:20:00Z","temp":17,"dewpoint":14,"windDirection":60,"windSpeed":7.408,"visibility":6.21,"altim":30.265747,"flightCategory":"VFR","metarType":"METAR","geometry_esri":{"x":53.53,"y":9.83,"z":13}}}