{"type":"Feature","geometry":{"type":"Point","coordinates":[53.53,9.83,13]},"properties":{"stationId":"EDHI","rawText":"EDHI 040920Z 28010KT 9999 -DZ FEW008 SCT011 BKN027 04/03 Q1030","observationTime":"2019-01-04T09:20:00Z","temp":4,"dewpoint":3,"windDirection":280,"windSpeed":18.52,"visibility":6.21,"altim":30.413385,"flightCategory":"MVFR","metarType":"METAR","geometry_esri":{"x":53.53,"y":9.83,"z":13}}}