{"type":"Feature","geometry":{"type":"Point","coordinates":[53.53,9.83,13]},"properties":{"stationId":"EDHI","rawText":"EDHI 170150Z AUTO 14003KT 5000 // OVC007/// M00/M01 Q1014","observationTime":"2018-12-17T01:50:00Z","temp":0,"dewpoint":-1,"windDirection":140,"windSpeed":5.556,"visibility":3.11,"altim":29.940945,"flightCategory":"IFR","metarType":"METAR","geometry_esri":{"x":53.53,"y":9.83,"z":13}}}