{"type":"Feature","geometry":{"type":"Point","coordinates":[53.53,9.83,13]},"properties":{"stationId":"EDHI","rawText":"EDHI 051620Z AUTO 21008KT 4600 // BKN005/// OVC035/// 05/05 Q1030","observationTime":"2020-01-05T16:20:00Z","temp":5,"dewpoint":5,"windDirection":210,"windSpeed":14.816,"visibility":2.86,"altim":30.413385,"flightCategory":"IFR","metarType":"METAR","geometry_esri":{"x":53.53,"y":9.83,"z":13}}}