{"type":"Feature","geometry":{"type":"Point","coordinates":[53.53,9.83,13]},"properties":{"stationId":"EDHI","rawText":"EDHI 052350Z AUTO 10006KT 050V140 9999 // FEW180/// 22/15 Q1004","observationTime":"2019-06-05T23:50:00Z","temp":22,"dewpoint":15,"windDirection":100,"windSpeed":11.112,"visibility":6.21,"altim":29.64567,"flightCategory":"VFR","metarType":"METAR","geometry_esri":{"x":53.53,"y":9.83,"z":13}}}