{"type":"Feature","geometry":{"type":"Point","coordinates":[53.53,9.83,13]},"properties":{"stationId":"EDHI","rawText":"EDHI 112320Z AUTO 17005KT 150V210 9999 // FEW029/// BKN081/// 04/01 Q1001","observationTime":"2019-11-11T23:20:00Z","temp":4,"dewpoint":1,"windDirection":170,"windSpeed":9.26,"visibility":6.21,"altim":29.557087,"flightCategory":"VFR","metarType":"METAR","geometry_esri":{"x":53.53,"y":9.83,"z":13}}}