{"type":"Feature","geometry":{"type":"Point","coordinates":[53.53,9.83,13]},"properties":{"stationId":"EDHI","rawText":"EDHI 011320Z 01008KT 7000 -SHRA FEW005 BKN017 13/12 Q0996","observationTime":"2019-10-01T13:20:00Z","temp":13,"dewpoint":12,"windDirection":10,"windSpeed":14.816,"visibility":4.35,"altim":29.409449,"flightCategory":"MVFR","metarType":"METAR","geometry_esri":{"x":53.53,"y":9.83,"z":13}}}