{"type":"Feature","geometry":{"type":"Point","coordinates":[53.53,9.83,13]},"properties":{"stationId":"EDHI","rawText":"EDHI 021750Z 31004KT 3400 BR FEW006 01/00 Q1002","observationTime":"2019-02-02T17:50:00Z","temp":1,"dewpoint":0,"windDirection":310,"windSpeed":7.408,"visibility":2.11,"altim":29.586615,"flightCategory":"IFR","metarType":"METAR","geometry_esri":{"x":53.53,"y":9.83,"z":13}}}