{"type":"Feature","geometry":{"type":"Point","coordinates":[53.53,9.83,13]},"properties":{"stationId":"EDHI","rawText":"EDHI 272350Z AUTO 10004KT 070V130 9999 // FEW110/// OVC200/// 22/18 Q1014","observationTime":"2019-08-27T23:50:00Z","temp":22,"dewpoint":18,"windDirection":100,"windSpeed":7.408,"visibility":6.21,"altim":29.940945,"flightCategory":"VFR","metarType":"METAR","geometry_esri":{"x":53.53,"y":9.83,"z":13}}}