{"type":"Feature","geometry":{"type":"Point","coordinates":[53.53,9.83,13]},"properties":{"stationId":"EDHI","rawText":"EDHI 150720Z 24014KT 9999 BKN012 06/04 Q0999","observationTime":"2019-03-15T07:20:00Z","temp":6,"dewpoint":4,"windDirection":240,"windSpeed":25.928,"visibility":6.21,"altim":29.498032,"flightCategory":"MVFR","metarType":"METAR","geometry_esri":{"x":53.53,"y":9.83,"z":13}}}