{"type":"Feature","geometry":{"type":"Point","coordinates":[53.53,9.83,13]},"properties":{"stationId":"EDHI","rawText":"EDHI 210750Z 24003KT 200V270 3500 BR NSC M07/M07 Q1021","observationTime":"2019-01-21T07:50:00Z","temp":-7,"dewpoint":-7,"windDirection":240,"windSpeed":5.556,"visibility":2.17,"altim":30.147638,"flightCategory":"IFR","metarType":"METAR","geometry_esri":{"x":53.53,"y":9.83,"z":13}}}