{"type":"Feature","geometry":{"type":"Point","coordinates":[53.53,9.83,13]},"properties":{"stationId":"EDHI","rawText":"EDHI 101620Z 31015G26KT 280V350 9999 SCT015 OVC017 06/02 Q1017","observationTime":"2020-01-10T16:20:00Z","temp":6,"dewpoint":2,"windDirection":310,"windSpeed":27.78,"visibility":6.21,"altim":30.029528,"flightCategory":"MVFR","metarType":"METAR","geometry_esri":{"x":53.53,"y":9.83,"z":13}}}