{"type":"Feature","geometry":{"type":"Point","coordinates":[53.53,9.83,13]},"properties":{"stationId":"EDHI","rawText":"EDHI 240250Z AUTO 23005KT 0450 R23/0550N // VV001 M00/M01 Q1023","observationTime":"2020-01-24T02:50:00Z","temp":0,"dewpoint":-1,"windDirection":230,"windSpeed":9.26,"visibility":0.28,"altim":30.206694,"flightCategory":"LIFR","metarType":"METAR","geometry_esri":{"x":53.53,"y":9.83,"z":13}}}