{"type":"Feature","geometry":{"type":"Point","coordinates":[53.53,9.83,13]},"properties":{"stationId":"EDHI","rawText":"EDHI 071420Z 09008KT 050V160 CAVOK 22/08 Q1011","observationTime":"2019-06-07T14:20:00Z","temp":22,"dewpoint":8,"windDirection":90,"windSpeed":14.816,"visibility":6.21,"altim":29.852362,"flightCategory":"VFR","metarType":"METAR","geometry_esri":{"x":53.53,"y":9.83,"z":13}}}