{"type":"Feature","geometry":{"type":"Point","coordinates":[53.53,9.83,13]},"properties":{"stationId":"EDHI","rawText":"EDHI 052250Z AUTO 30004KT 2000 1100 R23/P2000N // SCT002/// OVC005/// 06/06 Q1026","observationTime":"2019-01-05T22:50:00Z","temp":6,"dewpoint":6,"windDirection":300,"windSpeed":7.408,"visibility":1.24,"altim":30.295275,"flightCategory":"IFR","metarType":"METAR","geometry_esri":{"x":53.53,"y":9.83,"z":13}}}