{"type":"Feature","geometry":{"type":"Point","coordinates":[53.53,9.83,13]},"properties":{"stationId":"EDHI","rawText":"EDHI 271550Z 23005KT 9999 VCSH SCT033 BKN063 17/13 Q1006","observationTime":"2019-09-27T15:50:00Z","temp":17,"dewpoint":13,"windDirection":230,"windSpeed":9.26,"visibility":6.21,"altim":29.704725,"flightCategory":"VFR","metarType":"METAR","geometry_esri":{"x":53.53,"y":9.83,"z":13}}}