{"type":"Feature","geometry":{"type":"Point","coordinates":[53.53,9.83,13]},"properties":{"stationId":"EDHI","rawText":"EDHI 050150Z AUTO 19004KT 140V230 4000 // NCD M00/M00 Q1019","observationTime":"2019-12-05T01:50:00Z","temp":0,"dewpoint":0,"windDirection":190,"windSpeed":7.408,"visibility":2.49,"altim":30.088583,"flightCategory":"IFR","metarType":"METAR","geometry_esri":{"x":53.53,"y":9.83,"z":13}}}