{"type":"Feature","geometry":{"type":"Point","coordinates":[53.53,9.83,13]},"properties":{"stationId":"EDHI","rawText":"EDHI 092050Z AUTO 22027G42KT 2400 // BKN024/// OVC031/// 12/09 Q0982","observationTime":"2020-02-09T20:50:00Z","temp":12,"dewpoint":9,"windDirection":220,"windSpeed":50.004000000000005,"visibility":1.49,"altim":28.996063,"flightCategory":"IFR","metarType":"METAR","geometry_esri":{"x":53.53,"y":9.83,"z":13}}}