{"type":"Feature","geometry":{"type":"Point","coordinates":[53.53,9.83,13]},"properties":{"stationId":"EDHI","rawText":"EDHI 112150Z AUTO 16007KT 130V200 9999 // FEW029/// BKN038/// 04/01 Q1002","observationTime":"2019-11-11T21:50:00Z","temp":4,"dewpoint":1,"windDirection":160,"windSpeed":12.964,"visibility":6.21,"altim":29.586615,"flightCategory":"VFR","metarType":"METAR","geometry_esri":{"x":53.53,"y":9.83,"z":13}}}