{"type":"Feature","geometry":{"type":"Point","coordinates":[53.53,9.83,13]},"properties":{"stationId":"EDHI","rawText":"EDHI 212250Z AUTO 28023KT 9999 // SCT010/// OVC013/// 08/05 Q0998","observationTime":"2018-12-21T22:50:00Z","temp":8,"dewpoint":5,"windDirection":280,"windSpeed":42.596000000000004,"visibility":6.21,"altim":29.468504,"flightCategory":"MVFR","metarType":"METAR","geometry_esri":{"x":53.53,"y":9.83,"z":13}}}