{"type":"Feature","geometry":{"type":"Point","coordinates":[53.53,9.83,13]},"properties":{"stationId":"EDHI","rawText":"EDHI 200250Z AUTO 21008KT 9999 // FEW024/// BKN036/// OVC049/// 03/00 Q1016","observationTime":"2020-02-20T02:50:00Z","temp":3,"dewpoint":0,"windDirection":210,"windSpeed":14.816,"visibility":6.21,"altim":30,"flightCategory":"VFR","metarType":"METAR","geometry_esri":{"x":53.53,"y":9.83,"z":13}}}