{"type":"Feature","geometry":{"type":"Point","coordinates":[53.53,9.83,13]},"properties":{"stationId":"EDHI","rawText":"EDHI 130250Z AUTO 32015KT 270V350 9999 // BKN025/// 07/M00 Q1014","observationTime":"2020-04-13T02:50:00Z","temp":7,"dewpoint":0,"windDirection":320,"windSpeed":27.78,"visibility":6.21,"altim":29.940945,"flightCategory":"MVFR","metarType":"METAR","geometry_esri":{"x":53.53,"y":9.83,"z":13}}}