{"type":"Feature","geometry":{"type":"Point","coordinates":[53.53,9.83,13]},"properties":{"stationId":"EDHI","rawText":"EDHI 151550Z AUTO 18008KT 140V220 9999 // FEW032/// 10/05 Q1013","observationTime":"2020-02-15T15:50:00Z","temp":10,"dewpoint":5,"windDirection":180,"windSpeed":14.816,"visibility":6.21,"altim":29.911417,"flightCategory":"VFR","metarType":"METAR","geometry_esri":{"x":53.53,"y":9.83,"z":13}}}