{"type":"Feature","geometry":{"type":"Point","coordinates":[53.53,9.83,13]},"properties":{"stationId":"EDHI","rawText":"EDHI 081850Z AUTO 07003KT 9999 // OVC110/// 15/12 Q1017","observationTime":"2019-09-08T18:50:00Z","temp":15,"dewpoint":12,"windDirection":70,"windSpeed":5.556,"visibility":6.21,"altim":30.029528,"flightCategory":"VFR","metarType":"METAR","geometry_esri":{"x":53.53,"y":9.83,"z":13}}}