{"type":"Feature","geometry":{"type":"Point","coordinates":[53.53,9.83,13]},"properties":{"stationId":"EDHI","rawText":"EDHI 191650Z AUTO 06013KT 040V100 9999 // NCD 12/M03 Q1023","observationTime":"2020-04-19T16:50:00Z","temp":12,"dewpoint":-3,"windDirection":60,"windSpeed":24.076,"visibility":6.21,"altim":30.206694,"flightCategory":"VFR","metarType":"METAR","geometry_esri":{"x":53.53,"y":9.83,"z":13}}}