{"type":"Feature","geometry":{"type":"Point","coordinates":[53.53,9.83,13]},"properties":{"stationId":"EDHI","rawText":"EDHI 120350Z AUTO 23004KT 5000 // FEW009/// BKN220/// 14/13 Q1022","observationTime":"2019-09-12T03:50:00Z","temp":14,"dewpoint":13,"windDirection":230,"windSpeed":7.408,"visibility":3.11,"altim":30.177166,"flightCategory":"MVFR","metarType":"METAR","geometry_esri":{"x":53.53,"y":9.83,"z":13}}}