{"type":"Feature","geometry":{"type":"Point","coordinates":[53.53,9.83,13]},"properties":{"stationId":"EDHI","rawText":"EDHI 281650Z 05010KT 9999 BKN047 14/05 Q1004","observationTime":"2020-04-28T16:50:00Z","temp":14,"dewpoint":5,"windDirection":50,"windSpeed":18.52,"visibility":6.21,"altim":29.64567,"flightCategory":"VFR","metarType":"METAR","geometry_esri":{"x":53.53,"y":9.83,"z":13}}}