{"type":"Feature","geometry":{"type":"Point","coordinates":[53.53,9.83,13]},"properties":{"stationId":"EDHI","rawText":"EDHI 121320Z 28022G33KT 9000 -TSRA BKN014CB BKN037 03/02 Q1005 RETS","observationTime":"2020-02-12T13:20:00Z","temp":3,"dewpoint":2,"windDirection":280,"windSpeed":40.744,"visibility":5.59,"altim":29.675198,"flightCategory":"MVFR","metarType":"METAR","geometry_esri":{"x":53.53,"y":9.83,"z":13}}}