{"type":"Feature","geometry":{"type":"Point","coordinates":[53.53,9.83,13]},"properties":{"stationId":"EDHI","rawText":"EDHI 151520Z AUTO 25013KT 9999 // FEW020/// 22/17 Q1010","observationTime":"2019-06-15T15:20:00Z","temp":22,"dewpoint":17,"windDirection":250,"windSpeed":24.076,"visibility":6.21,"altim":29.822834,"flightCategory":"VFR","metarType":"METAR","geometry_esri":{"x":53.53,"y":9.83,"z":13}}}