{"type":"Feature","geometry":{"type":"Point","coordinates":[53.53,9.83,13]},"properties":{"stationId":"EDHI","rawText":"EDHI 092350Z AUTO 21018KT 180V250 9999 // FEW038/// BKN043/// OVC100/// 08/06 Q0980","observationTime":"2020-02-09T23:50:00Z","temp":8,"dewpoint":6,"windDirection":210,"windSpeed":33.336,"visibility":6.21,"altim":28.937008,"flightCategory":"VFR","metarType":"METAR","geometry_esri":{"x":53.53,"y":9.83,"z":13}}}