{"type":"Feature","geometry":{"type":"Point","coordinates":[53.53,9.83,13]},"properties":{"stationId":"EDHI","rawText":"EDHI 061250Z AUTO 27011KT 3600 // BKN010/// BKN012/// OVC022/// 16/15 Q1007","observationTime":"2019-07-06T12:50:00Z","temp":16,"dewpoint":15,"windDirection":270,"windSpeed":20.372,"visibility":2.24,"altim":29.734253,"flightCategory":"IFR","metarType":"METAR","geometry_esri":{"x":53.53,"y":9.83,"z":13}}}