{"type":"Feature","geometry":{"type":"Point","coordinates":[53.53,9.83,13]},"properties":{"stationId":"EDHI","rawText":"EDHI 131950Z 14005KT 100V170 9000 BKN011 02/00 Q0982","observationTime":"2019-12-13T19:50:00Z","temp":2,"dewpoint":0,"windDirection":140,"windSpeed":9.26,"visibility":5.59,"altim":28.996063,"flightCategory":"MVFR","metarType":"METAR","geometry_esri":{"x":53.53,"y":9.83,"z":13}}}