{"type":"Feature","geometry":{"type":"Point","coordinates":[53.53,9.83,13]},"properties":{"stationId":"EDHI","rawText":"EDHI 202150Z AUTO 14003KT 110V170 3100 // FEW001/// BKN004/// M06/M07 Q1023","observationTime":"2019-01-20T21:50:00Z","temp":-6,"dewpoint":-7,"windDirection":140,"windSpeed":5.556,"visibility":1.93,"altim":30.206694,"flightCategory":"LIFR","metarType":"METAR","geometry_esri":{"x":53.53,"y":9.83,"z":13}}}