{"type":"Feature","geometry":{"type":"Point","coordinates":[53.53,9.83,13]},"properties":{"stationId":"EDHI","rawText":"EDHI 050420Z AUTO 05002KT 1900 0450 R23/0500D // FEW004/// SCT062/// 02/02 Q1005","observationTime":"2020-03-05T04:20:00Z","temp":2,"dewpoint":2,"windDirection":50,"windSpeed":3.704,"visibility":1.18,"altim":29.675198,"flightCategory":"IFR","metarType":"METAR","geometry_esri":{"x":53.53,"y":9.83,"z":13}}}