{"type":"Feature","geometry":{"type":"Point","coordinates":[53.53,9.83,13]},"properties":{"stationId":"EDHI","rawText":"EDHI 260950Z 26011KT 1900 -DZ BR BKN003 OVC004 07/07 Q1027","observationTime":"2018-12-26T09:50:00Z","temp":7,"dewpoint":7,"windDirection":260,"windSpeed":20.372,"visibility":1.18,"altim":30.324802,"flightCategory":"LIFR","metarType":"METAR","geometry_esri":{"x":53.53,"y":9.83,"z":13}}}