{"type":"Feature","geometry":{"type":"Point","coordinates":[53.53,9.83,13]},"properties":{"stationId":"EDHI","rawText":"EDHI 271950Z AUTO 31005KT 270V010 9999 // OVC120/// 15/08 Q1005","observationTime":"2020-04-27T19:50:00Z","temp":15,"dewpoint":8,"windDirection":310,"windSpeed":9.26,"visibility":6.21,"altim":29.675198,"flightCategory":"VFR","metarType":"METAR","geometry_esri":{"x":53.53,"y":9.83,"z":13}}}