{"type":"Feature","geometry":{"type":"Point","coordinates":[53.53,9.83,13]},"properties":{"stationId":"EDHI","rawText":"EDHI 262150Z AUTO 11003KT 080V140 7000 // FEW045/// BKN055/// 03/02 Q1012","observationTime":"2020-01-26T21:50:00Z","temp":3,"dewpoint":2,"windDirection":110,"windSpeed":5.556,"visibility":4.35,"altim":29.88189,"flightCategory":"MVFR","metarType":"METAR","geometry_esri":{"x":53.53,"y":9.83,"z":13}}}