{"type":"Feature","geometry":{"type":"Point","coordinates":[53.53,9.83,13]},"properties":{"stationId":"EDHI","rawText":"EDHI 261520Z AUTO 26008KT 3500 // OVC003/// 08/08 Q1027","observationTime":"2018-12-26T15:20:00Z","temp":8,"dewpoint":8,"windDirection":260,"windSpeed":14.816,"visibility":2.17,"altim":30.324802,"flightCategory":"LIFR","metarType":"METAR","geometry_esri":{"x":53.53,"y":9.83,"z":13}}}