{"type":"Feature","geometry":{"type":"Point","coordinates":[53.53,9.83,13]},"properties":{"stationId":"EDHI","rawText":"EDHI 262220Z AUTO 26011KT 3600 // OVC004/// 07/06 Q1026","observationTime":"2018-12-26T22:20:00Z","temp":7,"dewpoint":6,"windDirection":260,"windSpeed":20.372,"visibility":2.24,"altim":30.295275,"flightCategory":"LIFR","metarType":"METAR","geometry_esri":{"x":53.53,"y":9.83,"z":13}}}