{"type":"Feature","geometry":{"type":"Point","coordinates":[53.53,9.83,13]},"properties":{"stationId":"EDHI","rawText":"EDHI 271720Z 06007KT 9999 -SHRA VCTS SCT062CB 24/20 Q1015","observationTime":"2019-08-27T17:20:00Z","temp":24,"dewpoint":20,"windDirection":60,"windSpeed":12.964,"visibility":6.21,"altim":29.970472,"flightCategory":"VFR","metarType":"METAR","geometry_esri":{"x":53.53,"y":9.83,"z":13}}}