{"type":"Feature","geometry":{"type":"Point","coordinates":[53.53,9.83,13]},"properties":{"stationId":"EDHI","rawText":"EDHI 011320Z AUTO 31010KT 280V350 9999 // FEW044/// BKN210/// 20/10 Q1012","observationTime":"2019-09-01T13:20:00Z","temp":20,"dewpoint":10,"windDirection":310,"windSpeed":18.52,"visibility":6.21,"altim":29.88189,"flightCategory":"VFR","metarType":"SPECI","geometry_esri":{"x":53.53,"y":9.83,"z":13}}}