{"type":"Feature","geometry":{"type":"Point","coordinates":[53.53,9.83,13]},"properties":{"stationId":"EDHI","rawText":"EDHI 230350Z AUTO 10003KT 070V150 9999 // NCD M00/M04 Q1042","observationTime":"2019-02-23T03:50:00Z","temp":0,"dewpoint":-4,"windDirection":100,"windSpeed":5.556,"visibility":6.21,"altim":30.767717,"flightCategory":"VFR","metarType":"METAR","geometry_esri":{"x":53.53,"y":9.83,"z":13}}}