{"type":"Feature","geometry":{"type":"Point","coordinates":[53.53,9.83,13]},"properties":{"stationId":"EDHI","rawText":"EDHI 221450Z AUTO 11011G22KT 050V170 9999 // NCD 20/M02 Q1013","observationTime":"2019-04-22T14:50:00Z","temp":20,"dewpoint":-2,"windDirection":110,"windSpeed":20.372,"visibility":6.21,"altim":29.911417,"flightCategory":"VFR","metarType":"METAR","geometry_esri":{"x":53.53,"y":9.83,"z":13}}}