{"type":"Feature","geometry":{"type":"Point","coordinates":[53.53,9.83,13]},"properties":{"stationId":"EDHI","rawText":"EDHI 050050Z AUTO 03007KT 350V060 9999 2500 // BKN044/// 09/07 Q1009","observationTime":"2019-10-05T00:50:00Z","temp":9,"dewpoint":7,"windDirection":30,"windSpeed":12.964,"visibility":6.21,"altim":29.793306,"flightCategory":"VFR","metarType":"METAR","geometry_esri":{"x":53.53,"y":9.83,"z":13}}}