{"type":"Feature","geometry":{"type":"Point","coordinates":[53.53,9.83,13]},"properties":{"stationId":"EDHI","rawText":"EDHI 221850Z 12008KT 090V160 9000 BKN010 07/05 Q1008","observationTime":"2019-11-22T18:50:00Z","temp":7,"dewpoint":5,"windDirection":120,"windSpeed":14.816,"visibility":5.59,"altim":29.763779,"flightCategory":"MVFR","metarType":"METAR","geometry_esri":{"x":53.53,"y":9.83,"z":13}}}