{"type":"Feature","geometry":{"type":"Point","coordinates":[53.53,9.83,13]},"properties":{"stationId":"EDHI","rawText":"EDHI 100920Z 28016KT CAVOK 16/10 Q1014","observationTime":"2019-09-10T09:20:00Z","temp":16,"dewpoint":10,"windDirection":280,"windSpeed":29.632,"visibility":6.21,"altim":29.940945,"flightCategory":"VFR","metarType":"METAR","geometry_esri":{"x":53.53,"y":9.83,"z":13}}}