{"type":"Feature","geometry":{"type":"Point","coordinates":[53.53,9.83,13]},"properties":{"stationId":"EDHI","rawText":"EDHI 301320Z 33004KT 280V360 9999 4100W TSRA BKN017CB 04/02 Q1025","observationTime":"2020-03-30T13:20:00Z","temp":4,"dewpoint":2,"windDirection":330,"windSpeed":7.408,"visibility":6.21,"altim":30.265747,"flightCategory":"MVFR","metarType":"METAR","geometry_esri":{"x":53.53,"y":9.83,"z":13}}}