{"type":"Feature","geometry":{"type":"Point","coordinates":[53.53,9.83,13]},"properties":{"stationId":"EDHI","rawText":"EDHI 260550Z AUTO VRB02KT 7000 // BKN023/// 06/05 Q1012","observationTime":"2020-04-26T05:50:00Z","temp":6,"dewpoint":5,"windDirection":0,"windSpeed":3.704,"visibility":4.35,"altim":29.88189,"flightCategory":"MVFR","metarType":"METAR","geometry_esri":{"x":53.53,"y":9.83,"z":13}}}