{"type":"Feature","geometry":{"type":"Point","coordinates":[53.53,9.83,13]},"properties":{"stationId":"EDHI","rawText":"EDHI 300520Z AUTO VRB02KT 2000 0250 R23/P2000N // FEW004/// 03/02 Q1022","observationTime":"2019-03-30T05:20:00Z","temp":3,"dewpoint":2,"windDirection":0,"windSpeed":3.704,"visibility":1.24,"altim":30.177166,"flightCategory":"IFR","metarType":"METAR","geometry_esri":{"x":53.53,"y":9.83,"z":13}}}