{"type":"Feature","geometry":{"type":"Point","coordinates":[53.53,9.83,13]},"properties":{"stationId":"EDHI","rawText":"EDHI 270220Z AUTO 26004KT 6000 // NCD 03/M00 Q1030","observationTime":"2019-02-27T02:20:00Z","temp":3,"dewpoint":0,"windDirection":260,"windSpeed":7.408,"visibility":3.73,"altim":30.413385,"flightCategory":"MVFR","metarType":"METAR","geometry_esri":{"x":53.53,"y":9.83,"z":13}}}