{"type":"Feature","geometry":{"type":"Point","coordinates":[53.53,9.83,13]},"properties":{"stationId":"EDHI","rawText":"EDHI 181250Z 24017KT 9000 -RA BKN017 OVC023 05/03 Q1020","observationTime":"2020-01-18T12:50:00Z","temp":5,"dewpoint":3,"windDirection":240,"windSpeed":31.484,"visibility":5.59,"altim":30.11811,"flightCategory":"MVFR","metarType":"METAR","geometry_esri":{"x":53.53,"y":9.83,"z":13}}}