{"type":"Feature","geometry":{"type":"Point","coordinates":[53.53,9.83,13]},"properties":{"stationId":"EDHI","rawText":"EDHI 310150Z AUTO 14004KT 100V180 9999 // OVC013/// 00/M02 Q0995","observationTime":"2019-01-31T01:50:00Z","temp":0,"dewpoint":-2,"windDirection":140,"windSpeed":7.408,"visibility":6.21,"altim":29.379921,"flightCategory":"MVFR","metarType":"METAR","geometry_esri":{"x":53.53,"y":9.83,"z":13}}}