{"type":"Feature","geometry":{"type":"Point","coordinates":[53.53,9.83,13]},"properties":{"stationId":"EDHI","rawText":"EDHI 292120Z AUTO 30008KT 270V340 4000 // FEW022/// OVC065/// 18/17 Q1011","observationTime":"2019-07-29T21:20:00Z","temp":18,"dewpoint":17,"windDirection":300,"windSpeed":14.816,"visibility":2.49,"altim":29.852362,"flightCategory":"IFR","metarType":"METAR","geometry_esri":{"x":53.53,"y":9.83,"z":13}}}