{"type":"Feature","geometry":{"type":"Point","coordinates":[53.53,9.83,13]},"properties":{"stationId":"EDHI","rawText":"EDHI 130720Z 13013KT 090V160 9999 FEW011 01/M01 Q0981","observationTime":"2019-12-13T07:20:00Z","temp":1,"dewpoint":-1,"windDirection":130,"windSpeed":24.076,"visibility":6.21,"altim":28.966536,"flightCategory":"VFR","metarType":"METAR","geometry_esri":{"x":53.53,"y":9.83,"z":13}}}