{"type":"Feature","geometry":{"type":"Point","coordinates":[53.53,9.83,13]},"properties":{"stationId":"EDHI","rawText":"EDHI 012220Z AUTO 12004KT 070V170 5000 // SCT006/// OVC008/// 06/05 Q0996","observationTime":"2019-11-01T22:20:00Z","temp":6,"dewpoint":5,"windDirection":120,"windSpeed":7.408,"visibility":3.11,"altim":29.409449,"flightCategory":"IFR","metarType":"METAR","geometry_esri":{"x":53.53,"y":9.83,"z":13}}}