{"type":"Feature","geometry":{"type":"Point","coordinates":[53.53,9.83,13]},"properties":{"stationId":"EDHI","rawText":"EDHI 121020Z 29010KT 9999 FEW029 SCT044 05/02 Q1029","observationTime":"2019-02-12T10:20:00Z","temp":5,"dewpoint":2,"windDirection":290,"windSpeed":18.52,"visibility":6.21,"altim":30.383858,"flightCategory":"VFR","metarType":"METAR","geometry_esri":{"x":53.53,"y":9.83,"z":13}}}