{"type":"Feature","geometry":{"type":"Point","coordinates":[53.53,9.83,13]},"properties":{"stationId":"EDHI","rawText":"EDHI 121620Z AUTO 22015KT 2300 // OVC008/// 07/05 Q1014","observationTime":"2020-01-12T16:20:00Z","temp":7,"dewpoint":5,"windDirection":220,"windSpeed":27.78,"visibility":1.43,"altim":29.940945,"flightCategory":"IFR","metarType":"METAR","geometry_esri":{"x":53.53,"y":9.83,"z":13}}}