{"type":"Feature","geometry":{"type":"Point","coordinates":[53.53,9.83,13]},"properties":{"stationId":"EDHI","rawText":"EDHI 292120Z AUTO 28003KT 9999 // NCD 00/M06 Q1032","observationTime":"2020-03-29T21:20:00Z","temp":0,"dewpoint":-6,"windDirection":280,"windSpeed":5.556,"visibility":6.21,"altim":30.47244,"flightCategory":"VFR","metarType":"METAR","geometry_esri":{"x":53.53,"y":9.83,"z":13}}}