{"type":"Feature","geometry":{"type":"Point","coordinates":[53.53,9.83,13]},"properties":{"stationId":"EDHI","rawText":"EDHI 102150Z AUTO 32013KT 290V350 9999 // BKN007/// BKN014/// OVC030/// 03/01 Q0991","observationTime":"2019-02-10T21:50:00Z","temp":3,"dewpoint":1,"windDirection":320,"windSpeed":24.076,"visibility":6.21,"altim":29.26181,"flightCategory":"IFR","metarType":"METAR","geometry_esri":{"x":53.53,"y":9.83,"z":13}}}