{"type":"Feature","geometry":{"type":"Point","coordinates":[53.53,9.83,13]},"properties":{"stationId":"EDHI","rawText":"EDHI 121220Z 27026G41KT 9999 SCT050CB 09/M01 Q1004","observationTime":"2020-03-12T12:20:00Z","temp":9,"dewpoint":-1,"windDirection":270,"windSpeed":48.152,"visibility":6.21,"altim":29.64567,"flightCategory":"VFR","metarType":"METAR","geometry_esri":{"x":53.53,"y":9.83,"z":13}}}