{"type":"Feature","geometry":{"type":"Point","coordinates":[53.53,9.83,13]},"properties":{"stationId":"EDHI","rawText":"EDHI 110450Z AUTO VRB02KT 5000 // NCD M00/M01 Q1011","observationTime":"2019-11-11T04:50:00Z","temp":0,"dewpoint":-1,"windDirection":0,"windSpeed":3.704,"visibility":3.11,"altim":29.852362,"flightCategory":"MVFR","metarType":"METAR","geometry_esri":{"x":53.53,"y":9.83,"z":13}}}