{"type":"Feature","geometry":{"type":"Point","coordinates":[53.53,9.83,13]},"properties":{"stationId":"EDHI","rawText":"EDHI 181720Z AUTO 06006KT 030V090 9999 // FEW068/// 22/12 Q1006","observationTime":"2019-05-18T17:20:00Z","temp":22,"dewpoint":12,"windDirection":60,"windSpeed":11.112,"visibility":6.21,"altim":29.704725,"flightCategory":"VFR","metarType":"METAR","geometry_esri":{"x":53.53,"y":9.83,"z":13}}}