{"type":"Feature","geometry":{"type":"Point","coordinates":[53.53,9.83,13]},"properties":{"stationId":"EDHI","rawText":"EDHI 041820Z AUTO 26007KT 9999 // FEW042/// 07/02 Q1010","observationTime":"2019-05-04T18:20:00Z","temp":7,"dewpoint":2,"windDirection":260,"windSpeed":12.964,"visibility":6.21,"altim":29.822834,"flightCategory":"VFR","metarType":"METAR","geometry_esri":{"x":53.53,"y":9.83,"z":13}}}