{"type":"Feature","geometry":{"type":"Point","coordinates":[53.53,9.83,13]},"properties":{"stationId":"EDHI","rawText":"EDHI 282120Z AUTO 25020KT 3400 // FEW022/// SCT030/// OVC100/// 04/01 Q0992","observationTime":"2020-01-28T21:20:00Z","temp":4,"dewpoint":1,"windDirection":250,"windSpeed":37.04,"visibility":2.11,"altim":29.291338,"flightCategory":"IFR","metarType":"METAR","geometry_esri":{"x":53.53,"y":9.83,"z":13}}}