{"type":"Feature","geometry":{"type":"Point","coordinates":[53.53,9.83,13]},"properties":{"stationId":"EDHI","rawText":"EDHI 100420Z AUTO 20014KT 9999 // FEW031/// BKN042/// OVC170/// 07/03 Q1000","observationTime":"2019-02-10T04:20:00Z","temp":7,"dewpoint":3,"windDirection":200,"windSpeed":25.928,"visibility":6.21,"altim":29.52756,"flightCategory":"VFR","metarType":"METAR","geometry_esri":{"x":53.53,"y":9.83,"z":13}}}