{"type":"Feature","geometry":{"type":"Point","coordinates":[53.53,9.83,13]},"properties":{"stationId":"EDHI","rawText":"EDHI 310720Z AUTO 09003KT 1800 0300 R05/1800U // BKN001/// 00/M00 Q1027","observationTime":"2019-10-31T07:20:00Z","temp":0,"dewpoint":0,"windDirection":90,"windSpeed":5.556,"visibility":1.12,"altim":30.324802,"flightCategory":"LIFR","metarType":"METAR","geometry_esri":{"x":53.53,"y":9.83,"z":13}}}