{"type":"Feature","geometry":{"type":"Point","coordinates":[53.53,9.83,13]},"properties":{"stationId":"EDHI","rawText":"EDHI 070220Z AUTO 26005KT 4800 // BKN011/// BKN220/// 08/07 Q1026","observationTime":"2020-04-07T02:20:00Z","temp":8,"dewpoint":7,"windDirection":260,"windSpeed":9.26,"visibility":2.98,"altim":30.295275,"flightCategory":"IFR","metarType":"METAR","geometry_esri":{"x":53.53,"y":9.83,"z":13}}}