{"type":"Feature","geometry":{"type":"Point","coordinates":[53.53,9.83,13]},"properties":{"stationId":"EDHI","rawText":"EDHI 082150Z AUTO 06008KT 9999 // NCD 06/02 Q1015","observationTime":"2019-04-08T21:50:00Z","temp":6,"dewpoint":2,"windDirection":60,"windSpeed":14.816,"visibility":6.21,"altim":29.970472,"flightCategory":"VFR","metarType":"METAR","geometry_esri":{"x":53.53,"y":9.83,"z":13}}}