{"type":"Feature","geometry":{"type":"Point","coordinates":[53.53,9.83,13]},"properties":{"stationId":"EDHI","rawText":"EDHI 301120Z 15003KT 110V210 9999 FEW028 08/01 Q1031","observationTime":"2019-10-30T11:20:00Z","temp":8,"dewpoint":1,"windDirection":150,"windSpeed":5.556,"visibility":6.21,"altim":30.442913,"flightCategory":"VFR","metarType":"METAR","geometry_esri":{"x":53.53,"y":9.83,"z":13}}}