{"type":"Feature","geometry":{"type":"Point","coordinates":[53.53,9.83,13]},"properties":{"stationId":"EDHI","rawText":"EDHI 121520Z AUTO 31010KT 270V330 9999 // FEW071/// 19/08 Q1012","observationTime":"2020-04-12T15:20:00Z","temp":19,"dewpoint":8,"windDirection":310,"windSpeed":18.52,"visibility":6.21,"altim":29.88189,"flightCategory":"VFR","metarType":"METAR","geometry_esri":{"x":53.53,"y":9.83,"z":13}}}