{"type":"Feature","geometry":{"type":"Point","coordinates":[53.53,9.83,13]},"properties":{"stationId":"EDHI","rawText":"EDHI 220250Z AUTO 28002KT 9999 // NCD 12/11 Q1022","observationTime":"2019-07-22T02:50:00Z","temp":12,"dewpoint":11,"windDirection":280,"windSpeed":3.704,"visibility":6.21,"altim":30.177166,"flightCategory":"VFR","metarType":"METAR","geometry_esri":{"x":53.53,"y":9.83,"z":13}}}