{"type":"Feature","geometry":{"type":"Point","coordinates":[53.53,9.83,13]},"properties":{"stationId":"EDHI","rawText":"EDHI 171820Z AUTO 30013KT 9999 // FEW049/// OVC071/// 14/06 Q1021","observationTime":"2020-05-17T18:20:00Z","temp":14,"dewpoint":6,"windDirection":300,"windSpeed":24.076,"visibility":6.21,"altim":30.147638,"flightCategory":"VFR","metarType":"METAR","geometry_esri":{"x":53.53,"y":9.83,"z":13}}}