{"type":"Feature","geometry":{"type":"Point","coordinates":[53.53,9.83,13]},"properties":{"stationId":"EDHI","rawText":"EDHI 300020Z AUTO 24007KT 9999 // OVC160/// 04/M05 Q1030","observationTime":"2019-12-30T00:20:00Z","temp":4,"dewpoint":-5,"windDirection":240,"windSpeed":12.964,"visibility":6.21,"altim":30.413385,"flightCategory":"VFR","metarType":"METAR","geometry_esri":{"x":53.53,"y":9.83,"z":13}}}