{"type":"Feature","geometry":{"type":"Point","coordinates":[53.53,9.83,13]},"properties":{"stationId":"EDHI","rawText":"EDHI 130550Z 13005KT 080V170 CAVOK 01/M00 Q0999","observationTime":"2019-11-13T05:50:00Z","temp":1,"dewpoint":0,"windDirection":130,"windSpeed":9.26,"visibility":6.21,"altim":29.498032,"flightCategory":"VFR","metarType":"METAR","geometry_esri":{"x":53.53,"y":9.83,"z":13}}}