{"type":"Feature","geometry":{"type":"Point","coordinates":[53.53,9.83,13]},"properties":{"stationId":"EDHI","rawText":"EDHI 120050Z AUTO 19008KT 160V220 9999 // FEW021/// OVC029/// 05/02 Q1001","observationTime":"2019-11-12T00:50:00Z","temp":5,"dewpoint":2,"windDirection":190,"windSpeed":14.816,"visibility":6.21,"altim":29.557087,"flightCategory":"MVFR","metarType":"METAR","geometry_esri":{"x":53.53,"y":9.83,"z":13}}}