{"type":"Feature","geometry":{"type":"Point","coordinates":[53.53,9.83,13]},"properties":{"stationId":"EDHI","rawText":"EDHI 151820Z 27013KT 2800 -RADZ SCT004 BKN005 07/07 Q1007","observationTime":"2019-01-15T18:20:00Z","temp":7,"dewpoint":7,"windDirection":270,"windSpeed":24.076,"visibility":1.74,"altim":29.734253,"flightCategory":"IFR","metarType":"METAR","geometry_esri":{"x":53.53,"y":9.83,"z":13}}}