{"type":"Feature","geometry":{"type":"Point","coordinates":[53.53,9.83,13]},"properties":{"stationId":"EDHI","rawText":"EDHI 132050Z AUTO 21011KT 170V240 9999 // SCT057/// BKN084/// BKN130/// 20/15 Q1005","observationTime":"2019-10-13T20:50:00Z","temp":20,"dewpoint":15,"windDirection":210,"windSpeed":20.372,"visibility":6.21,"altim":29.675198,"flightCategory":"VFR","metarType":"METAR","geometry_esri":{"x":53.53,"y":9.83,"z":13}}}