{"type":"Feature","geometry":{"type":"Point","coordinates":[53.53,9.83,13]},"properties":{"stationId":"EDHI","rawText":"EDHI 050420Z 30009KT 270V330 2600 BR OVC003 08/07 Q1003","observationTime":"2019-04-05T04:20:00Z","temp":8,"dewpoint":7,"windDirection":300,"windSpeed":16.668,"visibility":1.62,"altim":29.616142,"flightCategory":"LIFR","metarType":"METAR","geometry_esri":{"x":53.53,"y":9.83,"z":13}}}