{"type":"Feature","geometry":{"type":"Point","coordinates":[53.53,9.83,13]},"properties":{"stationId":"EDHI","rawText":"EDHI 292120Z AUTO VRB02KT 4700 // NCD 07/04 Q1026","observationTime":"2019-03-29T21:20:00Z","temp":7,"dewpoint":4,"windDirection":0,"windSpeed":3.704,"visibility":2.92,"altim":30.295275,"flightCategory":"IFR","metarType":"METAR","geometry_esri":{"x":53.53,"y":9.83,"z":13}}}