{"type":"Feature","geometry":{"type":"Point","coordinates":[53.53,9.83,13]},"properties":{"stationId":"EDHI","rawText":"EDHI 221820Z AUTO 28004KT 7000 // FEW010/// BKN027/// OVC036/// 06/06 Q1012","observationTime":"2018-12-22T18:20:00Z","temp":6,"dewpoint":6,"windDirection":280,"windSpeed":7.408,"visibility":4.35,"altim":29.88189,"flightCategory":"MVFR","metarType":"METAR","geometry_esri":{"x":53.53,"y":9.83,"z":13}}}