{"type":"Feature","geometry":{"type":"Point","coordinates":[53.53,9.83,13]},"properties":{"stationId":"EDHI","rawText":"EDHI 180720Z 18006KT 150V210 9999 FEW006 14/12 Q1007","observationTime":"2019-10-18T07:20:00Z","temp":14,"dewpoint":12,"windDirection":180,"windSpeed":11.112,"visibility":6.21,"altim":29.734253,"flightCategory":"VFR","metarType":"METAR","geometry_esri":{"x":53.53,"y":9.83,"z":13}}}