{"type":"Feature","geometry":{"type":"Point","coordinates":[53.53,9.83,13]},"properties":{"stationId":"EDHI","rawText":"EDHI 202020Z AUTO 07009KT 040V110 9999 // NCD 11/00 Q1025","observationTime":"2020-04-20T20:20:00Z","temp":11,"dewpoint":0,"windDirection":70,"windSpeed":16.668,"visibility":6.21,"altim":30.265747,"flightCategory":"VFR","metarType":"METAR","geometry_esri":{"x":53.53,"y":9.83,"z":13}}}