{"type":"Feature","geometry":{"type":"Point","coordinates":[53.53,9.83,13]},"properties":{"stationId":"EDHI","rawText":"EDHI 281850Z AUTO 15003KT 110V190 9999 // FEW100/// OVC140/// M00/M03 Q1042","observationTime":"2019-12-28T18:50:00Z","temp":0,"dewpoint":-3,"windDirection":150,"windSpeed":5.556,"visibility":6.21,"altim":30.767717,"flightCategory":"VFR","metarType":"METAR","geometry_esri":{"x":53.53,"y":9.83,"z":13}}}