{"type":"Feature","geometry":{"type":"Point","coordinates":[53.53,9.83,13]},"properties":{"stationId":"EDHI","rawText":"EDHI 281450Z 27008KT 9999 -DZ FEW012 SCT014 BKN030 11/09 Q1034","observationTime":"2019-03-28T14:50:00Z","temp":11,"dewpoint":9,"windDirection":270,"windSpeed":14.816,"visibility":6.21,"altim":30.531496,"flightCategory":"MVFR","metarType":"METAR","geometry_esri":{"x":53.53,"y":9.83,"z":13}}}