{"type":"Feature","geometry":{"type":"Point","coordinates":[53.53,9.83,13]},"properties":{"stationId":"EDHI","rawText":"EDHI 022150Z AUTO 26005KT 9999 // NCD M01/M05 Q1034","observationTime":"2019-01-02T21:50:00Z","temp":-1,"dewpoint":-5,"windDirection":260,"windSpeed":9.26,"visibility":6.21,"altim":30.531496,"flightCategory":"VFR","metarType":"METAR","geometry_esri":{"x":53.53,"y":9.83,"z":13}}}