{"type":"Feature","geometry":{"type":"Point","coordinates":[53.53,9.83,13]},"properties":{"stationId":"EDHI","rawText":"EDHI 301220Z AUTO 31014G24KT 280V340 9999 // BKN015/// BKN021/// 08/06 Q1027","observationTime":"2018-12-30T12:20:00Z","temp":8,"dewpoint":6,"windDirection":310,"windSpeed":25.928,"visibility":6.21,"altim":30.324802,"flightCategory":"MVFR","metarType":"METAR","geometry_esri":{"x":53.53,"y":9.83,"z":13}}}