{"type":"Feature","geometry":{"type":"Point","coordinates":[53.53,9.83,13]},"properties":{"stationId":"EDHI","rawText":"EDHI 010550Z 14004KT 100V170 7000 -RA SCT014 BKN023 11/11 Q1000","observationTime":"2019-10-01T05:50:00Z","temp":11,"dewpoint":11,"windDirection":140,"windSpeed":7.408,"visibility":4.35,"altim":29.52756,"flightCategory":"MVFR","metarType":"METAR","geometry_esri":{"x":53.53,"y":9.83,"z":13}}}