{"type":"Feature","geometry":{"type":"Point","coordinates":[53.53,9.83,13]},"properties":{"stationId":"EDHI","rawText":"EDHI 270150Z AUTO 23008KT 5000 // OVC004/// 06/05 Q1025","observationTime":"2018-12-27T01:50:00Z","temp":6,"dewpoint":5,"windDirection":230,"windSpeed":14.816,"visibility":3.11,"altim":30.265747,"flightCategory":"LIFR","metarType":"METAR","geometry_esri":{"x":53.53,"y":9.83,"z":13}}}