{"type":"Feature","geometry":{"type":"Point","coordinates":[53.53,9.83,13]},"properties":{"stationId":"EDHI","rawText":"EDHI 220820Z 29003KT 270V330 7000 DZ FEW005 SCT008 BKN012 06/06 Q1005","observationTime":"2018-12-22T08:20:00Z","temp":6,"dewpoint":6,"windDirection":290,"windSpeed":5.556,"visibility":4.35,"altim":29.675198,"flightCategory":"MVFR","metarType":"METAR","geometry_esri":{"x":53.53,"y":9.83,"z":13}}}