{"type":"Feature","geometry":{"type":"Point","coordinates":[53.53,9.83,13]},"properties":{"stationId":"EDHI","rawText":"EDHI 290620Z 21006KT 180V240 2100 -SHRA BR SCT076CB 19/18 Q1016","observationTime":"2019-08-29T06:20:00Z","temp":19,"dewpoint":18,"windDirection":210,"windSpeed":11.112,"visibility":1.3,"altim":30,"flightCategory":"IFR","metarType":"METAR","geometry_esri":{"x":53.53,"y":9.83,"z":13}}}