{"type":"Feature","geometry":{"type":"Point","coordinates":[53.53,9.83,13]},"properties":{"stationId":"EDHI","rawText":"EDHI 140620Z 12003KT 090V150 7000 NSC 02/01 Q1004","observationTime":"2019-11-14T06:20:00Z","temp":2,"dewpoint":1,"windDirection":120,"windSpeed":5.556,"visibility":4.35,"altim":29.64567,"flightCategory":"MVFR","metarType":"METAR","geometry_esri":{"x":53.53,"y":9.83,"z":13}}}