{"type":"Feature","geometry":{"type":"Point","coordinates":[53.53,9.83,13]},"properties":{"stationId":"EDHI","rawText":"EDHI 230920Z 28004KT 240V300 9999 BKN023 05/04 Q1033","observationTime":"2020-01-23T09:20:00Z","temp":5,"dewpoint":4,"windDirection":280,"windSpeed":7.408,"visibility":6.21,"altim":30.501968,"flightCategory":"MVFR","metarType":"METAR","geometry_esri":{"x":53.53,"y":9.83,"z":13}}}