{"type":"Feature","geometry":{"type":"Point","coordinates":[53.53,9.83,13]},"properties":{"stationId":"EDHI","rawText":"EDHI 212020Z 26009KT 9999 OVC013 05/03 Q1036","observationTime":"2020-01-21T20:20:00Z","temp":5,"dewpoint":3,"windDirection":260,"windSpeed":16.668,"visibility":6.21,"altim":30.590551,"flightCategory":"MVFR","metarType":"METAR","geometry_esri":{"x":53.53,"y":9.83,"z":13}}}