{"type":"Feature","geometry":{"type":"Point","coordinates":[53.53,9.83,13]},"properties":{"stationId":"EDHI","rawText":"EDHI 120950Z 25016KT 9999 -RA OVC011 05/04 Q1011","observationTime":"2019-01-12T09:50:00Z","temp":5,"dewpoint":4,"windDirection":250,"windSpeed":29.632,"visibility":6.21,"altim":29.852362,"flightCategory":"MVFR","metarType":"METAR","geometry_esri":{"x":53.53,"y":9.83,"z":13}}}