{"type":"Feature","geometry":{"type":"Point","coordinates":[53.53,9.83,13]},"properties":{"stationId":"EDHI","rawText":"EDHI 191820Z 26017KT 9999 VCSH FEW017 BKN020 05/03 Q1016","observationTime":"2020-02-19T18:20:00Z","temp":5,"dewpoint":3,"windDirection":260,"windSpeed":31.484,"visibility":6.21,"altim":30,"flightCategory":"MVFR","metarType":"METAR","geometry_esri":{"x":53.53,"y":9.83,"z":13}}}