{"type":"Feature","geometry":{"type":"Point","coordinates":[53.53,9.83,13]},"properties":{"stationId":"EDHI","rawText":"EDHI 281250Z AUTO 24013KT 9999 // BKN036/// BKN077/// 17/11 Q1007","observationTime":"2019-09-28T12:50:00Z","temp":17,"dewpoint":11,"windDirection":240,"windSpeed":24.076,"visibility":6.21,"altim":29.734253,"flightCategory":"VFR","metarType":"METAR","geometry_esri":{"x":53.53,"y":9.83,"z":13}}}