{"type":"Feature","geometry":{"type":"Point","coordinates":[53.53,9.83,13]},"properties":{"stationId":"EDHI","rawText":"EDHI 161620Z 17003KT 130V220 9999 FEW028 12/10 Q1008","observationTime":"2019-10-16T16:20:00Z","temp":12,"dewpoint":10,"windDirection":170,"windSpeed":5.556,"visibility":6.21,"altim":29.763779,"flightCategory":"VFR","metarType":"METAR","geometry_esri":{"x":53.53,"y":9.83,"z":13}}}