{"type":"Feature","geometry":{"type":"Point","coordinates":[53.53,9.83,13]},"properties":{"stationId":"EDHI","rawText":"EDHI 200020Z AUTO 21003KT 170V240 5000 // BKN210/// 10/10 Q1007","observationTime":"2019-10-20T00:20:00Z","temp":10,"dewpoint":10,"windDirection":210,"windSpeed":5.556,"visibility":3.11,"altim":29.734253,"flightCategory":"MVFR","metarType":"METAR","geometry_esri":{"x":53.53,"y":9.83,"z":13}}}