{"type":"Feature","geometry":{"type":"Point","coordinates":[53.53,9.83,13]},"properties":{"stationId":"EDHI","rawText":"EDHI 290750Z AUTO 02019KT 1700 // SCT010/// BKN012/// OVC015/// 01/00 Q1027","observationTime":"2020-03-29T07:50:00Z","temp":1,"dewpoint":0,"windDirection":20,"windSpeed":35.188,"visibility":1.06,"altim":30.324802,"flightCategory":"IFR","metarType":"METAR","geometry_esri":{"x":53.53,"y":9.83,"z":13}}}