{"type":"Feature","geometry":{"type":"Point","coordinates":[53.53,9.83,13]},"properties":{"stationId":"EDHI","rawText":"EDHI 070550Z 14004KT 110V180 1100 R05/1300U BR OVC002 03/03 Q1002","observationTime":"2019-11-07T05:50:00Z","temp":3,"dewpoint":3,"windDirection":140,"windSpeed":7.408,"visibility":0.68,"altim":29.586615,"flightCategory":"LIFR","metarType":"METAR","geometry_esri":{"x":53.53,"y":9.83,"z":13}}}