{"type":"Feature","geometry":{"type":"Point","coordinates":[53.53,9.83,13]},"properties":{"stationId":"EDHI","rawText":"EDHI 210150Z AUTO 20006KT 8000 // FEW009/// OVC035/// 07/06 Q1008","observationTime":"2018-12-21T01:50:00Z","temp":7,"dewpoint":6,"windDirection":200,"windSpeed":11.112,"visibility":4.97,"altim":29.763779,"flightCategory":"MVFR","metarType":"METAR","geometry_esri":{"x":53.53,"y":9.83,"z":13}}}