{"type":"Feature","geometry":{"type":"Point","coordinates":[53.53,9.83,13]},"properties":{"stationId":"EDHI","rawText":"EDHI 081050Z 26012KT 9999 VCSH FEW012CB BKN018 15/11 Q1015","observationTime":"2019-07-08T10:50:00Z","temp":15,"dewpoint":11,"windDirection":260,"windSpeed":22.224,"visibility":6.21,"altim":29.970472,"flightCategory":"MVFR","metarType":"METAR","geometry_esri":{"x":53.53,"y":9.83,"z":13}}}