{"type":"Feature","geometry":{"type":"Point","coordinates":[53.53,9.83,13]},"properties":{"stationId":"EDHI","rawText":"EDHI 231850Z 10004KT 030V170 6000 NSC M05/M07 Q1006","observationTime":"2019-01-23T18:50:00Z","temp":-5,"dewpoint":-7,"windDirection":100,"windSpeed":7.408,"visibility":3.73,"altim":29.704725,"flightCategory":"MVFR","metarType":"METAR","geometry_esri":{"x":53.53,"y":9.83,"z":13}}}