{"type":"Feature","geometry":{"type":"Point","coordinates":[53.53,9.83,13]},"properties":{"stationId":"EDHI","rawText":"EDHI 200150Z AUTO 10004KT 080V140 9999 // BKN041/// OVC050/// 05/03 Q1012","observationTime":"2018-12-20T01:50:00Z","temp":5,"dewpoint":3,"windDirection":100,"windSpeed":7.408,"visibility":6.21,"altim":29.88189,"flightCategory":"VFR","metarType":"METAR","geometry_esri":{"x":53.53,"y":9.83,"z":13}}}