{"type":"Feature","geometry":{"type":"Point","coordinates":[53.53,9.83,13]},"properties":{"stationId":"EDHI","rawText":"EDHI 221720Z AUTO 34003KT 5000 // BKN028/// OVC039/// 06/06 Q1011","observationTime":"2018-12-22T17:20:00Z","temp":6,"dewpoint":6,"windDirection":340,"windSpeed":5.556,"visibility":3.11,"altim":29.852362,"flightCategory":"MVFR","metarType":"METAR","geometry_esri":{"x":53.53,"y":9.83,"z":13}}}