{"type":"Feature","geometry":{"type":"Point","coordinates":[53.53,9.83,13]},"properties":{"stationId":"EDHI","rawText":"EDHI 021020Z AUTO 25008KT 9999 // SCT024/// BKN030/// OVC120/// 07/05 Q1006","observationTime":"2020-02-02T10:20:00Z","temp":7,"dewpoint":5,"windDirection":250,"windSpeed":14.816,"visibility":6.21,"altim":29.704725,"flightCategory":"MVFR","metarType":"METAR","geometry_esri":{"x":53.53,"y":9.83,"z":13}}}