{"type":"Feature","geometry":{"type":"Point","coordinates":[53.53,9.83,13]},"properties":{"stationId":"EDHI","rawText":"EDHI 260350Z AUTO 26011KT 1300 1100 R23/P2000N // OVC003/// 05/05 Q1026","observationTime":"2018-12-26T03:50:00Z","temp":5,"dewpoint":5,"windDirection":260,"windSpeed":20.372,"visibility":0.81,"altim":30.295275,"flightCategory":"LIFR","metarType":"METAR","geometry_esri":{"x":53.53,"y":9.83,"z":13}}}