{"type":"Feature","geometry":{"type":"Point","coordinates":[53.53,9.83,13]},"properties":{"stationId":"EDHI","rawText":"EDHI 061320Z AUTO 27014KT 9999 // FEW007/// SCT020/// OVC028/// 15/14 Q1007","observationTime":"2019-07-06T13:20:00Z","temp":15,"dewpoint":14,"windDirection":270,"windSpeed":25.928,"visibility":6.21,"altim":29.734253,"flightCategory":"MVFR","metarType":"METAR","geometry_esri":{"x":53.53,"y":9.83,"z":13}}}