{"type":"Feature","geometry":{"type":"Point","coordinates":[53.53,9.83,13]},"properties":{"stationId":"EDHI","rawText":"EDHI 010650Z 12006KT 080V150 7000 NSC M00/M02 Q1015","observationTime":"2019-11-01T06:50:00Z","temp":0,"dewpoint":-2,"windDirection":120,"windSpeed":11.112,"visibility":4.35,"altim":29.970472,"flightCategory":"MVFR","metarType":"METAR","geometry_esri":{"x":53.53,"y":9.83,"z":13}}}