{"type":"Feature","geometry":{"type":"Point","coordinates":[53.53,9.83,13]},"properties":{"stationId":"EDHI","rawText":"EDHI 062350Z AUTO 06003KT 9999 2200 // NCD 05/02 Q1019","observationTime":"2019-10-06T23:50:00Z","temp":5,"dewpoint":2,"windDirection":60,"windSpeed":5.556,"visibility":6.21,"altim":30.088583,"flightCategory":"VFR","metarType":"METAR","geometry_esri":{"x":53.53,"y":9.83,"z":13}}}