{"type":"Feature","geometry":{"type":"Point","coordinates":[53.53,9.83,13]},"properties":{"stationId":"EDHI","rawText":"EDHI 021350Z 24008KT 9999 VCSH SCT043 16/12 Q1021","observationTime":"2019-09-02T13:50:00Z","temp":16,"dewpoint":12,"windDirection":240,"windSpeed":14.816,"visibility":6.21,"altim":30.147638,"flightCategory":"VFR","metarType":"METAR","geometry_esri":{"x":53.53,"y":9.83,"z":13}}}