{"type":"Feature","geometry":{"type":"Point","coordinates":[53.53,9.83,13]},"properties":{"stationId":"EDHI","rawText":"EDHI 100550Z AUTO 19012KT 160V220 9999 // FEW029/// BKN130/// OVC150/// 07/03 Q0998","observationTime":"2019-02-10T05:50:00Z","temp":7,"dewpoint":3,"windDirection":190,"windSpeed":22.224,"visibility":6.21,"altim":29.468504,"flightCategory":"VFR","metarType":"METAR","geometry_esri":{"x":53.53,"y":9.83,"z":13}}}