{"type":"Feature","geometry":{"type":"Point","coordinates":[53.53,9.83,13]},"properties":{"stationId":"EDHI","rawText":"EDHI 310520Z AUTO 10002KT 0650 0600 R05/0750U // SCT003/// M00/M00 Q1027","observationTime":"2019-10-31T05:20:00Z","temp":0,"dewpoint":0,"windDirection":100,"windSpeed":3.704,"visibility":0.4,"altim":30.324802,"flightCategory":"LIFR","metarType":"METAR","geometry_esri":{"x":53.53,"y":9.83,"z":13}}}