{"type":"Feature","geometry":{"type":"Point","coordinates":[53.53,9.83,13]},"properties":{"stationId":"EDHI","rawText":"EDHI 260920Z 18004KT 130V230 7000 FEW008 01/00 Q1018","observationTime":"2020-01-26T09:20:00Z","temp":1,"dewpoint":0,"windDirection":180,"windSpeed":7.408,"visibility":4.35,"altim":30.059055,"flightCategory":"MVFR","metarType":"METAR","geometry_esri":{"x":53.53,"y":9.83,"z":13}}}