{"type":"Feature","geometry":{"type":"Point","coordinates":[53.53,9.83,13]},"properties":{"stationId":"EDHI","rawText":"EDHI 261920Z 31012KT 270V330 9999 FEW011 SCT019 BKN025 07/05 Q1027","observationTime":"2019-03-26T19:20:00Z","temp":7,"dewpoint":5,"windDirection":310,"windSpeed":22.224,"visibility":6.21,"altim":30.324802,"flightCategory":"MVFR","metarType":"METAR","geometry_esri":{"x":53.53,"y":9.83,"z":13}}}