{"type":"Feature","geometry":{"type":"Point","coordinates":[53.53,9.83,13]},"properties":{"stationId":"EDHI","rawText":"EDHI 230050Z AUTO 14006KT 110V170 9000 // BKN230/// M05/M07 Q1002","observationTime":"2019-01-23T00:50:00Z","temp":-5,"dewpoint":-7,"windDirection":140,"windSpeed":11.112,"visibility":5.59,"altim":29.586615,"flightCategory":"VFR","metarType":"METAR","geometry_esri":{"x":53.53,"y":9.83,"z":13}}}