{"type":"Feature","geometry":{"type":"Point","coordinates":[53.53,9.83,13]},"properties":{"stationId":"EDHI","rawText":"EDHI 282150Z AUTO 25019KT 3600 // SCT018/// BKN028/// OVC036/// 04/01 Q0992","observationTime":"2020-01-28T21:50:00Z","temp":4,"dewpoint":1,"windDirection":250,"windSpeed":35.188,"visibility":2.24,"altim":29.291338,"flightCategory":"IFR","metarType":"METAR","geometry_esri":{"x":53.53,"y":9.83,"z":13}}}