{"type":"Feature","geometry":{"type":"Point","coordinates":[53.53,9.83,13]},"properties":{"stationId":"EDHI","rawText":"EDHI 141850Z AUTO 28009KT 250V320 9999 // FEW014/// OVC021/// 15/12 Q1017","observationTime":"2019-07-14T18:50:00Z","temp":15,"dewpoint":12,"windDirection":280,"windSpeed":16.668,"visibility":6.21,"altim":30.029528,"flightCategory":"MVFR","metarType":"METAR","geometry_esri":{"x":53.53,"y":9.83,"z":13}}}