{"type":"Feature","geometry":{"type":"Point","coordinates":[53.53,9.83,13]},"properties":{"stationId":"EDHI","rawText":"EDHI 281720Z 24017KT 4200 -SNRA BKN005 01/01 Q0989 RESN","observationTime":"2020-01-28T17:20:00Z","temp":1,"dewpoint":1,"windDirection":240,"windSpeed":31.484,"visibility":2.61,"altim":29.202755,"flightCategory":"IFR","metarType":"SPECI","geometry_esri":{"x":53.53,"y":9.83,"z":13}}}