{"type":"Feature","geometry":{"type":"Point","coordinates":[53.53,9.83,13]},"properties":{"stationId":"EDHI","rawText":"EDHI 220920Z VRB02KT 7000 -DZ FEW005 SCT009 BKN017 06/06 Q1006","observationTime":"2018-12-22T09:20:00Z","temp":6,"dewpoint":6,"windDirection":0,"windSpeed":3.704,"visibility":4.35,"altim":29.704725,"flightCategory":"MVFR","metarType":"METAR","geometry_esri":{"x":53.53,"y":9.83,"z":13}}}