{"type":"Feature","geometry":{"type":"Point","coordinates":[53.53,9.83,13]},"properties":{"stationId":"EDHI","rawText":"EDHI 310820Z AUTO 35012KT 320V020 9999 // SCT026/// BKN150/// BKN170/// 07/01 Q1024","observationTime":"2019-03-31T08:20:00Z","temp":7,"dewpoint":1,"windDirection":350,"windSpeed":22.224,"visibility":6.21,"altim":30.236221,"flightCategory":"VFR","metarType":"METAR","geometry_esri":{"x":53.53,"y":9.83,"z":13}}}