{"type":"Feature","geometry":{"type":"Point","coordinates":[53.53,9.83,13]},"properties":{"stationId":"EDHI","rawText":"EDHI 151650Z AUTO 26007KT 230V290 9999 // SCT027/// SCT041/// BKN055/// 21/16 Q1011","observationTime":"2019-06-15T16:50:00Z","temp":21,"dewpoint":16,"windDirection":260,"windSpeed":12.964,"visibility":6.21,"altim":29.852362,"flightCategory":"VFR","metarType":"METAR","geometry_esri":{"x":53.53,"y":9.83,"z":13}}}