{"type":"Feature","geometry":{"type":"Point","coordinates":[53.53,9.83,13]},"properties":{"stationId":"EDHI","rawText":"EDHI 080820Z 22012KT 3400 -DZ OVC006 08/07 Q1018","observationTime":"2020-01-08T08:20:00Z","temp":8,"dewpoint":7,"windDirection":220,"windSpeed":22.224,"visibility":2.11,"altim":30.059055,"flightCategory":"IFR","metarType":"METAR","geometry_esri":{"x":53.53,"y":9.83,"z":13}}}