{"type":"Feature","geometry":{"type":"Point","coordinates":[53.53,9.83,13]},"properties":{"stationId":"EDHI","rawText":"EDHI 121220Z 07010KT CAVOK 06/M05 Q1027","observationTime":"2019-04-12T12:20:00Z","temp":6,"dewpoint":-5,"windDirection":70,"windSpeed":18.52,"visibility":6.21,"altim":30.324802,"flightCategory":"VFR","metarType":"METAR","geometry_esri":{"x":53.53,"y":9.83,"z":13}}}