{"type":"Feature","geometry":{"type":"Point","coordinates":[53.53,9.83,13]},"properties":{"stationId":"EDHI","rawText":"EDHI 191920Z AUTO 06010KT 9999 // NCD 09/M03 Q1025","observationTime":"2020-04-19T19:20:00Z","temp":9,"dewpoint":-3,"windDirection":60,"windSpeed":18.52,"visibility":6.21,"altim":30.265747,"flightCategory":"VFR","metarType":"METAR","geometry_esri":{"x":53.53,"y":9.83,"z":13}}}