{"type":"Feature","geometry":{"type":"Point","coordinates":[53.53,9.83,13]},"properties":{"stationId":"EDHI","rawText":"EDHI 041350Z 20013KT CAVOK 04/M02 Q1022","observationTime":"2019-02-04T13:50:00Z","temp":4,"dewpoint":-2,"windDirection":200,"windSpeed":24.076,"visibility":6.21,"altim":30.177166,"flightCategory":"VFR","metarType":"METAR","geometry_esri":{"x":53.53,"y":9.83,"z":13}}}