{"type":"Feature","geometry":{"type":"Point","coordinates":[53.53,9.83,13]},"properties":{"stationId":"EDHI","rawText":"EDHI 010820Z AUTO 27009KT 240V300 9999 // FEW011/// BKN013/// OVC019/// 20/16 Q1010","observationTime":"2019-09-01T08:20:00Z","temp":20,"dewpoint":16,"windDirection":270,"windSpeed":16.668,"visibility":6.21,"altim":29.822834,"flightCategory":"MVFR","metarType":"METAR","geometry_esri":{"x":53.53,"y":9.83,"z":13}}}