{"type":"Feature","geometry":{"type":"Point","coordinates":[53.53,9.83,13]},"properties":{"stationId":"EDHI","rawText":"EDHI 020150Z AUTO 25004KT 9999 // OVC120/// 09/08 Q1001","observationTime":"2019-10-02T01:50:00Z","temp":9,"dewpoint":8,"windDirection":250,"windSpeed":7.408,"visibility":6.21,"altim":29.557087,"flightCategory":"VFR","metarType":"METAR","geometry_esri":{"x":53.53,"y":9.83,"z":13}}}