{"type":"Feature","geometry":{"type":"Point","coordinates":[53.53,9.83,13]},"properties":{"stationId":"EDHI","rawText":"EDHI 221950Z AUTO 06008KT 040V100 9999 // NCD 11/04 Q1025","observationTime":"2020-04-22T19:50:00Z","temp":11,"dewpoint":4,"windDirection":60,"windSpeed":14.816,"visibility":6.21,"altim":30.265747,"flightCategory":"VFR","metarType":"METAR","geometry_esri":{"x":53.53,"y":9.83,"z":13}}}