{"type":"Feature","geometry":{"type":"Point","coordinates":[53.53,9.83,13]},"properties":{"stationId":"EDHI","rawText":"EDHI 152020Z AUTO 28011KT 5000 2400 // FEW021/// BKN039/// OVC048/// 07/06 Q1014","observationTime":"2020-01-15T20:20:00Z","temp":7,"dewpoint":6,"windDirection":280,"windSpeed":20.372,"visibility":3.11,"altim":29.940945,"flightCategory":"MVFR","metarType":"METAR","geometry_esri":{"x":53.53,"y":9.83,"z":13}}}