{"type":"Feature","geometry":{"type":"Point","coordinates":[53.53,9.83,13]},"properties":{"stationId":"EDHI","rawText":"EDHI 220120Z AUTO 25009KT 2800 // OVC005/// 04/04 Q1033","observationTime":"2020-01-22T01:20:00Z","temp":4,"dewpoint":4,"windDirection":250,"windSpeed":16.668,"visibility":1.74,"altim":30.501968,"flightCategory":"IFR","metarType":"METAR","geometry_esri":{"x":53.53,"y":9.83,"z":13}}}