{"type":"Feature","geometry":{"type":"Point","coordinates":[53.53,9.83,13]},"properties":{"stationId":"EDHI","rawText":"EDHI 151520Z 14008KT 110V180 9999 BKN029 00/M06 Q1027","observationTime":"2018-12-15T15:20:00Z","temp":0,"dewpoint":-6,"windDirection":140,"windSpeed":14.816,"visibility":6.21,"altim":30.324802,"flightCategory":"MVFR","metarType":"METAR","geometry_esri":{"x":53.53,"y":9.83,"z":13}}}