{"type":"Feature","geometry":{"type":"Point","coordinates":[53.53,9.83,13]},"properties":{"stationId":"EDHI","rawText":"EDHI 150220Z AUTO 18006KT 130V230 9999 // OVC072/// 17/08 Q1010","observationTime":"2019-08-15T02:20:00Z","temp":17,"dewpoint":8,"windDirection":180,"windSpeed":11.112,"visibility":6.21,"altim":29.822834,"flightCategory":"VFR","metarType":"METAR","geometry_esri":{"x":53.53,"y":9.83,"z":13}}}