{"type":"Feature","geometry":{"type":"Point","coordinates":[53.53,9.83,13]},"properties":{"stationId":"EDHI","rawText":"EDHI 110920Z 20005KT 170V250 9999 FEW019 SCT022 BKN028 16/12 Q1013","observationTime":"2019-07-11T09:20:00Z","temp":16,"dewpoint":12,"windDirection":200,"windSpeed":9.26,"visibility":6.21,"altim":29.911417,"flightCategory":"MVFR","metarType":"METAR","geometry_esri":{"x":53.53,"y":9.83,"z":13}}}