{"type":"Feature","geometry":{"type":"Point","coordinates":[53.53,9.83,13]},"properties":{"stationId":"EDHI","rawText":"EDHI 221720Z AUTO VRB09G19KT 9999 // NCD 19/M00 Q1012","observationTime":"2019-04-22T17:20:00Z","temp":19,"dewpoint":0,"windDirection":0,"windSpeed":16.668,"visibility":6.21,"altim":29.88189,"flightCategory":"VFR","metarType":"METAR","geometry_esri":{"x":53.53,"y":9.83,"z":13}}}