{"type":"Feature","geometry":{"type":"Point","coordinates":[53.53,9.83,13]},"properties":{"stationId":"EDHI","rawText":"EDHI 260550Z 21004KT 8000 FEW008 BKN024 00/M00 Q0990","observationTime":"2020-02-26T05:50:00Z","temp":0,"dewpoint":0,"windDirection":210,"windSpeed":7.408,"visibility":4.97,"altim":29.232283,"flightCategory":"MVFR","metarType":"METAR","geometry_esri":{"x":53.53,"y":9.83,"z":13}}}