{"type":"Feature","geometry":{"type":"Point","coordinates":[53.53,9.83,13]},"properties":{"stationId":"EDHI","rawText":"EDHI 150420Z AUTO 26015KT 3500 // FEW058/// SCT073/// 03/M00 Q1011","observationTime":"2019-01-15T04:20:00Z","temp":3,"dewpoint":0,"windDirection":260,"windSpeed":27.78,"visibility":2.17,"altim":29.852362,"flightCategory":"IFR","metarType":"METAR","geometry_esri":{"x":53.53,"y":9.83,"z":13}}}