{"type":"Feature","geometry":{"type":"Point","coordinates":[53.53,9.83,13]},"properties":{"stationId":"EDHI","rawText":"EDHI 121220Z 20012KT 160V230 9999 SCT020 06/03 Q1011","observationTime":"2019-03-12T12:20:00Z","temp":6,"dewpoint":3,"windDirection":200,"windSpeed":22.224,"visibility":6.21,"altim":29.852362,"flightCategory":"VFR","metarType":"METAR","geometry_esri":{"x":53.53,"y":9.83,"z":13}}}