{"type":"Feature","geometry":{"type":"Point","coordinates":[53.53,9.83,13]},"properties":{"stationId":"EDHI","rawText":"EDHI 181850Z 23003KT 9999 FEW017 M00/M01 Q1018","observationTime":"2019-01-18T18:50:00Z","temp":0,"dewpoint":-1,"windDirection":230,"windSpeed":5.556,"visibility":6.21,"altim":30.059055,"flightCategory":"VFR","metarType":"METAR","geometry_esri":{"x":53.53,"y":9.83,"z":13}}}