{"type":"Feature","geometry":{"type":"Point","coordinates":[53.53,9.83,13]},"properties":{"stationId":"EDHI","rawText":"EDHI 230850Z 12007KT 070V170 5000 BR BKN009 M06/M08 Q1003","observationTime":"2019-01-23T08:50:00Z","temp":-6,"dewpoint":-8,"windDirection":120,"windSpeed":12.964,"visibility":3.11,"altim":29.616142,"flightCategory":"IFR","metarType":"METAR","geometry_esri":{"x":53.53,"y":9.83,"z":13}}}