{"type":"Feature","geometry":{"type":"Point","coordinates":[53.53,9.83,13]},"properties":{"stationId":"EDHI","rawText":"EDHI 290420Z AUTO 24003KT 5000 // OVC029/// 09/08 Q1032","observationTime":"2019-03-29T04:20:00Z","temp":9,"dewpoint":8,"windDirection":240,"windSpeed":5.556,"visibility":3.11,"altim":30.47244,"flightCategory":"MVFR","metarType":"METAR","geometry_esri":{"x":53.53,"y":9.83,"z":13}}}