{"type":"Feature","geometry":{"type":"Point","coordinates":[53.53,9.83,13]},"properties":{"stationId":"EDHI","rawText":"EDHI 140320Z AUTO 32006KT 290V350 9999 // SCT009/// BKN014/// OVC029/// 14/12 Q1016","observationTime":"2019-07-14T03:20:00Z","temp":14,"dewpoint":12,"windDirection":320,"windSpeed":11.112,"visibility":6.21,"altim":30,"flightCategory":"MVFR","metarType":"METAR","geometry_esri":{"x":53.53,"y":9.83,"z":13}}}