{"type":"Feature","geometry":{"type":"Point","coordinates":[53.53,9.83,13]},"properties":{"stationId":"EDHI","rawText":"EDHI 221320Z 24005KT 7000 -DZ SCT009 BKN023 07/06 Q1009","observationTime":"2018-12-22T13:20:00Z","temp":7,"dewpoint":6,"windDirection":240,"windSpeed":9.26,"visibility":4.35,"altim":29.793306,"flightCategory":"MVFR","metarType":"METAR","geometry_esri":{"x":53.53,"y":9.83,"z":13}}}