{"type":"Feature","geometry":{"type":"Point","coordinates":[53.53,9.83,13]},"properties":{"stationId":"EDHI","rawText":"EDHI 311320Z AUTO 14006KT 100V180 9999 // NCD 07/M00 Q1025","observationTime":"2019-10-31T13:20:00Z","temp":7,"dewpoint":0,"windDirection":140,"windSpeed":11.112,"visibility":6.21,"altim":30.265747,"flightCategory":"VFR","metarType":"METAR","geometry_esri":{"x":53.53,"y":9.83,"z":13}}}