{"type":"Feature","geometry":{"type":"Point","coordinates":[53.53,9.83,13]},"properties":{"stationId":"EDHI","rawText":"EDHI 181520Z AUTO 26008KT 9999 // FEW018/// SCT031/// OVC043/// 18/14 Q1005","observationTime":"2019-08-18T15:20:00Z","temp":18,"dewpoint":14,"windDirection":260,"windSpeed":14.816,"visibility":6.21,"altim":29.675198,"flightCategory":"VFR","metarType":"METAR","geometry_esri":{"x":53.53,"y":9.83,"z":13}}}