{"type":"Feature","geometry":{"type":"Point","coordinates":[53.53,9.83,13]},"properties":{"stationId":"EDHI","rawText":"EDHI 092220Z AUTO 24019KT 3700 // FEW016/// SCT026/// OVC047/// 08/07 Q0982","observationTime":"2020-02-09T22:20:00Z","temp":8,"dewpoint":7,"windDirection":240,"windSpeed":35.188,"visibility":2.3,"altim":28.996063,"flightCategory":"IFR","metarType":"METAR","geometry_esri":{"x":53.53,"y":9.83,"z":13}}}