{"type":"Feature","geometry":{"type":"Point","coordinates":[53.53,9.83,13]},"properties":{"stationId":"EDHI","rawText":"EDHI 210720Z 25003KT 210V270 4000 BR NSC M07/M08 Q1021","observationTime":"2019-01-21T07:20:00Z","temp":-7,"dewpoint":-8,"windDirection":250,"windSpeed":5.556,"visibility":2.49,"altim":30.147638,"flightCategory":"IFR","metarType":"METAR","geometry_esri":{"x":53.53,"y":9.83,"z":13}}}