{"type":"Feature","geometry":{"type":"Point","coordinates":[53.53,9.83,13]},"properties":{"stationId":"EDHI","rawText":"EDHI 052250Z AUTO 09005KT 060V120 9999 // BKN240/// 07/05 Q1022","observationTime":"2019-10-05T22:50:00Z","temp":7,"dewpoint":5,"windDirection":90,"windSpeed":9.26,"visibility":6.21,"altim":30.177166,"flightCategory":"VFR","metarType":"METAR","geometry_esri":{"x":53.53,"y":9.83,"z":13}}}