{"type":"Feature","geometry":{"type":"Point","coordinates":[53.53,9.83,13]},"properties":{"stationId":"EDHI","rawText":"EDHI 130750Z 22016G26KT 190V260 7000 -SHRA BKN015CB 05/03 Q1003","observationTime":"2020-03-13T07:50:00Z","temp":5,"dewpoint":3,"windDirection":220,"windSpeed":29.632,"visibility":4.35,"altim":29.616142,"flightCategory":"MVFR","metarType":"METAR","geometry_esri":{"x":53.53,"y":9.83,"z":13}}}