{"type":"Feature","geometry":{"type":"Point","coordinates":[53.53,9.83,13]},"properties":{"stationId":"EDHI","rawText":"EDHI 230750Z 20003KT 130V250 CAVOK 20/14 Q1026","observationTime":"2019-08-23T07:50:00Z","temp":20,"dewpoint":14,"windDirection":200,"windSpeed":5.556,"visibility":6.21,"altim":30.295275,"flightCategory":"VFR","metarType":"METAR","geometry_esri":{"x":53.53,"y":9.83,"z":13}}}