{"type":"Feature","geometry":{"type":"Point","coordinates":[53.53,9.83,13]},"properties":{"stationId":"EDHI","rawText":"EDHI 241420Z 17008KT 140V210 9000 -RA SCT010 BKN014 OVC022 03/02 Q1009","observationTime":"2020-02-24T14:20:00Z","temp":3,"dewpoint":2,"windDirection":170,"windSpeed":14.816,"visibility":5.59,"altim":29.793306,"flightCategory":"MVFR","metarType":"METAR","geometry_esri":{"x":53.53,"y":9.83,"z":13}}}