{"type":"Feature","geometry":{"type":"Point","coordinates":[53.53,9.83,13]},"properties":{"stationId":"EDHI","rawText":"EDHI 231420Z 28013KT 250V310 9999 -SHRA FEW013 SCT020CB BKN024 07/05 Q1003","observationTime":"2019-12-23T14:20:00Z","temp":7,"dewpoint":5,"windDirection":280,"windSpeed":24.076,"visibility":6.21,"altim":29.616142,"flightCategory":"MVFR","metarType":"METAR","geometry_esri":{"x":53.53,"y":9.83,"z":13}}}