{"type":"Feature","geometry":{"type":"Point","coordinates":[53.53,9.83,13]},"properties":{"stationId":"EDHI","rawText":"EDHI 250120Z AUTO 24016KT 2800 // BKN017/// OVC027/// 05/02 Q1013","observationTime":"2019-03-25T01:20:00Z","temp":5,"dewpoint":2,"windDirection":240,"windSpeed":29.632,"visibility":1.74,"altim":29.911417,"flightCategory":"IFR","metarType":"SPECI","geometry_esri":{"x":53.53,"y":9.83,"z":13}}}