{"type":"Feature","geometry":{"type":"Point","coordinates":[53.53,9.83,13]},"properties":{"stationId":"EDHI","rawText":"EDHI 280120Z AUTO 25013KT 9000 // SCT023/// BKN028/// 08/06 Q1017","observationTime":"2019-10-28T01:20:00Z","temp":8,"dewpoint":6,"windDirection":250,"windSpeed":24.076,"visibility":5.59,"altim":30.029528,"flightCategory":"MVFR","metarType":"METAR","geometry_esri":{"x":53.53,"y":9.83,"z":13}}}