{"type":"Feature","geometry":{"type":"Point","coordinates":[53.53,9.83,13]},"properties":{"stationId":"EDHI","rawText":"EDHI 040550Z 22007KT 4300 BR SCT008 BKN012 05/03 Q1021","observationTime":"2019-12-04T05:50:00Z","temp":5,"dewpoint":3,"windDirection":220,"windSpeed":12.964,"visibility":2.67,"altim":30.147638,"flightCategory":"IFR","metarType":"METAR","geometry_esri":{"x":53.53,"y":9.83,"z":13}}}