{"type":"Feature","geometry":{"type":"Point","coordinates":[53.53,9.83,13]},"properties":{"stationId":"EDHI","rawText":"EDHI 092050Z AUTO 13002KT 4600 // FEW041/// 03/03 Q1007","observationTime":"2019-11-09T20:50:00Z","temp":3,"dewpoint":3,"windDirection":130,"windSpeed":3.704,"visibility":2.86,"altim":29.734253,"flightCategory":"IFR","metarType":"METAR","geometry_esri":{"x":53.53,"y":9.83,"z":13}}}