{"type":"Feature","geometry":{"type":"Point","coordinates":[53.53,9.83,13]},"properties":{"stationId":"EDHI","rawText":"EDHI 101520Z AUTO 21009KT 9999 // BKN008/// OVC018/// 09/07 Q0984","observationTime":"2019-02-10T15:20:00Z","temp":9,"dewpoint":7,"windDirection":210,"windSpeed":16.668,"visibility":6.21,"altim":29.055119,"flightCategory":"IFR","metarType":"METAR","geometry_esri":{"x":53.53,"y":9.83,"z":13}}}