{"type":"Feature","geometry":{"type":"Point","coordinates":[53.53,9.83,13]},"properties":{"stationId":"EDHI","rawText":"EDHI 231920Z 25007KT 9999 BKN019 05/02 Q1027","observationTime":"2020-01-23T19:20:00Z","temp":5,"dewpoint":2,"windDirection":250,"windSpeed":12.964,"visibility":6.21,"altim":30.324802,"flightCategory":"MVFR","metarType":"METAR","geometry_esri":{"x":53.53,"y":9.83,"z":13}}}