{"type":"Feature","geometry":{"type":"Point","coordinates":[53.53,9.83,13]},"properties":{"stationId":"EDHI","rawText":"EDHI 230550Z AUTO 11009KT 060V150 7000 // OVC011/// 08/06 Q1006","observationTime":"2019-11-23T05:50:00Z","temp":8,"dewpoint":6,"windDirection":110,"windSpeed":16.668,"visibility":4.35,"altim":29.704725,"flightCategory":"MVFR","metarType":"METAR","geometry_esri":{"x":53.53,"y":9.83,"z":13}}}