{"type":"Feature","geometry":{"type":"Point","coordinates":[53.53,9.83,13]},"properties":{"stationId":"EDHI","rawText":"EDHI 201220Z 33004KT 260V040 9999 FEW026 09/02 Q1028","observationTime":"2020-03-20T12:20:00Z","temp":9,"dewpoint":2,"windDirection":330,"windSpeed":7.408,"visibility":6.21,"altim":30.35433,"flightCategory":"VFR","metarType":"METAR","geometry_esri":{"x":53.53,"y":9.83,"z":13}}}