{"type":"Feature","geometry":{"type":"Point","coordinates":[53.53,9.83,13]},"properties":{"stationId":"EDHI","rawText":"EDHI 200720Z AUTO 09003KT 060V120 2300 // SCT002/// BKN004/// OVC130/// M04/M05 Q1018","observationTime":"2019-01-20T07:20:00Z","temp":-4,"dewpoint":-5,"windDirection":90,"windSpeed":5.556,"visibility":1.43,"altim":30.059055,"flightCategory":"LIFR","metarType":"METAR","geometry_esri":{"x":53.53,"y":9.83,"z":13}}}