{"type":"Feature","geometry":{"type":"Point","coordinates":[53.53,9.83,13]},"properties":{"stationId":"EDHI","rawText":"EDHI 262150Z AUTO VRB02KT 4500 1800 // SCT004/// BKN011/// OVC066/// 11/10 Q1013","observationTime":"2019-04-26T21:50:00Z","temp":11,"dewpoint":10,"windDirection":0,"windSpeed":3.704,"visibility":2.8,"altim":29.911417,"flightCategory":"IFR","metarType":"METAR","geometry_esri":{"x":53.53,"y":9.83,"z":13}}}