{"type":"Feature","geometry":{"type":"Point","coordinates":[53.53,9.83,13]},"properties":{"stationId":"EDHI","rawText":"EDHI 030350Z AUTO 12002KT 9999 // BKN032/// BKN047/// OVC059/// 05/03 Q0994","observationTime":"2020-03-03T03:50:00Z","temp":5,"dewpoint":3,"windDirection":120,"windSpeed":3.704,"visibility":6.21,"altim":29.350393,"flightCategory":"VFR","metarType":"METAR","geometry_esri":{"x":53.53,"y":9.83,"z":13}}}