{"type":"Feature","geometry":{"type":"Point","coordinates":[53.53,9.83,13]},"properties":{"stationId":"EDHI","rawText":"EDHI 250050Z AUTO 24002KT 3900 // BKN025/// OVC100/// 04/04 Q1008","observationTime":"2019-12-25T00:50:00Z","temp":4,"dewpoint":4,"windDirection":240,"windSpeed":3.704,"visibility":2.42,"altim":29.763779,"flightCategory":"IFR","metarType":"METAR","geometry_esri":{"x":53.53,"y":9.83,"z":13}}}