{"type":"Feature","geometry":{"type":"Point","coordinates":[53.53,9.83,13]},"properties":{"stationId":"EDHI","rawText":"EDHI 010120Z AUTO 29002KT 5000 // FEW003/// OVC038/// 02/02 Q1022","observationTime":"2019-12-01T01:20:00Z","temp":2,"dewpoint":2,"windDirection":290,"windSpeed":3.704,"visibility":3.11,"altim":30.177166,"flightCategory":"MVFR","metarType":"METAR","geometry_esri":{"x":53.53,"y":9.83,"z":13}}}