{"type":"Feature","geometry":{"type":"Point","coordinates":[53.53,9.83,13]},"properties":{"stationId":"EDHI","rawText":"EDHI 280720Z AUTO 35004KT 280V050 8000 // NCD 04/01 Q1024","observationTime":"2020-03-28T07:20:00Z","temp":4,"dewpoint":1,"windDirection":350,"windSpeed":7.408,"visibility":4.97,"altim":30.236221,"flightCategory":"MVFR","metarType":"METAR","geometry_esri":{"x":53.53,"y":9.83,"z":13}}}