{"type":"Feature","geometry":{"type":"Point","coordinates":[53.53,9.83,13]},"properties":{"stationId":"EDHI","rawText":"EDHI 062350Z AUTO 20003KT 3200 // OVC005/// 05/05 Q1015","observationTime":"2019-02-06T23:50:00Z","temp":5,"dewpoint":5,"windDirection":200,"windSpeed":5.556,"visibility":1.99,"altim":29.970472,"flightCategory":"IFR","metarType":"METAR","geometry_esri":{"x":53.53,"y":9.83,"z":13}}}