{"type":"Feature","geometry":{"type":"Point","coordinates":[53.53,9.83,13]},"properties":{"stationId":"EDHI","rawText":"EDHI 050220Z AUTO 00000KT 2000 0500 R23/P2000N // FEW004/// 02/01 Q1006","observationTime":"2020-03-05T02:20:00Z","temp":2,"dewpoint":1,"windDirection":0,"windSpeed":0,"visibility":1.24,"altim":29.704725,"flightCategory":"IFR","metarType":"METAR","geometry_esri":{"x":53.53,"y":9.83,"z":13}}}