{"type":"Feature","geometry":{"type":"Point","coordinates":[53.53,9.83,13]},"properties":{"stationId":"EDHI","rawText":"EDHI 111020Z 25028G41KT 9999 BKN026 05/01 Q0992","observationTime":"2020-02-11T10:20:00Z","temp":5,"dewpoint":1,"windDirection":250,"windSpeed":51.856,"visibility":6.21,"altim":29.291338,"flightCategory":"MVFR","metarType":"METAR","geometry_esri":{"x":53.53,"y":9.83,"z":13}}}