{"type":"Feature","geometry":{"type":"Point","coordinates":[53.53,9.83,13]},"properties":{"stationId":"EDHI","rawText":"EDHI 101120Z 27025G37KT 9999 VCSH SCT025 BKN035 06/03 Q0988 RESHRA","observationTime":"2020-02-10T11:20:00Z","temp":6,"dewpoint":3,"windDirection":270,"windSpeed":46.300000000000004,"visibility":6.21,"altim":29.17323,"flightCategory":"VFR","metarType":"METAR","geometry_esri":{"x":53.53,"y":9.83,"z":13}}}