{"type":"Feature","geometry":{"type":"Point","coordinates":[53.53,9.83,13]},"properties":{"stationId":"EDHI","rawText":"EDHI 282250Z AUTO 25014KT 9999 2600 // FEW013/// SCT015/// BKN022/// 14/12 Q1006","observationTime":"2019-09-28T22:50:00Z","temp":14,"dewpoint":12,"windDirection":250,"windSpeed":25.928,"visibility":6.21,"altim":29.704725,"flightCategory":"MVFR","metarType":"METAR","geometry_esri":{"x":53.53,"y":9.83,"z":13}}}