{"type":"Feature","geometry":{"type":"Point","coordinates":[53.53,9.83,13]},"properties":{"stationId":"EDHI","rawText":"EDHI 071420Z 23010KT 3400 -DZ BR OVC005 06/06 Q1023 REDZ","observationTime":"2019-01-07T14:20:00Z","temp":6,"dewpoint":6,"windDirection":230,"windSpeed":18.52,"visibility":2.11,"altim":30.206694,"flightCategory":"IFR","metarType":"METAR","geometry_esri":{"x":53.53,"y":9.83,"z":13}}}