{"type":"Feature","geometry":{"type":"Point","coordinates":[53.53,9.83,13]},"properties":{"stationId":"EDHI","rawText":"EDHI 292250Z AUTO 12003KT 080V160 9000 // NCD M01/M02 Q1000","observationTime":"2019-01-29T22:50:00Z","temp":-1,"dewpoint":-2,"windDirection":120,"windSpeed":5.556,"visibility":5.59,"altim":29.52756,"flightCategory":"VFR","metarType":"METAR","geometry_esri":{"x":53.53,"y":9.83,"z":13}}}