{"type":"Feature","geometry":{"type":"Point","coordinates":[53.53,9.83,13]},"properties":{"stationId":"EDHI","rawText":"EDHI 082150Z AUTO 21013G23KT 9999 // BKN022/// OVC031/// 07/06 Q0988","observationTime":"2018-12-08T21:50:00Z","temp":7,"dewpoint":6,"windDirection":210,"windSpeed":24.076,"visibility":6.21,"altim":29.17323,"skyCondition1a":"BKN","skyCondition1b":2200,"skyCondition2a":"OVC","skyCondition2b":3100,"flightCategory":"MVFR","metarType":"METAR","geometry_esri":{"x":53.53,"y":9.83,"z":13}}}