{"type":"Feature","geometry":{"type":"Point","coordinates":[53.53,9.83,13]},"properties":{"stationId":"EDHI","rawText":"EDHI 010820Z 26005KT 220V300 CAVOK 21/14 Q1016","observationTime":"2019-08-01T08:20:00Z","temp":21,"dewpoint":14,"windDirection":260,"windSpeed":9.26,"visibility":6.21,"altim":30,"flightCategory":"VFR","metarType":"METAR","geometry_esri":{"x":53.53,"y":9.83,"z":13}}}