{"type":"Feature","geometry":{"type":"Point","coordinates":[53.53,9.83,13]},"properties":{"stationId":"EDHI","rawText":"EDHI 312050Z AUTO 27004KT 9999 // FEW049/// BKN210/// 15/13 Q1022","observationTime":"2019-05-31T20:50:00Z","temp":15,"dewpoint":13,"windDirection":270,"windSpeed":7.408,"visibility":6.21,"altim":30.177166,"flightCategory":"VFR","metarType":"METAR","geometry_esri":{"x":53.53,"y":9.83,"z":13}}}