{"type":"Feature","geometry":{"type":"Point","coordinates":[53.53,9.83,13]},"properties":{"stationId":"EDHI","rawText":"EDHI 180050Z AUTO 24014KT 9999 3000 // BKN014/// OVC035/// 06/05 Q1010","observationTime":"2020-02-18T00:50:00Z","temp":6,"dewpoint":5,"windDirection":240,"windSpeed":25.928,"visibility":6.21,"altim":29.822834,"flightCategory":"MVFR","metarType":"METAR","geometry_esri":{"x":53.53,"y":9.83,"z":13}}}