{"type":"Feature","geometry":{"type":"Point","coordinates":[53.53,9.83,13]},"properties":{"stationId":"EDHI","rawText":"EDHI 060250Z AUTO 08009KT 040V110 9999 // SCT038/// OVC043/// 06/01 Q0990","observationTime":"2020-03-06T02:50:00Z","temp":6,"dewpoint":1,"windDirection":80,"windSpeed":16.668,"visibility":6.21,"altim":29.232283,"flightCategory":"VFR","metarType":"METAR","geometry_esri":{"x":53.53,"y":9.83,"z":13}}}