{"type":"Feature","geometry":{"type":"Point","coordinates":[53.53,9.83,13]},"properties":{"stationId":"EDHI","rawText":"EDHI 221720Z 13007KT 100V160 CAVOK M01/M06 Q1004","observationTime":"2019-01-22T17:20:00Z","temp":-1,"dewpoint":-6,"windDirection":130,"windSpeed":12.964,"visibility":6.21,"altim":29.64567,"flightCategory":"VFR","metarType":"SPECI","geometry_esri":{"x":53.53,"y":9.83,"z":13}}}