{"type":"Feature","geometry":{"type":"Point","coordinates":[53.53,9.83,13]},"properties":{"stationId":"EDHI","rawText":"EDHI 120120Z AUTO 31003KT 290V350 9000 // FEW009/// BKN012/// OVC017/// 15/15 Q1010","observationTime":"2019-07-12T01:20:00Z","temp":15,"dewpoint":15,"windDirection":310,"windSpeed":5.556,"visibility":5.59,"altim":29.822834,"flightCategory":"MVFR","metarType":"METAR","geometry_esri":{"x":53.53,"y":9.83,"z":13}}}