{"type":"Feature","geometry":{"type":"Point","coordinates":[53.53,9.83,13]},"properties":{"stationId":"EDHI","rawText":"EDHI 120320Z AUTO 19009KT 150V220 9999 // BKN020/// OVC027/// 05/02 Q1000","observationTime":"2019-11-12T03:20:00Z","temp":5,"dewpoint":2,"windDirection":190,"windSpeed":16.668,"visibility":6.21,"altim":29.52756,"flightCategory":"MVFR","metarType":"SPECI","geometry_esri":{"x":53.53,"y":9.83,"z":13}}}