{"type":"Feature","geometry":{"type":"Point","coordinates":[53.53,9.83,13]},"properties":{"stationId":"EDHI","rawText":"EDHI 160920Z 27011KT 9999 SCT019 10/06 Q1017","observationTime":"2020-03-16T09:20:00Z","temp":10,"dewpoint":6,"windDirection":270,"windSpeed":20.372,"visibility":6.21,"altim":30.029528,"flightCategory":"VFR","metarType":"METAR","geometry_esri":{"x":53.53,"y":9.83,"z":13}}}