{"type":"Feature","geometry":{"type":"Point","coordinates":[53.53,9.83,13]},"properties":{"stationId":"EDHI","rawText":"EDHI 240120Z AUTO 25003KT 230V290 9000 // OVC150/// 04/03 Q1030","observationTime":"2019-03-24T01:20:00Z","temp":4,"dewpoint":3,"windDirection":250,"windSpeed":5.556,"visibility":5.59,"altim":30.413385,"flightCategory":"VFR","metarType":"METAR","geometry_esri":{"x":53.53,"y":9.83,"z":13}}}