{"type":"Feature","geometry":{"type":"Point","coordinates":[53.53,9.83,13]},"properties":{"stationId":"EDHI","rawText":"EDHI 230750Z 24012KT 9999 -RA SCT015 BKN022 07/05 Q0997","observationTime":"2019-12-23T07:50:00Z","temp":7,"dewpoint":5,"windDirection":240,"windSpeed":22.224,"visibility":6.21,"altim":29.438976,"flightCategory":"MVFR","metarType":"METAR","geometry_esri":{"x":53.53,"y":9.83,"z":13}}}