{"type":"Feature","geometry":{"type":"Point","coordinates":[53.53,9.83,13]},"properties":{"stationId":"EDHI","rawText":"EDHI 110750Z 25030G41KT 9999 BKN024 05/01 Q0990","observationTime":"2020-02-11T07:50:00Z","temp":5,"dewpoint":1,"windDirection":250,"windSpeed":55.56,"visibility":6.21,"altim":29.232283,"flightCategory":"MVFR","metarType":"METAR","geometry_esri":{"x":53.53,"y":9.83,"z":13}}}