{"type":"Feature","geometry":{"type":"Point","coordinates":[53.53,9.83,13]},"properties":{"stationId":"EDHI","rawText":"EDHI 110920Z 13005KT 080V170 9000 NSC 02/01 Q1009","observationTime":"2019-11-11T09:20:00Z","temp":2,"dewpoint":1,"windDirection":130,"windSpeed":9.26,"visibility":5.59,"altim":29.793306,"flightCategory":"VFR","metarType":"METAR","geometry_esri":{"x":53.53,"y":9.83,"z":13}}}