{"type":"Feature","geometry":{"type":"Point","coordinates":[53.53,9.83,13]},"properties":{"stationId":"EDHI","rawText":"EDHI 061420Z 17011G23KT 110V210 CAVOK 11/05 Q0999","observationTime":"2019-03-06T14:20:00Z","temp":11,"dewpoint":5,"windDirection":170,"windSpeed":20.372,"visibility":6.21,"altim":29.498032,"flightCategory":"VFR","metarType":"METAR","geometry_esri":{"x":53.53,"y":9.83,"z":13}}}