{"type":"Feature","geometry":{"type":"Point","coordinates":[53.53,9.83,13]},"properties":{"stationId":"EDHI","rawText":"EDHI 151850Z 26015KT 2800 -RADZ SCT004 BKN006 07/06 Q1007","observationTime":"2019-01-15T18:50:00Z","temp":7,"dewpoint":6,"windDirection":260,"windSpeed":27.78,"visibility":1.74,"altim":29.734253,"flightCategory":"IFR","metarType":"METAR","geometry_esri":{"x":53.53,"y":9.83,"z":13}}}