{"type":"Feature","geometry":{"type":"Point","coordinates":[53.53,9.83,13]},"properties":{"stationId":"EDHI","rawText":"EDHI 112320Z AUTO 16002KT 6000 // BKN025/// BKN094/// 16/16 Q1010","observationTime":"2019-07-11T23:20:00Z","temp":16,"dewpoint":16,"windDirection":160,"windSpeed":3.704,"visibility":3.73,"altim":29.822834,"flightCategory":"MVFR","metarType":"METAR","geometry_esri":{"x":53.53,"y":9.83,"z":13}}}