{"type":"Feature","geometry":{"type":"Point","coordinates":[53.53,9.83,13]},"properties":{"stationId":"EDHI","rawText":"EDHI 311820Z 25015KT 9000 -RA BKN015 10/08 Q1003","observationTime":"2020-01-31T18:20:00Z","temp":10,"dewpoint":8,"windDirection":250,"windSpeed":27.78,"visibility":5.59,"altim":29.616142,"flightCategory":"MVFR","metarType":"METAR","geometry_esri":{"x":53.53,"y":9.83,"z":13}}}