{"type":"Feature","geometry":{"type":"Point","coordinates":[53.53,9.83,13]},"properties":{"stationId":"EDHI","rawText":"EDHI 160750Z 20006KT 0900 R23/P2000N FG OVC002 06/06 Q1003","observationTime":"2019-11-16T07:50:00Z","temp":6,"dewpoint":6,"windDirection":200,"windSpeed":11.112,"visibility":0.56,"altim":29.616142,"flightCategory":"LIFR","metarType":"METAR","geometry_esri":{"x":53.53,"y":9.83,"z":13}}}