{"type":"Feature","geometry":{"type":"Point","coordinates":[53.53,9.83,13]},"properties":{"stationId":"EDHI","rawText":"EDHI 220250Z AUTO 26009KT 3800 // OVC005/// 05/04 Q1033","observationTime":"2020-01-22T02:50:00Z","temp":5,"dewpoint":4,"windDirection":260,"windSpeed":16.668,"visibility":2.36,"altim":30.501968,"flightCategory":"IFR","metarType":"METAR","geometry_esri":{"x":53.53,"y":9.83,"z":13}}}