{"type":"Feature","geometry":{"type":"Point","coordinates":[53.53,9.83,13]},"properties":{"stationId":"EDHI","rawText":"EDHI 200320Z AUTO 08006KT 040V110 9999 // NCD 05/M03 Q1027","observationTime":"2020-04-20T03:20:00Z","temp":5,"dewpoint":-3,"windDirection":80,"windSpeed":11.112,"visibility":6.21,"altim":30.324802,"flightCategory":"VFR","metarType":"METAR","geometry_esri":{"x":53.53,"y":9.83,"z":13}}}