{"type":"Feature","geometry":{"type":"Point","coordinates":[53.53,9.83,13]},"properties":{"stationId":"EDHI","rawText":"EDHI 241350Z 19012KT 160V220 8000 -RA SCT015 BKN021 OVC025 04/02 Q1010","observationTime":"2020-02-24T13:50:00Z","temp":4,"dewpoint":2,"windDirection":190,"windSpeed":22.224,"visibility":4.97,"altim":29.822834,"flightCategory":"MVFR","metarType":"METAR","geometry_esri":{"x":53.53,"y":9.83,"z":13}}}