{"type":"Feature","geometry":{"type":"Point","coordinates":[53.53,9.83,13]},"properties":{"stationId":"EDHI","rawText":"EDHI 011850Z AUTO 26017KT 9999 // FEW028/// SCT039/// BKN062/// 09/05 Q0999","observationTime":"2020-02-01T18:50:00Z","temp":9,"dewpoint":5,"windDirection":260,"windSpeed":31.484,"visibility":6.21,"altim":29.498032,"flightCategory":"VFR","metarType":"METAR","geometry_esri":{"x":53.53,"y":9.83,"z":13}}}