{"type":"Feature","geometry":{"type":"Point","coordinates":[53.53,9.83,13]},"properties":{"stationId":"EDHI","rawText":"EDHI 222320Z AUTO 10004KT 4000 // NCD 09/08 Q1024","observationTime":"2019-03-22T23:20:00Z","temp":9,"dewpoint":8,"windDirection":100,"windSpeed":7.408,"visibility":2.49,"altim":30.236221,"flightCategory":"IFR","metarType":"SPECI","geometry_esri":{"x":53.53,"y":9.83,"z":13}}}