{"type":"Feature","geometry":{"type":"Point","coordinates":[53.53,9.83,13]},"properties":{"stationId":"EDHI","rawText":"EDHI 042050Z AUTO 21003KT 9999 // SCT062/// OVC071/// 04/03 Q1008","observationTime":"2020-03-04T20:50:00Z","temp":4,"dewpoint":3,"windDirection":210,"windSpeed":5.556,"visibility":6.21,"altim":29.763779,"flightCategory":"VFR","metarType":"METAR","geometry_esri":{"x":53.53,"y":9.83,"z":13}}}