{"type":"Feature","geometry":{"type":"Point","coordinates":[53.53,9.83,13]},"properties":{"stationId":"EDHI","rawText":"EDHI 161050Z AUTO 21021G31KT 4700 0900 R23/P2000N // BKN021/// OVC029/// 13/10 Q0998","observationTime":"2020-02-16T10:50:00Z","temp":13,"dewpoint":10,"windDirection":210,"windSpeed":38.892,"visibility":2.92,"altim":29.468504,"flightCategory":"IFR","metarType":"METAR","geometry_esri":{"x":53.53,"y":9.83,"z":13}}}