{"type":"Feature","geometry":{"type":"Point","coordinates":[53.53,9.83,13]},"properties":{"stationId":"EDHI","rawText":"EDHI 241350Z 23006KT 200V270 1300 R23/1600U -DZ BR OVC003 02/02 Q1021","observationTime":"2020-01-24T13:50:00Z","temp":2,"dewpoint":2,"windDirection":230,"windSpeed":11.112,"visibility":0.81,"altim":30.147638,"flightCategory":"LIFR","metarType":"METAR","geometry_esri":{"x":53.53,"y":9.83,"z":13}}}