{"type":"Feature","geometry":{"type":"Point","coordinates":[53.53,9.83,13]},"properties":{"stationId":"EDHI","rawText":"EDHI 291520Z AUTO 21009KT 7000 2300 // BKN009/// OVC014/// 14/13 Q0994","observationTime":"2019-09-29T15:20:00Z","temp":14,"dewpoint":13,"windDirection":210,"windSpeed":16.668,"visibility":4.35,"altim":29.350393,"flightCategory":"IFR","metarType":"METAR","geometry_esri":{"x":53.53,"y":9.83,"z":13}}}