{"type":"Feature","geometry":{"type":"Point","coordinates":[53.53,9.83,13]},"properties":{"stationId":"EDHI","rawText":"EDHI 191950Z AUTO 06009KT 040V100 9999 // NCD 09/M03 Q1025","observationTime":"2020-04-19T19:50:00Z","temp":9,"dewpoint":-3,"windDirection":60,"windSpeed":16.668,"visibility":6.21,"altim":30.265747,"flightCategory":"VFR","metarType":"METAR","geometry_esri":{"x":53.53,"y":9.83,"z":13}}}