{"type":"Feature","geometry":{"type":"Point","coordinates":[53.53,9.83,13]},"properties":{"stationId":"EDHI","rawText":"EDHI 150550Z AUTO 16008KT 130V190 9999 // SCT039/// SCT071/// OVC095/// 05/01 Q0990","observationTime":"2019-12-15T05:50:00Z","temp":5,"dewpoint":1,"windDirection":160,"windSpeed":14.816,"visibility":6.21,"altim":29.232283,"flightCategory":"VFR","metarType":"METAR","geometry_esri":{"x":53.53,"y":9.83,"z":13}}}