{"type":"Feature","geometry":{"type":"Point","coordinates":[53.53,9.83,13]},"properties":{"stationId":"EDHI","rawText":"EDHI 211150Z 23007KT 200V260 8000 SCT018 BKN028 M02/M04 Q1020","observationTime":"2019-01-21T11:50:00Z","temp":-2,"dewpoint":-4,"windDirection":230,"windSpeed":12.964,"visibility":4.97,"altim":30.11811,"flightCategory":"MVFR","metarType":"METAR","geometry_esri":{"x":53.53,"y":9.83,"z":13}}}