{"type":"Feature","geometry":{"type":"Point","coordinates":[53.53,9.83,13]},"properties":{"stationId":"EDHI","rawText":"EDHI 222250Z AUTO 14006KT 110V170 9999 // BKN230/// M04/M06 Q1002","observationTime":"2019-01-22T22:50:00Z","temp":-4,"dewpoint":-6,"windDirection":140,"windSpeed":11.112,"visibility":6.21,"altim":29.586615,"flightCategory":"VFR","metarType":"METAR","geometry_esri":{"x":53.53,"y":9.83,"z":13}}}