{"type":"Feature","geometry":{"type":"Point","coordinates":[53.53,9.83,13]},"properties":{"stationId":"EDHI","rawText":"EDHI 250420Z AUTO 27012KT 9999 // SCT033/// OVC038/// 05/02 Q1029","observationTime":"2018-12-25T04:20:00Z","temp":5,"dewpoint":2,"windDirection":270,"windSpeed":22.224,"visibility":6.21,"altim":30.383858,"flightCategory":"VFR","metarType":"METAR","geometry_esri":{"x":53.53,"y":9.83,"z":13}}}