{"type":"Feature","geometry":{"type":"Point","coordinates":[53.53,9.83,13]},"properties":{"stationId":"EDHI","rawText":"EDHI 310620Z AUTO 09003KT 0400 0250 R05/1600U // FEW001/// BKN003/// M00/M01 Q1027","observationTime":"2019-10-31T06:20:00Z","temp":0,"dewpoint":-1,"windDirection":90,"windSpeed":5.556,"visibility":0.25,"altim":30.324802,"flightCategory":"LIFR","metarType":"METAR","geometry_esri":{"x":53.53,"y":9.83,"z":13}}}