{"type":"Feature","geometry":{"type":"Point","coordinates":[53.53,9.83,13]},"properties":{"stationId":"EDHI","rawText":"EDHI 220520Z AUTO 31006KT 280V340 7000 // SCT008/// BKN013/// OVC020/// 06/05 Q1003","observationTime":"2018-12-22T05:20:00Z","temp":6,"dewpoint":5,"windDirection":310,"windSpeed":11.112,"visibility":4.35,"altim":29.616142,"flightCategory":"MVFR","metarType":"METAR","geometry_esri":{"x":53.53,"y":9.83,"z":13}}}