{"type":"Feature","geometry":{"type":"Point","coordinates":[53.53,9.83,13]},"properties":{"stationId":"EDHI","rawText":"EDHI 071920Z 20014KT 9999 FEW045 08/03 Q0993","observationTime":"2019-03-07T19:20:00Z","temp":8,"dewpoint":3,"windDirection":200,"windSpeed":25.928,"visibility":6.21,"altim":29.320866,"flightCategory":"VFR","metarType":"METAR","geometry_esri":{"x":53.53,"y":9.83,"z":13}}}