{"type":"Feature","geometry":{"type":"Point","coordinates":[53.53,9.83,13]},"properties":{"stationId":"EDHI","rawText":"EDHI 011620Z AUTO 23007KT 2200 // BKN001/// OVC004/// M01/M01 Q1030","observationTime":"2020-01-01T16:20:00Z","temp":-1,"dewpoint":-1,"windDirection":230,"windSpeed":12.964,"visibility":1.37,"altim":30.413385,"flightCategory":"LIFR","metarType":"METAR","geometry_esri":{"x":53.53,"y":9.83,"z":13}}}