{"type":"Feature","geometry":{"type":"Point","coordinates":[53.53,9.83,13]},"properties":{"stationId":"EDHI","rawText":"EDHI 240520Z 25011KT 9999 SCT014 BKN017 05/03 Q1018","observationTime":"2020-02-24T05:20:00Z","temp":5,"dewpoint":3,"windDirection":250,"windSpeed":20.372,"visibility":6.21,"altim":30.059055,"flightCategory":"MVFR","metarType":"METAR","geometry_esri":{"x":53.53,"y":9.83,"z":13}}}