{"type":"Feature","geometry":{"type":"Point","coordinates":[53.53,9.83,13]},"properties":{"stationId":"EDHI","rawText":"EDHI 250120Z AUTO 27008KT 9999 // FEW043/// OVC150/// 04/02 Q1030","observationTime":"2018-12-25T01:20:00Z","temp":4,"dewpoint":2,"windDirection":270,"windSpeed":14.816,"visibility":6.21,"altim":30.413385,"flightCategory":"VFR","metarType":"METAR","geometry_esri":{"x":53.53,"y":9.83,"z":13}}}