{"type":"Feature","geometry":{"type":"Point","coordinates":[53.53,9.83,13]},"properties":{"stationId":"EDHI","rawText":"EDHI 280350Z AUTO 29009KT 8000 // OVC006/// 07/07 Q1032","observationTime":"2019-03-28T03:50:00Z","temp":7,"dewpoint":7,"windDirection":290,"windSpeed":16.668,"visibility":4.97,"altim":30.47244,"flightCategory":"IFR","metarType":"METAR","geometry_esri":{"x":53.53,"y":9.83,"z":13}}}