{"type":"Feature","geometry":{"type":"Point","coordinates":[53.53,9.83,13]},"properties":{"stationId":"EDHI","rawText":"EDHI 151620Z 30013KT 9999 SCT034 12/06 Q1019","observationTime":"2020-05-15T16:20:00Z","temp":12,"dewpoint":6,"windDirection":300,"windSpeed":24.076,"visibility":6.21,"altim":30.088583,"flightCategory":"VFR","metarType":"METAR","geometry_esri":{"x":53.53,"y":9.83,"z":13}}}