{"type":"Feature","geometry":{"type":"Point","coordinates":[53.53,9.83,13]},"properties":{"stationId":"EDHI","rawText":"EDHI 280520Z AUTO 25003KT 220V020 6000 // NCD M00/M02 Q1023","observationTime":"2020-03-28T05:20:00Z","temp":0,"dewpoint":-2,"windDirection":250,"windSpeed":5.556,"visibility":3.73,"altim":30.206694,"flightCategory":"MVFR","metarType":"METAR","geometry_esri":{"x":53.53,"y":9.83,"z":13}}}