{"type":"Feature","geometry":{"type":"Point","coordinates":[53.53,9.83,13]},"properties":{"stationId":"EDHI","rawText":"EDHI 280650Z 15004KT 120V200 9999 FEW022 SCT028 BKN045 03/01 Q0986","observationTime":"2019-01-28T06:50:00Z","temp":3,"dewpoint":1,"windDirection":150,"windSpeed":7.408,"visibility":6.21,"altim":29.114174,"flightCategory":"VFR","metarType":"METAR","geometry_esri":{"x":53.53,"y":9.83,"z":13}}}