{"type":"Feature","geometry":{"type":"Point","coordinates":[53.53,9.83,13]},"properties":{"stationId":"EDHI","rawText":"EDHI 290750Z 20012KT 3000 -RA BKN006 BKN010 OVC013 07/06 Q0993","observationTime":"2020-02-29T07:50:00Z","temp":7,"dewpoint":6,"windDirection":200,"windSpeed":22.224,"visibility":1.86,"altim":29.320866,"flightCategory":"IFR","metarType":"METAR","geometry_esri":{"x":53.53,"y":9.83,"z":13}}}