{"type":"Feature","geometry":{"type":"Point","coordinates":[53.53,9.83,13]},"properties":{"stationId":"EDHI","rawText":"EDHI 270520Z AUTO VRB02KT 3500 // BKN220/// 09/09 Q1011","observationTime":"2019-04-27T05:20:00Z","temp":9,"dewpoint":9,"windDirection":0,"windSpeed":3.704,"visibility":2.17,"altim":29.852362,"flightCategory":"IFR","metarType":"METAR","geometry_esri":{"x":53.53,"y":9.83,"z":13}}}