{"type":"Feature","geometry":{"type":"Point","coordinates":[53.53,9.83,13]},"properties":{"stationId":"EDHI","rawText":"EDHI 091850Z AUTO 21027G42KT 9999 3100 // OVC032/// 11/07 Q0985","observationTime":"2020-02-09T18:50:00Z","temp":11,"dewpoint":7,"windDirection":210,"windSpeed":50.004000000000005,"visibility":6.21,"altim":29.084646,"flightCategory":"VFR","metarType":"METAR","geometry_esri":{"x":53.53,"y":9.83,"z":13}}}