{"type":"Feature","geometry":{"type":"Point","coordinates":[53.53,9.83,13]},"properties":{"stationId":"EDHI","rawText":"EDHI 091720Z 34006KT 300V020 9999 -RA FEW025 SCT033 15/13 Q1012","observationTime":"2019-09-09T17:20:00Z","temp":15,"dewpoint":13,"windDirection":340,"windSpeed":11.112,"visibility":6.21,"altim":29.88189,"flightCategory":"VFR","metarType":"METAR","geometry_esri":{"x":53.53,"y":9.83,"z":13}}}