{"type":"Feature","geometry":{"type":"Point","coordinates":[53.53,9.83,13]},"properties":{"stationId":"EDHI","rawText":"EDHI 300950Z AUTO 21014KT 180V240 9999 // BKN022/// OVC026/// 15/11 Q1020","observationTime":"2019-05-30T09:50:00Z","temp":15,"dewpoint":11,"windDirection":210,"windSpeed":25.928,"visibility":6.21,"altim":30.11811,"flightCategory":"MVFR","metarType":"METAR","geometry_esri":{"x":53.53,"y":9.83,"z":13}}}