{"type":"Feature","geometry":{"type":"Point","coordinates":[53.53,9.83,13]},"properties":{"stationId":"EDHI","rawText":"EDHI 300320Z AUTO 24012KT 9000 // SCT005/// BKN008/// OVC017/// 15/15 Q0988","observationTime":"2019-09-30T03:20:00Z","temp":15,"dewpoint":15,"windDirection":240,"windSpeed":22.224,"visibility":5.59,"altim":29.17323,"flightCategory":"IFR","metarType":"METAR","geometry_esri":{"x":53.53,"y":9.83,"z":13}}}