{"type":"Feature","geometry":{"type":"Point","coordinates":[53.53,9.83,13]},"properties":{"stationId":"EDHI","rawText":"EDHI 081120Z 29018KT 9999 FEW034 SCT040 08/01 Q1006","observationTime":"2019-03-08T11:20:00Z","temp":8,"dewpoint":1,"windDirection":290,"windSpeed":33.336,"visibility":6.21,"altim":29.704725,"flightCategory":"VFR","metarType":"METAR","geometry_esri":{"x":53.53,"y":9.83,"z":13}}}