{"type":"Feature","geometry":{"type":"Point","coordinates":[53.53,9.83,13]},"properties":{"stationId":"EDHI","rawText":"EDHI 062120Z AUTO 05006KT 8000 // NCD 12/08 Q1007","observationTime":"2019-04-06T21:20:00Z","temp":12,"dewpoint":8,"windDirection":50,"windSpeed":11.112,"visibility":4.97,"altim":29.734253,"flightCategory":"MVFR","metarType":"METAR","geometry_esri":{"x":53.53,"y":9.83,"z":13}}}