{"type":"Feature","geometry":{"type":"Point","coordinates":[53.53,9.83,13]},"properties":{"stationId":"EDHI","rawText":"EDHI 091820Z AUTO 21030G46KT 3500 // BKN036/// OVC042/// 12/06 Q0986","observationTime":"2020-02-09T18:20:00Z","temp":12,"dewpoint":6,"windDirection":210,"windSpeed":55.56,"visibility":2.17,"altim":29.114174,"flightCategory":"IFR","metarType":"METAR","geometry_esri":{"x":53.53,"y":9.83,"z":13}}}