{"type":"Feature","geometry":{"type":"Point","coordinates":[53.53,9.83,13]},"properties":{"stationId":"EDHI","rawText":"EDHI 100520Z AUTO 20013KT 9999 // FEW032/// BKN110/// OVC150/// 07/03 Q0998","observationTime":"2019-02-10T05:20:00Z","temp":7,"dewpoint":3,"windDirection":200,"windSpeed":24.076,"visibility":6.21,"altim":29.468504,"flightCategory":"VFR","metarType":"METAR","geometry_esri":{"x":53.53,"y":9.83,"z":13}}}