{"type":"Feature","geometry":{"type":"Point","coordinates":[53.53,9.83,13]},"properties":{"stationId":"EDHI","rawText":"EDHI 180650Z VRB03KT CAVOK 18/13 Q1012","observationTime":"2019-07-18T06:50:00Z","temp":18,"dewpoint":13,"windDirection":0,"windSpeed":5.556,"visibility":6.21,"altim":29.88189,"flightCategory":"VFR","metarType":"METAR","geometry_esri":{"x":53.53,"y":9.83,"z":13}}}