{"type":"Feature","geometry":{"type":"Point","coordinates":[53.53,9.83,13]},"properties":{"stationId":"EDHI","rawText":"EDHI 072120Z AUTO 26004KT 190V330 6000 // OVC054/// 18/15 Q1011","observationTime":"2019-06-07T21:20:00Z","temp":18,"dewpoint":15,"windDirection":260,"windSpeed":7.408,"visibility":3.73,"altim":29.852362,"flightCategory":"MVFR","metarType":"METAR","geometry_esri":{"x":53.53,"y":9.83,"z":13}}}