{"type":"Feature","geometry":{"type":"Point","coordinates":[53.53,9.83,13]},"properties":{"stationId":"EDHI","rawText":"EDHI 171420Z AUTO 24015KT 9999 // FEW008/// SCT029/// BKN110/// 08/03 Q0998","observationTime":"2019-03-17T14:20:00Z","temp":8,"dewpoint":3,"windDirection":240,"windSpeed":27.78,"visibility":6.21,"altim":29.468504,"flightCategory":"VFR","metarType":"METAR","geometry_esri":{"x":53.53,"y":9.83,"z":13}}}