{"type":"Feature","geometry":{"type":"Point","coordinates":[53.53,9.83,13]},"properties":{"stationId":"EDHI","rawText":"EDHI 181450Z 21006KT 180V240 4500 -DZ BR OVC004 07/06 Q1003","observationTime":"2019-11-18T14:50:00Z","temp":7,"dewpoint":6,"windDirection":210,"windSpeed":11.112,"visibility":2.8,"altim":29.616142,"flightCategory":"LIFR","metarType":"METAR","geometry_esri":{"x":53.53,"y":9.83,"z":13}}}