{"type":"Feature","geometry":{"type":"Point","coordinates":[53.53,9.83,13]},"properties":{"stationId":"EDHI","rawText":"EDHI 211520Z 13009KT 100V170 4100 -RA BKN006 BKN014 07/06 Q0994","observationTime":"2018-12-21T15:20:00Z","temp":7,"dewpoint":6,"windDirection":130,"windSpeed":16.668,"visibility":2.55,"altim":29.350393,"flightCategory":"IFR","metarType":"METAR","geometry_esri":{"x":53.53,"y":9.83,"z":13}}}