{"type":"Feature","geometry":{"type":"Point","coordinates":[53.53,9.83,13]},"properties":{"stationId":"EDHI","rawText":"EDHI 122320Z AUTO 23004KT 9999 // BKN024/// BKN037/// OVC087/// 06/04 Q1012","observationTime":"2020-05-12T23:20:00Z","temp":6,"dewpoint":4,"windDirection":230,"windSpeed":7.408,"visibility":6.21,"altim":29.88189,"flightCategory":"MVFR","metarType":"METAR","geometry_esri":{"x":53.53,"y":9.83,"z":13}}}