{"type":"Feature","geometry":{"type":"Point","coordinates":[53.53,9.83,13]},"properties":{"stationId":"EDHI","rawText":"EDHI 231620Z 27008KT 5000 VCSH BR BKN006 16/15 Q1013","observationTime":"2019-09-23T16:20:00Z","temp":16,"dewpoint":15,"windDirection":270,"windSpeed":14.816,"visibility":3.11,"altim":29.911417,"flightCategory":"IFR","metarType":"METAR","geometry_esri":{"x":53.53,"y":9.83,"z":13}}}