{"type":"Feature","geometry":{"type":"Point","coordinates":[53.53,9.83,13]},"properties":{"stationId":"EDHI","rawText":"EDHI 041220Z 35005KT 310V010 9999 BKN015 10/06 Q1000","observationTime":"2019-04-04T12:20:00Z","temp":10,"dewpoint":6,"windDirection":350,"windSpeed":9.26,"visibility":6.21,"altim":29.52756,"flightCategory":"MVFR","metarType":"METAR","geometry_esri":{"x":53.53,"y":9.83,"z":13}}}