{"type":"Feature","geometry":{"type":"Point","coordinates":[53.53,9.83,13]},"properties":{"stationId":"EDHI","rawText":"EDHI 290420Z AUTO VRB02KT 0450 R23/P2000N // SCT004/// 10/10 Q1022","observationTime":"2019-06-29T04:20:00Z","temp":10,"dewpoint":10,"windDirection":0,"windSpeed":3.704,"visibility":0.28,"altim":30.177166,"flightCategory":"LIFR","metarType":"METAR","geometry_esri":{"x":53.53,"y":9.83,"z":13}}}