{"type":"Feature","geometry":{"type":"Point","coordinates":[53.53,9.83,13]},"properties":{"stationId":"EDHI","rawText":"EDHI 230750Z 27004KT 8000 BKN023 05/04 Q1033","observationTime":"2020-01-23T07:50:00Z","temp":5,"dewpoint":4,"windDirection":270,"windSpeed":7.408,"visibility":4.97,"altim":30.501968,"flightCategory":"MVFR","metarType":"METAR","geometry_esri":{"x":53.53,"y":9.83,"z":13}}}