{"type":"Feature","geometry":{"type":"Point","coordinates":[53.53,9.83,13]},"properties":{"stationId":"EDHI","rawText":"EDHI 130320Z AUTO 33015G26KT 280V010 9999 // SCT032/// BKN091/// BKN180/// 06/M02 Q1015","observationTime":"2020-04-13T03:20:00Z","temp":6,"dewpoint":-2,"windDirection":330,"windSpeed":27.78,"visibility":6.21,"altim":29.970472,"flightCategory":"VFR","metarType":"METAR","geometry_esri":{"x":53.53,"y":9.83,"z":13}}}