{"type":"Feature","geometry":{"type":"Point","coordinates":[53.53,9.83,13]},"properties":{"stationId":"EDHI","rawText":"EDHI 290550Z 10007KT 060V130 9999 BKN009 09/06 Q1003","observationTime":"2020-04-29T05:50:00Z","temp":9,"dewpoint":6,"windDirection":100,"windSpeed":12.964,"visibility":6.21,"altim":29.616142,"flightCategory":"IFR","metarType":"METAR","geometry_esri":{"x":53.53,"y":9.83,"z":13}}}