{"type":"Feature","geometry":{"type":"Point","coordinates":[53.53,9.83,13]},"properties":{"stationId":"EDHI","rawText":"EDHI 300250Z AUTO 24004KT 9999 // FEW034/// BKN041/// OVC055/// M02/M06 Q1030","observationTime":"2020-03-30T02:50:00Z","temp":-2,"dewpoint":-6,"windDirection":240,"windSpeed":7.408,"visibility":6.21,"altim":30.413385,"flightCategory":"VFR","metarType":"METAR","geometry_esri":{"x":53.53,"y":9.83,"z":13}}}