{"type":"Feature","geometry":{"type":"Point","coordinates":[53.53,9.83,13]},"properties":{"stationId":"EDHI","rawText":"EDHI 250550Z 12005KT 080V170 3200 BR OVC004 05/05 Q1010","observationTime":"2019-11-25T05:50:00Z","temp":5,"dewpoint":5,"windDirection":120,"windSpeed":9.26,"visibility":1.99,"altim":29.822834,"flightCategory":"LIFR","metarType":"METAR","geometry_esri":{"x":53.53,"y":9.83,"z":13}}}