{"type":"Feature","geometry":{"type":"Point","coordinates":[53.53,9.83,13]},"properties":{"stationId":"EDHI","rawText":"EDHI 221850Z AUTO 30005KT 270V340 9000 // FEW023/// SCT026/// OVC032/// 06/06 Q1013","observationTime":"2018-12-22T18:50:00Z","temp":6,"dewpoint":6,"windDirection":300,"windSpeed":9.26,"visibility":5.59,"altim":29.911417,"flightCategory":"VFR","metarType":"METAR","geometry_esri":{"x":53.53,"y":9.83,"z":13}}}