{"type":"Feature","geometry":{"type":"Point","coordinates":[53.53,9.83,13]},"properties":{"stationId":"EDHI","rawText":"EDHI 131920Z AUTO 23005KT 9999 // FEW027/// 14/10 Q1016","observationTime":"2019-08-13T19:20:00Z","temp":14,"dewpoint":10,"windDirection":230,"windSpeed":9.26,"visibility":6.21,"altim":30,"flightCategory":"VFR","metarType":"METAR","geometry_esri":{"x":53.53,"y":9.83,"z":13}}}