{"type":"Feature","geometry":{"type":"Point","coordinates":[53.53,9.83,13]},"properties":{"stationId":"EDHI","rawText":"EDHI 300120Z AUTO 12004KT 070V160 9999 // NCD 10/04 Q1021","observationTime":"2019-05-30T01:20:00Z","temp":10,"dewpoint":4,"windDirection":120,"windSpeed":7.408,"visibility":6.21,"altim":30.147638,"flightCategory":"VFR","metarType":"METAR","geometry_esri":{"x":53.53,"y":9.83,"z":13}}}