{"type":"Feature","geometry":{"type":"Point","coordinates":[53.53,9.83,13]},"properties":{"stationId":"EDHI","rawText":"EDHI 060320Z AUTO 09003KT 9999 // FEW050/// BKN240/// 06/04 Q1021","observationTime":"2019-10-06T03:20:00Z","temp":6,"dewpoint":4,"windDirection":90,"windSpeed":5.556,"visibility":6.21,"altim":30.147638,"flightCategory":"VFR","metarType":"METAR","geometry_esri":{"x":53.53,"y":9.83,"z":13}}}