{"type":"Feature","geometry":{"type":"Point","coordinates":[53.53,9.83,13]},"properties":{"stationId":"EDHI","rawText":"EDHI 091020Z 25025G36KT 9999 FEW030CB BKN034 08/03 Q1003","observationTime":"2019-03-09T10:20:00Z","temp":8,"dewpoint":3,"windDirection":250,"windSpeed":46.300000000000004,"visibility":6.21,"altim":29.616142,"flightCategory":"VFR","metarType":"METAR","geometry_esri":{"x":53.53,"y":9.83,"z":13}}}