{"type":"Feature","geometry":{"type":"Point","coordinates":[53.53,9.83,13]},"properties":{"stationId":"EDHI","rawText":"EDHI 011450Z AUTO 28004KT 250V320 2400 // OVC003/// 03/03 Q1021","observationTime":"2019-12-01T14:50:00Z","temp":3,"dewpoint":3,"windDirection":280,"windSpeed":7.408,"visibility":1.49,"altim":30.147638,"flightCategory":"LIFR","metarType":"METAR","geometry_esri":{"x":53.53,"y":9.83,"z":13}}}