{"type":"Feature","geometry":{"type":"Point","coordinates":[53.53,9.83,13]},"properties":{"stationId":"EDHI","rawText":"EDHI 180250Z AUTO 25004KT 9000 // FEW005/// SCT007/// OVC010/// 17/17 Q1005","observationTime":"2019-08-18T02:50:00Z","temp":17,"dewpoint":17,"windDirection":250,"windSpeed":7.408,"visibility":5.59,"altim":29.675198,"flightCategory":"MVFR","metarType":"METAR","geometry_esri":{"x":53.53,"y":9.83,"z":13}}}