{"type":"Feature","geometry":{"type":"Point","coordinates":[53.53,9.83,13]},"properties":{"stationId":"EDHI","rawText":"EDHI 231020Z 11004KT 060V210 CAVOK 18/09 Q1012","observationTime":"2019-09-23T10:20:00Z","temp":18,"dewpoint":9,"windDirection":110,"windSpeed":7.408,"visibility":6.21,"altim":29.88189,"flightCategory":"VFR","metarType":"METAR","geometry_esri":{"x":53.53,"y":9.83,"z":13}}}