{"type":"Feature","geometry":{"type":"Point","coordinates":[53.53,9.83,13]},"properties":{"stationId":"EDHI","rawText":"EDHI 171350Z 27005KT 230V320 CAVOK 14/02 Q1018","observationTime":"2020-04-17T13:50:00Z","temp":14,"dewpoint":2,"windDirection":270,"windSpeed":9.26,"visibility":6.21,"altim":30.059055,"flightCategory":"VFR","metarType":"METAR","geometry_esri":{"x":53.53,"y":9.83,"z":13}}}