{"type":"Feature","geometry":{"type":"Point","coordinates":[53.53,9.83,13]},"properties":{"stationId":"EDHI","rawText":"EDHI 080720Z 26008KT 9999 FEW011 SCT013 BKN037 13/11 Q1015","observationTime":"2019-07-08T07:20:00Z","temp":13,"dewpoint":11,"windDirection":260,"windSpeed":14.816,"visibility":6.21,"altim":29.970472,"flightCategory":"VFR","metarType":"METAR","geometry_esri":{"x":53.53,"y":9.83,"z":13}}}