{"type":"Feature","geometry":{"type":"Point","coordinates":[53.53,9.83,13]},"properties":{"stationId":"EDHI","rawText":"EDHI 282050Z AUTO 25019KT 3100 // FEW021/// BKN025/// OVC030/// 04/02 Q0991","observationTime":"2020-01-28T20:50:00Z","temp":4,"dewpoint":2,"windDirection":250,"windSpeed":35.188,"visibility":1.93,"altim":29.26181,"flightCategory":"IFR","metarType":"METAR","geometry_esri":{"x":53.53,"y":9.83,"z":13}}}