{"type":"Feature","geometry":{"type":"Point","coordinates":[53.53,9.83,13]},"properties":{"stationId":"EDHI","rawText":"EDHI 260220Z AUTO VRB02KT 9999 // SCT046/// OVC160/// 08/06 Q1013","observationTime":"2019-05-26T02:20:00Z","temp":8,"dewpoint":6,"windDirection":0,"windSpeed":3.704,"visibility":6.21,"altim":29.911417,"flightCategory":"VFR","metarType":"METAR","geometry_esri":{"x":53.53,"y":9.83,"z":13}}}