{"type":"Feature","geometry":{"type":"Point","coordinates":[53.53,9.83,13]},"properties":{"stationId":"EDHI","rawText":"EDHI 171920Z 07006KT CAVOK 11/03 Q1018","observationTime":"2020-04-17T19:20:00Z","temp":11,"dewpoint":3,"windDirection":70,"windSpeed":11.112,"visibility":6.21,"altim":30.059055,"flightCategory":"VFR","metarType":"METAR","geometry_esri":{"x":53.53,"y":9.83,"z":13}}}