{"type":"Feature","geometry":{"type":"Point","coordinates":[53.53,9.83,13]},"properties":{"stationId":"EDHI","rawText":"EDHI 301820Z AUTO 30008KT 280V340 7000 // BKN057/// BKN094/// 13/08 Q1018","observationTime":"2019-03-30T18:20:00Z","temp":13,"dewpoint":8,"windDirection":300,"windSpeed":14.816,"visibility":4.35,"altim":30.059055,"flightCategory":"MVFR","metarType":"METAR","geometry_esri":{"x":53.53,"y":9.83,"z":13}}}