{"type":"Feature","geometry":{"type":"Point","coordinates":[53.53,9.83,13]},"properties":{"stationId":"EDHI","rawText":"EDHI 221820Z AUTO 26019KT //// R23/P2000N // SCT098/// OVC170/// 09/02 Q1011","observationTime":"2020-02-22T18:20:00Z","temp":9,"dewpoint":2,"windDirection":260,"windSpeed":35.188,"visibility":1.24,"altim":29.852362,"flightCategory":"IFR","metarType":"METAR","geometry_esri":{"x":53.53,"y":9.83,"z":13}}}