{"type":"Feature","geometry":{"type":"Point","coordinates":[53.53,9.83,13]},"properties":{"stationId":"EDHI","rawText":"EDHI 232050Z AUTO 28017KT 9000 2200 // FEW020/// SCT023/// BKN049/// 04/02 Q1012","observationTime":"2020-02-23T20:50:00Z","temp":4,"dewpoint":2,"windDirection":280,"windSpeed":31.484,"visibility":5.59,"altim":29.88189,"flightCategory":"VFR","metarType":"METAR","geometry_esri":{"x":53.53,"y":9.83,"z":13}}}