{"type":"Feature","geometry":{"type":"Point","coordinates":[53.53,9.83,13]},"properties":{"stationId":"EDHI","rawText":"EDHI 262320Z AUTO 20003KT 170V230 3600 1700 // FEW013/// SCT088/// OVC100/// 10/10 Q1013","observationTime":"2019-04-26T23:20:00Z","temp":10,"dewpoint":10,"windDirection":200,"windSpeed":5.556,"visibility":2.24,"altim":29.911417,"flightCategory":"IFR","metarType":"METAR","geometry_esri":{"x":53.53,"y":9.83,"z":13}}}