{"type":"Feature","geometry":{"type":"Point","coordinates":[53.53,9.83,13]},"properties":{"stationId":"EDHI","rawText":"EDHI 051420Z 09007KT 050V130 9999 FEW038 SCT044 09/01 Q0998","observationTime":"2020-03-05T14:20:00Z","temp":9,"dewpoint":1,"windDirection":90,"windSpeed":12.964,"visibility":6.21,"altim":29.468504,"flightCategory":"VFR","metarType":"METAR","geometry_esri":{"x":53.53,"y":9.83,"z":13}}}