{"type":"Feature","geometry":{"type":"Point","coordinates":[53.53,9.83,13]},"properties":{"stationId":"EDHI","rawText":"EDHI 231820Z 10011G22KT 060V190 CAVOK 18/05 Q1003","observationTime":"2019-04-23T18:20:00Z","temp":18,"dewpoint":5,"windDirection":100,"windSpeed":20.372,"visibility":6.21,"altim":29.616142,"flightCategory":"VFR","metarType":"METAR","geometry_esri":{"x":53.53,"y":9.83,"z":13}}}