{"type":"Feature","geometry":{"type":"Point","coordinates":[53.53,9.83,13]},"properties":{"stationId":"EDHI","rawText":"EDHI 080750Z 07005KT 030V100 9000 NSC 11/05 Q1012","observationTime":"2019-04-08T07:50:00Z","temp":11,"dewpoint":5,"windDirection":70,"windSpeed":9.26,"visibility":5.59,"altim":29.88189,"flightCategory":"VFR","metarType":"METAR","geometry_esri":{"x":53.53,"y":9.83,"z":13}}}