{"type":"Feature","geometry":{"type":"Point","coordinates":[53.53,9.83,13]},"properties":{"stationId":"EDHI","rawText":"EDHI 151720Z AUTO 23017G27KT 9999 // BKN030/// BKN037/// 07/03 Q0999","observationTime":"2019-12-15T17:20:00Z","temp":7,"dewpoint":3,"windDirection":230,"windSpeed":31.484,"visibility":6.21,"altim":29.498032,"flightCategory":"MVFR","metarType":"METAR","geometry_esri":{"x":53.53,"y":9.83,"z":13}}}