{"type":"Feature","geometry":{"type":"Point","coordinates":[53.53,9.83,13]},"properties":{"stationId":"EDHI","rawText":"EDHI 270650Z 31010KT 280V360 9999 BKN022 15/11 Q1026","observationTime":"2019-06-27T06:50:00Z","temp":15,"dewpoint":11,"windDirection":310,"windSpeed":18.52,"visibility":6.21,"altim":30.295275,"flightCategory":"MVFR","metarType":"METAR","geometry_esri":{"x":53.53,"y":9.83,"z":13}}}