{"type":"Feature","geometry":{"type":"Point","coordinates":[53.53,9.83,13]},"properties":{"stationId":"EDHI","rawText":"EDHI 260050Z AUTO 20004KT 170V230 9999 // FEW054/// OVC190/// 08/06 Q1014","observationTime":"2019-05-26T00:50:00Z","temp":8,"dewpoint":6,"windDirection":200,"windSpeed":7.408,"visibility":6.21,"altim":29.940945,"flightCategory":"VFR","metarType":"METAR","geometry_esri":{"x":53.53,"y":9.83,"z":13}}}