{"type":"Feature","geometry":{"type":"Point","coordinates":[53.53,9.83,13]},"properties":{"stationId":"EDHI","rawText":"EDHI 180950Z 18007KT 140V220 9999 FEW045 15/12 Q1005","observationTime":"2019-10-18T09:50:00Z","temp":15,"dewpoint":12,"windDirection":180,"windSpeed":12.964,"visibility":6.21,"altim":29.675198,"flightCategory":"VFR","metarType":"METAR","geometry_esri":{"x":53.53,"y":9.83,"z":13}}}