{"type":"Feature","geometry":{"type":"Point","coordinates":[53.53,9.83,13]},"properties":{"stationId":"EDHI","rawText":"EDHI 170620Z AUTO 25010KT 9999 // FEW014/// 10/07 Q1021","observationTime":"2020-05-17T06:20:00Z","temp":10,"dewpoint":7,"windDirection":250,"windSpeed":18.52,"visibility":6.21,"altim":30.147638,"flightCategory":"VFR","metarType":"METAR","geometry_esri":{"x":53.53,"y":9.83,"z":13}}}