{"type":"Feature","geometry":{"type":"Point","coordinates":[53.53,9.83,13]},"properties":{"stationId":"EDHI","rawText":"EDHI 051650Z 30011KT 9999 FEW023 BKN044 17/13 Q1014","observationTime":"2019-07-05T16:50:00Z","temp":17,"dewpoint":13,"windDirection":300,"windSpeed":20.372,"visibility":6.21,"altim":29.940945,"flightCategory":"VFR","metarType":"METAR","geometry_esri":{"x":53.53,"y":9.83,"z":13}}}