{"type":"Feature","geometry":{"type":"Point","coordinates":[53.53,9.83,13]},"properties":{"stationId":"EDHI","rawText":"EDHI 171850Z AUTO 20006KT 9999 // SCT015/// OVC180/// 19/16 Q1007","observationTime":"2019-08-17T18:50:00Z","temp":19,"dewpoint":16,"windDirection":200,"windSpeed":11.112,"visibility":6.21,"altim":29.734253,"flightCategory":"VFR","metarType":"METAR","geometry_esri":{"x":53.53,"y":9.83,"z":13}}}