{"type":"Feature","geometry":{"type":"Point","coordinates":[53.53,9.83,13]},"properties":{"stationId":"EDHI","rawText":"EDHI 310620Z 05004KT CAVOK 01/M03 Q1032","observationTime":"2020-03-31T06:20:00Z","temp":1,"dewpoint":-3,"windDirection":50,"windSpeed":7.408,"visibility":6.21,"altim":30.47244,"flightCategory":"VFR","metarType":"METAR","geometry_esri":{"x":53.53,"y":9.83,"z":13}}}