{"type":"Feature","geometry":{"type":"Point","coordinates":[53.53,9.83,13]},"properties":{"stationId":"EDHI","rawText":"EDHI 031920Z AUTO 27014KT 9000 // SCT017/// BKN023/// BKN045/// 05/03 Q1007","observationTime":"2019-05-03T19:20:00Z","temp":5,"dewpoint":3,"windDirection":270,"windSpeed":25.928,"visibility":5.59,"altim":29.734253,"flightCategory":"MVFR","metarType":"METAR","geometry_esri":{"x":53.53,"y":9.83,"z":13}}}