{"type":"Feature","geometry":{"type":"Point","coordinates":[53.53,9.83,13]},"properties":{"stationId":"EDHI","rawText":"EDHI 150820Z AUTO 21015KT 180V240 9999 // SCT015/// BKN019/// OVC041/// 07/05 Q0989","observationTime":"2019-12-15T08:20:00Z","temp":7,"dewpoint":5,"windDirection":210,"windSpeed":27.78,"visibility":6.21,"altim":29.202755,"flightCategory":"MVFR","metarType":"METAR","geometry_esri":{"x":53.53,"y":9.83,"z":13}}}