{"type":"Feature","geometry":{"type":"Point","coordinates":[53.53,9.83,13]},"properties":{"stationId":"EDHI","rawText":"EDHI 151450Z 13009KT 070V160 9999 BKN028 00/M05 Q1027","observationTime":"2018-12-15T14:50:00Z","temp":0,"dewpoint":-5,"windDirection":130,"windSpeed":16.668,"visibility":6.21,"altim":30.324802,"flightCategory":"MVFR","metarType":"METAR","geometry_esri":{"x":53.53,"y":9.83,"z":13}}}