{"type":"Feature","geometry":{"type":"Point","coordinates":[53.53,9.83,13]},"properties":{"stationId":"EDHI","rawText":"EDHI 261850Z AUTO 24003KT 4300 // FEW038/// BKN046/// 03/03 Q1023","observationTime":"2019-12-26T18:50:00Z","temp":3,"dewpoint":3,"windDirection":240,"windSpeed":5.556,"visibility":2.67,"altim":30.206694,"flightCategory":"IFR","metarType":"METAR","geometry_esri":{"x":53.53,"y":9.83,"z":13}}}