{"type":"Feature","geometry":{"type":"Point","coordinates":[53.53,9.83,13]},"properties":{"stationId":"EDHI","rawText":"EDHI 181120Z AUTO 10007KT 060V180 9999 // NCD 15/M01 Q1018","observationTime":"2020-04-18T11:20:00Z","temp":15,"dewpoint":-1,"windDirection":100,"windSpeed":12.964,"visibility":6.21,"altim":30.059055,"flightCategory":"VFR","metarType":"METAR","geometry_esri":{"x":53.53,"y":9.83,"z":13}}}