{"type":"Feature","geometry":{"type":"Point","coordinates":[53.53,9.83,13]},"properties":{"stationId":"EDHI","rawText":"EDHI 181450Z AUTO 07010KT 020V100 9999 // NCD 16/M03 Q1017","observationTime":"2020-04-18T14:50:00Z","temp":16,"dewpoint":-3,"windDirection":70,"windSpeed":18.52,"visibility":6.21,"altim":30.029528,"flightCategory":"VFR","metarType":"METAR","geometry_esri":{"x":53.53,"y":9.83,"z":13}}}