{"type":"Feature","geometry":{"type":"Point","coordinates":[53.53,9.83,13]},"properties":{"stationId":"EDHI","rawText":"EDHI 221120Z 27006KT 5000 DZ FEW005 SCT011 BKN018 06/06 Q1008","observationTime":"2018-12-22T11:20:00Z","temp":6,"dewpoint":6,"windDirection":270,"windSpeed":11.112,"visibility":3.11,"altim":29.763779,"flightCategory":"MVFR","metarType":"METAR","geometry_esri":{"x":53.53,"y":9.83,"z":13}}}