{"type":"Feature","geometry":{"type":"Point","coordinates":[53.53,9.83,13]},"properties":{"stationId":"EDHI","rawText":"EDHI 190650Z AUTO 08008KT 050V130 9999 // NCD 09/M02 Q1023","observationTime":"2020-04-19T06:50:00Z","temp":9,"dewpoint":-2,"windDirection":80,"windSpeed":14.816,"visibility":6.21,"altim":30.206694,"flightCategory":"VFR","metarType":"METAR","geometry_esri":{"x":53.53,"y":9.83,"z":13}}}