{"type":"Feature","geometry":{"type":"Point","coordinates":[53.53,9.83,13]},"properties":{"stationId":"EDHI","rawText":"EDHI 070250Z AUTO 07006KT 7000 // NCD 09/06 Q1007","observationTime":"2019-04-07T02:50:00Z","temp":9,"dewpoint":6,"windDirection":70,"windSpeed":11.112,"visibility":4.35,"altim":29.734253,"flightCategory":"MVFR","metarType":"METAR","geometry_esri":{"x":53.53,"y":9.83,"z":13}}}