{"type":"Feature","geometry":{"type":"Point","coordinates":[53.53,9.83,13]},"properties":{"stationId":"EDHI","rawText":"EDHI 290720Z 24016G28KT 200V260 8000 -RA FEW010 BKN013 04/03 Q0995","observationTime":"2020-01-29T07:20:00Z","temp":4,"dewpoint":3,"windDirection":240,"windSpeed":29.632,"visibility":4.97,"altim":29.379921,"flightCategory":"MVFR","metarType":"METAR","geometry_esri":{"x":53.53,"y":9.83,"z":13}}}