{"type":"Feature","geometry":{"type":"Point","coordinates":[53.53,9.83,13]},"properties":{"stationId":"EDHI","rawText":"EDHI 071350Z AUTO 07011KT 9999 // FEW230/// 19/01 Q1008","observationTime":"2019-04-07T13:50:00Z","temp":19,"dewpoint":1,"windDirection":70,"windSpeed":20.372,"visibility":6.21,"altim":29.763779,"flightCategory":"VFR","metarType":"METAR","geometry_esri":{"x":53.53,"y":9.83,"z":13}}}