{"type":"Feature","geometry":{"type":"Point","coordinates":[53.53,9.83,13]},"properties":{"stationId":"EDHI","rawText":"EDHI 020450Z AUTO VRB02KT 6000 // OVC006/// 08/08 Q0990","observationTime":"2019-11-02T04:50:00Z","temp":8,"dewpoint":8,"windDirection":0,"windSpeed":3.704,"visibility":3.73,"altim":29.232283,"flightCategory":"IFR","metarType":"METAR","geometry_esri":{"x":53.53,"y":9.83,"z":13}}}