{"type":"Feature","geometry":{"type":"Point","coordinates":[53.53,9.83,13]},"properties":{"stationId":"EDHI","rawText":"EDHI 160120Z AUTO 13009KT 090V160 9999 // SCT013/// BKN018/// M01/M04 Q1018","observationTime":"2018-12-16T01:20:00Z","temp":-1,"dewpoint":-4,"windDirection":130,"windSpeed":16.668,"visibility":6.21,"altim":30.059055,"flightCategory":"MVFR","metarType":"METAR","geometry_esri":{"x":53.53,"y":9.83,"z":13}}}