{"type":"Feature","geometry":{"type":"Point","coordinates":[53.53,9.83,13]},"properties":{"stationId":"EDHI","rawText":"EDHI 230550Z 09013KT 050V150 CAVOK 12/03 Q1010","observationTime":"2019-04-23T05:50:00Z","temp":12,"dewpoint":3,"windDirection":90,"windSpeed":24.076,"visibility":6.21,"altim":29.822834,"flightCategory":"VFR","metarType":"METAR","geometry_esri":{"x":53.53,"y":9.83,"z":13}}}