{"type":"Feature","geometry":{"type":"Point","coordinates":[53.53,9.83,13]},"properties":{"stationId":"EDHI","rawText":"EDHI 072220Z AUTO 07004KT 050V120 9999 // NCD 11/00 Q1010","observationTime":"2019-04-07T22:20:00Z","temp":11,"dewpoint":0,"windDirection":70,"windSpeed":7.408,"visibility":6.21,"altim":29.822834,"flightCategory":"VFR","metarType":"METAR","geometry_esri":{"x":53.53,"y":9.83,"z":13}}}