{"type":"Feature","geometry":{"type":"Point","coordinates":[53.53,9.83,13]},"properties":{"stationId":"EDHI","rawText":"EDHI 181820Z AUTO 24007KT 9999 // FEW056/// 03/02 Q1023","observationTime":"2020-01-18T18:20:00Z","temp":3,"dewpoint":2,"windDirection":240,"windSpeed":12.964,"visibility":6.21,"altim":30.206694,"flightCategory":"VFR","metarType":"METAR","geometry_esri":{"x":53.53,"y":9.83,"z":13}}}