{"type":"Feature","geometry":{"type":"Point","coordinates":[53.53,9.83,13]},"properties":{"stationId":"EDHI","rawText":"EDHI 271920Z AUTO 05013KT 9999 // NCD 08/M02 Q1024","observationTime":"2020-03-27T19:20:00Z","temp":8,"dewpoint":-2,"windDirection":50,"windSpeed":24.076,"visibility":6.21,"altim":30.236221,"flightCategory":"VFR","metarType":"METAR","geometry_esri":{"x":53.53,"y":9.83,"z":13}}}