{"type":"Feature","geometry":{"type":"Point","coordinates":[53.53,9.83,13]},"properties":{"stationId":"EDHI","rawText":"EDHI 280220Z AUTO 20006KT 180V240 9999 // OVC019/// 03/01 Q0986","observationTime":"2019-01-28T02:20:00Z","temp":3,"dewpoint":1,"windDirection":200,"windSpeed":11.112,"visibility":6.21,"altim":29.114174,"flightCategory":"MVFR","metarType":"METAR","geometry_esri":{"x":53.53,"y":9.83,"z":13}}}