{"type":"Feature","geometry":{"type":"Point","coordinates":[53.53,9.83,13]},"properties":{"stationId":"EDHI","rawText":"EDHI 270820Z AUTO 19011KT 9999 // SCT021/// OVC031/// 05/04 Q0984","observationTime":"2019-01-27T08:20:00Z","temp":5,"dewpoint":4,"windDirection":190,"windSpeed":20.372,"visibility":6.21,"altim":29.055119,"flightCategory":"VFR","metarType":"METAR","geometry_esri":{"x":53.53,"y":9.83,"z":13}}}