{"type":"Feature","geometry":{"type":"Point","coordinates":[53.53,9.83,13]},"properties":{"stationId":"EDHI","rawText":"EDHI 070820Z 17009KT 140V200 9999 VCSH SCT047 11/07 Q0987","observationTime":"2019-03-07T08:20:00Z","temp":11,"dewpoint":7,"windDirection":170,"windSpeed":16.668,"visibility":6.21,"altim":29.143702,"flightCategory":"VFR","metarType":"METAR","geometry_esri":{"x":53.53,"y":9.83,"z":13}}}