{"type":"Feature","geometry":{"type":"Point","coordinates":[53.53,9.83,13]},"properties":{"stationId":"EDHI","rawText":"EDHI 070750Z AUTO 28014KT 9999 R/////// // FEW043/// BKN051/// 15/07 Q1010","observationTime":"2019-07-07T07:50:00Z","temp":15,"dewpoint":7,"windDirection":280,"windSpeed":25.928,"visibility":6.21,"altim":29.822834,"flightCategory":"VFR","metarType":"METAR","geometry_esri":{"x":53.53,"y":9.83,"z":13}}}