{"type":"Feature","geometry":{"type":"Point","coordinates":[53.53,9.83,13]},"properties":{"stationId":"EDHI","rawText":"EDHI 031750Z 24010KT 9999 BKN017 07/04 Q1023","observationTime":"2019-12-03T17:50:00Z","temp":7,"dewpoint":4,"windDirection":240,"windSpeed":18.52,"visibility":6.21,"altim":30.206694,"flightCategory":"MVFR","metarType":"METAR","geometry_esri":{"x":53.53,"y":9.83,"z":13}}}