{"type":"Feature","geometry":{"type":"Point","coordinates":[53.53,9.83,13]},"properties":{"stationId":"EDHI","rawText":"EDHI 081120Z 25009KT 220V280 9999 VCSH SCT025CB BKN038 15/11 Q1015","observationTime":"2019-07-08T11:20:00Z","temp":15,"dewpoint":11,"windDirection":250,"windSpeed":16.668,"visibility":6.21,"altim":29.970472,"flightCategory":"VFR","metarType":"METAR","geometry_esri":{"x":53.53,"y":9.83,"z":13}}}