{"type":"Feature","geometry":{"type":"Point","coordinates":[53.53,9.83,13]},"properties":{"stationId":"EDHI","rawText":"EDHI 241420Z 11006KT 060V180 CAVOK 29/13 Q1022","observationTime":"2019-06-24T14:20:00Z","temp":29,"dewpoint":13,"windDirection":110,"windSpeed":11.112,"visibility":6.21,"altim":30.177166,"flightCategory":"VFR","metarType":"METAR","geometry_esri":{"x":53.53,"y":9.83,"z":13}}}