{"type":"Feature","geometry":{"type":"Point","coordinates":[53.53,9.83,13]},"properties":{"stationId":"EDHI","rawText":"EDHI 071520Z 09010KT 030V160 CAVOK 22/10 Q1010","observationTime":"2019-06-07T15:20:00Z","temp":22,"dewpoint":10,"windDirection":90,"windSpeed":18.52,"visibility":6.21,"altim":29.822834,"flightCategory":"VFR","metarType":"METAR","geometry_esri":{"x":53.53,"y":9.83,"z":13}}}