{"type":"Feature","geometry":{"type":"Point","coordinates":[53.53,9.83,13]},"properties":{"stationId":"EDHI","rawText":"EDHI 080720Z 27026G43KT 4500 -SHRA SCT012CB BKN021 06/05 Q0999","observationTime":"2019-01-08T07:20:00Z","temp":6,"dewpoint":5,"windDirection":270,"windSpeed":48.152,"visibility":2.8,"altim":29.498032,"flightCategory":"IFR","metarType":"METAR","geometry_esri":{"x":53.53,"y":9.83,"z":13}}}