{"type":"Feature","geometry":{"type":"Point","coordinates":[53.53,9.83,13]},"properties":{"stationId":"EDHI","rawText":"EDHI 282120Z AUTO 27004KT 9999 // OVC035/// 09/08 Q1034","observationTime":"2019-03-28T21:20:00Z","temp":9,"dewpoint":8,"windDirection":270,"windSpeed":7.408,"visibility":6.21,"altim":30.531496,"flightCategory":"VFR","metarType":"METAR","geometry_esri":{"x":53.53,"y":9.83,"z":13}}}