{"type":"Feature","geometry":{"type":"Point","coordinates":[53.53,9.83,13]},"properties":{"stationId":"EDHI","rawText":"EDHI 270750Z 29013KT 270V330 9999 BKN020 16/12 Q1026","observationTime":"2019-06-27T07:50:00Z","temp":16,"dewpoint":12,"windDirection":290,"windSpeed":24.076,"visibility":6.21,"altim":30.295275,"flightCategory":"MVFR","metarType":"METAR","geometry_esri":{"x":53.53,"y":9.83,"z":13}}}