{"type":"Feature","geometry":{"type":"Point","coordinates":[53.53,9.83,13]},"properties":{"stationId":"EDHI","rawText":"EDHI 260550Z AUTO 25006KT 9000 // FEW026/// BKN039/// 03/03 Q1022","observationTime":"2019-12-26T05:50:00Z","temp":3,"dewpoint":3,"windDirection":250,"windSpeed":11.112,"visibility":5.59,"altim":30.177166,"flightCategory":"VFR","metarType":"METAR","geometry_esri":{"x":53.53,"y":9.83,"z":13}}}