{"type":"Feature","geometry":{"type":"Point","coordinates":[53.53,9.83,13]},"properties":{"stationId":"EDHI","rawText":"EDHI 170950Z AUTO 28009KT 250V310 9999 // SCT041/// SCT050/// 15/05 Q1022","observationTime":"2020-05-17T09:50:00Z","temp":15,"dewpoint":5,"windDirection":280,"windSpeed":16.668,"visibility":6.21,"altim":30.177166,"flightCategory":"VFR","metarType":"METAR","geometry_esri":{"x":53.53,"y":9.83,"z":13}}}