{"type":"Feature","geometry":{"type":"Point","coordinates":[53.53,9.83,13]},"properties":{"stationId":"EDHI","rawText":"EDHI 022220Z AUTO 14008KT 9999 // FEW071/// BKN180/// 10/05 Q1003","observationTime":"2019-04-02T22:20:00Z","temp":10,"dewpoint":5,"windDirection":140,"windSpeed":14.816,"visibility":6.21,"altim":29.616142,"flightCategory":"VFR","metarType":"METAR","geometry_esri":{"x":53.53,"y":9.83,"z":13}}}