{"type":"Feature","geometry":{"type":"Point","coordinates":[53.53,9.83,13]},"properties":{"stationId":"EDHI","rawText":"EDHI 081920Z AUTO 30011KT 9999 // FEW025/// OVC073/// 14/10 Q1016","observationTime":"2019-07-08T19:20:00Z","temp":14,"dewpoint":10,"windDirection":300,"windSpeed":20.372,"visibility":6.21,"altim":30,"flightCategory":"VFR","metarType":"METAR","geometry_esri":{"x":53.53,"y":9.83,"z":13}}}