{"type":"Feature","geometry":{"type":"Point","coordinates":[53.53,9.83,13]},"properties":{"stationId":"EDHI","rawText":"EDHI 292250Z AUTO 25002KT 9999 // NCD 00/M01 Q1030","observationTime":"2019-10-29T22:50:00Z","temp":0,"dewpoint":-1,"windDirection":250,"windSpeed":3.704,"visibility":6.21,"altim":30.413385,"flightCategory":"VFR","metarType":"METAR","geometry_esri":{"x":53.53,"y":9.83,"z":13}}}