{"type":"Feature","geometry":{"type":"Point","coordinates":[53.53,9.83,13]},"properties":{"stationId":"EDHI","rawText":"EDHI 302120Z AUTO 07002KT 9999 2400 // NCD 02/02 Q1029","observationTime":"2019-10-30T21:20:00Z","temp":2,"dewpoint":2,"windDirection":70,"windSpeed":3.704,"visibility":6.21,"altim":30.383858,"flightCategory":"VFR","metarType":"METAR","geometry_esri":{"x":53.53,"y":9.83,"z":13}}}