{"type":"Feature","geometry":{"type":"Point","coordinates":[53.53,9.83,13]},"properties":{"stationId":"EDHI","rawText":"EDHI 100620Z AUTO 06002KT 4700 R/////// // NCD 01/01 Q1011","observationTime":"2019-11-10T06:20:00Z","temp":1,"dewpoint":1,"windDirection":60,"windSpeed":3.704,"visibility":2.92,"altim":29.852362,"flightCategory":"IFR","metarType":"METAR","geometry_esri":{"x":53.53,"y":9.83,"z":13}}}