{"type":"Feature","geometry":{"type":"Point","coordinates":[53.53,9.83,13]},"properties":{"stationId":"EDHI","rawText":"EDHI 091420Z 35012KT 320V040 9999 BKN025 03/M01 Q1016","observationTime":"2019-01-09T14:20:00Z","temp":3,"dewpoint":-1,"windDirection":350,"windSpeed":22.224,"visibility":6.21,"altim":30,"flightCategory":"MVFR","metarType":"METAR","geometry_esri":{"x":53.53,"y":9.83,"z":13}}}