{"type":"Feature","geometry":{"type":"Point","coordinates":[53.53,9.83,13]},"properties":{"stationId":"EDHI","rawText":"EDHI 261820Z AUTO 25010KT 2600 // FEW009/// OVC031/// 16/15 Q1007","observationTime":"2019-05-26T18:20:00Z","temp":16,"dewpoint":15,"windDirection":250,"windSpeed":18.52,"visibility":1.62,"altim":29.734253,"flightCategory":"IFR","metarType":"METAR","geometry_esri":{"x":53.53,"y":9.83,"z":13}}}