{"type":"Feature","geometry":{"type":"Point","coordinates":[53.53,9.83,13]},"properties":{"stationId":"EDHI","rawText":"EDHI 200620Z 11004KT 070V150 5000 -SHRA BR FEW027 SCT035 BKN048 05/04 Q1011","observationTime":"2018-12-20T06:20:00Z","temp":5,"dewpoint":4,"windDirection":110,"windSpeed":7.408,"visibility":3.11,"altim":29.852362,"flightCategory":"MVFR","metarType":"METAR","geometry_esri":{"x":53.53,"y":9.83,"z":13}}}