{"type":"Feature","geometry":{"type":"Point","coordinates":[53.53,9.83,13]},"properties":{"stationId":"EDHI","rawText":"EDHI 030620Z 23005KT 2700 BR OVC002 04/04 Q1025","observationTime":"2019-12-03T06:20:00Z","temp":4,"dewpoint":4,"windDirection":230,"windSpeed":9.26,"visibility":1.68,"altim":30.265747,"flightCategory":"LIFR","metarType":"METAR","geometry_esri":{"x":53.53,"y":9.83,"z":13}}}