{"type":"Feature","geometry":{"type":"Point","coordinates":[53.53,9.83,13]},"properties":{"stationId":"EDHI","rawText":"EDHI 021250Z 01006KT 2900 BR BKN010 OVC034 02/00 Q0999","observationTime":"2019-02-02T12:50:00Z","temp":2,"dewpoint":0,"windDirection":10,"windSpeed":11.112,"visibility":1.8,"altim":29.498032,"flightCategory":"IFR","metarType":"METAR","geometry_esri":{"x":53.53,"y":9.83,"z":13}}}