{"type":"Feature","geometry":{"type":"Point","coordinates":[53.53,9.83,13]},"properties":{"stationId":"EDHI","rawText":"EDHI 210050Z AUTO 27018G30KT 9000 // FEW016/// BKN021/// OVC048/// 05/02 Q1008","observationTime":"2020-02-21T00:50:00Z","temp":5,"dewpoint":2,"windDirection":270,"windSpeed":33.336,"visibility":5.59,"altim":29.763779,"flightCategory":"MVFR","metarType":"METAR","geometry_esri":{"x":53.53,"y":9.83,"z":13}}}