{"type":"Feature","geometry":{"type":"Point","coordinates":[53.53,9.83,13]},"properties":{"stationId":"EDHI","rawText":"EDHI 081720Z AUTO 21008KT 9999 2000 // FEW016/// BKN039/// OVC060/// 09/07 Q1009","observationTime":"2020-03-08T17:20:00Z","temp":9,"dewpoint":7,"windDirection":210,"windSpeed":14.816,"visibility":6.21,"altim":29.793306,"flightCategory":"VFR","metarType":"METAR","geometry_esri":{"x":53.53,"y":9.83,"z":13}}}