{"type":"Feature","geometry":{"type":"Point","coordinates":[53.53,9.83,13]},"properties":{"stationId":"EDHI","rawText":"EDHI 090220Z AUTO 20014KT 9999 // BKN017/// OVC029/// 06/04 Q1003","observationTime":"2019-03-09T02:20:00Z","temp":6,"dewpoint":4,"windDirection":200,"windSpeed":25.928,"visibility":6.21,"altim":29.616142,"flightCategory":"MVFR","metarType":"METAR","geometry_esri":{"x":53.53,"y":9.83,"z":13}}}