{"type":"Feature","geometry":{"type":"Point","coordinates":[53.53,9.83,13]},"properties":{"stationId":"EDHI","rawText":"EDHI 210050Z AUTO 21006KT 180V240 9999 // OVC130/// 08/07 Q0989","observationTime":"2019-12-21T00:50:00Z","temp":8,"dewpoint":7,"windDirection":210,"windSpeed":11.112,"visibility":6.21,"altim":29.202755,"flightCategory":"VFR","metarType":"METAR","geometry_esri":{"x":53.53,"y":9.83,"z":13}}}