{"type":"Feature","geometry":{"type":"Point","coordinates":[53.53,9.83,13]},"properties":{"stationId":"EDHI","rawText":"EDHI 131120Z 31014KT 280V360 9999 SCT039 18/10 Q1030","observationTime":"2019-09-13T11:20:00Z","temp":18,"dewpoint":10,"windDirection":310,"windSpeed":25.928,"visibility":6.21,"altim":30.413385,"flightCategory":"VFR","metarType":"METAR","geometry_esri":{"x":53.53,"y":9.83,"z":13}}}