{"type":"Feature","geometry":{"type":"Point","coordinates":[53.53,9.83,13]},"properties":{"stationId":"EDHI","rawText":"EDHI 180250Z AUTO 21007KT 180V240 5000 // BKN010/// OVC014/// 06/05 Q1022","observationTime":"2018-12-18T02:50:00Z","temp":6,"dewpoint":5,"windDirection":210,"windSpeed":12.964,"visibility":3.11,"altim":30.177166,"flightCategory":"MVFR","metarType":"METAR","geometry_esri":{"x":53.53,"y":9.83,"z":13}}}