{"type":"Feature","geometry":{"type":"Point","coordinates":[53.53,9.83,13]},"properties":{"stationId":"EDHI","rawText":"EDHI 280850Z 26007KT 0650 R05/0800N FG BKN001 07/06 Q1025","observationTime":"2018-12-28T08:50:00Z","temp":7,"dewpoint":6,"windDirection":260,"windSpeed":12.964,"visibility":0.4,"altim":30.265747,"flightCategory":"LIFR","metarType":"METAR","geometry_esri":{"x":53.53,"y":9.83,"z":13}}}