{"type":"Feature","geometry":{"type":"Point","coordinates":[53.53,9.83,13]},"properties":{"stationId":"EDHI","rawText":"EDHI 280720Z 30008KT 270V350 9999 FEW026 SCT030 11/06 Q1007","observationTime":"2019-05-28T07:20:00Z","temp":11,"dewpoint":6,"windDirection":300,"windSpeed":14.816,"visibility":6.21,"altim":29.734253,"flightCategory":"VFR","metarType":"METAR","geometry_esri":{"x":53.53,"y":9.83,"z":13}}}