{"type":"Feature","geometry":{"type":"Point","coordinates":[53.53,9.83,13]},"properties":{"stationId":"EDHI","rawText":"EDHI 131450Z AUTO 33017G29KT 290V360 9999 // SCT067/// 09/M07 Q1019","observationTime":"2020-04-13T14:50:00Z","temp":9,"dewpoint":-7,"windDirection":330,"windSpeed":31.484,"visibility":6.21,"altim":30.088583,"flightCategory":"VFR","metarType":"METAR","geometry_esri":{"x":53.53,"y":9.83,"z":13}}}