{"type":"Feature","geometry":{"type":"Point","coordinates":[53.53,9.83,13]},"properties":{"stationId":"EDHI","rawText":"EDHI 042020Z AUTO 29014KT 9999 // OVC006/// 06/06 Q1025","observationTime":"2019-01-04T20:20:00Z","temp":6,"dewpoint":6,"windDirection":290,"windSpeed":25.928,"visibility":6.21,"altim":30.265747,"flightCategory":"IFR","metarType":"METAR","geometry_esri":{"x":53.53,"y":9.83,"z":13}}}