{"type":"Feature","geometry":{"type":"Point","coordinates":[53.53,9.83,13]},"properties":{"stationId":"EDHI","rawText":"EDHI 090420Z 26004KT 7000 NSC 06/05 Q1023","observationTime":"2020-04-09T04:20:00Z","temp":6,"dewpoint":5,"windDirection":260,"windSpeed":7.408,"visibility":4.35,"altim":30.206694,"flightCategory":"MVFR","metarType":"METAR","geometry_esri":{"x":53.53,"y":9.83,"z":13}}}