{"type":"Feature","geometry":{"type":"Point","coordinates":[53.53,9.83,13]},"properties":{"stationId":"EDHI","rawText":"EDHI 080020Z AUTO 20009KT 9999 3900 // FEW035/// BKN040/// OVC046/// 06/01 Q1015","observationTime":"2020-03-08T00:20:00Z","temp":6,"dewpoint":1,"windDirection":200,"windSpeed":16.668,"visibility":6.21,"altim":29.970472,"flightCategory":"VFR","metarType":"METAR","geometry_esri":{"x":53.53,"y":9.83,"z":13}}}