{"type":"Feature","geometry":{"type":"Point","coordinates":[53.53,9.83,13]},"properties":{"stationId":"EDHI","rawText":"EDHI 031550Z AUTO 25003KT 4200 // BKN004/// OVC006/// 09/09 Q0999","observationTime":"2019-03-03T15:50:00Z","temp":9,"dewpoint":9,"windDirection":250,"windSpeed":5.556,"visibility":2.61,"altim":29.498032,"flightCategory":"LIFR","metarType":"METAR","geometry_esri":{"x":53.53,"y":9.83,"z":13}}}