{"type":"Feature","geometry":{"type":"Point","coordinates":[53.53,9.83,13]},"properties":{"stationId":"EDHI","rawText":"EDHI 260120Z AUTO 16004KT 120V180 4800 // OVC004/// 05/04 Q1008","observationTime":"2019-11-26T01:20:00Z","temp":5,"dewpoint":4,"windDirection":160,"windSpeed":7.408,"visibility":2.98,"altim":29.763779,"flightCategory":"LIFR","metarType":"METAR","geometry_esri":{"x":53.53,"y":9.83,"z":13}}}