{"type":"Feature","geometry":{"type":"Point","coordinates":[53.53,9.83,13]},"properties":{"stationId":"EDHI","rawText":"EDHI 010120Z AUTO 30012KT 8000 // OVC008/// 09/08 Q1017","observationTime":"2019-05-01T01:20:00Z","temp":9,"dewpoint":8,"windDirection":300,"windSpeed":22.224,"visibility":4.97,"altim":30.029528,"flightCategory":"IFR","metarType":"METAR","geometry_esri":{"x":53.53,"y":9.83,"z":13}}}