{"type":"Feature","geometry":{"type":"Point","coordinates":[53.53,9.83,13]},"properties":{"stationId":"EDHI","rawText":"EDHI 130020Z AUTO 27006KT 5000 // SCT006/// OVC009/// 16/15 Q1011","observationTime":"2019-07-13T00:20:00Z","temp":16,"dewpoint":15,"windDirection":270,"windSpeed":11.112,"visibility":3.11,"altim":29.852362,"flightCategory":"IFR","metarType":"METAR","geometry_esri":{"x":53.53,"y":9.83,"z":13}}}