{"type":"Feature","geometry":{"type":"Point","coordinates":[53.53,9.83,13]},"properties":{"stationId":"EDHI","rawText":"EDHI 270250Z AUTO 31009KT 280V350 9999 // OVC021/// 14/10 Q1025","observationTime":"2019-06-27T02:50:00Z","temp":14,"dewpoint":10,"windDirection":310,"windSpeed":16.668,"visibility":6.21,"altim":30.265747,"flightCategory":"MVFR","metarType":"METAR","geometry_esri":{"x":53.53,"y":9.83,"z":13}}}