{"type":"Feature","geometry":{"type":"Point","coordinates":[53.53,9.83,13]},"properties":{"stationId":"EDHI","rawText":"EDHI 280950Z 27007KT 6000 BKN007 OVC017 09/08 Q1034","observationTime":"2019-03-28T09:50:00Z","temp":9,"dewpoint":8,"windDirection":270,"windSpeed":12.964,"visibility":3.73,"altim":30.531496,"flightCategory":"IFR","metarType":"METAR","geometry_esri":{"x":53.53,"y":9.83,"z":13}}}