{"type":"Feature","geometry":{"type":"Point","coordinates":[53.53,9.83,13]},"properties":{"stationId":"EDHI","rawText":"EDHI 091850Z AUTO 02006KT 9999 // BKN077/// 21/07 Q1011","observationTime":"2020-05-09T18:50:00Z","temp":21,"dewpoint":7,"windDirection":20,"windSpeed":11.112,"visibility":6.21,"altim":29.852362,"flightCategory":"VFR","metarType":"METAR","geometry_esri":{"x":53.53,"y":9.83,"z":13}}}