{"type":"Feature","geometry":{"type":"Point","coordinates":[53.53,9.83,13]},"properties":{"stationId":"EDHI","rawText":"EDHI 191350Z 11006KT 070V140 CAVOK 10/06 Q1010","observationTime":"2019-12-19T13:50:00Z","temp":10,"dewpoint":6,"windDirection":110,"windSpeed":11.112,"visibility":6.21,"altim":29.822834,"flightCategory":"VFR","metarType":"METAR","geometry_esri":{"x":53.53,"y":9.83,"z":13}}}