{"type":"Feature","geometry":{"type":"Point","coordinates":[53.53,9.83,13]},"properties":{"stationId":"EDHI","rawText":"EDHI 130320Z AUTO 32003KT 290V350 6000 // OVC007/// 17/15 Q1011","observationTime":"2019-07-13T03:20:00Z","temp":17,"dewpoint":15,"windDirection":320,"windSpeed":5.556,"visibility":3.73,"altim":29.852362,"flightCategory":"IFR","metarType":"METAR","geometry_esri":{"x":53.53,"y":9.83,"z":13}}}