{"type":"Feature","geometry":{"type":"Point","coordinates":[53.53,9.83,13]},"properties":{"stationId":"EDHI","rawText":"EDHI 290920Z 29005KT 250V360 9999 SCT035 13/05 Q1021","observationTime":"2019-05-29T09:20:00Z","temp":13,"dewpoint":5,"windDirection":290,"windSpeed":9.26,"visibility":6.21,"altim":30.147638,"flightCategory":"VFR","metarType":"METAR","geometry_esri":{"x":53.53,"y":9.83,"z":13}}}