{"type":"Feature","geometry":{"type":"Point","coordinates":[53.53,9.83,13]},"properties":{"stationId":"EDHI","rawText":"EDHI 110850Z 36013KT 330V040 9999 SCT028 08/01 Q1011","observationTime":"2020-05-11T08:50:00Z","temp":8,"dewpoint":1,"windDirection":360,"windSpeed":24.076,"visibility":6.21,"altim":29.852362,"flightCategory":"VFR","metarType":"METAR","geometry_esri":{"x":53.53,"y":9.83,"z":13}}}