{"type":"Feature","geometry":{"type":"Point","coordinates":[53.53,9.83,13]},"properties":{"stationId":"EDHI","rawText":"EDHI 302220Z AUTO 29006KT 3200 // NCD 08/06 Q1020","observationTime":"2019-03-30T22:20:00Z","temp":8,"dewpoint":6,"windDirection":290,"windSpeed":11.112,"visibility":1.99,"altim":30.11811,"flightCategory":"IFR","metarType":"METAR","geometry_esri":{"x":53.53,"y":9.83,"z":13}}}