{"type":"Feature","geometry":{"type":"Point","coordinates":[53.53,9.83,13]},"properties":{"stationId":"EDHI","rawText":"EDHI 230120Z AUTO 11008G18KT 070V140 7000 // SCT008/// OVC010/// 08/06 Q1007","observationTime":"2019-11-23T01:20:00Z","temp":8,"dewpoint":6,"windDirection":110,"windSpeed":14.816,"visibility":4.35,"altim":29.734253,"flightCategory":"MVFR","metarType":"METAR","geometry_esri":{"x":53.53,"y":9.83,"z":13}}}