{"type":"Feature","geometry":{"type":"Point","coordinates":[53.53,9.83,13]},"properties":{"stationId":"EDHI","rawText":"EDHI 171020Z AUTO 25014KT 9999 // BKN020/// BKN027/// OVC110/// 07/04 Q0996","observationTime":"2019-03-17T10:20:00Z","temp":7,"dewpoint":4,"windDirection":250,"windSpeed":25.928,"visibility":6.21,"altim":29.409449,"flightCategory":"MVFR","metarType":"METAR","geometry_esri":{"x":53.53,"y":9.83,"z":13}}}