{"type":"Feature","geometry":{"type":"Point","coordinates":[53.53,9.83,13]},"properties":{"stationId":"EDHI","rawText":"EDHI 301020Z 28018G28KT 9999 -SHRA FEW033CB BKN049 14/11 Q1001","observationTime":"2019-09-30T10:20:00Z","temp":14,"dewpoint":11,"windDirection":280,"windSpeed":33.336,"visibility":6.21,"altim":29.557087,"flightCategory":"VFR","metarType":"METAR","geometry_esri":{"x":53.53,"y":9.83,"z":13}}}