{"type":"Feature","geometry":{"type":"Point","coordinates":[53.53,9.83,13]},"properties":{"stationId":"EDHI","rawText":"EDHI 291020Z AUTO 19009KT 160V220 8000 // SCT008/// BKN011/// OVC016/// 13/12 Q1000","observationTime":"2019-09-29T10:20:00Z","temp":13,"dewpoint":12,"windDirection":190,"windSpeed":16.668,"visibility":4.97,"altim":29.52756,"flightCategory":"MVFR","metarType":"METAR","geometry_esri":{"x":53.53,"y":9.83,"z":13}}}