{"type":"Feature","geometry":{"type":"Point","coordinates":[53.53,9.83,13]},"properties":{"stationId":"EDHI","rawText":"EDHI 310350Z AUTO 25004KT 1200 1000 R23/1400U // VV002 06/05 Q1029","observationTime":"2018-12-31T03:50:00Z","temp":6,"dewpoint":5,"windDirection":250,"windSpeed":7.408,"visibility":0.75,"altim":30.383858,"flightCategory":"LIFR","metarType":"METAR","geometry_esri":{"x":53.53,"y":9.83,"z":13}}}