{"type":"Feature","geometry":{"type":"Point","coordinates":[53.53,9.83,13]},"properties":{"stationId":"EDHI","rawText":"EDHI 131550Z 30021G33KT 9999 BKN033 06/00 Q1013","observationTime":"2020-03-13T15:50:00Z","temp":6,"dewpoint":0,"windDirection":300,"windSpeed":38.892,"visibility":6.21,"altim":29.911417,"flightCategory":"VFR","metarType":"METAR","geometry_esri":{"x":53.53,"y":9.83,"z":13}}}