{"type":"Feature","geometry":{"type":"Point","coordinates":[53.53,9.83,13]},"properties":{"stationId":"EDHI","rawText":"EDHI 171150Z 12004KT 080V210 3500 BR FEW004 OVC010 02/02 Q1018","observationTime":"2018-12-17T11:50:00Z","temp":2,"dewpoint":2,"windDirection":120,"windSpeed":7.408,"visibility":2.17,"altim":30.059055,"flightCategory":"IFR","metarType":"METAR","geometry_esri":{"x":53.53,"y":9.83,"z":13}}}