{"type":"Feature","geometry":{"type":"Point","coordinates":[53.53,9.83,13]},"properties":{"stationId":"EDHI","rawText":"EDHI 050350Z AUTO 19003KT 140V250 3800 // NCD M01/M02 Q1018","observationTime":"2019-12-05T03:50:00Z","temp":-1,"dewpoint":-2,"windDirection":190,"windSpeed":5.556,"visibility":2.36,"altim":30.059055,"flightCategory":"IFR","metarType":"METAR","geometry_esri":{"x":53.53,"y":9.83,"z":13}}}