{"type":"Feature","geometry":{"type":"Point","coordinates":[53.53,9.83,13]},"properties":{"stationId":"EDHI","rawText":"EDHI 220450Z AUTO 27010KT 9999 // SCT010/// BKN012/// OVC018/// 07/05 Q1002","observationTime":"2018-12-22T04:50:00Z","temp":7,"dewpoint":5,"windDirection":270,"windSpeed":18.52,"visibility":6.21,"altim":29.586615,"flightCategory":"MVFR","metarType":"METAR","geometry_esri":{"x":53.53,"y":9.83,"z":13}}}