{"type":"Feature","geometry":{"type":"Point","coordinates":[53.53,9.83,13]},"properties":{"stationId":"EDHI","rawText":"EDHI 240220Z AUTO VRB02KT 8000 // SCT012/// SCT024/// OVC092/// 14/14 Q1014","observationTime":"2019-09-24T02:20:00Z","temp":14,"dewpoint":14,"windDirection":0,"windSpeed":3.704,"visibility":4.97,"altim":29.940945,"flightCategory":"MVFR","metarType":"METAR","geometry_esri":{"x":53.53,"y":9.83,"z":13}}}