{"type":"Feature","geometry":{"type":"Point","coordinates":[53.53,9.83,13]},"properties":{"stationId":"EDHI","rawText":"EDHI 112050Z AUTO 19005KT 9999 // FEW063/// OVC150/// 19/11 Q1012","observationTime":"2019-08-11T20:50:00Z","temp":19,"dewpoint":11,"windDirection":190,"windSpeed":9.26,"visibility":6.21,"altim":29.88189,"flightCategory":"VFR","metarType":"METAR","geometry_esri":{"x":53.53,"y":9.83,"z":13}}}