{"type":"Feature","geometry":{"type":"Point","coordinates":[53.53,9.83,13]},"properties":{"stationId":"EDHI","rawText":"EDHI 022020Z AUTO 12007KT 060V190 9999 // FEW066/// BKN083/// OVC095/// 12/05 Q1003","observationTime":"2019-04-02T20:20:00Z","temp":12,"dewpoint":5,"windDirection":120,"windSpeed":12.964,"visibility":6.21,"altim":29.616142,"flightCategory":"VFR","metarType":"METAR","geometry_esri":{"x":53.53,"y":9.83,"z":13}}}