{"type":"Feature","geometry":{"type":"Point","coordinates":[53.53,9.83,13]},"properties":{"stationId":"EDHI","rawText":"EDHI 140150Z AUTO 31007KT 280V340 9999 // NCD 02/M02 Q1021","observationTime":"2020-04-14T01:50:00Z","temp":2,"dewpoint":-2,"windDirection":310,"windSpeed":12.964,"visibility":6.21,"altim":30.147638,"flightCategory":"VFR","metarType":"METAR","geometry_esri":{"x":53.53,"y":9.83,"z":13}}}