{"type":"Feature","geometry":{"type":"Point","coordinates":[53.53,9.83,13]},"properties":{"stationId":"EDHI","rawText":"EDHI 040720Z 26008KT 2200 -DZ BR BKN004 02/02 Q1031","observationTime":"2019-01-04T07:20:00Z","temp":2,"dewpoint":2,"windDirection":260,"windSpeed":14.816,"visibility":1.37,"altim":30.442913,"flightCategory":"LIFR","metarType":"METAR","geometry_esri":{"x":53.53,"y":9.83,"z":13}}}