{"type":"Feature","geometry":{"type":"Point","coordinates":[53.53,9.83,13]},"properties":{"stationId":"EDHI","rawText":"EDHI 310320Z AUTO VRB01KT 1800 // FEW001/// 00/00 Q1028","observationTime":"2019-10-31T03:20:00Z","temp":0,"dewpoint":0,"windDirection":0,"windSpeed":1.852,"visibility":1.12,"altim":30.35433,"flightCategory":"IFR","metarType":"METAR","geometry_esri":{"x":53.53,"y":9.83,"z":13}}}