{"type":"Feature","geometry":{"type":"Point","coordinates":[53.53,9.83,13]},"properties":{"stationId":"EDHI","rawText":"EDHI 021420Z 30017G28KT 270V330 9999 FEW040 17/07 Q1021","observationTime":"2019-07-02T14:20:00Z","temp":17,"dewpoint":7,"windDirection":300,"windSpeed":31.484,"visibility":6.21,"altim":30.147638,"flightCategory":"VFR","metarType":"METAR","geometry_esri":{"x":53.53,"y":9.83,"z":13}}}