{"type":"Feature","geometry":{"type":"Point","coordinates":[53.53,9.83,13]},"properties":{"stationId":"EDHI","rawText":"EDHI 242120Z AUTO 23008KT 200V260 2100 1300 R23/P2000N // OVC004/// 02/01 Q1020","observationTime":"2020-01-24T21:20:00Z","temp":2,"dewpoint":1,"windDirection":230,"windSpeed":14.816,"visibility":1.3,"altim":30.11811,"flightCategory":"LIFR","metarType":"METAR","geometry_esri":{"x":53.53,"y":9.83,"z":13}}}