{"type":"Feature","geometry":{"type":"Point","coordinates":[53.53,9.83,13]},"properties":{"stationId":"EDHI","rawText":"EDHI 301620Z AUTO 30015KT 270V330 9999 // FEW250/// 24/16 Q1012","observationTime":"2019-06-30T16:20:00Z","temp":24,"dewpoint":16,"windDirection":300,"windSpeed":27.78,"visibility":6.21,"altim":29.88189,"flightCategory":"VFR","metarType":"METAR","geometry_esri":{"x":53.53,"y":9.83,"z":13}}}