{"type":"Feature","geometry":{"type":"Point","coordinates":[53.53,9.83,13]},"properties":{"stationId":"EDHI","rawText":"EDHI 130150Z AUTO 32004KT 260V360 5000 // OVC006/// 16/15 Q1011","observationTime":"2019-07-13T01:50:00Z","temp":16,"dewpoint":15,"windDirection":320,"windSpeed":7.408,"visibility":3.11,"altim":29.852362,"flightCategory":"IFR","metarType":"METAR","geometry_esri":{"x":53.53,"y":9.83,"z":13}}}