{"type":"Feature","geometry":{"type":"Point","coordinates":[53.53,9.83,13]},"properties":{"stationId":"EDHI","rawText":"EDHI 260350Z AUTO 26002KT 7000 // OVC210/// 01/M01 Q1034","observationTime":"2019-02-26T03:50:00Z","temp":1,"dewpoint":-1,"windDirection":260,"windSpeed":3.704,"visibility":4.35,"altim":30.531496,"flightCategory":"MVFR","metarType":"METAR","geometry_esri":{"x":53.53,"y":9.83,"z":13}}}