{"type":"Feature","geometry":{"type":"Point","coordinates":[53.53,9.83,13]},"properties":{"stationId":"EDHI","rawText":"EDHI 132120Z AUTO 31007KT 280V350 9999 // OVC025/// 15/11 Q1017","observationTime":"2019-07-13T21:20:00Z","temp":15,"dewpoint":11,"windDirection":310,"windSpeed":12.964,"visibility":6.21,"altim":30.029528,"flightCategory":"MVFR","metarType":"METAR","geometry_esri":{"x":53.53,"y":9.83,"z":13}}}