{"type":"Feature","geometry":{"type":"Point","coordinates":[53.53,9.83,13]},"properties":{"stationId":"EDHI","rawText":"EDHI 282120Z AUTO 05005KT 9999 2700 // BKN077/// BKN100/// 23/18 Q1005","observationTime":"2019-07-28T21:20:00Z","temp":23,"dewpoint":18,"windDirection":50,"windSpeed":9.26,"visibility":6.21,"altim":29.675198,"flightCategory":"VFR","metarType":"METAR","geometry_esri":{"x":53.53,"y":9.83,"z":13}}}