{"type":"Feature","geometry":{"type":"Point","coordinates":[53.53,9.83,13]},"properties":{"stationId":"EDHI","rawText":"EDHI 290850Z 26009KT CAVOK 12/05 Q1032","observationTime":"2019-03-29T08:50:00Z","temp":12,"dewpoint":5,"windDirection":260,"windSpeed":16.668,"visibility":6.21,"altim":30.47244,"flightCategory":"VFR","metarType":"METAR","geometry_esri":{"x":53.53,"y":9.83,"z":13}}}