{"type":"Feature","geometry":{"type":"Point","coordinates":[53.53,9.83,13]},"properties":{"stationId":"EDHI","rawText":"EDHI 130020Z AUTO 28022KT 2800 // FEW011/// SCT013/// OVC021/// 05/03 Q0996","observationTime":"2019-03-13T00:20:00Z","temp":5,"dewpoint":3,"windDirection":280,"windSpeed":40.744,"visibility":1.74,"altim":29.409449,"flightCategory":"IFR","metarType":"METAR","geometry_esri":{"x":53.53,"y":9.83,"z":13}}}