{"type":"Feature","geometry":{"type":"Point","coordinates":[53.53,9.83,13]},"properties":{"stationId":"EDHI","rawText":"EDHI 032150Z AUTO 06004KT 9000 // BKN094/// BKN230/// 09/07 Q0999","observationTime":"2019-04-03T21:50:00Z","temp":9,"dewpoint":7,"windDirection":60,"windSpeed":7.408,"visibility":5.59,"altim":29.498032,"flightCategory":"VFR","metarType":"METAR","geometry_esri":{"x":53.53,"y":9.83,"z":13}}}