{"type":"Feature","geometry":{"type":"Point","coordinates":[53.53,9.83,13]},"properties":{"stationId":"EDHI","rawText":"EDHI 132220Z AUTO 29019G29KT 9999 3700 // BKN013/// OVC022/// 06/05 Q0997","observationTime":"2019-03-13T22:20:00Z","temp":6,"dewpoint":5,"windDirection":290,"windSpeed":35.188,"visibility":6.21,"altim":29.438976,"flightCategory":"MVFR","metarType":"SPECI","geometry_esri":{"x":53.53,"y":9.83,"z":13}}}