{"type":"Feature","geometry":{"type":"Point","coordinates":[53.53,9.83,13]},"properties":{"stationId":"EDHI","rawText":"EDHI 220020Z AUTO 22006KT 2700 // OVC003/// M01/M01 Q1015","observationTime":"2019-01-22T00:20:00Z","temp":-1,"dewpoint":-1,"windDirection":220,"windSpeed":11.112,"visibility":1.68,"altim":29.970472,"flightCategory":"LIFR","metarType":"METAR","geometry_esri":{"x":53.53,"y":9.83,"z":13}}}