{"type":"Feature","geometry":{"type":"Point","coordinates":[53.53,9.83,13]},"properties":{"stationId":"EDHI","rawText":"EDHI 161020Z 23014KT 9999 FEW022 BKN049 OVC061 07/03 Q1004","observationTime":"2019-03-16T10:20:00Z","temp":7,"dewpoint":3,"windDirection":230,"windSpeed":25.928,"visibility":6.21,"altim":29.64567,"flightCategory":"VFR","metarType":"METAR","geometry_esri":{"x":53.53,"y":9.83,"z":13}}}