{"type":"Feature","geometry":{"type":"Point","coordinates":[53.53,9.83,13]},"properties":{"stationId":"EDHI","rawText":"EDHI 050950Z 23006KT 210V270 CAVOK 01/00 Q1018","observationTime":"2019-12-05T09:50:00Z","temp":1,"dewpoint":0,"windDirection":230,"windSpeed":11.112,"visibility":6.21,"altim":30.059055,"flightCategory":"VFR","metarType":"METAR","geometry_esri":{"x":53.53,"y":9.83,"z":13}}}