{"type":"Feature","geometry":{"type":"Point","coordinates":[53.53,9.83,13]},"properties":{"stationId":"EDHI","rawText":"EDHI 251650Z AUTO 33004KT 290V360 9999 // NCD 29/16 Q1019","observationTime":"2019-08-25T16:50:00Z","temp":29,"dewpoint":16,"windDirection":330,"windSpeed":7.408,"visibility":6.21,"altim":30.088583,"flightCategory":"VFR","metarType":"METAR","geometry_esri":{"x":53.53,"y":9.83,"z":13}}}