{"type":"Feature","geometry":{"type":"Point","coordinates":[53.53,9.83,13]},"properties":{"stationId":"EDHI","rawText":"EDHI 280350Z AUTO 19006KT 9999 // FEW025/// BKN032/// OVC042/// 03/01 Q0986","observationTime":"2019-01-28T03:50:00Z","temp":3,"dewpoint":1,"windDirection":190,"windSpeed":11.112,"visibility":6.21,"altim":29.114174,"flightCategory":"VFR","metarType":"METAR","geometry_esri":{"x":53.53,"y":9.83,"z":13}}}