{"type":"Feature","geometry":{"type":"Point","coordinates":[53.53,9.83,13]},"properties":{"stationId":"EDHI","rawText":"EDHI 060220Z AUTO 06005KT 3200 // BKN230/// 07/06 Q1008","observationTime":"2019-04-06T02:20:00Z","temp":7,"dewpoint":6,"windDirection":60,"windSpeed":9.26,"visibility":1.99,"altim":29.763779,"flightCategory":"IFR","metarType":"METAR","geometry_esri":{"x":53.53,"y":9.83,"z":13}}}