{"type":"Feature","geometry":{"type":"Point","coordinates":[53.53,9.83,13]},"properties":{"stationId":"EDHI","rawText":"EDHI 112120Z AUTO 15006KT 120V200 9999 // SCT035/// BKN049/// OVC140/// 04/01 Q1002","observationTime":"2019-11-11T21:20:00Z","temp":4,"dewpoint":1,"windDirection":150,"windSpeed":11.112,"visibility":6.21,"altim":29.586615,"flightCategory":"VFR","metarType":"METAR","geometry_esri":{"x":53.53,"y":9.83,"z":13}}}