{"type":"Feature","geometry":{"type":"Point","coordinates":[53.53,9.83,13]},"properties":{"stationId":"EDHI","rawText":"EDHI 101220Z AUTO 33004KT 290V070 9999 // BKN170/// 23/05 Q1004","observationTime":"2020-05-10T12:20:00Z","temp":23,"dewpoint":5,"windDirection":330,"windSpeed":7.408,"visibility":6.21,"altim":29.64567,"flightCategory":"VFR","metarType":"METAR","geometry_esri":{"x":53.53,"y":9.83,"z":13}}}