{"type":"Feature","geometry":{"type":"Point","coordinates":[53.53,9.83,13]},"properties":{"stationId":"EDHI","rawText":"EDHI 100920Z 09007KT 050V140 9999 SCT039 07/M02 Q1019","observationTime":"2019-04-10T09:20:00Z","temp":7,"dewpoint":-2,"windDirection":90,"windSpeed":12.964,"visibility":6.21,"altim":30.088583,"flightCategory":"VFR","metarType":"METAR","geometry_esri":{"x":53.53,"y":9.83,"z":13}}}