{"type":"Feature","geometry":{"type":"Point","coordinates":[53.53,9.83,13]},"properties":{"stationId":"EDHI","rawText":"EDHI 240220Z AUTO 01010KT 340V040 9999 // SCT009/// OVC014/// 04/02 Q1017","observationTime":"2018-12-24T02:20:00Z","temp":4,"dewpoint":2,"windDirection":10,"windSpeed":18.52,"visibility":6.21,"altim":30.029528,"flightCategory":"MVFR","metarType":"METAR","geometry_esri":{"x":53.53,"y":9.83,"z":13}}}