{"type":"Feature","geometry":{"type":"Point","coordinates":[53.53,9.83,13]},"properties":{"stationId":"EDHI","rawText":"EDHI 141920Z AUTO 29008KT 260V320 9000 // FEW011/// BKN015/// OVC019/// 14/12 Q1017","observationTime":"2019-07-14T19:20:00Z","temp":14,"dewpoint":12,"windDirection":290,"windSpeed":14.816,"visibility":5.59,"altim":30.029528,"flightCategory":"MVFR","metarType":"METAR","geometry_esri":{"x":53.53,"y":9.83,"z":13}}}