{"type":"Feature","geometry":{"type":"Point","coordinates":[53.53,9.83,13]},"properties":{"stationId":"EDHI","rawText":"EDHI 260420Z 24003KT 200V270 CAVOK 22/19 Q1018","observationTime":"2019-06-26T04:20:00Z","temp":22,"dewpoint":19,"windDirection":240,"windSpeed":5.556,"visibility":6.21,"altim":30.059055,"flightCategory":"VFR","metarType":"METAR","geometry_esri":{"x":53.53,"y":9.83,"z":13}}}