{"type":"Feature","geometry":{"type":"Point","coordinates":[53.53,9.83,13]},"properties":{"stationId":"EDHI","rawText":"EDHI 261520Z 06006KT 020V150 CAVOK 32/14 Q1018","observationTime":"2019-08-26T15:20:00Z","temp":32,"dewpoint":14,"windDirection":60,"windSpeed":11.112,"visibility":6.21,"altim":30.059055,"flightCategory":"VFR","metarType":"METAR","geometry_esri":{"x":53.53,"y":9.83,"z":13}}}