{"type":"Feature","geometry":{"type":"Point","coordinates":[53.53,9.83,13]},"properties":{"stationId":"EDHI","rawText":"EDHI 070420Z VRB02KT CAVOK 01/00 Q1020","observationTime":"2019-10-07T04:20:00Z","temp":1,"dewpoint":0,"windDirection":0,"windSpeed":3.704,"visibility":6.21,"altim":30.11811,"flightCategory":"VFR","metarType":"METAR","geometry_esri":{"x":53.53,"y":9.83,"z":13}}}