{"type":"Feature","geometry":{"type":"Point","coordinates":[53.53,9.83,13]},"properties":{"stationId":"EDHI","rawText":"EDHI 101020Z AUTO 05006KT 010V120 9999 // SCT240/// 24/06 Q1005","observationTime":"2020-05-10T10:20:00Z","temp":24,"dewpoint":6,"windDirection":50,"windSpeed":11.112,"visibility":6.21,"altim":29.675198,"flightCategory":"VFR","metarType":"METAR","geometry_esri":{"x":53.53,"y":9.83,"z":13}}}