{"type":"Feature","geometry":{"type":"Point","coordinates":[53.53,9.83,13]},"properties":{"stationId":"EDHI","rawText":"EDHI 261220Z AUTO 24007KT 1000 0900 R05/1800N // BKN002/// OVC005/// 08/07 Q1027","observationTime":"2018-12-26T12:20:00Z","temp":8,"dewpoint":7,"windDirection":240,"windSpeed":12.964,"visibility":0.62,"altim":30.324802,"flightCategory":"LIFR","metarType":"METAR","geometry_esri":{"x":53.53,"y":9.83,"z":13}}}