{"type":"Feature","geometry":{"type":"Point","coordinates":[53.53,9.83,13]},"properties":{"stationId":"EDHI","rawText":"EDHI 151020Z 09009KT 060V130 CAVOK 10/02 Q1029","observationTime":"2019-04-15T10:20:00Z","temp":10,"dewpoint":2,"windDirection":90,"windSpeed":16.668,"visibility":6.21,"altim":30.383858,"flightCategory":"VFR","metarType":"METAR","geometry_esri":{"x":53.53,"y":9.83,"z":13}}}