{"type":"Feature","geometry":{"type":"Point","coordinates":[53.53,9.83,13]},"properties":{"stationId":"EDHI","rawText":"EDHI 161520Z 21007KT 190V250 9999 FEW021 SCT024 14/10 Q1008","observationTime":"2019-10-16T15:20:00Z","temp":14,"dewpoint":10,"windDirection":210,"windSpeed":12.964,"visibility":6.21,"altim":29.763779,"flightCategory":"VFR","metarType":"METAR","geometry_esri":{"x":53.53,"y":9.83,"z":13}}}