{"type":"Feature","geometry":{"type":"Point","coordinates":[53.53,9.83,13]},"properties":{"stationId":"EDHI","rawText":"EDHI 120420Z 21003KT 170V240 4900 BR SCT008 14/13 Q1022","observationTime":"2019-09-12T04:20:00Z","temp":14,"dewpoint":13,"windDirection":210,"windSpeed":5.556,"visibility":3.04,"altim":30.177166,"flightCategory":"MVFR","metarType":"METAR","geometry_esri":{"x":53.53,"y":9.83,"z":13}}}