{"type":"Feature","geometry":{"type":"Point","coordinates":[53.53,9.83,13]},"properties":{"stationId":"EDHI","rawText":"EDHI 250820Z AUTO 27017KT 9999 // OVC035/// 05/03 Q1028","observationTime":"2018-12-25T08:20:00Z","temp":5,"dewpoint":3,"windDirection":270,"windSpeed":31.484,"visibility":6.21,"altim":30.35433,"flightCategory":"VFR","metarType":"METAR","geometry_esri":{"x":53.53,"y":9.83,"z":13}}}