{"type":"Feature","geometry":{"type":"Point","coordinates":[53.53,9.83,13]},"properties":{"stationId":"EDHI","rawText":"EDHI 290920Z AUTO 04022KT 010V070 0900 0800 R23/1300U // SCT013/// BKN041/// OVC052/// 02/00 Q1028","observationTime":"2020-03-29T09:20:00Z","temp":2,"dewpoint":0,"windDirection":40,"windSpeed":40.744,"visibility":0.56,"altim":30.35433,"flightCategory":"LIFR","metarType":"METAR","geometry_esri":{"x":53.53,"y":9.83,"z":13}}}