{"type":"Feature","geometry":{"type":"Point","coordinates":[53.53,9.83,13]},"properties":{"stationId":"EDHI","rawText":"EDHI 121850Z AUTO 23016KT 8000 // SCT011/// OVC015/// 08/06 Q1014","observationTime":"2020-01-12T18:50:00Z","temp":8,"dewpoint":6,"windDirection":230,"windSpeed":29.632,"visibility":4.97,"altim":29.940945,"flightCategory":"MVFR","metarType":"METAR","geometry_esri":{"x":53.53,"y":9.83,"z":13}}}