{"type":"Feature","geometry":{"type":"Point","coordinates":[53.53,9.83,13]},"properties":{"stationId":"EDHI","rawText":"EDHI 210050Z AUTO 24006KT 4700 // FEW075/// 03/03 Q1042","observationTime":"2020-01-21T00:50:00Z","temp":3,"dewpoint":3,"windDirection":240,"windSpeed":11.112,"visibility":2.92,"altim":30.767717,"flightCategory":"IFR","metarType":"METAR","geometry_esri":{"x":53.53,"y":9.83,"z":13}}}