{"type":"Feature","geometry":{"type":"Point","coordinates":[53.53,9.83,13]},"properties":{"stationId":"EDHI","rawText":"EDHI 141220Z AUTO 31009KT 9999 R/////// // SCT016/// BKN019/// OVC026/// 16/12 Q1018","observationTime":"2019-07-14T12:20:00Z","temp":16,"dewpoint":12,"windDirection":310,"windSpeed":16.668,"visibility":6.21,"altim":30.059055,"flightCategory":"MVFR","metarType":"METAR","geometry_esri":{"x":53.53,"y":9.83,"z":13}}}