{"type":"Feature","geometry":{"type":"Point","coordinates":[53.53,9.83,13]},"properties":{"stationId":"EDHI","rawText":"EDHI 010050Z AUTO 22007KT 9999 // FEW037/// OVC100/// 11/10 Q1005","observationTime":"2019-10-01T00:50:00Z","temp":11,"dewpoint":10,"windDirection":220,"windSpeed":12.964,"visibility":6.21,"altim":29.675198,"flightCategory":"VFR","metarType":"METAR","geometry_esri":{"x":53.53,"y":9.83,"z":13}}}