{"type":"Feature","geometry":{"type":"Point","coordinates":[53.53,9.83,13]},"properties":{"stationId":"EDHI","rawText":"EDHI 051420Z 02009KT 360V060 CAVOK 26/18 Q1007","observationTime":"2019-06-05T14:20:00Z","temp":26,"dewpoint":18,"windDirection":20,"windSpeed":16.668,"visibility":6.21,"altim":29.734253,"flightCategory":"VFR","metarType":"METAR","geometry_esri":{"x":53.53,"y":9.83,"z":13}}}