{"type":"Feature","geometry":{"type":"Point","coordinates":[53.53,9.83,13]},"properties":{"stationId":"EDHI","rawText":"EDHI 141020Z AUTO 05012KT 020V090 9999 // BKN026/// BKN044/// OVC050/// 06/01 Q1027","observationTime":"2019-04-14T10:20:00Z","temp":6,"dewpoint":1,"windDirection":50,"windSpeed":22.224,"visibility":6.21,"altim":30.324802,"flightCategory":"MVFR","metarType":"METAR","geometry_esri":{"x":53.53,"y":9.83,"z":13}}}