{"type":"Feature","geometry":{"type":"Point","coordinates":[53.53,9.83,13]},"properties":{"stationId":"EDHI","rawText":"EDHI 220050Z AUTO 11005KT 080V150 9999 // SCT044/// 04/02 Q0986","observationTime":"2019-12-22T00:50:00Z","temp":4,"dewpoint":2,"windDirection":110,"windSpeed":9.26,"visibility":6.21,"altim":29.114174,"flightCategory":"VFR","metarType":"METAR","geometry_esri":{"x":53.53,"y":9.83,"z":13}}}