{"type":"Feature","geometry":{"type":"Point","coordinates":[53.53,9.83,13]},"properties":{"stationId":"EDHI","rawText":"EDHI 291520Z AUTO 21003KT 150V260 9999 // OVC140/// 01/M02 Q1035","observationTime":"2019-12-29T15:20:00Z","temp":1,"dewpoint":-2,"windDirection":210,"windSpeed":5.556,"visibility":6.21,"altim":30.561024,"flightCategory":"VFR","metarType":"METAR","geometry_esri":{"x":53.53,"y":9.83,"z":13}}}