{"type":"Feature","geometry":{"type":"Point","coordinates":[53.53,9.83,13]},"properties":{"stationId":"EDHI","rawText":"EDHI 190350Z AUTO 24012KT 9999 3500 // FEW013/// BKN017/// OVC039/// 05/03 Q1007","observationTime":"2020-02-19T03:50:00Z","temp":5,"dewpoint":3,"windDirection":240,"windSpeed":22.224,"visibility":6.21,"altim":29.734253,"flightCategory":"MVFR","metarType":"METAR","geometry_esri":{"x":53.53,"y":9.83,"z":13}}}