{"type":"Feature","geometry":{"type":"Point","coordinates":[53.53,9.83,13]},"properties":{"stationId":"EDHI","rawText":"EDHI 021620Z 07005KT 030V120 CAVOK 20/15 Q1013","observationTime":"2019-08-02T16:20:00Z","temp":20,"dewpoint":15,"windDirection":70,"windSpeed":9.26,"visibility":6.21,"altim":29.911417,"flightCategory":"VFR","metarType":"METAR","geometry_esri":{"x":53.53,"y":9.83,"z":13}}}