{"type":"Feature","geometry":{"type":"Point","coordinates":[53.53,9.83,13]},"properties":{"stationId":"EDHI","rawText":"EDHI 111050Z 21015KT 180V240 CAVOK 20/09 Q1018","observationTime":"2019-09-11T10:50:00Z","temp":20,"dewpoint":9,"windDirection":210,"windSpeed":27.78,"visibility":6.21,"altim":30.059055,"flightCategory":"VFR","metarType":"METAR","geometry_esri":{"x":53.53,"y":9.83,"z":13}}}