{"type":"Feature","geometry":{"type":"Point","coordinates":[53.53,9.83,13]},"properties":{"stationId":"EDHI","rawText":"EDHI 240450Z AUTO 00000KT 8000 // OVC150/// 04/02 Q1029","observationTime":"2019-03-24T04:50:00Z","temp":4,"dewpoint":2,"windDirection":0,"windSpeed":0,"visibility":4.97,"altim":30.383858,"flightCategory":"MVFR","metarType":"METAR","geometry_esri":{"x":53.53,"y":9.83,"z":13}}}