{"type":"Feature","geometry":{"type":"Point","coordinates":[53.53,9.83,13]},"properties":{"stationId":"EDHI","rawText":"EDHI 101750Z 05012KT CAVOK 07/M06 Q1020","observationTime":"2019-04-10T17:50:00Z","temp":7,"dewpoint":-6,"windDirection":50,"windSpeed":22.224,"visibility":6.21,"altim":30.11811,"flightCategory":"VFR","metarType":"METAR","geometry_esri":{"x":53.53,"y":9.83,"z":13}}}