{"type":"Feature","geometry":{"type":"Point","coordinates":[53.53,9.83,13]},"properties":{"stationId":"EDHI","rawText":"EDHI 100420Z AUTO 27023G34KT 5000 // BKN015/// BKN017/// OVC029/// 07/06 Q0981","observationTime":"2020-02-10T04:20:00Z","temp":7,"dewpoint":6,"windDirection":270,"windSpeed":42.596000000000004,"visibility":3.11,"altim":28.966536,"flightCategory":"MVFR","metarType":"METAR","geometry_esri":{"x":53.53,"y":9.83,"z":13}}}