{"type":"Feature","geometry":{"type":"Point","coordinates":[53.53,9.83,13]},"properties":{"stationId":"EDHI","rawText":"EDHI 251950Z AUTO 13004KT 100V160 9999 // NCD 27/17 Q1018","observationTime":"2019-06-25T19:50:00Z","temp":27,"dewpoint":17,"windDirection":130,"windSpeed":7.408,"visibility":6.21,"altim":30.059055,"flightCategory":"VFR","metarType":"METAR","geometry_esri":{"x":53.53,"y":9.83,"z":13}}}