{"type":"Feature","geometry":{"type":"Point","coordinates":[53.53,9.83,13]},"properties":{"stationId":"EDHI","rawText":"EDHI 091020Z 35013KT 9999 SCT030 BKN037 03/M01 Q1013","observationTime":"2019-01-09T10:20:00Z","temp":3,"dewpoint":-1,"windDirection":350,"windSpeed":24.076,"visibility":6.21,"altim":29.911417,"flightCategory":"VFR","metarType":"METAR","geometry_esri":{"x":53.53,"y":9.83,"z":13}}}