{"type":"Feature","geometry":{"type":"Point","coordinates":[53.53,9.83,13]},"properties":{"stationId":"EDHI","rawText":"EDHI 270220Z AUTO 07003KT 5000 // OVC035/// 03/02 Q1024","observationTime":"2019-12-27T02:20:00Z","temp":3,"dewpoint":2,"windDirection":70,"windSpeed":5.556,"visibility":3.11,"altim":30.236221,"flightCategory":"MVFR","metarType":"METAR","geometry_esri":{"x":53.53,"y":9.83,"z":13}}}