{"type":"Feature","geometry":{"type":"Point","coordinates":[53.53,9.83,13]},"properties":{"stationId":"EDHI","rawText":"EDHI 111950Z AUTO 19003KT 170V230 9999 // FEW081/// OVC150/// 20/12 Q1012","observationTime":"2019-08-11T19:50:00Z","temp":20,"dewpoint":12,"windDirection":190,"windSpeed":5.556,"visibility":6.21,"altim":29.88189,"flightCategory":"VFR","metarType":"METAR","geometry_esri":{"x":53.53,"y":9.83,"z":13}}}