{"type":"Feature","geometry":{"type":"Point","coordinates":[53.53,9.83,13]},"properties":{"stationId":"EDHI","rawText":"EDHI 270250Z AUTO 27002KT 6000 // NCD 02/M00 Q1029","observationTime":"2019-02-27T02:50:00Z","temp":2,"dewpoint":0,"windDirection":270,"windSpeed":3.704,"visibility":3.73,"altim":30.383858,"flightCategory":"MVFR","metarType":"METAR","geometry_esri":{"x":53.53,"y":9.83,"z":13}}}