{"type":"Feature","geometry":{"type":"Point","coordinates":[53.53,9.83,13]},"properties":{"stationId":"EDHI","rawText":"EDHI 140320Z AUTO 29015KT 9999 // FEW049/// OVC059/// 04/M01 Q0999","observationTime":"2019-01-14T03:20:00Z","temp":4,"dewpoint":-1,"windDirection":290,"windSpeed":27.78,"visibility":6.21,"altim":29.498032,"flightCategory":"VFR","metarType":"METAR","geometry_esri":{"x":53.53,"y":9.83,"z":13}}}