{"type":"Feature","geometry":{"type":"Point","coordinates":[53.53,9.83,13]},"properties":{"stationId":"EDHI","rawText":"EDHI 072220Z AUTO 21018KT 9999 // OVC110/// 08/02 Q0992","observationTime":"2019-03-07T22:20:00Z","temp":8,"dewpoint":2,"windDirection":210,"windSpeed":33.336,"visibility":6.21,"altim":29.291338,"flightCategory":"VFR","metarType":"METAR","geometry_esri":{"x":53.53,"y":9.83,"z":13}}}