{"type":"Feature","geometry":{"type":"Point","coordinates":[53.53,9.83,13]},"properties":{"stationId":"EDHI","rawText":"EDHI 192120Z AUTO VRB01KT 9999 // SCT160/// 18/15 Q1006","observationTime":"2019-06-19T21:20:00Z","temp":18,"dewpoint":15,"windDirection":0,"windSpeed":1.852,"visibility":6.21,"altim":29.704725,"flightCategory":"VFR","metarType":"METAR","geometry_esri":{"x":53.53,"y":9.83,"z":13}}}