{"type":"Feature","geometry":{"type":"Point","coordinates":[53.53,9.83,13]},"properties":{"stationId":"EDHI","rawText":"EDHI 152320Z AUTO 30008KT 9999 // SCT014/// BKN017/// 15/12 Q1016","observationTime":"2019-06-15T23:20:00Z","temp":15,"dewpoint":12,"windDirection":300,"windSpeed":14.816,"visibility":6.21,"altim":30,"flightCategory":"MVFR","metarType":"METAR","geometry_esri":{"x":53.53,"y":9.83,"z":13}}}