{"type":"Feature","geometry":{"type":"Point","coordinates":[53.53,9.83,13]},"properties":{"stationId":"EDHI","rawText":"EDHI 020020Z AUTO 25004KT 1200 R23/P2000N // FEW002/// 01/01 Q1019","observationTime":"2019-12-02T00:20:00Z","temp":1,"dewpoint":1,"windDirection":250,"windSpeed":7.408,"visibility":0.75,"altim":30.088583,"flightCategory":"LIFR","metarType":"METAR","geometry_esri":{"x":53.53,"y":9.83,"z":13}}}