{"type":"Feature","geometry":{"type":"Point","coordinates":[53.53,9.83,13]},"properties":{"stationId":"EDHI","rawText":"EDHI 081520Z 29012KT 260V320 9999 SCT043 08/01 Q1010","observationTime":"2019-03-08T15:20:00Z","temp":8,"dewpoint":1,"windDirection":290,"windSpeed":22.224,"visibility":6.21,"altim":29.822834,"flightCategory":"VFR","metarType":"METAR","geometry_esri":{"x":53.53,"y":9.83,"z":13}}}