{"type":"Feature","geometry":{"type":"Point","coordinates":[53.53,9.83,13]},"properties":{"stationId":"EDHI","rawText":"EDHI 160320Z AUTO 22003KT 170V250 6000 // NCD 11/10 Q1017","observationTime":"2019-06-16T03:20:00Z","temp":11,"dewpoint":10,"windDirection":220,"windSpeed":5.556,"visibility":3.73,"altim":30.029528,"flightCategory":"MVFR","metarType":"METAR","geometry_esri":{"x":53.53,"y":9.83,"z":13}}}