{"type":"Feature","geometry":{"type":"Point","coordinates":[53.53,9.83,13]},"properties":{"stationId":"EDHI","rawText":"EDHI 240820Z 10008KT 070V150 CAVOK 24/11 Q1024","observationTime":"2019-06-24T08:20:00Z","temp":24,"dewpoint":11,"windDirection":100,"windSpeed":14.816,"visibility":6.21,"altim":30.236221,"flightCategory":"VFR","metarType":"METAR","geometry_esri":{"x":53.53,"y":9.83,"z":13}}}