{"type":"Feature","geometry":{"type":"Point","coordinates":[53.53,9.83,13]},"properties":{"stationId":"EDHI","rawText":"EDHI 170620Z 12003KT 080V170 1900 BR BKN002 00/00 Q1016","observationTime":"2018-12-17T06:20:00Z","temp":0,"dewpoint":0,"windDirection":120,"windSpeed":5.556,"visibility":1.18,"altim":30,"flightCategory":"LIFR","metarType":"METAR","geometry_esri":{"x":53.53,"y":9.83,"z":13}}}