{"type":"Feature","geometry":{"type":"Point","coordinates":[53.53,9.83,13]},"properties":{"stationId":"EDHI","rawText":"EDHI 251150Z 33011KT 270V010 9999 -SHRA FEW022CB BKN027 06/03 Q1015","observationTime":"2019-03-25T11:50:00Z","temp":6,"dewpoint":3,"windDirection":330,"windSpeed":20.372,"visibility":6.21,"altim":29.970472,"flightCategory":"MVFR","metarType":"METAR","geometry_esri":{"x":53.53,"y":9.83,"z":13}}}