{"type":"Feature","geometry":{"type":"Point","coordinates":[53.53,9.83,13]},"properties":{"stationId":"EDHI","rawText":"EDHI 231120Z AUTO VRB06KT 9999 // NCD 24/12 Q1022","observationTime":"2019-06-23T11:20:00Z","temp":24,"dewpoint":12,"windDirection":0,"windSpeed":11.112,"visibility":6.21,"altim":30.177166,"flightCategory":"VFR","metarType":"METAR","geometry_esri":{"x":53.53,"y":9.83,"z":13}}}