{"type":"Feature","geometry":{"type":"Point","coordinates":[53.53,9.83,13]},"properties":{"stationId":"EDHI","rawText":"EDHI 270520Z 10004KT 060V140 8000 FEW009 SCT018 BKN022 08/07 Q0995","observationTime":"2019-11-27T05:20:00Z","temp":8,"dewpoint":7,"windDirection":100,"windSpeed":7.408,"visibility":4.97,"altim":29.379921,"flightCategory":"MVFR","metarType":"METAR","geometry_esri":{"x":53.53,"y":9.83,"z":13}}}