{"type":"Feature","geometry":{"type":"Point","coordinates":[53.53,9.83,13]},"properties":{"stationId":"EDHI","rawText":"EDHI 141120Z 21014KT 9999 -RA BKN012 09/08 Q1004","observationTime":"2020-01-14T11:20:00Z","temp":9,"dewpoint":8,"windDirection":210,"windSpeed":25.928,"visibility":6.21,"altim":29.64567,"flightCategory":"MVFR","metarType":"METAR","geometry_esri":{"x":53.53,"y":9.83,"z":13}}}