{"type":"Feature","geometry":{"type":"Point","coordinates":[53.53,9.83,13]},"properties":{"stationId":"EDHI","rawText":"EDHI 190150Z AUTO 26006KT 9999 // SCT025/// SCT034/// 01/01 Q1027","observationTime":"2020-01-19T01:50:00Z","temp":1,"dewpoint":1,"windDirection":260,"windSpeed":11.112,"visibility":6.21,"altim":30.324802,"flightCategory":"VFR","metarType":"METAR","geometry_esri":{"x":53.53,"y":9.83,"z":13}}}