{"type":"Feature","geometry":{"type":"Point","coordinates":[53.53,9.83,13]},"properties":{"stationId":"EDHI","rawText":"EDHI 281050Z 35006KT 300V040 9999 FEW041 BKN048 14/05 Q1008","observationTime":"2019-05-28T10:50:00Z","temp":14,"dewpoint":5,"windDirection":350,"windSpeed":11.112,"visibility":6.21,"altim":29.763779,"flightCategory":"VFR","metarType":"METAR","geometry_esri":{"x":53.53,"y":9.83,"z":13}}}