{"type":"Feature","geometry":{"type":"Point","coordinates":[53.53,9.83,13]},"properties":{"stationId":"EDHI","rawText":"EDHI 181550Z AUTO 06012KT 040V100 9999 // NCD 15/M02 Q1017","observationTime":"2020-04-18T15:50:00Z","temp":15,"dewpoint":-2,"windDirection":60,"windSpeed":22.224,"visibility":6.21,"altim":30.029528,"flightCategory":"VFR","metarType":"METAR","geometry_esri":{"x":53.53,"y":9.83,"z":13}}}