{"type":"Feature","geometry":{"type":"Point","coordinates":[53.53,9.83,13]},"properties":{"stationId":"EDHI","rawText":"EDHI 011520Z 14005KT 090V180 4300 -RA FEW012 OVC015 04/03 Q1004","observationTime":"2019-11-01T15:20:00Z","temp":4,"dewpoint":3,"windDirection":140,"windSpeed":9.26,"visibility":2.67,"altim":29.64567,"flightCategory":"IFR","metarType":"METAR","geometry_esri":{"x":53.53,"y":9.83,"z":13}}}