{"type":"Feature","geometry":{"type":"Point","coordinates":[53.53,9.83,13]},"properties":{"stationId":"EDHI","rawText":"EDHI 290150Z AUTO 25004KT 3700 0600 R23/P2000N // FEW003/// 02/02 Q1022","observationTime":"2019-10-29T01:50:00Z","temp":2,"dewpoint":2,"windDirection":250,"windSpeed":7.408,"visibility":2.3,"altim":30.177166,"flightCategory":"IFR","metarType":"METAR","geometry_esri":{"x":53.53,"y":9.83,"z":13}}}