{"type":"Feature","geometry":{"type":"Point","coordinates":[53.53,9.83,13]},"properties":{"stationId":"EDHI","rawText":"EDHI 271250Z 24009KT 200V280 9999 FEW026 18/11 Q1006","observationTime":"2019-09-27T12:50:00Z","temp":18,"dewpoint":11,"windDirection":240,"windSpeed":16.668,"visibility":6.21,"altim":29.704725,"flightCategory":"VFR","metarType":"METAR","geometry_esri":{"x":53.53,"y":9.83,"z":13}}}