{"type":"Feature","geometry":{"type":"Point","coordinates":[53.53,9.83,13]},"properties":{"stationId":"EDHI","rawText":"EDHI 300550Z 25007KT 7000 -SN FEW008 BKN012 OVC018 M01/M01 Q1028","observationTime":"2020-03-30T05:50:00Z","temp":-1,"dewpoint":-1,"windDirection":250,"windSpeed":12.964,"visibility":4.35,"altim":30.35433,"flightCategory":"MVFR","metarType":"METAR","geometry_esri":{"x":53.53,"y":9.83,"z":13}}}