{"type":"Feature","geometry":{"type":"Point","coordinates":[53.53,9.83,13]},"properties":{"stationId":"EDHI","rawText":"EDHI 172220Z AUTO 33010KT 300V360 9999 // SCT007/// BKN052/// OVC067/// 00/M01 Q1006","observationTime":"2019-01-17T22:20:00Z","temp":0,"dewpoint":-1,"windDirection":330,"windSpeed":18.52,"visibility":6.21,"altim":29.704725,"flightCategory":"VFR","metarType":"METAR","geometry_esri":{"x":53.53,"y":9.83,"z":13}}}