{"type":"Feature","geometry":{"type":"Point","coordinates":[53.53,9.83,13]},"properties":{"stationId":"EDHI","rawText":"EDHI 111820Z AUTO 14009KT 100V170 9999 // BKN140/// OVC160/// 03/02 Q1003","observationTime":"2019-11-11T18:20:00Z","temp":3,"dewpoint":2,"windDirection":140,"windSpeed":16.668,"visibility":6.21,"altim":29.616142,"flightCategory":"VFR","metarType":"METAR","geometry_esri":{"x":53.53,"y":9.83,"z":13}}}