{"type":"Feature","geometry":{"type":"Point","coordinates":[53.53,9.83,13]},"properties":{"stationId":"EDHI","rawText":"EDHI 090420Z 26007KT 8000 -RADZ FEW009 SCT024 BKN033 11/10 Q1017","observationTime":"2019-07-09T04:20:00Z","temp":11,"dewpoint":10,"windDirection":260,"windSpeed":12.964,"visibility":4.97,"altim":30.029528,"flightCategory":"MVFR","metarType":"METAR","geometry_esri":{"x":53.53,"y":9.83,"z":13}}}