{"type":"Feature","geometry":{"type":"Point","coordinates":[53.53,9.83,13]},"properties":{"stationId":"EDHI","rawText":"EDHI 241420Z 31014KT 270V360 CAVOK 19/10 Q1011","observationTime":"2019-05-24T14:20:00Z","temp":19,"dewpoint":10,"windDirection":310,"windSpeed":25.928,"visibility":6.21,"altim":29.852362,"flightCategory":"VFR","metarType":"METAR","geometry_esri":{"x":53.53,"y":9.83,"z":13}}}