{"type":"Feature","geometry":{"type":"Point","coordinates":[53.53,9.83,13]},"properties":{"stationId":"EDHI","rawText":"EDHI 140820Z AUTO 27007KT 9999 // FEW009/// BKN013/// OVC023/// 15/12 Q1017","observationTime":"2019-07-14T08:20:00Z","temp":15,"dewpoint":12,"windDirection":270,"windSpeed":12.964,"visibility":6.21,"altim":30.029528,"flightCategory":"MVFR","metarType":"METAR","geometry_esri":{"x":53.53,"y":9.83,"z":13}}}