{"type":"Feature","geometry":{"type":"Point","coordinates":[53.53,9.83,13]},"properties":{"stationId":"EDHI","rawText":"EDHI 150320Z AUTO 29015KT 9999 // SCT009/// BKN025/// OVC036/// 06/04 Q0998","observationTime":"2019-03-15T03:20:00Z","temp":6,"dewpoint":4,"windDirection":290,"windSpeed":27.78,"visibility":6.21,"altim":29.468504,"flightCategory":"MVFR","metarType":"METAR","geometry_esri":{"x":53.53,"y":9.83,"z":13}}}