{"type":"Feature","geometry":{"type":"Point","coordinates":[53.53,9.83,13]},"properties":{"stationId":"EDHI","rawText":"EDHI 161220Z 19008KT 160V220 7000 -RA FEW007 BKN010 OVC015 05/04 Q1002","observationTime":"2019-03-16T12:20:00Z","temp":5,"dewpoint":4,"windDirection":190,"windSpeed":14.816,"visibility":4.35,"altim":29.586615,"flightCategory":"MVFR","metarType":"METAR","geometry_esri":{"x":53.53,"y":9.83,"z":13}}}