{"type":"Feature","geometry":{"type":"Point","coordinates":[53.53,9.83,13]},"properties":{"stationId":"EDHI","rawText":"EDHI 140420Z AUTO 26002KT 4700 // OVC007/// 03/03 Q1008","observationTime":"2020-02-14T04:20:00Z","temp":3,"dewpoint":3,"windDirection":260,"windSpeed":3.704,"visibility":2.92,"altim":29.763779,"flightCategory":"IFR","metarType":"METAR","geometry_esri":{"x":53.53,"y":9.83,"z":13}}}