{"type":"Feature","geometry":{"type":"Point","coordinates":[53.53,9.83,13]},"properties":{"stationId":"EDHI","rawText":"EDHI 190720Z 23009KT 4400 BR SCT011 BKN018 06/05 Q1013","observationTime":"2019-02-19T07:20:00Z","temp":6,"dewpoint":5,"windDirection":230,"windSpeed":16.668,"visibility":2.73,"altim":29.911417,"flightCategory":"IFR","metarType":"METAR","geometry_esri":{"x":53.53,"y":9.83,"z":13}}}