{"type":"Feature","geometry":{"type":"Point","coordinates":[53.53,9.83,13]},"properties":{"stationId":"EDHI","rawText":"EDHI 160450Z AUTO 20010KT 9999 // OVC200/// 05/01 Q1006","observationTime":"2019-12-16T04:50:00Z","temp":5,"dewpoint":1,"windDirection":200,"windSpeed":18.52,"visibility":6.21,"altim":29.704725,"flightCategory":"VFR","metarType":"METAR","geometry_esri":{"x":53.53,"y":9.83,"z":13}}}