{"type":"Feature","geometry":{"type":"Point","coordinates":[53.53,9.83,13]},"properties":{"stationId":"EDHI","rawText":"EDHI 180050Z AUTO 24019G29KT 9999 // OVC029/// 07/02 Q1015","observationTime":"2020-01-18T00:50:00Z","temp":7,"dewpoint":2,"windDirection":240,"windSpeed":35.188,"visibility":6.21,"altim":29.970472,"flightCategory":"MVFR","metarType":"METAR","geometry_esri":{"x":53.53,"y":9.83,"z":13}}}