{"type":"Feature","geometry":{"type":"Point","coordinates":[53.53,9.83,13]},"properties":{"stationId":"EDHI","rawText":"EDHI 122150Z AUTO 32006KT 290V360 9999 // FEW061/// SCT100/// 11/07 Q1012","observationTime":"2020-04-12T21:50:00Z","temp":11,"dewpoint":7,"windDirection":320,"windSpeed":11.112,"visibility":6.21,"altim":29.88189,"flightCategory":"VFR","metarType":"METAR","geometry_esri":{"x":53.53,"y":9.83,"z":13}}}