{"type":"Feature","geometry":{"type":"Point","coordinates":[53.53,9.83,13]},"properties":{"stationId":"EDHI","rawText":"EDHI 120320Z AUTO 12002KT 4600 // FEW006/// SCT030/// OVC085/// 15/15 Q1009","observationTime":"2019-07-12T03:20:00Z","temp":15,"dewpoint":15,"windDirection":120,"windSpeed":3.704,"visibility":2.86,"altim":29.793306,"flightCategory":"IFR","metarType":"METAR","geometry_esri":{"x":53.53,"y":9.83,"z":13}}}