{"type":"Feature","geometry":{"type":"Point","coordinates":[53.53,9.83,13]},"properties":{"stationId":"EDHI","rawText":"EDHI 121150Z 02005KT 350V060 9999 FEW014 SCT025 OVC029 05/02 Q1027","observationTime":"2018-12-12T11:50:00Z","temp":5,"dewpoint":2,"windDirection":20,"windSpeed":9.26,"visibility":6.21,"altim":30.324802,"skyCondition1a":"FEW","skyCondition1b":1400,"skyCondition2a":"SCT","skyCondition2b":2500,"flightCategory":"MVFR","metarType":"METAR","geometry_esri":{"x":53.53,"y":9.83,"z":13}}}