{"type":"Feature","geometry":{"type":"Point","coordinates":[53.53,9.83,13]},"properties":{"stationId":"EDHI","rawText":"EDHI 121250Z 28013KT 9999 SCT037 19/13 Q1025","observationTime":"2019-09-12T12:50:00Z","temp":19,"dewpoint":13,"windDirection":280,"windSpeed":24.076,"visibility":6.21,"altim":30.265747,"flightCategory":"VFR","metarType":"METAR","geometry_esri":{"x":53.53,"y":9.83,"z":13}}}