{"type":"Feature","geometry":{"type":"Point","coordinates":[53.53,9.83,13]},"properties":{"stationId":"EDHI","rawText":"EDHI 212020Z AUTO 12004KT 080V160 2400 // OVC002/// 08/07 Q1008","observationTime":"2019-11-21T20:20:00Z","temp":8,"dewpoint":7,"windDirection":120,"windSpeed":7.408,"visibility":1.49,"altim":29.763779,"flightCategory":"LIFR","metarType":"METAR","geometry_esri":{"x":53.53,"y":9.83,"z":13}}}