{"type":"Feature","geometry":{"type":"Point","coordinates":[53.53,9.83,13]},"properties":{"stationId":"EDHI","rawText":"EDHI 271420Z 26008KT 2700 -DZ BR OVC004 06/06 Q1023","observationTime":"2018-12-27T14:20:00Z","temp":6,"dewpoint":6,"windDirection":260,"windSpeed":14.816,"visibility":1.68,"altim":30.206694,"flightCategory":"LIFR","metarType":"METAR","geometry_esri":{"x":53.53,"y":9.83,"z":13}}}