{"type":"Feature","geometry":{"type":"Point","coordinates":[53.53,9.83,13]},"properties":{"stationId":"EDHI","rawText":"EDHI 050350Z AUTO 07001KT 1000 0700 R23/P2000N // FEW004/// BKN062/// 00/00 Q1005","observationTime":"2020-03-05T03:50:00Z","temp":0,"dewpoint":0,"windDirection":70,"windSpeed":1.852,"visibility":0.62,"altim":29.675198,"flightCategory":"LIFR","metarType":"METAR","geometry_esri":{"x":53.53,"y":9.83,"z":13}}}