{"type":"Feature","geometry":{"type":"Point","coordinates":[53.53,9.83,13]},"properties":{"stationId":"EDHI","rawText":"EDHI 012320Z AUTO 17003KT 140V210 9999 // BKN049/// BKN130/// OVC150/// 06/01 Q0991","observationTime":"2020-03-01T23:20:00Z","temp":6,"dewpoint":1,"windDirection":170,"windSpeed":5.556,"visibility":6.21,"altim":29.26181,"flightCategory":"VFR","metarType":"METAR","geometry_esri":{"x":53.53,"y":9.83,"z":13}}}