{"type":"Feature","geometry":{"type":"Point","coordinates":[53.53,9.83,13]},"properties":{"stationId":"EDHI","rawText":"EDHI 140750Z 21008KT 9999 FEW015 SCT018 BKN026 05/03 Q0981","observationTime":"2019-12-14T07:50:00Z","temp":5,"dewpoint":3,"windDirection":210,"windSpeed":14.816,"visibility":6.21,"altim":28.966536,"flightCategory":"MVFR","metarType":"METAR","geometry_esri":{"x":53.53,"y":9.83,"z":13}}}