{"type":"Feature","geometry":{"type":"Point","coordinates":[53.53,9.83,13]},"properties":{"stationId":"EDHI","rawText":"EDHI 270620Z 24005KT 7000 FEW008 BKN010 14/13 Q1006","observationTime":"2019-09-27T06:20:00Z","temp":14,"dewpoint":13,"windDirection":240,"windSpeed":9.26,"visibility":4.35,"altim":29.704725,"flightCategory":"MVFR","metarType":"METAR","geometry_esri":{"x":53.53,"y":9.83,"z":13}}}