{"type":"Feature","geometry":{"type":"Point","coordinates":[53.53,9.83,13]},"properties":{"stationId":"EDHI","rawText":"EDHI 212020Z AUTO 33006KT 290V360 9999 // BKN076/// 16/09 Q1021","observationTime":"2019-06-21T20:20:00Z","temp":16,"dewpoint":9,"windDirection":330,"windSpeed":11.112,"visibility":6.21,"altim":30.147638,"flightCategory":"VFR","metarType":"METAR","geometry_esri":{"x":53.53,"y":9.83,"z":13}}}