{"type":"Feature","geometry":{"type":"Point","coordinates":[53.53,9.83,13]},"properties":{"stationId":"EDHI","rawText":"EDHI 200850Z 23005KT 9999 BKN046 12/09 Q1029","observationTime":"2019-09-20T08:50:00Z","temp":12,"dewpoint":9,"windDirection":230,"windSpeed":9.26,"visibility":6.21,"altim":30.383858,"flightCategory":"VFR","metarType":"METAR","geometry_esri":{"x":53.53,"y":9.83,"z":13}}}