{"type":"Feature","geometry":{"type":"Point","coordinates":[53.53,9.83,13]},"properties":{"stationId":"EDHI","rawText":"EDHI 240420Z 13006KT 070V160 3600 BR OVC005 13/12 Q1008","observationTime":"2019-10-24T04:20:00Z","temp":13,"dewpoint":12,"windDirection":130,"windSpeed":11.112,"visibility":2.24,"altim":29.763779,"flightCategory":"IFR","metarType":"METAR","geometry_esri":{"x":53.53,"y":9.83,"z":13}}}