{"type":"Feature","geometry":{"type":"Point","coordinates":[53.53,9.83,13]},"properties":{"stationId":"EDHI","rawText":"EDHI 010350Z AUTO 28002KT 3200 // OVC002/// 04/04 Q1010","observationTime":"2019-03-01T03:50:00Z","temp":4,"dewpoint":4,"windDirection":280,"windSpeed":3.704,"visibility":1.99,"altim":29.822834,"flightCategory":"LIFR","metarType":"METAR","geometry_esri":{"x":53.53,"y":9.83,"z":13}}}