{"type":"Feature","geometry":{"type":"Point","coordinates":[53.53,9.83,13]},"properties":{"stationId":"EDHI","rawText":"EDHI 061420Z 20007KT 170V240 7000 -DZ FEW013 SCT018 BKN032 06/04 Q1023","observationTime":"2020-01-06T14:20:00Z","temp":6,"dewpoint":4,"windDirection":200,"windSpeed":12.964,"visibility":4.35,"altim":30.206694,"flightCategory":"MVFR","metarType":"METAR","geometry_esri":{"x":53.53,"y":9.83,"z":13}}}