{"type":"Feature","geometry":{"type":"Point","coordinates":[53.53,9.83,13]},"properties":{"stationId":"EDHI","rawText":"EDHI 091820Z AUTO 04012KT 9999 // NCD 07/M03 Q1017","observationTime":"2019-04-09T18:20:00Z","temp":7,"dewpoint":-3,"windDirection":40,"windSpeed":22.224,"visibility":6.21,"altim":30.029528,"flightCategory":"VFR","metarType":"METAR","geometry_esri":{"x":53.53,"y":9.83,"z":13}}}