{"type":"Feature","geometry":{"type":"Point","coordinates":[53.53,9.83,13]},"properties":{"stationId":"EDHI","rawText":"EDHI 190550Z AUTO 07007KT 030V110 3100 // OVC002/// 12/11 Q1007","observationTime":"2019-05-19T05:50:00Z","temp":12,"dewpoint":11,"windDirection":70,"windSpeed":12.964,"visibility":1.93,"altim":29.734253,"flightCategory":"LIFR","metarType":"METAR","geometry_esri":{"x":53.53,"y":9.83,"z":13}}}