{"type":"Feature","geometry":{"type":"Point","coordinates":[53.53,9.83,13]},"properties":{"stationId":"EDHI","rawText":"EDHI 281250Z 29008KT 270V330 7000 OVC007 06/04 Q1012","observationTime":"2019-02-28T12:50:00Z","temp":6,"dewpoint":4,"windDirection":290,"windSpeed":14.816,"visibility":4.35,"altim":29.88189,"flightCategory":"IFR","metarType":"METAR","geometry_esri":{"x":53.53,"y":9.83,"z":13}}}