{"type":"Feature","geometry":{"type":"Point","coordinates":[53.53,9.83,13]},"properties":{"stationId":"EDHI","rawText":"EDHI 022220Z AUTO 31013G25KT 9999 // FEW024/// SCT031/// BKN044/// 07/03 Q1006","observationTime":"2019-05-02T22:20:00Z","temp":7,"dewpoint":3,"windDirection":310,"windSpeed":24.076,"visibility":6.21,"altim":29.704725,"flightCategory":"VFR","metarType":"METAR","geometry_esri":{"x":53.53,"y":9.83,"z":13}}}