{"type":"Feature","geometry":{"type":"Point","coordinates":[53.53,9.83,13]},"properties":{"stationId":"EDHI","rawText":"EDHI 140450Z AUTO 21008KT 180V240 7000 // BKN013/// OVC048/// 04/03 Q0980","observationTime":"2019-12-14T04:50:00Z","temp":4,"dewpoint":3,"windDirection":210,"windSpeed":14.816,"visibility":4.35,"altim":28.937008,"flightCategory":"MVFR","metarType":"METAR","geometry_esri":{"x":53.53,"y":9.83,"z":13}}}