{"type":"Feature","geometry":{"type":"Point","coordinates":[53.53,9.83,13]},"properties":{"stationId":"EDHI","rawText":"EDHI 280220Z AUTO 27009KT 9999 // OVC006/// 07/06 Q1031","observationTime":"2019-03-28T02:20:00Z","temp":7,"dewpoint":6,"windDirection":270,"windSpeed":16.668,"visibility":6.21,"altim":30.442913,"flightCategory":"IFR","metarType":"METAR","geometry_esri":{"x":53.53,"y":9.83,"z":13}}}