{"type":"Feature","geometry":{"type":"Point","coordinates":[53.53,9.83,13]},"properties":{"stationId":"EDHI","rawText":"EDHI 071820Z AUTO 15003KT 9999 // FEW150/// 02/M01 Q1017","observationTime":"2020-03-07T18:20:00Z","temp":2,"dewpoint":-1,"windDirection":150,"windSpeed":5.556,"visibility":6.21,"altim":30.029528,"flightCategory":"VFR","metarType":"METAR","geometry_esri":{"x":53.53,"y":9.83,"z":13}}}