{"type":"Feature","geometry":{"type":"Point","coordinates":[53.53,9.83,13]},"properties":{"stationId":"EDHI","rawText":"EDHI 060020Z AUTO VRB01KT 5000 // NCD 08/06 Q1008","observationTime":"2019-04-06T00:20:00Z","temp":8,"dewpoint":6,"windDirection":0,"windSpeed":1.852,"visibility":3.11,"altim":29.763779,"flightCategory":"MVFR","metarType":"METAR","geometry_esri":{"x":53.53,"y":9.83,"z":13}}}