{"type":"Feature","geometry":{"type":"Point","coordinates":[53.53,9.83,13]},"properties":{"stationId":"EDHI","rawText":"EDHI 130420Z AUTO 33010KT 290V360 9999 // FEW160/// BKN210/// 05/M03 Q1016","observationTime":"2020-04-13T04:20:00Z","temp":5,"dewpoint":-3,"windDirection":330,"windSpeed":18.52,"visibility":6.21,"altim":30,"flightCategory":"VFR","metarType":"METAR","geometry_esri":{"x":53.53,"y":9.83,"z":13}}}