{"type":"Feature","geometry":{"type":"Point","coordinates":[53.53,9.83,13]},"properties":{"stationId":"EDHI","rawText":"EDHI 060320Z AUTO 19004KT 150V220 5000 // SCT014/// BKN100/// OVC120/// 03/01 Q1024","observationTime":"2019-02-06T03:20:00Z","temp":3,"dewpoint":1,"windDirection":190,"windSpeed":7.408,"visibility":3.11,"altim":30.236221,"flightCategory":"MVFR","metarType":"METAR","geometry_esri":{"x":53.53,"y":9.83,"z":13}}}