{"type":"Feature","geometry":{"type":"Point","coordinates":[53.53,9.83,13]},"properties":{"stationId":"EDHI","rawText":"EDHI 161120Z 28014KT 9999 SCT016 BKN024 18/14 Q1015","observationTime":"2019-07-16T11:20:00Z","temp":18,"dewpoint":14,"windDirection":280,"windSpeed":25.928,"visibility":6.21,"altim":29.970472,"flightCategory":"MVFR","metarType":"METAR","geometry_esri":{"x":53.53,"y":9.83,"z":13}}}