{"type":"Feature","geometry":{"type":"Point","coordinates":[53.53,9.83,13]},"properties":{"stationId":"EDHI","rawText":"EDHI 220420Z AUTO 19005KT 160V230 9000 // OVC009/// M01/M03 Q1012","observationTime":"2019-01-22T04:20:00Z","temp":-1,"dewpoint":-3,"windDirection":190,"windSpeed":9.26,"visibility":5.59,"altim":29.88189,"flightCategory":"IFR","metarType":"METAR","geometry_esri":{"x":53.53,"y":9.83,"z":13}}}