{"type":"Feature","geometry":{"type":"Point","coordinates":[53.53,9.83,13]},"properties":{"stationId":"EDHI","rawText":"EDHI 100950Z AUTO 13008KT 090V170 9000 // FEW009/// SCT018/// OVC021/// 06/05 Q0991","observationTime":"2019-02-10T09:50:00Z","temp":6,"dewpoint":5,"windDirection":130,"windSpeed":14.816,"visibility":5.59,"altim":29.26181,"flightCategory":"MVFR","metarType":"METAR","geometry_esri":{"x":53.53,"y":9.83,"z":13}}}