{"type":"Feature","geometry":{"type":"Point","coordinates":[53.53,9.83,13]},"properties":{"stationId":"EDHI","rawText":"EDHI 030220Z AUTO 29007KT 4400 // FEW008/// OVC040/// 01/M00 Q1009","observationTime":"2019-02-03T02:20:00Z","temp":1,"dewpoint":0,"windDirection":290,"windSpeed":12.964,"visibility":2.73,"altim":29.793306,"flightCategory":"IFR","metarType":"METAR","geometry_esri":{"x":53.53,"y":9.83,"z":13}}}