{"type":"Feature","geometry":{"type":"Point","coordinates":[53.53,9.83,13]},"properties":{"stationId":"EDHI","rawText":"EDHI 251520Z 27006KT CAVOK 14/04 Q1036","observationTime":"2019-02-25T15:20:00Z","temp":14,"dewpoint":4,"windDirection":270,"windSpeed":11.112,"visibility":6.21,"altim":30.590551,"flightCategory":"VFR","metarType":"METAR","geometry_esri":{"x":53.53,"y":9.83,"z":13}}}