{"type":"Feature","geometry":{"type":"Point","coordinates":[53.53,9.83,13]},"properties":{"stationId":"EDHI","rawText":"EDHI 101920Z AUTO 23016KT 8000 // BKN007/// OVC014/// 05/04 Q0985","observationTime":"2019-02-10T19:20:00Z","temp":5,"dewpoint":4,"windDirection":230,"windSpeed":29.632,"visibility":4.97,"altim":29.084646,"flightCategory":"IFR","metarType":"METAR","geometry_esri":{"x":53.53,"y":9.83,"z":13}}}