{"type":"Feature","geometry":{"type":"Point","coordinates":[53.53,9.83,13]},"properties":{"stationId":"EDHI","rawText":"EDHI 281320Z AUTO 31007KT 290V350 9999 // FEW023/// BKN066/// OVC075/// 11/07 Q1019","observationTime":"2019-04-28T13:20:00Z","temp":11,"dewpoint":7,"windDirection":310,"windSpeed":12.964,"visibility":6.21,"altim":30.088583,"flightCategory":"VFR","metarType":"METAR","geometry_esri":{"x":53.53,"y":9.83,"z":13}}}