{"type":"Feature","geometry":{"type":"Point","coordinates":[53.53,9.83,13]},"properties":{"stationId":"EDHI","rawText":"EDHI 291320Z AUTO 02018G28KT 350V060 9999 // SCT054/// 05/M10 Q1030","observationTime":"2020-03-29T13:20:00Z","temp":5,"dewpoint":-10,"windDirection":20,"windSpeed":33.336,"visibility":6.21,"altim":30.413385,"flightCategory":"VFR","metarType":"METAR","geometry_esri":{"x":53.53,"y":9.83,"z":13}}}