{"type":"Feature","geometry":{"type":"Point","coordinates":[53.53,9.83,13]},"properties":{"stationId":"EDHI","rawText":"EDHI 111850Z 29009KT 9999 BKN010 05/03 Q1015","observationTime":"2019-03-11T18:50:00Z","temp":5,"dewpoint":3,"windDirection":290,"windSpeed":16.668,"visibility":6.21,"altim":29.970472,"flightCategory":"MVFR","metarType":"METAR","geometry_esri":{"x":53.53,"y":9.83,"z":13}}}