{"type":"Feature","geometry":{"type":"Point","coordinates":[53.53,9.83,13]},"properties":{"stationId":"EDHI","rawText":"EDHI 181750Z 22011KT 9999 FEW027 06/03 Q1014","observationTime":"2020-02-18T17:50:00Z","temp":6,"dewpoint":3,"windDirection":220,"windSpeed":20.372,"visibility":6.21,"altim":29.940945,"flightCategory":"VFR","metarType":"METAR","geometry_esri":{"x":53.53,"y":9.83,"z":13}}}