{"type":"Feature","geometry":{"type":"Point","coordinates":[53.53,9.83,13]},"properties":{"stationId":"EDHI","rawText":"EDHI 222150Z AUTO 10003KT 070V130 4700 // NCD 11/09 Q1025","observationTime":"2019-03-22T21:50:00Z","temp":11,"dewpoint":9,"windDirection":100,"windSpeed":5.556,"visibility":2.92,"altim":30.265747,"flightCategory":"IFR","metarType":"METAR","geometry_esri":{"x":53.53,"y":9.83,"z":13}}}