{"type":"Feature","geometry":{"type":"Point","coordinates":[53.53,9.83,13]},"properties":{"stationId":"EDHI","rawText":"EDHI 240450Z 12003KT 070V160 CAVOK M01/M09 Q1036","observationTime":"2020-03-24T04:50:00Z","temp":-1,"dewpoint":-9,"windDirection":120,"windSpeed":5.556,"visibility":6.21,"altim":30.590551,"flightCategory":"VFR","metarType":"METAR","geometry_esri":{"x":53.53,"y":9.83,"z":13}}}