{"type":"Feature","geometry":{"type":"Point","coordinates":[53.53,9.83,13]},"properties":{"stationId":"EDHI","rawText":"EDHI 291620Z AUTO 19006KT 140V230 9999 // OVC130/// 02/M03 Q1034","observationTime":"2019-12-29T16:20:00Z","temp":2,"dewpoint":-3,"windDirection":190,"windSpeed":11.112,"visibility":6.21,"altim":30.531496,"flightCategory":"VFR","metarType":"METAR","geometry_esri":{"x":53.53,"y":9.83,"z":13}}}