{"type":"Feature","geometry":{"type":"Point","coordinates":[53.53,9.83,13]},"properties":{"stationId":"EDHI","rawText":"EDHI 270520Z 31009KT 280V350 9999 BKN021 15/10 Q1026","observationTime":"2019-06-27T05:20:00Z","temp":15,"dewpoint":10,"windDirection":310,"windSpeed":16.668,"visibility":6.21,"altim":30.295275,"flightCategory":"MVFR","metarType":"METAR","geometry_esri":{"x":53.53,"y":9.83,"z":13}}}