{"type":"Feature","geometry":{"type":"Point","coordinates":[53.53,9.83,13]},"properties":{"stationId":"EDHI","rawText":"EDHI 141750Z AUTO 22003KT 190V250 9999 // NCD 15/09 Q1029","observationTime":"2019-09-14T17:50:00Z","temp":15,"dewpoint":9,"windDirection":220,"windSpeed":5.556,"visibility":6.21,"altim":30.383858,"flightCategory":"VFR","metarType":"METAR","geometry_esri":{"x":53.53,"y":9.83,"z":13}}}