{"type":"Feature","geometry":{"type":"Point","coordinates":[53.53,9.83,13]},"properties":{"stationId":"EDHI","rawText":"EDHI 011650Z 24007KT 210V270 CAVOK 24/11 Q1015","observationTime":"2019-08-01T16:50:00Z","temp":24,"dewpoint":11,"windDirection":240,"windSpeed":12.964,"visibility":6.21,"altim":29.970472,"flightCategory":"VFR","metarType":"METAR","geometry_esri":{"x":53.53,"y":9.83,"z":13}}}