{"type":"Feature","geometry":{"type":"Point","coordinates":[53.53,9.83,13]},"properties":{"stationId":"EDHI","rawText":"EDHI 060750Z 26005KT 200V310 9999 -TSRA FEW031CB SCT038 18/16 Q1006","observationTime":"2019-06-06T07:50:00Z","temp":18,"dewpoint":16,"windDirection":260,"windSpeed":9.26,"visibility":6.21,"altim":29.704725,"flightCategory":"VFR","metarType":"METAR","geometry_esri":{"x":53.53,"y":9.83,"z":13}}}