{"type":"Feature","geometry":{"type":"Point","coordinates":[53.53,9.83,13]},"properties":{"stationId":"EDHI","rawText":"EDHI 291750Z AUTO 24020KT 2000 1100 R23/P2000N // OVC033/// 08/06 Q0986","observationTime":"2020-02-29T17:50:00Z","temp":8,"dewpoint":6,"windDirection":240,"windSpeed":37.04,"visibility":1.24,"altim":29.114174,"flightCategory":"IFR","metarType":"METAR","geometry_esri":{"x":53.53,"y":9.83,"z":13}}}