{"type":"Feature","geometry":{"type":"Point","coordinates":[53.53,9.83,13]},"properties":{"stationId":"EDHI","rawText":"EDHI 101450Z AUTO 29008KT 260V350 9999 // BKN085/// OVC160/// 21/12 Q1004","observationTime":"2020-05-10T14:50:00Z","temp":21,"dewpoint":12,"windDirection":290,"windSpeed":14.816,"visibility":6.21,"altim":29.64567,"flightCategory":"VFR","metarType":"METAR","geometry_esri":{"x":53.53,"y":9.83,"z":13}}}