{"type":"Feature","geometry":{"type":"Point","coordinates":[53.53,9.83,13]},"properties":{"stationId":"EDHI","rawText":"EDHI 271050Z 26010KT 2000 BR FEW003 OVC004 06/05 Q1024","observationTime":"2018-12-27T10:50:00Z","temp":6,"dewpoint":5,"windDirection":260,"windSpeed":18.52,"visibility":1.24,"altim":30.236221,"flightCategory":"LIFR","metarType":"METAR","geometry_esri":{"x":53.53,"y":9.83,"z":13}}}