{"type":"Feature","geometry":{"type":"Point","coordinates":[53.53,9.83,13]},"properties":{"stationId":"EDHI","rawText":"EDHI 131120Z 26012KT 3000 -DZ BR OVC008 07/06 Q1031","observationTime":"2019-02-13T11:20:00Z","temp":7,"dewpoint":6,"windDirection":260,"windSpeed":22.224,"visibility":1.86,"altim":30.442913,"flightCategory":"IFR","metarType":"METAR","geometry_esri":{"x":53.53,"y":9.83,"z":13}}}