{"type":"Feature","geometry":{"type":"Point","coordinates":[53.53,9.83,13]},"properties":{"stationId":"EDHI","rawText":"EDHI 031520Z AUTO 33004KT 270V020 9999 // SCT041/// 13/05 Q1014","observationTime":"2019-10-03T15:20:00Z","temp":13,"dewpoint":5,"windDirection":330,"windSpeed":7.408,"visibility":6.21,"altim":29.940945,"flightCategory":"VFR","metarType":"SPECI","geometry_esri":{"x":53.53,"y":9.83,"z":13}}}