{"type":"Feature","geometry":{"type":"Point","coordinates":[53.53,9.83,13]},"properties":{"stationId":"EDHI","rawText":"EDHI 061250Z 22013KT 200V260 3800 -DZ BR OVC006 06/05 Q1004","observationTime":"2019-12-06T12:50:00Z","temp":6,"dewpoint":5,"windDirection":220,"windSpeed":24.076,"visibility":2.36,"altim":29.64567,"flightCategory":"IFR","metarType":"METAR","geometry_esri":{"x":53.53,"y":9.83,"z":13}}}