{"type":"Feature","geometry":{"type":"Point","coordinates":[53.53,9.83,13]},"properties":{"stationId":"EDHI","rawText":"EDHI 121720Z 17004KT 120V220 9999 BKN029 06/03 Q1001","observationTime":"2019-11-12T17:20:00Z","temp":6,"dewpoint":3,"windDirection":170,"windSpeed":7.408,"visibility":6.21,"altim":29.557087,"flightCategory":"MVFR","metarType":"METAR","geometry_esri":{"x":53.53,"y":9.83,"z":13}}}