{"type":"Feature","geometry":{"type":"Point","coordinates":[53.53,9.83,13]},"properties":{"stationId":"EDHI","rawText":"EDHI 100520Z 06005KT CAVOK 01/M03 Q1018","observationTime":"2019-04-10T05:20:00Z","temp":1,"dewpoint":-3,"windDirection":60,"windSpeed":9.26,"visibility":6.21,"altim":30.059055,"flightCategory":"VFR","metarType":"METAR","geometry_esri":{"x":53.53,"y":9.83,"z":13}}}