{"type":"Feature","geometry":{"type":"Point","coordinates":[53.53,9.83,13]},"properties":{"stationId":"EDHI","rawText":"EDHI 021650Z 33005KT 300V360 3500 -RA BKN007 02/00 Q1001","observationTime":"2019-02-02T16:50:00Z","temp":2,"dewpoint":0,"windDirection":330,"windSpeed":9.26,"visibility":2.17,"altim":29.557087,"flightCategory":"IFR","metarType":"METAR","geometry_esri":{"x":53.53,"y":9.83,"z":13}}}