{"type":"Feature","geometry":{"type":"Point","coordinates":[53.53,9.83,13]},"properties":{"stationId":"EDHI","rawText":"EDHI 012120Z AUTO 12005KT 090V160 5000 // FEW006/// OVC013/// 05/05 Q0998","observationTime":"2019-11-01T21:20:00Z","temp":5,"dewpoint":5,"windDirection":120,"windSpeed":9.26,"visibility":3.11,"altim":29.468504,"flightCategory":"MVFR","metarType":"METAR","geometry_esri":{"x":53.53,"y":9.83,"z":13}}}