{"type":"Feature","geometry":{"type":"Point","coordinates":[53.53,9.83,13]},"properties":{"stationId":"EDHI","rawText":"EDHI 170120Z AUTO 22002KT 0350 0300 R23/1300D // SCT003/// 13/13 Q1021","observationTime":"2019-06-17T01:20:00Z","temp":13,"dewpoint":13,"windDirection":220,"windSpeed":3.704,"visibility":0.22,"altim":30.147638,"flightCategory":"LIFR","metarType":"METAR","geometry_esri":{"x":53.53,"y":9.83,"z":13}}}