{"type":"Feature","geometry":{"type":"Point","coordinates":[53.53,9.83,13]},"properties":{"stationId":"EDHI","rawText":"EDHI 181750Z AUTO 06010KT 040V100 9999 // NCD 12/M02 Q1018","observationTime":"2020-04-18T17:50:00Z","temp":12,"dewpoint":-2,"windDirection":60,"windSpeed":18.52,"visibility":6.21,"altim":30.059055,"flightCategory":"VFR","metarType":"METAR","geometry_esri":{"x":53.53,"y":9.83,"z":13}}}