{"type":"Feature","geometry":{"type":"Point","coordinates":[53.53,9.83,13]},"properties":{"stationId":"EDHI","rawText":"EDHI 300220Z AUTO 24005KT 9999 // FEW081/// M00/M01 Q1017","observationTime":"2019-11-30T02:20:00Z","temp":0,"dewpoint":-1,"windDirection":240,"windSpeed":9.26,"visibility":6.21,"altim":30.029528,"flightCategory":"VFR","metarType":"METAR","geometry_esri":{"x":53.53,"y":9.83,"z":13}}}