{"type":"Feature","geometry":{"type":"Point","coordinates":[53.53,9.83,13]},"properties":{"stationId":"EDHI","rawText":"EDHI 111920Z 19005KT 7000 -RA OVC006 04/04 Q1004","observationTime":"2019-12-11T19:20:00Z","temp":4,"dewpoint":4,"windDirection":190,"windSpeed":9.26,"visibility":4.35,"altim":29.64567,"flightCategory":"IFR","metarType":"METAR","geometry_esri":{"x":53.53,"y":9.83,"z":13}}}