{"type":"Feature","geometry":{"type":"Point","coordinates":[53.53,9.83,13]},"properties":{"stationId":"EDHI","rawText":"EDHI 162250Z AUTO 14003KT 110V170 4400 // BKN012/// OVC018/// M01/M02 Q1014","observationTime":"2018-12-16T22:50:00Z","temp":-1,"dewpoint":-2,"windDirection":140,"windSpeed":5.556,"visibility":2.73,"altim":29.940945,"flightCategory":"IFR","metarType":"METAR","geometry_esri":{"x":53.53,"y":9.83,"z":13}}}