{"type":"Feature","geometry":{"type":"Point","coordinates":[53.53,9.83,13]},"properties":{"stationId":"EDHI","rawText":"EDHI 181450Z 15006KT 100V220 9999 SCT072TCU 28/14 Q1012","observationTime":"2019-06-18T14:50:00Z","temp":28,"dewpoint":14,"windDirection":150,"windSpeed":11.112,"visibility":6.21,"altim":29.88189,"flightCategory":"VFR","metarType":"METAR","geometry_esri":{"x":53.53,"y":9.83,"z":13}}}