{"type":"Feature","geometry":{"type":"Point","coordinates":[53.53,9.83,13]},"properties":{"stationId":"EDHI","rawText":"EDHI 080750Z 27029G39KT 3200 -SHRA SCT010CB BKN016 06/05 Q0998","observationTime":"2019-01-08T07:50:00Z","temp":6,"dewpoint":5,"windDirection":270,"windSpeed":53.708000000000006,"visibility":1.99,"altim":29.468504,"flightCategory":"IFR","metarType":"METAR","geometry_esri":{"x":53.53,"y":9.83,"z":13}}}