{"type":"Feature","geometry":{"type":"Point","coordinates":[53.53,9.83,13]},"properties":{"stationId":"EDHI","rawText":"EDHI 212120Z AUTO 09007KT 060V120 9999 // NCD 14/03 Q1018","observationTime":"2019-04-21T21:20:00Z","temp":14,"dewpoint":3,"windDirection":90,"windSpeed":12.964,"visibility":6.21,"altim":30.059055,"flightCategory":"VFR","metarType":"METAR","geometry_esri":{"x":53.53,"y":9.83,"z":13}}}