{"type":"Feature","geometry":{"type":"Point","coordinates":[53.53,9.83,13]},"properties":{"stationId":"EDHI","rawText":"EDHI 150320Z AUTO 21016KT 9999 // SCT036/// SCT080/// OVC090/// 12/07 Q1005","observationTime":"2020-01-15T03:20:00Z","temp":12,"dewpoint":7,"windDirection":210,"windSpeed":29.632,"visibility":6.21,"altim":29.675198,"flightCategory":"VFR","metarType":"METAR","geometry_esri":{"x":53.53,"y":9.83,"z":13}}}