{"type":"Feature","geometry":{"type":"Point","coordinates":[53.53,9.83,13]},"properties":{"stationId":"EDHI","rawText":"EDHI 150520Z AUTO 16008KT 130V200 9999 // FEW039/// BKN044/// OVC120/// 05/01 Q0991","observationTime":"2019-12-15T05:20:00Z","temp":5,"dewpoint":1,"windDirection":160,"windSpeed":14.816,"visibility":6.21,"altim":29.26181,"flightCategory":"VFR","metarType":"METAR","geometry_esri":{"x":53.53,"y":9.83,"z":13}}}