{"type":"Feature","geometry":{"type":"Point","coordinates":[53.53,9.83,13]},"properties":{"stationId":"EDHI","rawText":"EDHI 130150Z AUTO 32011G21KT 290V360 9999 // SCT018/// SCT025/// OVC071/// 08/03 Q1013","observationTime":"2020-04-13T01:50:00Z","temp":8,"dewpoint":3,"windDirection":320,"windSpeed":20.372,"visibility":6.21,"altim":29.911417,"flightCategory":"VFR","metarType":"METAR","geometry_esri":{"x":53.53,"y":9.83,"z":13}}}