{"type":"Feature","geometry":{"type":"Point","coordinates":[53.53,9.83,13]},"properties":{"stationId":"EDHI","rawText":"EDHI 281320Z 29004KT 9000 OVC007 03/02 Q0989","observationTime":"2019-01-28T13:20:00Z","temp":3,"dewpoint":2,"windDirection":290,"windSpeed":7.408,"visibility":5.59,"altim":29.202755,"flightCategory":"IFR","metarType":"METAR","geometry_esri":{"x":53.53,"y":9.83,"z":13}}}