{"type":"Feature","geometry":{"type":"Point","coordinates":[53.53,9.83,13]},"properties":{"stationId":"EDHI","rawText":"EDHI 112250Z AUTO 31006KT 9999 // BKN020/// BKN028/// 03/01 Q1023","observationTime":"2018-12-11T22:50:00Z","temp":3,"dewpoint":1,"windDirection":310,"windSpeed":11.112,"visibility":6.21,"altim":30.206694,"skyCondition1a":"BKN","skyCondition1b":2000,"skyCondition2a":"BKN","skyCondition2b":2800,"flightCategory":"MVFR","metarType":"METAR","geometry_esri":{"x":53.53,"y":9.83,"z":13}}}