{"type":"Feature","geometry":{"type":"Point","coordinates":[53.53,9.83,13]},"properties":{"stationId":"EDHI","rawText":"EDHI 200850Z 02006KT 340V070 9999 FEW010 SCT012 16/13 Q1005","observationTime":"2019-05-20T08:50:00Z","temp":16,"dewpoint":13,"windDirection":20,"windSpeed":11.112,"visibility":6.21,"altim":29.675198,"flightCategory":"VFR","metarType":"METAR","geometry_esri":{"x":53.53,"y":9.83,"z":13}}}