{"type":"Feature","geometry":{"type":"Point","coordinates":[53.53,9.83,13]},"properties":{"stationId":"EDHI","rawText":"EDHI 131420Z 26011KT 3800 -DZ OVC006 07/07 Q1031","observationTime":"2019-02-13T14:20:00Z","temp":7,"dewpoint":7,"windDirection":260,"windSpeed":20.372,"visibility":2.36,"altim":30.442913,"flightCategory":"IFR","metarType":"METAR","geometry_esri":{"x":53.53,"y":9.83,"z":13}}}