{"type":"Feature","geometry":{"type":"Point","coordinates":[53.53,9.83,13]},"properties":{"stationId":"EDHI","rawText":"EDHI 110120Z AUTO VRB02KT 6000 // FEW230/// 01/00 Q1012","observationTime":"2019-11-11T01:20:00Z","temp":1,"dewpoint":0,"windDirection":0,"windSpeed":3.704,"visibility":3.73,"altim":29.88189,"flightCategory":"MVFR","metarType":"METAR","geometry_esri":{"x":53.53,"y":9.83,"z":13}}}