{"type":"Feature","geometry":{"type":"Point","coordinates":[53.53,9.83,13]},"properties":{"stationId":"EDHI","rawText":"EDHI 040450Z 24009KT 6000 OVC007 05/04 Q1022","observationTime":"2019-12-04T04:50:00Z","temp":5,"dewpoint":4,"windDirection":240,"windSpeed":16.668,"visibility":3.73,"altim":30.177166,"flightCategory":"IFR","metarType":"METAR","geometry_esri":{"x":53.53,"y":9.83,"z":13}}}