{"type":"Feature","geometry":{"type":"Point","coordinates":[53.53,9.83,13]},"properties":{"stationId":"EDHI","rawText":"EDHI 101750Z AUTO VRB02KT 9999 // FEW067/// 04/02 Q1014","observationTime":"2019-11-10T17:50:00Z","temp":4,"dewpoint":2,"windDirection":0,"windSpeed":3.704,"visibility":6.21,"altim":29.940945,"flightCategory":"VFR","metarType":"METAR","geometry_esri":{"x":53.53,"y":9.83,"z":13}}}