{"type":"Feature","geometry":{"type":"Point","coordinates":[53.53,9.83,13]},"properties":{"stationId":"EDHI","rawText":"EDHI 231850Z AUTO 27017KT 9999 2800 // SCT021/// BKN025/// BKN091/// 04/02 Q1008","observationTime":"2020-02-23T18:50:00Z","temp":4,"dewpoint":2,"windDirection":270,"windSpeed":31.484,"visibility":6.21,"altim":29.763779,"flightCategory":"MVFR","metarType":"METAR","geometry_esri":{"x":53.53,"y":9.83,"z":13}}}