{"type":"Feature","geometry":{"type":"Point","coordinates":[53.53,9.83,13]},"properties":{"stationId":"EDHI","rawText":"EDHI 020620Z AUTO 12003KT 070V170 4500 // OVC006/// 09/09 Q0989","observationTime":"2019-11-02T06:20:00Z","temp":9,"dewpoint":9,"windDirection":120,"windSpeed":5.556,"visibility":2.8,"altim":29.202755,"flightCategory":"IFR","metarType":"METAR","geometry_esri":{"x":53.53,"y":9.83,"z":13}}}