{"type":"Feature","geometry":{"type":"Point","coordinates":[53.53,9.83,13]},"properties":{"stationId":"EDHI","rawText":"EDHI 270350Z AUTO 25011KT 3700 // OVC005/// 05/05 Q1024","observationTime":"2018-12-27T03:50:00Z","temp":5,"dewpoint":5,"windDirection":250,"windSpeed":20.372,"visibility":2.3,"altim":30.236221,"flightCategory":"IFR","metarType":"METAR","geometry_esri":{"x":53.53,"y":9.83,"z":13}}}