{"type":"Feature","geometry":{"type":"Point","coordinates":[53.53,9.83,13]},"properties":{"stationId":"EDHI","rawText":"EDHI 292120Z AUTO 27016KT 7000 2600 // OVC005/// 07/07 Q1015","observationTime":"2018-12-29T21:20:00Z","temp":7,"dewpoint":7,"windDirection":270,"windSpeed":29.632,"visibility":4.35,"altim":29.970472,"flightCategory":"IFR","metarType":"METAR","geometry_esri":{"x":53.53,"y":9.83,"z":13}}}