{"type":"Feature","geometry":{"type":"Point","coordinates":[53.53,9.83,13]},"properties":{"stationId":"EDHI","rawText":"EDHI 120550Z AUTO 26007KT 4300 // BKN004/// BKN013/// OVC020/// 11/11 Q1005","observationTime":"2019-10-12T05:50:00Z","temp":11,"dewpoint":11,"windDirection":260,"windSpeed":12.964,"visibility":2.67,"altim":29.675198,"flightCategory":"LIFR","metarType":"METAR","geometry_esri":{"x":53.53,"y":9.83,"z":13}}}