{"type":"Feature","geometry":{"type":"Point","coordinates":[53.53,9.83,13]},"properties":{"stationId":"EDHI","rawText":"EDHI 301550Z AUTO 30011KT 9999 // FEW013/// BKN041/// BKN047/// 07/05 Q1028","observationTime":"2018-12-30T15:50:00Z","temp":7,"dewpoint":5,"windDirection":300,"windSpeed":20.372,"visibility":6.21,"altim":30.35433,"flightCategory":"VFR","metarType":"METAR","geometry_esri":{"x":53.53,"y":9.83,"z":13}}}