{"type":"Feature","geometry":{"type":"Point","coordinates":[53.53,9.83,13]},"properties":{"stationId":"EDHI","rawText":"EDHI 131850Z 32009KT 280V350 CAVOK 11/03 Q1036","observationTime":"2019-05-13T18:50:00Z","temp":11,"dewpoint":3,"windDirection":320,"windSpeed":16.668,"visibility":6.21,"altim":30.590551,"flightCategory":"VFR","metarType":"METAR","geometry_esri":{"x":53.53,"y":9.83,"z":13}}}