{"type":"Feature","geometry":{"type":"Point","coordinates":[53.53,9.83,13]},"properties":{"stationId":"EDHI","rawText":"EDHI 300220Z AUTO 13007KT 090V190 8000 // FEW042/// SCT068/// OVC096/// 10/08 Q1001","observationTime":"2020-04-30T02:20:00Z","temp":10,"dewpoint":8,"windDirection":130,"windSpeed":12.964,"visibility":4.97,"altim":29.557087,"flightCategory":"MVFR","metarType":"METAR","geometry_esri":{"x":53.53,"y":9.83,"z":13}}}