{"type":"Feature","geometry":{"type":"Point","coordinates":[53.53,9.83,13]},"properties":{"stationId":"EDHI","rawText":"EDHI 300750Z AUTO 21009KT 170V250 9999 // NCD 29/12 Q1010","observationTime":"2019-06-30T07:50:00Z","temp":29,"dewpoint":12,"windDirection":210,"windSpeed":16.668,"visibility":6.21,"altim":29.822834,"flightCategory":"VFR","metarType":"METAR","geometry_esri":{"x":53.53,"y":9.83,"z":13}}}