{"type":"Feature","geometry":{"type":"Point","coordinates":[53.53,9.83,13]},"properties":{"stationId":"EDHI","rawText":"EDHI 301650Z AUTO 30011KT 270V330 9999 // FEW160/// SCT230/// 23/15 Q1012","observationTime":"2019-06-30T16:50:00Z","temp":23,"dewpoint":15,"windDirection":300,"windSpeed":20.372,"visibility":6.21,"altim":29.88189,"flightCategory":"VFR","metarType":"METAR","geometry_esri":{"x":53.53,"y":9.83,"z":13}}}