{"type":"Feature","geometry":{"type":"Point","coordinates":[53.53,9.83,13]},"properties":{"stationId":"EDHI","rawText":"EDHI 201020Z 27004KT 240V300 CAVOK 05/04 Q1046","observationTime":"2020-01-20T10:20:00Z","temp":5,"dewpoint":4,"windDirection":270,"windSpeed":7.408,"visibility":6.21,"altim":30.885826,"flightCategory":"VFR","metarType":"METAR","geometry_esri":{"x":53.53,"y":9.83,"z":13}}}