{"type":"Feature","geometry":{"type":"Point","coordinates":[53.53,9.83,13]},"properties":{"stationId":"EDHI","rawText":"EDHI 111450Z 24007KT 9999 FEW024 SCT049 21/16 Q1011","observationTime":"2019-06-11T14:50:00Z","temp":21,"dewpoint":16,"windDirection":240,"windSpeed":12.964,"visibility":6.21,"altim":29.852362,"flightCategory":"VFR","metarType":"METAR","geometry_esri":{"x":53.53,"y":9.83,"z":13}}}