{"type":"Feature","geometry":{"type":"Point","coordinates":[53.53,9.83,13]},"properties":{"stationId":"EDHI","rawText":"EDHI 170620Z 10004KT 050V170 9999 SCT005 BKN017 11/09 Q1012","observationTime":"2019-05-17T06:20:00Z","temp":11,"dewpoint":9,"windDirection":100,"windSpeed":7.408,"visibility":6.21,"altim":29.88189,"flightCategory":"MVFR","metarType":"METAR","geometry_esri":{"x":53.53,"y":9.83,"z":13}}}