{"type":"Feature","geometry":{"type":"Point","coordinates":[53.53,9.83,13]},"properties":{"stationId":"EDHI","rawText":"EDHI 050720Z 24003KT 5000 BR OVC005 09/08 Q0993","observationTime":"2019-11-05T07:20:00Z","temp":9,"dewpoint":8,"windDirection":240,"windSpeed":5.556,"visibility":3.11,"altim":29.320866,"flightCategory":"IFR","metarType":"METAR","geometry_esri":{"x":53.53,"y":9.83,"z":13}}}