{"type":"Feature","geometry":{"type":"Point","coordinates":[53.53,9.83,13]},"properties":{"stationId":"EDHI","rawText":"EDHI 180850Z 24023G34KT 9999 VCSH SCT028 BKN032 BKN036 06/01 Q1014","observationTime":"2020-02-18T08:50:00Z","temp":6,"dewpoint":1,"windDirection":240,"windSpeed":42.596000000000004,"visibility":6.21,"altim":29.940945,"flightCategory":"VFR","metarType":"METAR","geometry_esri":{"x":53.53,"y":9.83,"z":13}}}