{"type":"Feature","geometry":{"type":"Point","coordinates":[53.53,9.83,13]},"properties":{"stationId":"EDHI","rawText":"EDHI 191650Z 15005KT 110V170 9999 SCT014 BKN019 05/04 Q1012","observationTime":"2018-12-19T16:50:00Z","temp":5,"dewpoint":4,"windDirection":150,"windSpeed":9.26,"visibility":6.21,"altim":29.88189,"flightCategory":"MVFR","metarType":"METAR","geometry_esri":{"x":53.53,"y":9.83,"z":13}}}