{"type":"Feature","geometry":{"type":"Point","coordinates":[53.53,9.83,13]},"properties":{"stationId":"EDHI","rawText":"EDHI 180320Z AUTO 10006KT 070V140 9999 // SCT068/// SCT085/// 18/13 Q1017","observationTime":"2019-06-18T03:20:00Z","temp":18,"dewpoint":13,"windDirection":100,"windSpeed":11.112,"visibility":6.21,"altim":30.029528,"flightCategory":"VFR","metarType":"METAR","geometry_esri":{"x":53.53,"y":9.83,"z":13}}}