{"type":"Feature","geometry":{"type":"Point","coordinates":[53.53,9.83,13]},"properties":{"stationId":"EDHI","rawText":"EDHI 120320Z AUTO 30010KT 270V330 4200 // BKN004/// BKN160/// 16/15 Q1008","observationTime":"2019-06-12T03:20:00Z","temp":16,"dewpoint":15,"windDirection":300,"windSpeed":18.52,"visibility":2.61,"altim":29.763779,"flightCategory":"LIFR","metarType":"METAR","geometry_esri":{"x":53.53,"y":9.83,"z":13}}}