{"type":"Feature","geometry":{"type":"Point","coordinates":[53.53,9.83,13]},"properties":{"stationId":"EDHI","rawText":"EDHI 200850Z AUTO 09003KT 060V120 2200 1300 R23/P2000N // BKN002/// OVC130/// M03/M04 Q1019","observationTime":"2019-01-20T08:50:00Z","temp":-3,"dewpoint":-4,"windDirection":90,"windSpeed":5.556,"visibility":1.37,"altim":30.088583,"flightCategory":"LIFR","metarType":"METAR","geometry_esri":{"x":53.53,"y":9.83,"z":13}}}