{"type":"Feature","geometry":{"type":"Point","coordinates":[53.53,9.83,13]},"properties":{"stationId":"EDHI","rawText":"EDHI 181420Z 26009KT 9999 2200 BKN009 02/00 Q1017","observationTime":"2019-01-18T14:20:00Z","temp":2,"dewpoint":0,"windDirection":260,"windSpeed":16.668,"visibility":6.21,"altim":30.029528,"flightCategory":"IFR","metarType":"METAR","geometry_esri":{"x":53.53,"y":9.83,"z":13}}}