{"type":"Feature","geometry":{"type":"Point","coordinates":[53.53,9.83,13]},"properties":{"stationId":"EDHI","rawText":"EDHI 111820Z AUTO 26005KT 230V290 9999 // FEW041/// 21/15 Q1012","observationTime":"2019-06-11T18:20:00Z","temp":21,"dewpoint":15,"windDirection":260,"windSpeed":9.26,"visibility":6.21,"altim":29.88189,"flightCategory":"VFR","metarType":"METAR","geometry_esri":{"x":53.53,"y":9.83,"z":13}}}