{"type":"Feature","geometry":{"type":"Point","coordinates":[53.53,9.83,13]},"properties":{"stationId":"EDHI","rawText":"EDHI 300650Z 25003KT 220V280 4500 BR FEW003 BKN044 16/16 Q1022","observationTime":"2019-08-30T06:50:00Z","temp":16,"dewpoint":16,"windDirection":250,"windSpeed":5.556,"visibility":2.8,"altim":30.177166,"flightCategory":"IFR","metarType":"METAR","geometry_esri":{"x":53.53,"y":9.83,"z":13}}}