{"type":"Feature","geometry":{"type":"Point","coordinates":[53.53,9.83,13]},"properties":{"stationId":"EDHI","rawText":"EDHI 230150Z AUTO VRB02KT 1000 0400 R23/P2000N // FEW006/// 08/08 Q1022","observationTime":"2019-10-23T01:50:00Z","temp":8,"dewpoint":8,"windDirection":0,"windSpeed":3.704,"visibility":0.62,"altim":30.177166,"flightCategory":"LIFR","metarType":"METAR","geometry_esri":{"x":53.53,"y":9.83,"z":13}}}