{"type":"Feature","geometry":{"type":"Point","coordinates":[53.53,9.83,13]},"properties":{"stationId":"EDHI","rawText":"EDHI 160350Z AUTO 28010KT 2500 // BKN005/// BKN007/// OVC014/// 14/13 Q1014","observationTime":"2019-07-16T03:50:00Z","temp":14,"dewpoint":13,"windDirection":280,"windSpeed":18.52,"visibility":1.55,"altim":29.940945,"flightCategory":"IFR","metarType":"METAR","geometry_esri":{"x":53.53,"y":9.83,"z":13}}}