{"type":"Feature","geometry":{"type":"Point","coordinates":[53.53,9.83,13]},"properties":{"stationId":"EDHI","rawText":"EDHI 290420Z AUTO 22010KT 9999 // FEW012/// BKN014/// OVC024/// 14/12 Q1004","observationTime":"2019-09-29T04:20:00Z","temp":14,"dewpoint":12,"windDirection":220,"windSpeed":18.52,"visibility":6.21,"altim":29.64567,"flightCategory":"MVFR","metarType":"SPECI","geometry_esri":{"x":53.53,"y":9.83,"z":13}}}