{"type":"Feature","geometry":{"type":"Point","coordinates":[53.53,9.83,13]},"properties":{"stationId":"EDHI","rawText":"EDHI 061520Z AUTO 14005KT 100V190 9999 // NCD 21/07 Q1006","observationTime":"2019-04-06T15:20:00Z","temp":21,"dewpoint":7,"windDirection":140,"windSpeed":9.26,"visibility":6.21,"altim":29.704725,"flightCategory":"VFR","metarType":"METAR","geometry_esri":{"x":53.53,"y":9.83,"z":13}}}