{"type":"Feature","geometry":{"type":"Point","coordinates":[53.53,9.83,13]},"properties":{"stationId":"EDHI","rawText":"EDHI 190050Z AUTO 06006KT 030V100 9999 // FEW120/// 06/M03 Q1021","observationTime":"2020-04-19T00:50:00Z","temp":6,"dewpoint":-3,"windDirection":60,"windSpeed":11.112,"visibility":6.21,"altim":30.147638,"flightCategory":"VFR","metarType":"METAR","geometry_esri":{"x":53.53,"y":9.83,"z":13}}}