{"type":"Feature","geometry":{"type":"Point","coordinates":[53.53,9.83,13]},"properties":{"stationId":"EDHI","rawText":"EDHI 071750Z AUTO 30013KT 9999 // FEW030/// BKN040/// BKN064/// 14/08 Q1013","observationTime":"2019-07-07T17:50:00Z","temp":14,"dewpoint":8,"windDirection":300,"windSpeed":24.076,"visibility":6.21,"altim":29.911417,"flightCategory":"VFR","metarType":"METAR","geometry_esri":{"x":53.53,"y":9.83,"z":13}}}