{"type":"Feature","geometry":{"type":"Point","coordinates":[53.53,9.83,13]},"properties":{"stationId":"EDHI","rawText":"EDHI 061120Z AUTO 25014KT 9999 // BKN019/// OVC024/// 17/14 Q1007","observationTime":"2019-07-06T11:20:00Z","temp":17,"dewpoint":14,"windDirection":250,"windSpeed":25.928,"visibility":6.21,"altim":29.734253,"flightCategory":"MVFR","metarType":"SPECI","geometry_esri":{"x":53.53,"y":9.83,"z":13}}}