{"type":"Feature","geometry":{"type":"Point","coordinates":[53.53,9.83,13]},"properties":{"stationId":"EDHI","rawText":"EDHI 111250Z 01012KT 340V050 CAVOK 10/M04 Q1012","observationTime":"2020-05-11T12:50:00Z","temp":10,"dewpoint":-4,"windDirection":10,"windSpeed":22.224,"visibility":6.21,"altim":29.88189,"flightCategory":"VFR","metarType":"METAR","geometry_esri":{"x":53.53,"y":9.83,"z":13}}}