{"type":"Feature","geometry":{"type":"Point","coordinates":[53.53,9.83,13]},"properties":{"stationId":"EDHI","rawText":"EDHI 140220Z AUTO 20007KT 4600 // OVC004/// 03/02 Q0981","observationTime":"2019-12-14T02:20:00Z","temp":3,"dewpoint":2,"windDirection":200,"windSpeed":12.964,"visibility":2.86,"altim":28.966536,"flightCategory":"LIFR","metarType":"METAR","geometry_esri":{"x":53.53,"y":9.83,"z":13}}}