{"type":"Feature","geometry":{"type":"Point","coordinates":[53.53,9.83,13]},"properties":{"stationId":"EDHI","rawText":"EDHI 281720Z AUTO 21013KT 9999 // SCT020/// BKN024/// BKN088/// 15/12 Q1006","observationTime":"2019-09-28T17:20:00Z","temp":15,"dewpoint":12,"windDirection":210,"windSpeed":24.076,"visibility":6.21,"altim":29.704725,"flightCategory":"MVFR","metarType":"METAR","geometry_esri":{"x":53.53,"y":9.83,"z":13}}}