{"type":"Feature","geometry":{"type":"Point","coordinates":[53.53,9.83,13]},"properties":{"stationId":"EDHI","rawText":"EDHI 151320Z AUTO 24027G38KT 9999 // BKN045/// BKN051/// 09/01 Q0995","observationTime":"2019-12-15T13:20:00Z","temp":9,"dewpoint":1,"windDirection":240,"windSpeed":50.004000000000005,"visibility":6.21,"altim":29.379921,"flightCategory":"VFR","metarType":"METAR","geometry_esri":{"x":53.53,"y":9.83,"z":13}}}