{"type":"Feature","geometry":{"type":"Point","coordinates":[53.53,9.83,13]},"properties":{"stationId":"EDHI","rawText":"EDHI 170720Z 11003KT 080V160 2000 BR OVC002 01/00 Q1017","observationTime":"2018-12-17T07:20:00Z","temp":1,"dewpoint":0,"windDirection":110,"windSpeed":5.556,"visibility":1.24,"altim":30.029528,"flightCategory":"LIFR","metarType":"METAR","geometry_esri":{"x":53.53,"y":9.83,"z":13}}}