{"type":"Feature","geometry":{"type":"Point","coordinates":[53.53,9.83,13]},"properties":{"stationId":"EDHI","rawText":"EDHI 040920Z 24010KT 9999 VCSH FEW020CB BKN050 07/03 Q1005","observationTime":"2019-05-04T09:20:00Z","temp":7,"dewpoint":3,"windDirection":240,"windSpeed":18.52,"visibility":6.21,"altim":29.675198,"flightCategory":"VFR","metarType":"METAR","geometry_esri":{"x":53.53,"y":9.83,"z":13}}}