{"type":"Feature","geometry":{"type":"Point","coordinates":[53.53,9.83,13]},"properties":{"stationId":"EDHI","rawText":"EDHI 160320Z AUTO 27010KT 7000 3400 // BKN007/// OVC023/// 14/13 Q1014","observationTime":"2019-07-16T03:20:00Z","temp":14,"dewpoint":13,"windDirection":270,"windSpeed":18.52,"visibility":4.35,"altim":29.940945,"flightCategory":"IFR","metarType":"METAR","geometry_esri":{"x":53.53,"y":9.83,"z":13}}}