{"type":"Feature","geometry":{"type":"Point","coordinates":[53.53,9.83,13]},"properties":{"stationId":"EDHI","rawText":"EDHI 210120Z AUTO 13002KT 5000 // FEW110/// M08/M09 Q1023","observationTime":"2019-01-21T01:20:00Z","temp":-8,"dewpoint":-9,"windDirection":130,"windSpeed":3.704,"visibility":3.11,"altim":30.206694,"flightCategory":"MVFR","metarType":"METAR","geometry_esri":{"x":53.53,"y":9.83,"z":13}}}