{"type":"Feature","geometry":{"type":"Point","coordinates":[53.53,9.83,13]},"properties":{"stationId":"EDHI","rawText":"EDHI 062150Z AUTO 20006KT 3700 // OVC006/// 05/05 Q1016","observationTime":"2019-02-06T21:50:00Z","temp":5,"dewpoint":5,"windDirection":200,"windSpeed":11.112,"visibility":2.3,"altim":30,"flightCategory":"IFR","metarType":"METAR","geometry_esri":{"x":53.53,"y":9.83,"z":13}}}