{"type":"Feature","geometry":{"type":"Point","coordinates":[53.53,9.83,13]},"properties":{"stationId":"EDHI","rawText":"EDHI 300350Z AUTO 25012KT 9000 // BKN008/// OVC014/// 15/15 Q0988","observationTime":"2019-09-30T03:50:00Z","temp":15,"dewpoint":15,"windDirection":250,"windSpeed":22.224,"visibility":5.59,"altim":29.17323,"flightCategory":"IFR","metarType":"METAR","geometry_esri":{"x":53.53,"y":9.83,"z":13}}}