{"type":"Feature","geometry":{"type":"Point","coordinates":[53.53,9.83,13]},"properties":{"stationId":"EDHI","rawText":"EDHI 192250Z AUTO 24005KT 4900 // NCD 01/00 Q1043","observationTime":"2020-01-19T22:50:00Z","temp":1,"dewpoint":0,"windDirection":240,"windSpeed":9.26,"visibility":3.04,"altim":30.797245,"flightCategory":"MVFR","metarType":"METAR","geometry_esri":{"x":53.53,"y":9.83,"z":13}}}