{"type":"Feature","geometry":{"type":"Point","coordinates":[53.53,9.83,13]},"properties":{"stationId":"EDHI","rawText":"EDHI 210920Z 15007KT 120V190 9999 -RA FEW010 BKN026 OVC038 06/05 Q1002","observationTime":"2018-12-21T09:20:00Z","temp":6,"dewpoint":5,"windDirection":150,"windSpeed":12.964,"visibility":6.21,"altim":29.586615,"flightCategory":"MVFR","metarType":"METAR","geometry_esri":{"x":53.53,"y":9.83,"z":13}}}