{"type":"Feature","geometry":{"type":"Point","coordinates":[53.53,9.83,13]},"properties":{"stationId":"EDHI","rawText":"EDHI 280420Z AUTO 22009KT 6000 // FEW026/// SCT034/// OVC069/// 13/12 Q1006","observationTime":"2019-09-28T04:20:00Z","temp":13,"dewpoint":12,"windDirection":220,"windSpeed":16.668,"visibility":3.73,"altim":29.704725,"flightCategory":"MVFR","metarType":"METAR","geometry_esri":{"x":53.53,"y":9.83,"z":13}}}