{"type":"Feature","geometry":{"type":"Point","coordinates":[53.53,9.83,13]},"properties":{"stationId":"EDHI","rawText":"EDHI 062050Z AUTO 27013KT 9999 // FEW031/// BKN037/// BKN042/// 14/09 Q1008","observationTime":"2019-07-06T20:50:00Z","temp":14,"dewpoint":9,"windDirection":270,"windSpeed":24.076,"visibility":6.21,"altim":29.763779,"flightCategory":"VFR","metarType":"METAR","geometry_esri":{"x":53.53,"y":9.83,"z":13}}}