{"type":"Feature","geometry":{"type":"Point","coordinates":[53.53,9.83,13]},"properties":{"stationId":"EDHI","rawText":"EDHI 061050Z 22013KT 3000 -DZ BR BKN006 05/05 Q1006","observationTime":"2019-12-06T10:50:00Z","temp":5,"dewpoint":5,"windDirection":220,"windSpeed":24.076,"visibility":1.86,"altim":29.704725,"flightCategory":"IFR","metarType":"METAR","geometry_esri":{"x":53.53,"y":9.83,"z":13}}}