{"type":"Feature","geometry":{"type":"Point","coordinates":[53.53,9.83,13]},"properties":{"stationId":"EDHI","rawText":"EDHI 231020Z 25009KT 4000 BR OVC010 09/07 Q1028","observationTime":"2019-03-23T10:20:00Z","temp":9,"dewpoint":7,"windDirection":250,"windSpeed":16.668,"visibility":2.49,"altim":30.35433,"flightCategory":"IFR","metarType":"METAR","geometry_esri":{"x":53.53,"y":9.83,"z":13}}}