{"type":"Feature","geometry":{"type":"Point","coordinates":[53.53,9.83,13]},"properties":{"stationId":"EDHI","rawText":"EDHI 141020Z 21015KT 9999 -RA BKN012 OVC018 06/04 Q0995","observationTime":"2019-03-14T10:20:00Z","temp":6,"dewpoint":4,"windDirection":210,"windSpeed":27.78,"visibility":6.21,"altim":29.379921,"flightCategory":"MVFR","metarType":"METAR","geometry_esri":{"x":53.53,"y":9.83,"z":13}}}