{"type":"Feature","geometry":{"type":"Point","coordinates":[53.53,9.83,13]},"properties":{"stationId":"EDHI","rawText":"EDHI 121450Z 26024G38KT 230V290 9999 SCT051CB 09/M01 Q1006","observationTime":"2020-03-12T14:50:00Z","temp":9,"dewpoint":-1,"windDirection":260,"windSpeed":44.448,"visibility":6.21,"altim":29.704725,"flightCategory":"VFR","metarType":"METAR","geometry_esri":{"x":53.53,"y":9.83,"z":13}}}