{"type":"Feature","geometry":{"type":"Point","coordinates":[53.53,9.83,13]},"properties":{"stationId":"EDHI","rawText":"EDHI 310320Z AUTO 25006KT 1900 // BKN002/// OVC005/// 06/06 Q1029","observationTime":"2018-12-31T03:20:00Z","temp":6,"dewpoint":6,"windDirection":250,"windSpeed":11.112,"visibility":1.18,"altim":30.383858,"flightCategory":"LIFR","metarType":"METAR","geometry_esri":{"x":53.53,"y":9.83,"z":13}}}