{"type":"Feature","geometry":{"type":"Point","coordinates":[53.53,9.83,13]},"properties":{"stationId":"EDHI","rawText":"EDHI 210950Z 05007KT 2700 BR OVC005 05/04 Q1013","observationTime":"2019-11-21T09:50:00Z","temp":5,"dewpoint":4,"windDirection":50,"windSpeed":12.964,"visibility":1.68,"altim":29.911417,"flightCategory":"IFR","metarType":"METAR","geometry_esri":{"x":53.53,"y":9.83,"z":13}}}