{"type":"Feature","geometry":{"type":"Point","coordinates":[53.53,9.83,13]},"properties":{"stationId":"EDHI","rawText":"EDHI 280350Z 31006KT 280V020 9999 BKN020 14/10 Q1025","observationTime":"2019-06-28T03:50:00Z","temp":14,"dewpoint":10,"windDirection":310,"windSpeed":11.112,"visibility":6.21,"altim":30.265747,"flightCategory":"MVFR","metarType":"METAR","geometry_esri":{"x":53.53,"y":9.83,"z":13}}}