{"type":"Feature","geometry":{"type":"Point","coordinates":[53.53,9.83,13]},"properties":{"stationId":"EDHI","rawText":"EDHI 191720Z AUTO 06015KT 9999 // NCD 11/M03 Q1024","observationTime":"2020-04-19T17:20:00Z","temp":11,"dewpoint":-3,"windDirection":60,"windSpeed":27.78,"visibility":6.21,"altim":30.236221,"flightCategory":"VFR","metarType":"METAR","geometry_esri":{"x":53.53,"y":9.83,"z":13}}}