{"type":"Feature","geometry":{"type":"Point","coordinates":[53.53,9.83,13]},"properties":{"stationId":"EDHI","rawText":"EDHI 131450Z 29020KT 270V330 9999 SCT031 BKN036 07/02 Q1012","observationTime":"2020-03-13T14:50:00Z","temp":7,"dewpoint":2,"windDirection":290,"windSpeed":37.04,"visibility":6.21,"altim":29.88189,"flightCategory":"VFR","metarType":"METAR","geometry_esri":{"x":53.53,"y":9.83,"z":13}}}