{"type":"Feature","geometry":{"type":"Point","coordinates":[53.53,9.83,13]},"properties":{"stationId":"EDHI","rawText":"EDHI 262150Z AUTO 21013KT 180V250 9999 // OVC042/// 17/10 Q1007","observationTime":"2019-10-26T21:50:00Z","temp":17,"dewpoint":10,"windDirection":210,"windSpeed":24.076,"visibility":6.21,"altim":29.734253,"flightCategory":"VFR","metarType":"METAR","geometry_esri":{"x":53.53,"y":9.83,"z":13}}}