{"type":"Feature","geometry":{"type":"Point","coordinates":[53.53,9.83,13]},"properties":{"stationId":"EDHI","rawText":"EDHI 051350Z 11009KT 060V150 9999 FEW036 09/02 Q0998","observationTime":"2020-03-05T13:50:00Z","temp":9,"dewpoint":2,"windDirection":110,"windSpeed":16.668,"visibility":6.21,"altim":29.468504,"flightCategory":"VFR","metarType":"METAR","geometry_esri":{"x":53.53,"y":9.83,"z":13}}}