{"type":"Feature","geometry":{"type":"Point","coordinates":[53.53,9.83,13]},"properties":{"stationId":"EDHI","rawText":"EDHI 041520Z VRB01KT 9999 BKN021 BKN026 OVC039 11/08 Q0989","observationTime":"2019-11-04T15:20:00Z","temp":11,"dewpoint":8,"windDirection":0,"windSpeed":1.852,"visibility":6.21,"altim":29.202755,"flightCategory":"MVFR","metarType":"METAR","geometry_esri":{"x":53.53,"y":9.83,"z":13}}}