{"type":"Feature","geometry":{"type":"Point","coordinates":[53.53,9.83,13]},"properties":{"stationId":"EDHI","rawText":"EDHI 220550Z VRB02KT 7000 SCT012 BKN031 M01/M03 Q1012","observationTime":"2019-01-22T05:50:00Z","temp":-1,"dewpoint":-3,"windDirection":0,"windSpeed":3.704,"visibility":4.35,"altim":29.88189,"flightCategory":"MVFR","metarType":"METAR","geometry_esri":{"x":53.53,"y":9.83,"z":13}}}