{"type":"Feature","geometry":{"type":"Point","coordinates":[53.53,9.83,13]},"properties":{"stationId":"EDHI","rawText":"EDHI 112150Z AUTO 21005KT 170V240 4800 // OVC004/// 04/04 Q1003","observationTime":"2019-12-11T21:50:00Z","temp":4,"dewpoint":4,"windDirection":210,"windSpeed":9.26,"visibility":2.98,"altim":29.616142,"flightCategory":"LIFR","metarType":"METAR","geometry_esri":{"x":53.53,"y":9.83,"z":13}}}