{"type":"Feature","geometry":{"type":"Point","coordinates":[53.53,9.83,13]},"properties":{"stationId":"EDHI","rawText":"EDHI 291050Z 26012KT 9999 FEW017 SCT022 22/18 Q1017","observationTime":"2019-08-29T10:50:00Z","temp":22,"dewpoint":18,"windDirection":260,"windSpeed":22.224,"visibility":6.21,"altim":30.029528,"flightCategory":"VFR","metarType":"METAR","geometry_esri":{"x":53.53,"y":9.83,"z":13}}}