{"type":"Feature","geometry":{"type":"Point","coordinates":[53.53,9.83,13]},"properties":{"stationId":"EDHI","rawText":"EDHI 250020Z AUTO 24017KT 9000 1300 R23/P2000N // FEW013/// SCT015/// OVC018/// 10/08 Q0995","observationTime":"2020-02-25T00:20:00Z","temp":10,"dewpoint":8,"windDirection":240,"windSpeed":31.484,"visibility":5.59,"altim":29.379921,"flightCategory":"MVFR","metarType":"METAR","geometry_esri":{"x":53.53,"y":9.83,"z":13}}}