{"type":"Feature","geometry":{"type":"Point","coordinates":[53.53,9.83,13]},"properties":{"stationId":"EDHI","rawText":"EDHI 190250Z AUTO 07007KT 2200 // OVC002/// 13/12 Q1006","observationTime":"2019-05-19T02:50:00Z","temp":13,"dewpoint":12,"windDirection":70,"windSpeed":12.964,"visibility":1.37,"altim":29.704725,"flightCategory":"LIFR","metarType":"METAR","geometry_esri":{"x":53.53,"y":9.83,"z":13}}}