{"type":"Feature","geometry":{"type":"Point","coordinates":[53.53,9.83,13]},"properties":{"stationId":"EDHI","rawText":"EDHI 110520Z 26008KT 1800 BR BKN001 03/03 Q1018","observationTime":"2019-01-11T05:20:00Z","temp":3,"dewpoint":3,"windDirection":260,"windSpeed":14.816,"visibility":1.12,"altim":30.059055,"flightCategory":"LIFR","metarType":"METAR","geometry_esri":{"x":53.53,"y":9.83,"z":13}}}