{"type":"Feature","geometry":{"type":"Point","coordinates":[53.53,9.83,13]},"properties":{"stationId":"EDHI","rawText":"EDHI 110250Z AUTO 34008KT 290V360 9999 // OVC065/// 06/01 Q1009","observationTime":"2020-05-11T02:50:00Z","temp":6,"dewpoint":1,"windDirection":340,"windSpeed":14.816,"visibility":6.21,"altim":29.793306,"flightCategory":"VFR","metarType":"METAR","geometry_esri":{"x":53.53,"y":9.83,"z":13}}}