{"type":"Feature","geometry":{"type":"Point","coordinates":[53.53,9.83,13]},"properties":{"stationId":"EDHI","rawText":"EDHI 071550Z AUTO 29014KT 9999 // FEW039/// BKN046/// OVC062/// 15/08 Q1013","observationTime":"2019-07-07T15:50:00Z","temp":15,"dewpoint":8,"windDirection":290,"windSpeed":25.928,"visibility":6.21,"altim":29.911417,"flightCategory":"VFR","metarType":"METAR","geometry_esri":{"x":53.53,"y":9.83,"z":13}}}