{"type":"Feature","geometry":{"type":"Point","coordinates":[53.53,9.83,13]},"properties":{"stationId":"EDHI","rawText":"EDHI 031220Z 13008KT 090V160 9999 FEW028 12/08 Q1003","observationTime":"2019-04-03T12:20:00Z","temp":12,"dewpoint":8,"windDirection":130,"windSpeed":14.816,"visibility":6.21,"altim":29.616142,"flightCategory":"VFR","metarType":"METAR","geometry_esri":{"x":53.53,"y":9.83,"z":13}}}