{"type":"Feature","geometry":{"type":"Point","coordinates":[53.53,9.83,13]},"properties":{"stationId":"EDHI","rawText":"EDHI 011350Z 14006KT 100V170 9999 -RA BKN031 05/01 Q1006","observationTime":"2019-11-01T13:50:00Z","temp":5,"dewpoint":1,"windDirection":140,"windSpeed":11.112,"visibility":6.21,"altim":29.704725,"flightCategory":"VFR","metarType":"METAR","geometry_esri":{"x":53.53,"y":9.83,"z":13}}}