{"type":"Feature","geometry":{"type":"Point","coordinates":[53.53,9.83,13]},"properties":{"stationId":"EDHI","rawText":"EDHI 220350Z AUTO 10004KT 070V140 9999 // NCD 11/08 Q1014","observationTime":"2019-09-22T03:50:00Z","temp":11,"dewpoint":8,"windDirection":100,"windSpeed":7.408,"visibility":6.21,"altim":29.940945,"flightCategory":"VFR","metarType":"METAR","geometry_esri":{"x":53.53,"y":9.83,"z":13}}}