{"type":"Feature","geometry":{"type":"Point","coordinates":[53.53,9.83,13]},"properties":{"stationId":"EDHI","rawText":"EDHI 242320Z AUTO 10007KT 070V150 9999 // NCD 22/11 Q1021","observationTime":"2019-06-24T23:20:00Z","temp":22,"dewpoint":11,"windDirection":100,"windSpeed":12.964,"visibility":6.21,"altim":30.147638,"flightCategory":"VFR","metarType":"METAR","geometry_esri":{"x":53.53,"y":9.83,"z":13}}}