{"type":"Feature","geometry":{"type":"Point","coordinates":[53.53,9.83,13]},"properties":{"stationId":"EDHI","rawText":"EDHI 201350Z 29007KT 210V330 9999 FEW028 SCT033 21/14 Q1010","observationTime":"2019-06-20T13:50:00Z","temp":21,"dewpoint":14,"windDirection":290,"windSpeed":12.964,"visibility":6.21,"altim":29.822834,"flightCategory":"VFR","metarType":"METAR","geometry_esri":{"x":53.53,"y":9.83,"z":13}}}