{"type":"Feature","geometry":{"type":"Point","coordinates":[53.53,9.83,13]},"properties":{"stationId":"EDHI","rawText":"EDHI 240020Z AUTO 36007KT 340V040 9999 // BKN007/// BKN011/// OVC016/// 05/04 Q1015","observationTime":"2018-12-24T00:20:00Z","temp":5,"dewpoint":4,"windDirection":360,"windSpeed":12.964,"visibility":6.21,"altim":29.970472,"flightCategory":"IFR","metarType":"METAR","geometry_esri":{"x":53.53,"y":9.83,"z":13}}}