{"type":"Feature","geometry":{"type":"Point","coordinates":[53.53,9.83,13]},"properties":{"stationId":"EDHI","rawText":"EDHI 260720Z 13004KT 100V180 5000 BR SCT006 BKN013 OVC015 05/04 Q1006","observationTime":"2019-11-26T07:20:00Z","temp":5,"dewpoint":4,"windDirection":130,"windSpeed":7.408,"visibility":3.11,"altim":29.704725,"flightCategory":"MVFR","metarType":"METAR","geometry_esri":{"x":53.53,"y":9.83,"z":13}}}