{"type":"Feature","geometry":{"type":"Point","coordinates":[53.53,9.83,13]},"properties":{"stationId":"EDHI","rawText":"EDHI 310520Z 20003KT 170V230 0500 R05/0650N FG OVC002 06/06 Q1029","observationTime":"2018-12-31T05:20:00Z","temp":6,"dewpoint":6,"windDirection":200,"windSpeed":5.556,"visibility":0.31,"altim":30.383858,"flightCategory":"LIFR","metarType":"METAR","geometry_esri":{"x":53.53,"y":9.83,"z":13}}}