{"type":"Feature","geometry":{"type":"Point","coordinates":[53.53,9.83,13]},"properties":{"stationId":"EDHI","rawText":"EDHI 292350Z AUTO 25004KT 9999 // NCD M01/M05 Q1032","observationTime":"2020-03-29T23:50:00Z","temp":-1,"dewpoint":-5,"windDirection":250,"windSpeed":7.408,"visibility":6.21,"altim":30.47244,"flightCategory":"VFR","metarType":"METAR","geometry_esri":{"x":53.53,"y":9.83,"z":13}}}