{"type":"Feature","geometry":{"type":"Point","coordinates":[53.53,9.83,13]},"properties":{"stationId":"EDHI","rawText":"EDHI 181150Z 32020G34KT 8000 -SHRA FEW026 SCT030 BKN042 05/02 Q1010","observationTime":"2019-03-18T11:50:00Z","temp":5,"dewpoint":2,"windDirection":320,"windSpeed":37.04,"visibility":4.97,"altim":29.822834,"flightCategory":"MVFR","metarType":"METAR","geometry_esri":{"x":53.53,"y":9.83,"z":13}}}