{"type":"Feature","geometry":{"type":"Point","coordinates":[53.53,9.83,13]},"properties":{"stationId":"EDHI","rawText":"EDHI 032020Z AUTO 26011KT 9999 // FEW021/// SCT049/// BKN061/// 05/02 Q1007","observationTime":"2019-05-03T20:20:00Z","temp":5,"dewpoint":2,"windDirection":260,"windSpeed":20.372,"visibility":6.21,"altim":29.734253,"flightCategory":"VFR","metarType":"METAR","geometry_esri":{"x":53.53,"y":9.83,"z":13}}}