{"type":"Feature","geometry":{"type":"Point","coordinates":[53.53,9.83,13]},"properties":{"stationId":"EDHI","rawText":"EDHI 171250Z 23019KT 9999 BKN047 10/02 Q1008","observationTime":"2020-02-17T12:50:00Z","temp":10,"dewpoint":2,"windDirection":230,"windSpeed":35.188,"visibility":6.21,"altim":29.763779,"flightCategory":"VFR","metarType":"METAR","geometry_esri":{"x":53.53,"y":9.83,"z":13}}}