{"type":"Feature","geometry":{"type":"Point","coordinates":[53.53,9.83,13]},"properties":{"stationId":"EDHI","rawText":"EDHI 300650Z 29017G27KT 270V330 9999 -RA SCT013 BKN016 14/12 Q0996","observationTime":"2019-09-30T06:50:00Z","temp":14,"dewpoint":12,"windDirection":290,"windSpeed":31.484,"visibility":6.21,"altim":29.409449,"flightCategory":"MVFR","metarType":"METAR","geometry_esri":{"x":53.53,"y":9.83,"z":13}}}