{"type":"Feature","geometry":{"type":"Point","coordinates":[53.53,9.83,13]},"properties":{"stationId":"EDHI","rawText":"EDHI 030850Z 08004KT 9999 -RA BKN039 BKN047 11/07 Q1004","observationTime":"2019-04-03T08:50:00Z","temp":11,"dewpoint":7,"windDirection":80,"windSpeed":7.408,"visibility":6.21,"altim":29.64567,"flightCategory":"VFR","metarType":"METAR","geometry_esri":{"x":53.53,"y":9.83,"z":13}}}