{"type":"Feature","geometry":{"type":"Point","coordinates":[53.53,9.83,13]},"properties":{"stationId":"EDHI","rawText":"EDHI 280220Z AUTO 25009KT 9999 // SCT014/// BKN045/// BKN051/// 08/06 Q1017","observationTime":"2019-10-28T02:20:00Z","temp":8,"dewpoint":6,"windDirection":250,"windSpeed":16.668,"visibility":6.21,"altim":30.029528,"flightCategory":"VFR","metarType":"METAR","geometry_esri":{"x":53.53,"y":9.83,"z":13}}}