{"type":"Feature","geometry":{"type":"Point","coordinates":[53.53,9.83,13]},"properties":{"stationId":"EDHI","rawText":"EDHI 051920Z AUTO 08009KT 050V130 9999 // OVC068/// 08/01 Q0995","observationTime":"2020-03-05T19:20:00Z","temp":8,"dewpoint":1,"windDirection":80,"windSpeed":16.668,"visibility":6.21,"altim":29.379921,"flightCategory":"VFR","metarType":"METAR","geometry_esri":{"x":53.53,"y":9.83,"z":13}}}