{"type":"Feature","geometry":{"type":"Point","coordinates":[53.53,9.83,13]},"properties":{"stationId":"EDHI","rawText":"EDHI 222020Z AUTO 29005KT 9999 // FEW034/// BKN220/// 20/17 Q1021","observationTime":"2019-07-22T20:20:00Z","temp":20,"dewpoint":17,"windDirection":290,"windSpeed":9.26,"visibility":6.21,"altim":30.147638,"flightCategory":"VFR","metarType":"METAR","geometry_esri":{"x":53.53,"y":9.83,"z":13}}}