{"type":"Feature","geometry":{"type":"Point","coordinates":[53.53,9.83,13]},"properties":{"stationId":"EDHI","rawText":"EDHI 230350Z AUTO 08007KT 060V120 9999 // BKN061/// 15/08 Q1023","observationTime":"2019-06-23T03:50:00Z","temp":15,"dewpoint":8,"windDirection":80,"windSpeed":12.964,"visibility":6.21,"altim":30.206694,"flightCategory":"VFR","metarType":"METAR","geometry_esri":{"x":53.53,"y":9.83,"z":13}}}