{"type":"Feature","geometry":{"type":"Point","coordinates":[53.53,9.83,13]},"properties":{"stationId":"EDHI","rawText":"EDHI 160550Z 27012KT 3500 -DZ BR BKN006 OVC013 14/13 Q1014","observationTime":"2019-07-16T05:50:00Z","temp":14,"dewpoint":13,"windDirection":270,"windSpeed":22.224,"visibility":2.17,"altim":29.940945,"flightCategory":"IFR","metarType":"METAR","geometry_esri":{"x":53.53,"y":9.83,"z":13}}}