{"type":"Feature","geometry":{"type":"Point","coordinates":[53.53,9.83,13]},"properties":{"stationId":"EDHI","rawText":"EDHI 280550Z 22011KT 9999 FEW014 BKN030 06/05 Q0989","observationTime":"2020-01-28T05:50:00Z","temp":6,"dewpoint":5,"windDirection":220,"windSpeed":20.372,"visibility":6.21,"altim":29.202755,"flightCategory":"MVFR","metarType":"METAR","geometry_esri":{"x":53.53,"y":9.83,"z":13}}}