{"type":"Feature","geometry":{"type":"Point","coordinates":[53.53,9.83,13]},"properties":{"stationId":"EDHI","rawText":"EDHI 151650Z 05014KT CAVOK 11/02 Q1025","observationTime":"2019-04-15T16:50:00Z","temp":11,"dewpoint":2,"windDirection":50,"windSpeed":25.928,"visibility":6.21,"altim":30.265747,"flightCategory":"VFR","metarType":"METAR","geometry_esri":{"x":53.53,"y":9.83,"z":13}}}