{"type":"Feature","geometry":{"type":"Point","coordinates":[53.53,9.83,13]},"properties":{"stationId":"EDHI","rawText":"EDHI 291150Z AUTO 03019KT 9999 // OVC038/// 04/M04 Q1030","observationTime":"2020-03-29T11:50:00Z","temp":4,"dewpoint":-4,"windDirection":30,"windSpeed":35.188,"visibility":6.21,"altim":30.413385,"flightCategory":"VFR","metarType":"METAR","geometry_esri":{"x":53.53,"y":9.83,"z":13}}}