{"type":"Feature","geometry":{"type":"Point","coordinates":[53.53,9.83,13]},"properties":{"stationId":"EDHI","rawText":"EDHI 212150Z AUTO 27022KT 8000 // OVC008/// 08/07 Q0996","observationTime":"2018-12-21T21:50:00Z","temp":8,"dewpoint":7,"windDirection":270,"windSpeed":40.744,"visibility":4.97,"altim":29.409449,"flightCategory":"IFR","metarType":"METAR","geometry_esri":{"x":53.53,"y":9.83,"z":13}}}