{"type":"Feature","geometry":{"type":"Point","coordinates":[53.53,9.83,13]},"properties":{"stationId":"EDHI","rawText":"EDHI 060250Z AUTO 10003KT 060V170 9999 // NCD 20/15 Q1003","observationTime":"2019-06-06T02:50:00Z","temp":20,"dewpoint":15,"windDirection":100,"windSpeed":5.556,"visibility":6.21,"altim":29.616142,"flightCategory":"VFR","metarType":"METAR","geometry_esri":{"x":53.53,"y":9.83,"z":13}}}