{"type":"Feature","geometry":{"type":"Point","coordinates":[53.53,9.83,13]},"properties":{"stationId":"EDHI","rawText":"EDHI 240120Z AUTO 04004KT 010V070 9999 // NCD 02/M03 Q1038","observationTime":"2019-02-24T01:20:00Z","temp":2,"dewpoint":-3,"windDirection":40,"windSpeed":7.408,"visibility":6.21,"altim":30.649607,"flightCategory":"VFR","metarType":"METAR","geometry_esri":{"x":53.53,"y":9.83,"z":13}}}