{"type":"Feature","geometry":{"type":"Point","coordinates":[53.53,9.83,13]},"properties":{"stationId":"EDHI","rawText":"EDHI 031520Z 25009KT 9999 FEW023 07/04 Q1024","observationTime":"2019-12-03T15:20:00Z","temp":7,"dewpoint":4,"windDirection":250,"windSpeed":16.668,"visibility":6.21,"altim":30.236221,"flightCategory":"VFR","metarType":"METAR","geometry_esri":{"x":53.53,"y":9.83,"z":13}}}