{"type":"Feature","geometry":{"type":"Point","coordinates":[53.53,9.83,13]},"properties":{"stationId":"EDHI","rawText":"EDHI 241720Z 14008KT 110V170 8000 -RA BKN005 BKN014 OVC017 02/01 Q1001","observationTime":"2020-02-24T17:20:00Z","temp":2,"dewpoint":1,"windDirection":140,"windSpeed":14.816,"visibility":4.97,"altim":29.557087,"flightCategory":"IFR","metarType":"METAR","geometry_esri":{"x":53.53,"y":9.83,"z":13}}}