{"type":"Feature","geometry":{"type":"Point","coordinates":[53.53,9.83,13]},"properties":{"stationId":"EDHI","rawText":"EDHI 111720Z 08008KT 040V100 9999 FEW041 05/M02 Q1026","observationTime":"2019-04-11T17:20:00Z","temp":5,"dewpoint":-2,"windDirection":80,"windSpeed":14.816,"visibility":6.21,"altim":30.295275,"flightCategory":"VFR","metarType":"METAR","geometry_esri":{"x":53.53,"y":9.83,"z":13}}}