{"type":"Feature","geometry":{"type":"Point","coordinates":[53.53,9.83,13]},"properties":{"stationId":"EDHI","rawText":"EDHI 200620Z AUTO 11003KT 080V150 2700 // FEW002/// OVC130/// M05/M05 Q1017","observationTime":"2019-01-20T06:20:00Z","temp":-5,"dewpoint":-5,"windDirection":110,"windSpeed":5.556,"visibility":1.68,"altim":30.029528,"flightCategory":"IFR","metarType":"METAR","geometry_esri":{"x":53.53,"y":9.83,"z":13}}}