{"type":"Feature","geometry":{"type":"Point","coordinates":[53.53,9.83,13]},"properties":{"stationId":"EDHI","rawText":"EDHI 022220Z AUTO 26007KT 9999 // SCT012/// BKN018/// OVC061/// 09/07 Q1011","observationTime":"2020-05-02T22:20:00Z","temp":9,"dewpoint":7,"windDirection":260,"windSpeed":12.964,"visibility":6.21,"altim":29.852362,"flightCategory":"MVFR","metarType":"METAR","geometry_esri":{"x":53.53,"y":9.83,"z":13}}}