{"type":"Feature","geometry":{"type":"Point","coordinates":[53.53,9.83,13]},"properties":{"stationId":"EDHI","rawText":"EDHI 212020Z 23006KT 7000 FEW033 M02/M04 Q1017","observationTime":"2019-01-21T20:20:00Z","temp":-2,"dewpoint":-4,"windDirection":230,"windSpeed":11.112,"visibility":4.35,"altim":30.029528,"flightCategory":"MVFR","metarType":"METAR","geometry_esri":{"x":53.53,"y":9.83,"z":13}}}