{"type":"Feature","geometry":{"type":"Point","coordinates":[53.53,9.83,13]},"properties":{"stationId":"EDHI","rawText":"EDHI 290020Z AUTO 23011KT 9999 3700 // SCT009/// BKN031/// BKN100/// 14/12 Q1006","observationTime":"2019-09-29T00:20:00Z","temp":14,"dewpoint":12,"windDirection":230,"windSpeed":20.372,"visibility":6.21,"altim":29.704725,"flightCategory":"VFR","metarType":"METAR","geometry_esri":{"x":53.53,"y":9.83,"z":13}}}