{"type":"Feature","geometry":{"type":"Point","coordinates":[53.53,9.83,13]},"properties":{"stationId":"EDHI","rawText":"EDHI 070550Z AUTO 09003KT 020V150 7000 // NCD 08/06 Q1008","observationTime":"2019-04-07T05:50:00Z","temp":8,"dewpoint":6,"windDirection":90,"windSpeed":5.556,"visibility":4.35,"altim":29.763779,"flightCategory":"MVFR","metarType":"METAR","geometry_esri":{"x":53.53,"y":9.83,"z":13}}}