{"type":"Feature","geometry":{"type":"Point","coordinates":[53.53,9.83,13]},"properties":{"stationId":"EDHI","rawText":"EDHI 310550Z 14004KT 9999 SCT017 OVC023 00/M02 Q0996","observationTime":"2019-01-31T05:50:00Z","temp":0,"dewpoint":-2,"windDirection":140,"windSpeed":7.408,"visibility":6.21,"altim":29.409449,"flightCategory":"MVFR","metarType":"METAR","geometry_esri":{"x":53.53,"y":9.83,"z":13}}}