{"type":"Feature","geometry":{"type":"Point","coordinates":[53.53,9.83,13]},"properties":{"stationId":"EDHI","rawText":"EDHI 241620Z 31011KT 280V350 CAVOK 17/08 Q1012","observationTime":"2019-05-24T16:20:00Z","temp":17,"dewpoint":8,"windDirection":310,"windSpeed":20.372,"visibility":6.21,"altim":29.88189,"flightCategory":"VFR","metarType":"METAR","geometry_esri":{"x":53.53,"y":9.83,"z":13}}}