{"type":"Feature","geometry":{"type":"Point","coordinates":[53.53,9.83,13]},"properties":{"stationId":"EDHI","rawText":"EDHI 071620Z 10007KT 060V170 CAVOK 23/10 Q1009","observationTime":"2019-06-07T16:20:00Z","temp":23,"dewpoint":10,"windDirection":100,"windSpeed":12.964,"visibility":6.21,"altim":29.793306,"flightCategory":"VFR","metarType":"METAR","geometry_esri":{"x":53.53,"y":9.83,"z":13}}}