{"type":"Feature","geometry":{"type":"Point","coordinates":[53.53,9.83,13]},"properties":{"stationId":"EDHI","rawText":"EDHI 181350Z AUTO 23006KT 200V270 9999 // FEW013/// SCT016/// OVC044/// 18/15 Q1004","observationTime":"2019-08-18T13:50:00Z","temp":18,"dewpoint":15,"windDirection":230,"windSpeed":11.112,"visibility":6.21,"altim":29.64567,"flightCategory":"VFR","metarType":"METAR","geometry_esri":{"x":53.53,"y":9.83,"z":13}}}