{"type":"Feature","geometry":{"type":"Point","coordinates":[53.53,9.83,13]},"properties":{"stationId":"EDHI","rawText":"EDHI 190820Z AUTO 03006KT 360V070 9999 // BKN008/// BKN200/// 15/12 Q1007","observationTime":"2019-05-19T08:20:00Z","temp":15,"dewpoint":12,"windDirection":30,"windSpeed":11.112,"visibility":6.21,"altim":29.734253,"flightCategory":"IFR","metarType":"METAR","geometry_esri":{"x":53.53,"y":9.83,"z":13}}}