{"type":"Feature","geometry":{"type":"Point","coordinates":[53.53,9.83,13]},"properties":{"stationId":"EDHI","rawText":"EDHI 170020Z AUTO 14003KT 100V170 4200 // OVC009/// M01/M01 Q1014","observationTime":"2018-12-17T00:20:00Z","temp":-1,"dewpoint":-1,"windDirection":140,"windSpeed":5.556,"visibility":2.61,"altim":29.940945,"flightCategory":"IFR","metarType":"METAR","geometry_esri":{"x":53.53,"y":9.83,"z":13}}}