{"type":"Feature","geometry":{"type":"Point","coordinates":[53.53,9.83,13]},"properties":{"stationId":"EDHI","rawText":"EDHI 192150Z AUTO 22003KT 180V250 9999 // FEW065/// BKN098/// BKN160/// 18/16 Q1007","observationTime":"2019-06-19T21:50:00Z","temp":18,"dewpoint":16,"windDirection":220,"windSpeed":5.556,"visibility":6.21,"altim":29.734253,"flightCategory":"VFR","metarType":"METAR","geometry_esri":{"x":53.53,"y":9.83,"z":13}}}