{"type":"Feature","geometry":{"type":"Point","coordinates":[53.53,9.83,13]},"properties":{"stationId":"EDHI","rawText":"EDHI 261150Z AUTO 24013KT 9999 // OVC030/// 17/11 Q1008","observationTime":"2019-05-26T11:50:00Z","temp":17,"dewpoint":11,"windDirection":240,"windSpeed":24.076,"visibility":6.21,"altim":29.763779,"flightCategory":"MVFR","metarType":"METAR","geometry_esri":{"x":53.53,"y":9.83,"z":13}}}