{"type":"Feature","geometry":{"type":"Point","coordinates":[53.53,9.83,13]},"properties":{"stationId":"EDHI","rawText":"EDHI 300820Z 26008KT 9000 -SHSN FEW008 SCT012 BKN022 01/00 Q1026","observationTime":"2020-03-30T08:20:00Z","temp":1,"dewpoint":0,"windDirection":260,"windSpeed":14.816,"visibility":5.59,"altim":30.295275,"flightCategory":"MVFR","metarType":"METAR","geometry_esri":{"x":53.53,"y":9.83,"z":13}}}