{"type":"Feature","geometry":{"type":"Point","coordinates":[53.53,9.83,13]},"properties":{"stationId":"EDHI","rawText":"EDHI 161750Z AUTO 23018KT 9999 // FEW012/// OVC030/// 09/07 Q0998","observationTime":"2019-03-16T17:50:00Z","temp":9,"dewpoint":7,"windDirection":230,"windSpeed":33.336,"visibility":6.21,"altim":29.468504,"flightCategory":"MVFR","metarType":"METAR","geometry_esri":{"x":53.53,"y":9.83,"z":13}}}