{"type":"Feature","geometry":{"type":"Point","coordinates":[53.53,9.83,13]},"properties":{"stationId":"EDHI","rawText":"EDHI 170120Z AUTO 12004KT 090V160 9999 // NCD 05/03 Q1020","observationTime":"2020-01-17T01:20:00Z","temp":5,"dewpoint":3,"windDirection":120,"windSpeed":7.408,"visibility":6.21,"altim":30.11811,"flightCategory":"VFR","metarType":"METAR","geometry_esri":{"x":53.53,"y":9.83,"z":13}}}