{"type":"Feature","geometry":{"type":"Point","coordinates":[53.53,9.83,13]},"properties":{"stationId":"EDHI","rawText":"EDHI 130750Z 25012KT 1800 -DZ BR OVC006 06/06 Q1030","observationTime":"2019-02-13T07:50:00Z","temp":6,"dewpoint":6,"windDirection":250,"windSpeed":22.224,"visibility":1.12,"altim":30.413385,"flightCategory":"IFR","metarType":"METAR","geometry_esri":{"x":53.53,"y":9.83,"z":13}}}