{"type":"Feature","geometry":{"type":"Point","coordinates":[53.53,9.83,13]},"properties":{"stationId":"EDHI","rawText":"EDHI 181420Z 10005KT 040V170 CAVOK 23/08 Q1006","observationTime":"2019-05-18T14:20:00Z","temp":23,"dewpoint":8,"windDirection":100,"windSpeed":9.26,"visibility":6.21,"altim":29.704725,"flightCategory":"VFR","metarType":"METAR","geometry_esri":{"x":53.53,"y":9.83,"z":13}}}