{"type":"Feature","geometry":{"type":"Point","coordinates":[53.53,9.83,13]},"properties":{"stationId":"EDHI","rawText":"EDHI 021850Z AUTO 31014KT 9999 // FEW035/// OVC078/// 15/06 Q1021","observationTime":"2019-07-02T18:50:00Z","temp":15,"dewpoint":6,"windDirection":310,"windSpeed":25.928,"visibility":6.21,"altim":30.147638,"flightCategory":"VFR","metarType":"METAR","geometry_esri":{"x":53.53,"y":9.83,"z":13}}}