{"type":"Feature","geometry":{"type":"Point","coordinates":[53.53,9.83,13]},"properties":{"stationId":"EDHI","rawText":"EDHI 220720Z 10005KT 070V150 CAVOK 18/10 Q1026","observationTime":"2019-08-22T07:20:00Z","temp":18,"dewpoint":10,"windDirection":100,"windSpeed":9.26,"visibility":6.21,"altim":30.295275,"flightCategory":"VFR","metarType":"METAR","geometry_esri":{"x":53.53,"y":9.83,"z":13}}}