{"type":"Feature","geometry":{"type":"Point","coordinates":[53.53,9.83,13]},"properties":{"stationId":"EDHI","rawText":"EDHI 280720Z 20010KT 9999 FEW023 BKN041 06/04 Q0988","observationTime":"2020-01-28T07:20:00Z","temp":6,"dewpoint":4,"windDirection":200,"windSpeed":18.52,"visibility":6.21,"altim":29.17323,"flightCategory":"VFR","metarType":"METAR","geometry_esri":{"x":53.53,"y":9.83,"z":13}}}