{"type":"Feature","geometry":{"type":"Point","coordinates":[53.53,9.83,13]},"properties":{"stationId":"EDHI","rawText":"EDHI 080350Z AUTO 23015KT 9999 // BKN022/// BKN027/// 06/03 Q0997","observationTime":"2018-12-08T03:50:00Z","temp":6,"dewpoint":3,"windDirection":230,"windSpeed":27.78,"visibility":6.21,"altim":29.438976,"skyCondition1a":"BKN","skyCondition1b":2200,"skyCondition2a":"BKN","skyCondition2b":2700,"flightCategory":"MVFR","metarType":"METAR","geometry_esri":{"x":53.53,"y":9.83,"z":13}}}