{"type":"Feature","geometry":{"type":"Point","coordinates":[53.53,9.83,13]},"properties":{"stationId":"EDHI","rawText":"EDHI 171520Z AUTO 25015KT 9999 // FEW064/// BKN140/// 07/03 Q0999","observationTime":"2019-03-17T15:20:00Z","temp":7,"dewpoint":3,"windDirection":250,"windSpeed":27.78,"visibility":6.21,"altim":29.498032,"flightCategory":"VFR","metarType":"METAR","geometry_esri":{"x":53.53,"y":9.83,"z":13}}}