{"type":"Feature","geometry":{"type":"Point","coordinates":[53.53,9.83,13]},"properties":{"stationId":"EDHI","rawText":"EDHI 221620Z AUTO 36003KT 4700 // FEW003/// BKN026/// OVC043/// 07/06 Q1010","observationTime":"2018-12-22T16:20:00Z","temp":7,"dewpoint":6,"windDirection":360,"windSpeed":5.556,"visibility":2.92,"altim":29.822834,"flightCategory":"IFR","metarType":"METAR","geometry_esri":{"x":53.53,"y":9.83,"z":13}}}