{"type":"Feature","geometry":{"type":"Point","coordinates":[53.53,9.83,13]},"properties":{"stationId":"EDHI","rawText":"EDHI 051120Z 27004KT 210V320 6000 BKN014 10/07 Q1005","observationTime":"2019-04-05T11:20:00Z","temp":10,"dewpoint":7,"windDirection":270,"windSpeed":7.408,"visibility":3.73,"altim":29.675198,"flightCategory":"MVFR","metarType":"METAR","geometry_esri":{"x":53.53,"y":9.83,"z":13}}}