{"type":"Feature","geometry":{"type":"Point","coordinates":[53.53,9.83,13]},"properties":{"stationId":"EDHI","rawText":"EDHI 100120Z AUTO 23021G32KT 2300 // BKN025/// 09/06 Q0979","observationTime":"2020-02-10T01:20:00Z","temp":9,"dewpoint":6,"windDirection":230,"windSpeed":38.892,"visibility":1.43,"altim":28.90748,"flightCategory":"IFR","metarType":"METAR","geometry_esri":{"x":53.53,"y":9.83,"z":13}}}