{"type":"Feature","geometry":{"type":"Point","coordinates":[53.53,9.83,13]},"properties":{"stationId":"EDHI","rawText":"EDHI 180320Z AUTO 25017KT 9999 // SCT023/// SCT031/// BKN043/// 06/02 Q1016","observationTime":"2020-01-18T03:20:00Z","temp":6,"dewpoint":2,"windDirection":250,"windSpeed":31.484,"visibility":6.21,"altim":30,"flightCategory":"VFR","metarType":"METAR","geometry_esri":{"x":53.53,"y":9.83,"z":13}}}