{"type":"Feature","geometry":{"type":"Point","coordinates":[53.53,9.83,13]},"properties":{"stationId":"EDHI","rawText":"EDHI 230750Z 12005KT 070V160 5000 BR BKN009 M05/M07 Q1002","observationTime":"2019-01-23T07:50:00Z","temp":-5,"dewpoint":-7,"windDirection":120,"windSpeed":9.26,"visibility":3.11,"altim":29.586615,"flightCategory":"IFR","metarType":"METAR","geometry_esri":{"x":53.53,"y":9.83,"z":13}}}