{"type":"Feature","geometry":{"type":"Point","coordinates":[53.53,9.83,13]},"properties":{"stationId":"EDHI","rawText":"EDHI 271820Z AUTO 21006KT 9999 // SCT009/// OVC017/// 05/04 Q0982","observationTime":"2019-01-27T18:20:00Z","temp":5,"dewpoint":4,"windDirection":210,"windSpeed":11.112,"visibility":6.21,"altim":28.996063,"flightCategory":"MVFR","metarType":"METAR","geometry_esri":{"x":53.53,"y":9.83,"z":13}}}