{"type":"Feature","geometry":{"type":"Point","coordinates":[53.53,9.83,13]},"properties":{"stationId":"EDHI","rawText":"EDHI 130820Z AUTO 33014KT 300V020 9999 // BKN047/// 07/M04 Q1018","observationTime":"2020-04-13T08:20:00Z","temp":7,"dewpoint":-4,"windDirection":330,"windSpeed":25.928,"visibility":6.21,"altim":30.059055,"flightCategory":"VFR","metarType":"METAR","geometry_esri":{"x":53.53,"y":9.83,"z":13}}}