{"type":"Feature","geometry":{"type":"Point","coordinates":[53.53,9.83,13]},"properties":{"stationId":"EDHI","rawText":"EDHI 190850Z AUTO 23005KT 9999 // BKN032/// BKN036/// 01/01 Q1033","observationTime":"2020-01-19T08:50:00Z","temp":1,"dewpoint":1,"windDirection":230,"windSpeed":9.26,"visibility":6.21,"altim":30.501968,"flightCategory":"VFR","metarType":"METAR","geometry_esri":{"x":53.53,"y":9.83,"z":13}}}