{"type":"Feature","geometry":{"type":"Point","coordinates":[53.53,9.83,13]},"properties":{"stationId":"EDHI","rawText":"EDHI 290850Z AUTO 03024G38KT 1500 1300 R23/P2000N // SCT012/// OVC018/// 02/M00 Q1028","observationTime":"2020-03-29T08:50:00Z","temp":2,"dewpoint":0,"windDirection":30,"windSpeed":44.448,"visibility":0.93,"altim":30.35433,"flightCategory":"LIFR","metarType":"METAR","geometry_esri":{"x":53.53,"y":9.83,"z":13}}}