{"type":"Feature","geometry":{"type":"Point","coordinates":[53.53,9.83,13]},"properties":{"stationId":"EDHI","rawText":"EDHI 061420Z AUTO 29015KT 9999 // FEW010/// SCT014/// OVC029/// 16/14 Q1007","observationTime":"2019-07-06T14:20:00Z","temp":16,"dewpoint":14,"windDirection":290,"windSpeed":27.78,"visibility":6.21,"altim":29.734253,"flightCategory":"MVFR","metarType":"METAR","geometry_esri":{"x":53.53,"y":9.83,"z":13}}}