{"type":"Feature","geometry":{"type":"Point","coordinates":[53.53,9.83,13]},"properties":{"stationId":"EDHI","rawText":"EDHI 160550Z 28009KT 3500 RA BR SCT003 BKN005 13/13 Q1006","observationTime":"2019-10-16T05:50:00Z","temp":13,"dewpoint":13,"windDirection":280,"windSpeed":16.668,"visibility":2.17,"altim":29.704725,"flightCategory":"IFR","metarType":"METAR","geometry_esri":{"x":53.53,"y":9.83,"z":13}}}