{"type":"Feature","geometry":{"type":"Point","coordinates":[53.53,9.83,13]},"properties":{"stationId":"EDHI","rawText":"EDHI 080850Z 23012KT 2800 -DZ OVC005 08/07 Q1018","observationTime":"2020-01-08T08:50:00Z","temp":8,"dewpoint":7,"windDirection":230,"windSpeed":22.224,"visibility":1.74,"altim":30.059055,"flightCategory":"IFR","metarType":"METAR","geometry_esri":{"x":53.53,"y":9.83,"z":13}}}