{"type":"Feature","geometry":{"type":"Point","coordinates":[53.53,9.83,13]},"properties":{"stationId":"EDHI","rawText":"EDHI 062120Z AUTO 34003KT 280V010 9999 // OVC130/// 14/09 Q1015","observationTime":"2019-06-06T21:20:00Z","temp":14,"dewpoint":9,"windDirection":340,"windSpeed":5.556,"visibility":6.21,"altim":29.970472,"flightCategory":"VFR","metarType":"METAR","geometry_esri":{"x":53.53,"y":9.83,"z":13}}}