{"type":"Feature","geometry":{"type":"Point","coordinates":[53.53,9.83,13]},"properties":{"stationId":"EDHI","rawText":"EDHI 230350Z AUTO 27003KT 220V290 9999 // FEW011/// OVC019/// 05/04 Q1034","observationTime":"2020-01-23T03:50:00Z","temp":5,"dewpoint":4,"windDirection":270,"windSpeed":5.556,"visibility":6.21,"altim":30.531496,"flightCategory":"MVFR","metarType":"METAR","geometry_esri":{"x":53.53,"y":9.83,"z":13}}}