{"type":"Feature","geometry":{"type":"Point","coordinates":[53.53,9.83,13]},"properties":{"stationId":"EDHI","rawText":"EDHI 162320Z AUTO 35007KT 320V020 9999 // BKN160/// OVC180/// 07/03 Q1018","observationTime":"2020-04-16T23:20:00Z","temp":7,"dewpoint":3,"windDirection":350,"windSpeed":12.964,"visibility":6.21,"altim":30.059055,"flightCategory":"VFR","metarType":"METAR","geometry_esri":{"x":53.53,"y":9.83,"z":13}}}