{"type":"Feature","geometry":{"type":"Point","coordinates":[53.53,9.83,13]},"properties":{"stationId":"EDHI","rawText":"EDHI 121620Z AUTO 30017KT 9999 // FEW042/// 12/03 Q1033","observationTime":"2019-05-12T16:20:00Z","temp":12,"dewpoint":3,"windDirection":300,"windSpeed":31.484,"visibility":6.21,"altim":30.501968,"flightCategory":"VFR","metarType":"METAR","geometry_esri":{"x":53.53,"y":9.83,"z":13}}}