{"type":"Feature","geometry":{"type":"Point","coordinates":[53.53,9.83,13]},"properties":{"stationId":"EDHI","rawText":"EDHI 200520Z 23006KT 190V250 9999 SCT008 17/16 Q1007","observationTime":"2019-06-20T05:20:00Z","temp":17,"dewpoint":16,"windDirection":230,"windSpeed":11.112,"visibility":6.21,"altim":29.734253,"flightCategory":"VFR","metarType":"METAR","geometry_esri":{"x":53.53,"y":9.83,"z":13}}}