{"type":"Feature","geometry":{"type":"Point","coordinates":[53.53,9.83,13]},"properties":{"stationId":"EDHI","rawText":"EDHI 271220Z 21008KT 170V250 9999 FEW050 17/05 Q1008","observationTime":"2019-04-27T12:20:00Z","temp":17,"dewpoint":5,"windDirection":210,"windSpeed":14.816,"visibility":6.21,"altim":29.763779,"flightCategory":"VFR","metarType":"METAR","geometry_esri":{"x":53.53,"y":9.83,"z":13}}}