{"type":"Feature","geometry":{"type":"Point","coordinates":[53.53,9.83,13]},"properties":{"stationId":"EDHI","rawText":"EDHI 202120Z AUTO 36007KT 9999 // FEW077/// SCT120/// BKN140/// 19/14 Q1005","observationTime":"2019-05-20T21:20:00Z","temp":19,"dewpoint":14,"windDirection":360,"windSpeed":12.964,"visibility":6.21,"altim":29.675198,"flightCategory":"VFR","metarType":"METAR","geometry_esri":{"x":53.53,"y":9.83,"z":13}}}