{"type":"Feature","geometry":{"type":"Point","coordinates":[53.53,9.83,13]},"properties":{"stationId":"EDHI","rawText":"EDHI 170450Z 20008KT 6000 -DZ BKN005 OVC012 13/13 Q1007","observationTime":"2019-10-17T04:50:00Z","temp":13,"dewpoint":13,"windDirection":200,"windSpeed":14.816,"visibility":3.73,"altim":29.734253,"flightCategory":"IFR","metarType":"METAR","geometry_esri":{"x":53.53,"y":9.83,"z":13}}}