{"type":"Feature","geometry":{"type":"Point","coordinates":[53.53,9.83,13]},"properties":{"stationId":"EDHI","rawText":"EDHI 241920Z AUTO 08009KT 050V120 9999 // NCD 24/16 Q1021","observationTime":"2019-06-24T19:20:00Z","temp":24,"dewpoint":16,"windDirection":80,"windSpeed":16.668,"visibility":6.21,"altim":30.147638,"flightCategory":"VFR","metarType":"METAR","geometry_esri":{"x":53.53,"y":9.83,"z":13}}}