{"type":"Feature","geometry":{"type":"Point","coordinates":[53.53,9.83,13]},"properties":{"stationId":"EDHI","rawText":"EDHI 022320Z AUTO 10005KT 060V140 9999 // FEW047/// SCT057/// OVC110/// 06/02 Q0993","observationTime":"2020-03-02T23:20:00Z","temp":6,"dewpoint":2,"windDirection":100,"windSpeed":9.26,"visibility":6.21,"altim":29.320866,"flightCategory":"VFR","metarType":"METAR","geometry_esri":{"x":53.53,"y":9.83,"z":13}}}