{"type":"Feature","geometry":{"type":"Point","coordinates":[53.53,9.83,13]},"properties":{"stationId":"EDHI","rawText":"EDHI 110850Z 13005KT 080V160 7000 FEW005 01/00 Q1009","observationTime":"2019-11-11T08:50:00Z","temp":1,"dewpoint":0,"windDirection":130,"windSpeed":9.26,"visibility":4.35,"altim":29.793306,"flightCategory":"MVFR","metarType":"METAR","geometry_esri":{"x":53.53,"y":9.83,"z":13}}}