{"type":"Feature","geometry":{"type":"Point","coordinates":[53.53,9.83,13]},"properties":{"stationId":"EDHI","rawText":"EDHI 182220Z AUTO 17007KT 130V210 9999 // BKN015/// OVC025/// 05/03 Q1003","observationTime":"2019-11-18T22:20:00Z","temp":5,"dewpoint":3,"windDirection":170,"windSpeed":12.964,"visibility":6.21,"altim":29.616142,"flightCategory":"MVFR","metarType":"METAR","geometry_esri":{"x":53.53,"y":9.83,"z":13}}}