{"type":"Feature","geometry":{"type":"Point","coordinates":[53.53,9.83,13]},"properties":{"stationId":"EDHI","rawText":"EDHI 120550Z 22005KT 2800 BR SCT004 OVC008 16/16 Q1009","observationTime":"2019-07-12T05:50:00Z","temp":16,"dewpoint":16,"windDirection":220,"windSpeed":9.26,"visibility":1.74,"altim":29.793306,"flightCategory":"IFR","metarType":"METAR","geometry_esri":{"x":53.53,"y":9.83,"z":13}}}