{"type":"Feature","geometry":{"type":"Point","coordinates":[53.53,9.83,13]},"properties":{"stationId":"EDHI","rawText":"EDHI 011320Z 09009KT 050V140 5000 BR OVC014 00/M03 Q0993","observationTime":"2019-02-01T13:20:00Z","temp":0,"dewpoint":-3,"windDirection":90,"windSpeed":16.668,"visibility":3.11,"altim":29.320866,"flightCategory":"MVFR","metarType":"METAR","geometry_esri":{"x":53.53,"y":9.83,"z":13}}}