{"type":"Feature","geometry":{"type":"Point","coordinates":[53.53,9.83,13]},"properties":{"stationId":"EDHI","rawText":"EDHI 261750Z AUTO 15004KT 110V170 9000 // BKN006/// OVC097/// 02/02 Q1014","observationTime":"2020-01-26T17:50:00Z","temp":2,"dewpoint":2,"windDirection":150,"windSpeed":7.408,"visibility":5.59,"altim":29.940945,"flightCategory":"IFR","metarType":"METAR","geometry_esri":{"x":53.53,"y":9.83,"z":13}}}