{"type":"Feature","geometry":{"type":"Point","coordinates":[53.53,9.83,13]},"properties":{"stationId":"EDHI","rawText":"EDHI 281120Z 17003KT 130V220 9000 SCT007 BKN012 03/02 Q0988","observationTime":"2019-01-28T11:20:00Z","temp":3,"dewpoint":2,"windDirection":170,"windSpeed":5.556,"visibility":5.59,"altim":29.17323,"flightCategory":"MVFR","metarType":"METAR","geometry_esri":{"x":53.53,"y":9.83,"z":13}}}