{"type":"Feature","geometry":{"type":"Point","coordinates":[53.53,9.83,13]},"properties":{"stationId":"EDHI","rawText":"EDHI 280020Z AUTO 14006KT 120V190 9999 // OVC028/// 09/08 Q0986","observationTime":"2019-11-28T00:20:00Z","temp":9,"dewpoint":8,"windDirection":140,"windSpeed":11.112,"visibility":6.21,"altim":29.114174,"flightCategory":"MVFR","metarType":"METAR","geometry_esri":{"x":53.53,"y":9.83,"z":13}}}