{"type":"Feature","geometry":{"type":"Point","coordinates":[53.53,9.83,13]},"properties":{"stationId":"EDHI","rawText":"EDHI 310950Z 24005KT 0300 R05/1100N FG OVC002 07/07 Q1030","observationTime":"2018-12-31T09:50:00Z","temp":7,"dewpoint":7,"windDirection":240,"windSpeed":9.26,"visibility":0.19,"altim":30.413385,"flightCategory":"LIFR","metarType":"METAR","geometry_esri":{"x":53.53,"y":9.83,"z":13}}}