{"type":"Feature","geometry":{"type":"Point","coordinates":[53.53,9.83,13]},"properties":{"stationId":"EDHI","rawText":"EDHI 312220Z AUTO 10005KT 060V120 9999 // NCD M00/M03 Q0998","observationTime":"2019-01-31T22:20:00Z","temp":0,"dewpoint":-3,"windDirection":100,"windSpeed":9.26,"visibility":6.21,"altim":29.468504,"flightCategory":"VFR","metarType":"METAR","geometry_esri":{"x":53.53,"y":9.83,"z":13}}}