{"type":"Feature","geometry":{"type":"Point","coordinates":[53.53,9.83,13]},"properties":{"stationId":"EDHI","rawText":"EDHI 302320Z AUTO 29013KT 8000 // OVC006/// 09/08 Q1018","observationTime":"2019-04-30T23:20:00Z","temp":9,"dewpoint":8,"windDirection":290,"windSpeed":24.076,"visibility":4.97,"altim":30.059055,"flightCategory":"IFR","metarType":"METAR","geometry_esri":{"x":53.53,"y":9.83,"z":13}}}