{"type":"Feature","geometry":{"type":"Point","coordinates":[53.53,9.83,13]},"properties":{"stationId":"EDHI","rawText":"EDHI 170650Z AUTO 28018KT 1800 1200 R23/P2000N // FEW015/// SCT017/// OVC020/// 06/05 Q0993","observationTime":"2019-03-17T06:50:00Z","temp":6,"dewpoint":5,"windDirection":280,"windSpeed":33.336,"visibility":1.12,"altim":29.320866,"flightCategory":"IFR","metarType":"METAR","geometry_esri":{"x":53.53,"y":9.83,"z":13}}}