{"type":"Feature","geometry":{"type":"Point","coordinates":[53.53,9.83,13]},"properties":{"stationId":"EDHI","rawText":"EDHI 291520Z AUTO 03018KT 350V050 9999 // NCD 05/M13 Q1031","observationTime":"2020-03-29T15:20:00Z","temp":5,"dewpoint":-13,"windDirection":30,"windSpeed":33.336,"visibility":6.21,"altim":30.442913,"flightCategory":"VFR","metarType":"METAR","geometry_esri":{"x":53.53,"y":9.83,"z":13}}}