{"type":"Feature","geometry":{"type":"Point","coordinates":[53.53,9.83,13]},"properties":{"stationId":"EDHI","rawText":"EDHI 231120Z 27008G18KT 230V300 9999 BKN021 06/02 Q1032","observationTime":"2020-01-23T11:20:00Z","temp":6,"dewpoint":2,"windDirection":270,"windSpeed":14.816,"visibility":6.21,"altim":30.47244,"flightCategory":"MVFR","metarType":"METAR","geometry_esri":{"x":53.53,"y":9.83,"z":13}}}