{"type":"Feature","geometry":{"type":"Point","coordinates":[53.53,9.83,13]},"properties":{"stationId":"EDHI","rawText":"EDHI 231820Z AUTO 10003KT 070V140 9999 // NCD 18/02 Q1017","observationTime":"2020-04-23T18:20:00Z","temp":18,"dewpoint":2,"windDirection":100,"windSpeed":5.556,"visibility":6.21,"altim":30.029528,"flightCategory":"VFR","metarType":"METAR","geometry_esri":{"x":53.53,"y":9.83,"z":13}}}