{"type":"Feature","geometry":{"type":"Point","coordinates":[53.53,9.83,13]},"properties":{"stationId":"EDHI","rawText":"EDHI 140320Z AUTO 26002KT 9999 // NCD M00/M02 Q1021","observationTime":"2020-03-14T03:20:00Z","temp":0,"dewpoint":-2,"windDirection":260,"windSpeed":3.704,"visibility":6.21,"altim":30.147638,"flightCategory":"VFR","metarType":"METAR","geometry_esri":{"x":53.53,"y":9.83,"z":13}}}