{"type":"Feature","geometry":{"type":"Point","coordinates":[53.53,9.83,13]},"properties":{"stationId":"EDHI","rawText":"EDHI 201320Z 10005KT 060V150 CAVOK 09/04 Q0989","observationTime":"2019-12-20T13:20:00Z","temp":9,"dewpoint":4,"windDirection":100,"windSpeed":9.26,"visibility":6.21,"altim":29.202755,"flightCategory":"VFR","metarType":"METAR","geometry_esri":{"x":53.53,"y":9.83,"z":13}}}