{"type":"Feature","geometry":{"type":"Point","coordinates":[53.53,9.83,13]},"properties":{"stationId":"EDHI","rawText":"EDHI 032320Z AUTO 23014KT 210V270 2900 // FEW008/// OVC072/// 09/08 Q0999","observationTime":"2019-04-03T23:20:00Z","temp":9,"dewpoint":8,"windDirection":230,"windSpeed":25.928,"visibility":1.8,"altim":29.498032,"flightCategory":"IFR","metarType":"METAR","geometry_esri":{"x":53.53,"y":9.83,"z":13}}}