{"type":"Feature","geometry":{"type":"Point","coordinates":[53.53,9.83,13]},"properties":{"stationId":"EDHI","rawText":"EDHI 111050Z 13006KT 100V170 CAVOK 05/02 Q1008","observationTime":"2019-11-11T10:50:00Z","temp":5,"dewpoint":2,"windDirection":130,"windSpeed":11.112,"visibility":6.21,"altim":29.763779,"flightCategory":"VFR","metarType":"METAR","geometry_esri":{"x":53.53,"y":9.83,"z":13}}}