{"type":"Feature","geometry":{"type":"Point","coordinates":[53.53,9.83,13]},"properties":{"stationId":"EDHI","rawText":"EDHI 090420Z 03003KT 360V060 CAVOK 11/10 Q1015","observationTime":"2019-09-09T04:20:00Z","temp":11,"dewpoint":10,"windDirection":30,"windSpeed":5.556,"visibility":6.21,"altim":29.970472,"flightCategory":"VFR","metarType":"METAR","geometry_esri":{"x":53.53,"y":9.83,"z":13}}}