{"type":"Feature","geometry":{"type":"Point","coordinates":[53.53,9.83,13]},"properties":{"stationId":"EDHI","rawText":"EDHI 141320Z 32016G29KT 290V360 9999 FEW024 SCT028 03/M03 Q1007","observationTime":"2019-01-14T13:20:00Z","temp":3,"dewpoint":-3,"windDirection":320,"windSpeed":29.632,"visibility":6.21,"altim":29.734253,"flightCategory":"VFR","metarType":"METAR","geometry_esri":{"x":53.53,"y":9.83,"z":13}}}