{"type":"Feature","geometry":{"type":"Point","coordinates":[53.53,9.83,13]},"properties":{"stationId":"EDHI","rawText":"EDHI 152250Z AUTO 27011KT 9999 // OVC017/// 15/12 Q1016","observationTime":"2019-06-15T22:50:00Z","temp":15,"dewpoint":12,"windDirection":270,"windSpeed":20.372,"visibility":6.21,"altim":30,"flightCategory":"MVFR","metarType":"METAR","geometry_esri":{"x":53.53,"y":9.83,"z":13}}}