{"type":"Feature","geometry":{"type":"Point","coordinates":[53.53,9.83,13]},"properties":{"stationId":"EDHI","rawText":"EDHI 310150Z AUTO 26007KT 4300 // OVC004/// 05/05 Q1023","observationTime":"2019-12-31T01:50:00Z","temp":5,"dewpoint":5,"windDirection":260,"windSpeed":12.964,"visibility":2.67,"altim":30.206694,"flightCategory":"LIFR","metarType":"METAR","geometry_esri":{"x":53.53,"y":9.83,"z":13}}}