{"type":"Feature","geometry":{"type":"Point","coordinates":[53.53,9.83,13]},"properties":{"stationId":"EDHI","rawText":"EDHI 261720Z 08007KT CAVOK 30/14 Q1017","observationTime":"2019-08-26T17:20:00Z","temp":30,"dewpoint":14,"windDirection":80,"windSpeed":12.964,"visibility":6.21,"altim":30.029528,"flightCategory":"VFR","metarType":"METAR","geometry_esri":{"x":53.53,"y":9.83,"z":13}}}