{"type":"Feature","geometry":{"type":"Point","coordinates":[53.53,9.83,13]},"properties":{"stationId":"EDHI","rawText":"EDHI 181850Z AUTO 06012KT 9999 // FEW250/// 11/M04 Q1018","observationTime":"2020-04-18T18:50:00Z","temp":11,"dewpoint":-4,"windDirection":60,"windSpeed":22.224,"visibility":6.21,"altim":30.059055,"flightCategory":"VFR","metarType":"METAR","geometry_esri":{"x":53.53,"y":9.83,"z":13}}}