{"type":"Feature","geometry":{"type":"Point","coordinates":[53.53,9.83,13]},"properties":{"stationId":"EDHI","rawText":"EDHI 280750Z 28009KT 7000 -SHRA SCT007CB SCT021 08/07 Q1020","observationTime":"2019-10-28T07:50:00Z","temp":8,"dewpoint":7,"windDirection":280,"windSpeed":16.668,"visibility":4.35,"altim":30.11811,"flightCategory":"MVFR","metarType":"METAR","geometry_esri":{"x":53.53,"y":9.83,"z":13}}}