{"type":"Feature","geometry":{"type":"Point","coordinates":[53.53,9.83,13]},"properties":{"stationId":"EDHI","rawText":"EDHI 191350Z AUTO 09010KT 050V150 9999 // NCD 13/M05 Q1024","observationTime":"2020-04-19T13:50:00Z","temp":13,"dewpoint":-5,"windDirection":90,"windSpeed":18.52,"visibility":6.21,"altim":30.236221,"flightCategory":"VFR","metarType":"METAR","geometry_esri":{"x":53.53,"y":9.83,"z":13}}}