{"type":"Feature","geometry":{"type":"Point","coordinates":[53.53,9.83,13]},"properties":{"stationId":"EDHI","rawText":"EDHI 120020Z AUTO 21005KT 180V240 1300 1200 R23/1800U // SCT001/// OVC005/// 04/04 Q1002","observationTime":"2019-12-12T00:20:00Z","temp":4,"dewpoint":4,"windDirection":210,"windSpeed":9.26,"visibility":0.81,"altim":29.586615,"flightCategory":"LIFR","metarType":"METAR","geometry_esri":{"x":53.53,"y":9.83,"z":13}}}