{"type":"Feature","geometry":{"type":"Point","coordinates":[53.53,9.83,13]},"properties":{"stationId":"EDHI","rawText":"EDHI 150020Z AUTO 28010KT 3700 // FEW031/// OVC083/// 04/M00 Q1012","observationTime":"2019-01-15T00:20:00Z","temp":4,"dewpoint":0,"windDirection":280,"windSpeed":18.52,"visibility":2.3,"altim":29.88189,"flightCategory":"IFR","metarType":"METAR","geometry_esri":{"x":53.53,"y":9.83,"z":13}}}