{"type":"Feature","geometry":{"type":"Point","coordinates":[53.53,9.83,13]},"properties":{"stationId":"EDHI","rawText":"EDHI 141520Z 09006KT 9999 FEW020 SCT028 OVC039 02/M02 Q1027","observationTime":"2018-12-14T15:20:00Z","temp":2,"dewpoint":-2,"windDirection":90,"windSpeed":11.112,"visibility":6.21,"altim":30.324802,"flightCategory":"VFR","metarType":"METAR","geometry_esri":{"x":53.53,"y":9.83,"z":13}}}