{"type":"Feature","geometry":{"type":"Point","coordinates":[53.53,9.83,13]},"properties":{"stationId":"EDHI","rawText":"EDHI 280650Z AUTO VRB01KT 9999 // NCD M04/M04 Q1041","observationTime":"2019-12-28T06:50:00Z","temp":-4,"dewpoint":-4,"windDirection":0,"windSpeed":1.852,"visibility":6.21,"altim":30.73819,"flightCategory":"VFR","metarType":"METAR","geometry_esri":{"x":53.53,"y":9.83,"z":13}}}