{"type":"Feature","geometry":{"type":"Point","coordinates":[53.53,9.83,13]},"properties":{"stationId":"EDHI","rawText":"EDHI 150850Z 19011KT 170V230 2500 -SHRA FEW011 BKN013CB OVC024 15/14 Q1007","observationTime":"2019-08-15T08:50:00Z","temp":15,"dewpoint":14,"windDirection":190,"windSpeed":20.372,"visibility":1.55,"altim":29.734253,"flightCategory":"IFR","metarType":"METAR","geometry_esri":{"x":53.53,"y":9.83,"z":13}}}