{"type":"Feature","geometry":{"type":"Point","coordinates":[53.53,9.83,13]},"properties":{"stationId":"EDHI","rawText":"EDHI 061050Z AUTO 06004KT 010V120 6000 // NCD 15/09 Q1007","observationTime":"2019-04-06T10:50:00Z","temp":15,"dewpoint":9,"windDirection":60,"windSpeed":7.408,"visibility":3.73,"altim":29.734253,"flightCategory":"MVFR","metarType":"SPECI","geometry_esri":{"x":53.53,"y":9.83,"z":13}}}