{"type":"Feature","geometry":{"type":"Point","coordinates":[53.53,9.83,13]},"properties":{"stationId":"EDHI","rawText":"EDHI 101250Z 26024KT 9999 VCSH SCT028 BKN037 07/03 Q0989","observationTime":"2020-02-10T12:50:00Z","temp":7,"dewpoint":3,"windDirection":260,"windSpeed":44.448,"visibility":6.21,"altim":29.202755,"flightCategory":"VFR","metarType":"METAR","geometry_esri":{"x":53.53,"y":9.83,"z":13}}}