{"type":"Feature","geometry":{"type":"Point","coordinates":[53.53,9.83,13]},"properties":{"stationId":"EDHI","rawText":"EDHI 021550Z 33011KT CAVOK 03/M06 Q1033","observationTime":"2019-01-02T15:50:00Z","temp":3,"dewpoint":-6,"windDirection":330,"windSpeed":20.372,"visibility":6.21,"altim":30.501968,"flightCategory":"VFR","metarType":"METAR","geometry_esri":{"x":53.53,"y":9.83,"z":13}}}