{"type":"Feature","geometry":{"type":"Point","coordinates":[53.53,9.83,13]},"properties":{"stationId":"EDHI","rawText":"EDHI 270720Z 30012KT 270V330 9999 BKN022 16/11 Q1026","observationTime":"2019-06-27T07:20:00Z","temp":16,"dewpoint":11,"windDirection":300,"windSpeed":22.224,"visibility":6.21,"altim":30.295275,"flightCategory":"MVFR","metarType":"METAR","geometry_esri":{"x":53.53,"y":9.83,"z":13}}}