{"type":"Feature","geometry":{"type":"Point","coordinates":[53.53,9.83,13]},"properties":{"stationId":"EDHI","rawText":"EDHI 061750Z AUTO 13005KT 060V230 9999 // FEW074/// OVC120/// 18/07 Q1007","observationTime":"2019-04-06T17:50:00Z","temp":18,"dewpoint":7,"windDirection":130,"windSpeed":9.26,"visibility":6.21,"altim":29.734253,"flightCategory":"VFR","metarType":"METAR","geometry_esri":{"x":53.53,"y":9.83,"z":13}}}