{"type":"Feature","geometry":{"type":"Point","coordinates":[53.53,9.83,13]},"properties":{"stationId":"EDHI","rawText":"EDHI 271620Z 17006KT 140V200 9999 SCT017 BKN034 08/06 Q1003","observationTime":"2020-01-27T16:20:00Z","temp":8,"dewpoint":6,"windDirection":170,"windSpeed":11.112,"visibility":6.21,"altim":29.616142,"flightCategory":"VFR","metarType":"METAR","geometry_esri":{"x":53.53,"y":9.83,"z":13}}}