{"type":"Feature","geometry":{"type":"Point","coordinates":[53.53,9.83,13]},"properties":{"stationId":"EDHI","rawText":"EDHI 230120Z AUTO VRB02KT 3300 // OVC004/// 06/06 Q0990","observationTime":"2019-12-23T01:20:00Z","temp":6,"dewpoint":6,"windDirection":0,"windSpeed":3.704,"visibility":2.05,"altim":29.232283,"flightCategory":"LIFR","metarType":"METAR","geometry_esri":{"x":53.53,"y":9.83,"z":13}}}