{"type":"Feature","geometry":{"type":"Point","coordinates":[53.53,9.83,13]},"properties":{"stationId":"EDHI","rawText":"EDHI 301020Z 23007KT CAVOK 14/07 Q1021","observationTime":"2019-03-30T10:20:00Z","temp":14,"dewpoint":7,"windDirection":230,"windSpeed":12.964,"visibility":6.21,"altim":30.147638,"flightCategory":"VFR","metarType":"METAR","geometry_esri":{"x":53.53,"y":9.83,"z":13}}}