{"type":"Feature","geometry":{"type":"Point","coordinates":[53.53,9.83,13]},"properties":{"stationId":"EDHI","rawText":"EDHI 140950Z 25011KT 9999 FEW029 SCT035 19/10 Q1016","observationTime":"2019-08-14T09:50:00Z","temp":19,"dewpoint":10,"windDirection":250,"windSpeed":20.372,"visibility":6.21,"altim":30,"flightCategory":"VFR","metarType":"METAR","geometry_esri":{"x":53.53,"y":9.83,"z":13}}}