{"type":"Feature","geometry":{"type":"Point","coordinates":[53.53,9.83,13]},"properties":{"stationId":"EDHI","rawText":"EDHI 022350Z AUTO 21007KT 180V240 9000 // OVC022/// 04/03 Q1018","observationTime":"2020-01-02T23:50:00Z","temp":4,"dewpoint":3,"windDirection":210,"windSpeed":12.964,"visibility":5.59,"altim":30.059055,"flightCategory":"MVFR","metarType":"METAR","geometry_esri":{"x":53.53,"y":9.83,"z":13}}}