{"type":"Feature","geometry":{"type":"Point","coordinates":[53.53,9.83,13]},"properties":{"stationId":"EDHI","rawText":"EDHI 090920Z AUTO 20019KT 9999 // BKN100/// OVC130/// 09/04 Q1006","observationTime":"2020-02-09T09:20:00Z","temp":9,"dewpoint":4,"windDirection":200,"windSpeed":35.188,"visibility":6.21,"altim":29.704725,"flightCategory":"VFR","metarType":"METAR","geometry_esri":{"x":53.53,"y":9.83,"z":13}}}