{"type":"Feature","geometry":{"type":"Point","coordinates":[53.53,9.83,13]},"properties":{"stationId":"EDHI","rawText":"EDHI 181820Z AUTO 03003KT 350V050 9999 // SCT073/// BKN140/// 23/12 Q1010","observationTime":"2019-07-18T18:20:00Z","temp":23,"dewpoint":12,"windDirection":30,"windSpeed":5.556,"visibility":6.21,"altim":29.822834,"flightCategory":"VFR","metarType":"METAR","geometry_esri":{"x":53.53,"y":9.83,"z":13}}}