{"type":"Feature","geometry":{"type":"Point","coordinates":[53.53,9.83,13]},"properties":{"stationId":"EDHI","rawText":"EDHI 210620Z 19007KT 160V220 9999 SCT013 BKN027 07/05 Q1005","observationTime":"2018-12-21T06:20:00Z","temp":7,"dewpoint":5,"windDirection":190,"windSpeed":12.964,"visibility":6.21,"altim":29.675198,"flightCategory":"MVFR","metarType":"METAR","geometry_esri":{"x":53.53,"y":9.83,"z":13}}}