{"type":"Feature","geometry":{"type":"Point","coordinates":[53.53,9.83,13]},"properties":{"stationId":"EDHI","rawText":"EDHI 130350Z AUTO 26012KT 6000 // OVC010/// 06/05 Q1029","observationTime":"2019-02-13T03:50:00Z","temp":6,"dewpoint":5,"windDirection":260,"windSpeed":22.224,"visibility":3.73,"altim":30.383858,"flightCategory":"MVFR","metarType":"METAR","geometry_esri":{"x":53.53,"y":9.83,"z":13}}}