{"type":"Feature","geometry":{"type":"Point","coordinates":[53.53,9.83,13]},"properties":{"stationId":"EDHI","rawText":"EDHI 201850Z 29006KT 260V330 9999 FEW020 BKN033 15/11 Q1026","observationTime":"2019-09-20T18:50:00Z","temp":15,"dewpoint":11,"windDirection":290,"windSpeed":11.112,"visibility":6.21,"altim":30.295275,"flightCategory":"VFR","metarType":"METAR","geometry_esri":{"x":53.53,"y":9.83,"z":13}}}