{"type":"Feature","geometry":{"type":"Point","coordinates":[53.53,9.83,13]},"properties":{"stationId":"EDHI","rawText":"EDHI 011720Z 27006KT 9999 FEW026 SCT046 07/03 Q1016","observationTime":"2020-04-01T17:20:00Z","temp":7,"dewpoint":3,"windDirection":270,"windSpeed":11.112,"visibility":6.21,"altim":30,"flightCategory":"VFR","metarType":"METAR","geometry_esri":{"x":53.53,"y":9.83,"z":13}}}