{"type":"Feature","geometry":{"type":"Point","coordinates":[53.53,9.83,13]},"properties":{"stationId":"EDHI","rawText":"EDHI 191250Z 18005KT 140V230 9999 -SHRA BKN031 14/10 Q1005","observationTime":"2019-10-19T12:50:00Z","temp":14,"dewpoint":10,"windDirection":180,"windSpeed":9.26,"visibility":6.21,"altim":29.675198,"flightCategory":"VFR","metarType":"METAR","geometry_esri":{"x":53.53,"y":9.83,"z":13}}}