{"type":"Feature","geometry":{"type":"Point","coordinates":[53.53,9.83,13]},"properties":{"stationId":"EDHI","rawText":"EDHI 130720Z AUTO 33016G27KT 290V360 9999 // BKN044/// 06/M05 Q1017","observationTime":"2020-04-13T07:20:00Z","temp":6,"dewpoint":-5,"windDirection":330,"windSpeed":29.632,"visibility":6.21,"altim":30.029528,"flightCategory":"VFR","metarType":"METAR","geometry_esri":{"x":53.53,"y":9.83,"z":13}}}