{"type":"Feature","geometry":{"type":"Point","coordinates":[53.53,9.83,13]},"properties":{"stationId":"EDHI","rawText":"EDHI 160820Z AUTO 20019G30KT 9999 2000 // OVC018/// 11/09 Q0999","observationTime":"2020-02-16T08:20:00Z","temp":11,"dewpoint":9,"windDirection":200,"windSpeed":35.188,"visibility":6.21,"altim":29.498032,"flightCategory":"MVFR","metarType":"METAR","geometry_esri":{"x":53.53,"y":9.83,"z":13}}}