{"type":"Feature","geometry":{"type":"Point","coordinates":[53.53,9.83,13]},"properties":{"stationId":"EDHI","rawText":"EDHI 182350Z AUTO 06007KT 040V120 9999 // NCD 07/M03 Q1020","observationTime":"2020-04-18T23:50:00Z","temp":7,"dewpoint":-3,"windDirection":60,"windSpeed":12.964,"visibility":6.21,"altim":30.11811,"flightCategory":"VFR","metarType":"METAR","geometry_esri":{"x":53.53,"y":9.83,"z":13}}}