{"type":"Feature","geometry":{"type":"Point","coordinates":[53.53,9.83,13]},"properties":{"stationId":"EDHI","rawText":"EDHI 301150Z AUTO 29013KT 9999 2600 // BKN016/// BKN033/// 08/06 Q1027","observationTime":"2018-12-30T11:50:00Z","temp":8,"dewpoint":6,"windDirection":290,"windSpeed":24.076,"visibility":6.21,"altim":30.324802,"flightCategory":"MVFR","metarType":"METAR","geometry_esri":{"x":53.53,"y":9.83,"z":13}}}