{"type":"Feature","geometry":{"type":"Point","coordinates":[53.53,9.83,13]},"properties":{"stationId":"EDHI","rawText":"EDHI 300350Z AUTO 09004KT 060V130 8000 // OVC180/// M02/M03 Q0998","observationTime":"2019-01-30T03:50:00Z","temp":-2,"dewpoint":-3,"windDirection":90,"windSpeed":7.408,"visibility":4.97,"altim":29.468504,"flightCategory":"MVFR","metarType":"METAR","geometry_esri":{"x":53.53,"y":9.83,"z":13}}}