{"type":"Feature","geometry":{"type":"Point","coordinates":[53.53,9.83,13]},"properties":{"stationId":"EDHI","rawText":"EDHI 030120Z AUTO 20011KT 9999 // FEW015/// BKN027/// OVC033/// 05/03 Q1016","observationTime":"2020-01-03T01:20:00Z","temp":5,"dewpoint":3,"windDirection":200,"windSpeed":20.372,"visibility":6.21,"altim":30,"flightCategory":"MVFR","metarType":"METAR","geometry_esri":{"x":53.53,"y":9.83,"z":13}}}