{"type":"Feature","geometry":{"type":"Point","coordinates":[53.53,9.83,13]},"properties":{"stationId":"EDHI","rawText":"EDHI 091450Z AUTO 25030G48KT 1800 // SCT011/// SCT026/// OVC039/// 06/04 Q0998","observationTime":"2019-02-09T14:50:00Z","temp":6,"dewpoint":4,"windDirection":250,"windSpeed":55.56,"visibility":1.12,"altim":29.468504,"flightCategory":"IFR","metarType":"METAR","geometry_esri":{"x":53.53,"y":9.83,"z":13}}}