{"type":"Feature","geometry":{"type":"Point","coordinates":[53.53,9.83,13]},"properties":{"stationId":"EDHI","rawText":"EDHI 021020Z 33014KT 300V360 CAVOK 04/M05 Q1030","observationTime":"2019-01-02T10:20:00Z","temp":4,"dewpoint":-5,"windDirection":330,"windSpeed":25.928,"visibility":6.21,"altim":30.413385,"flightCategory":"VFR","metarType":"METAR","geometry_esri":{"x":53.53,"y":9.83,"z":13}}}