{"type":"Feature","geometry":{"type":"Point","coordinates":[53.53,9.83,13]},"properties":{"stationId":"EDHI","rawText":"EDHI 090150Z AUTO 34015KT 310V010 9999 // BKN034/// OVC039/// 04/M02 Q1008","observationTime":"2019-01-09T01:50:00Z","temp":4,"dewpoint":-2,"windDirection":340,"windSpeed":27.78,"visibility":6.21,"altim":29.763779,"flightCategory":"VFR","metarType":"METAR","geometry_esri":{"x":53.53,"y":9.83,"z":13}}}