{"type":"Feature","geometry":{"type":"Point","coordinates":[53.53,9.83,13]},"properties":{"stationId":"EDHI","rawText":"EDHI 050750Z 24003KT 130V290 7000 NSC M01/M02 Q1019","observationTime":"2019-12-05T07:50:00Z","temp":-1,"dewpoint":-2,"windDirection":240,"windSpeed":5.556,"visibility":4.35,"altim":30.088583,"flightCategory":"MVFR","metarType":"METAR","geometry_esri":{"x":53.53,"y":9.83,"z":13}}}