{"type":"Feature","geometry":{"type":"Point","coordinates":[53.53,9.83,13]},"properties":{"stationId":"EDHI","rawText":"EDHI 050720Z 29007KT 2400 BR BKN005 08/07 Q1004","observationTime":"2019-04-05T07:20:00Z","temp":8,"dewpoint":7,"windDirection":290,"windSpeed":12.964,"visibility":1.49,"altim":29.64567,"flightCategory":"IFR","metarType":"METAR","geometry_esri":{"x":53.53,"y":9.83,"z":13}}}