{"type":"Feature","geometry":{"type":"Point","coordinates":[53.53,9.83,13]},"properties":{"stationId":"EDHI","rawText":"EDHI 161420Z AUTO 14008KT 100V160 7000 // FEW020/// OVC031/// M00/M04 Q1012","observationTime":"2018-12-16T14:20:00Z","temp":0,"dewpoint":-4,"windDirection":140,"windSpeed":14.816,"visibility":4.35,"altim":29.88189,"flightCategory":"MVFR","metarType":"METAR","geometry_esri":{"x":53.53,"y":9.83,"z":13}}}