{"type":"Feature","geometry":{"type":"Point","coordinates":[53.53,9.83,13]},"properties":{"stationId":"EDHI","rawText":"EDHI 291120Z 29008KT 260V320 9999 FEW040 14/05 Q1022","observationTime":"2019-05-29T11:20:00Z","temp":14,"dewpoint":5,"windDirection":290,"windSpeed":14.816,"visibility":6.21,"altim":30.177166,"flightCategory":"VFR","metarType":"METAR","geometry_esri":{"x":53.53,"y":9.83,"z":13}}}