{"type":"Feature","geometry":{"type":"Point","coordinates":[53.53,9.83,13]},"properties":{"stationId":"EDHI","rawText":"EDHI 040850Z 20019G36KT 9000 -SHRA FEW022 BKN034 11/06 Q0982","observationTime":"2019-03-04T08:50:00Z","temp":11,"dewpoint":6,"windDirection":200,"windSpeed":35.188,"visibility":5.59,"altim":28.996063,"flightCategory":"VFR","metarType":"METAR","geometry_esri":{"x":53.53,"y":9.83,"z":13}}}