{"type":"Feature","geometry":{"type":"Point","coordinates":[53.53,9.83,13]},"properties":{"stationId":"EDHI","rawText":"EDHI 190720Z 11005KT 070V150 CAVOK 24/17 Q1008","observationTime":"2019-06-19T07:20:00Z","temp":24,"dewpoint":17,"windDirection":110,"windSpeed":9.26,"visibility":6.21,"altim":29.763779,"flightCategory":"VFR","metarType":"METAR","geometry_esri":{"x":53.53,"y":9.83,"z":13}}}