{"type":"Feature","geometry":{"type":"Point","coordinates":[53.53,9.83,13]},"properties":{"stationId":"EDHI","rawText":"EDHI 061050Z AUTO 10008KT 040V140 9999 // FEW023/// BKN210/// 10/05 Q1019","observationTime":"2019-10-06T10:50:00Z","temp":10,"dewpoint":5,"windDirection":100,"windSpeed":14.816,"visibility":6.21,"altim":30.088583,"flightCategory":"VFR","metarType":"METAR","geometry_esri":{"x":53.53,"y":9.83,"z":13}}}