{"type":"Feature","geometry":{"type":"Point","coordinates":[53.53,9.83,13]},"properties":{"stationId":"EDHI","rawText":"EDHI 041650Z 31012KT 9000 -DZ BKN007 06/05 Q1026","observationTime":"2019-01-04T16:50:00Z","temp":6,"dewpoint":5,"windDirection":310,"windSpeed":22.224,"visibility":5.59,"altim":30.295275,"flightCategory":"IFR","metarType":"METAR","geometry_esri":{"x":53.53,"y":9.83,"z":13}}}