{"type":"Feature","geometry":{"type":"Point","coordinates":[53.53,9.83,13]},"properties":{"stationId":"EDHI","rawText":"EDHI 160920Z 29016KT 9999 FEW011 SCT016 BKN023 16/14 Q1015","observationTime":"2019-07-16T09:20:00Z","temp":16,"dewpoint":14,"windDirection":290,"windSpeed":29.632,"visibility":6.21,"altim":29.970472,"flightCategory":"MVFR","metarType":"METAR","geometry_esri":{"x":53.53,"y":9.83,"z":13}}}