{"type":"Feature","geometry":{"type":"Point","coordinates":[53.53,9.83,13]},"properties":{"stationId":"EDHI","rawText":"EDHI 242350Z AUTO 28008KT 9999 3300 // FEW028/// SCT038/// OVC045/// 05/03 Q1030","observationTime":"2018-12-24T23:50:00Z","temp":5,"dewpoint":3,"windDirection":280,"windSpeed":14.816,"visibility":6.21,"altim":30.413385,"flightCategory":"VFR","metarType":"METAR","geometry_esri":{"x":53.53,"y":9.83,"z":13}}}