{"type":"Feature","geometry":{"type":"Point","coordinates":[53.53,9.83,13]},"properties":{"stationId":"EDHI","rawText":"EDHI 170120Z AUTO 10003KT 060V140 9000 // SCT019/// OVC087/// 07/07 Q1003","observationTime":"2019-12-17T01:20:00Z","temp":7,"dewpoint":7,"windDirection":100,"windSpeed":5.556,"visibility":5.59,"altim":29.616142,"flightCategory":"VFR","metarType":"METAR","geometry_esri":{"x":53.53,"y":9.83,"z":13}}}