{"type":"Feature","geometry":{"type":"Point","coordinates":[53.53,9.83,13]},"properties":{"stationId":"EDHI","rawText":"EDHI 060550Z 06011KT 040V100 8000 -RA FEW016 SCT032 04/02 Q0991","observationTime":"2020-03-06T05:50:00Z","temp":4,"dewpoint":2,"windDirection":60,"windSpeed":20.372,"visibility":4.97,"altim":29.26181,"flightCategory":"MVFR","metarType":"METAR","geometry_esri":{"x":53.53,"y":9.83,"z":13}}}