{"type":"Feature","geometry":{"type":"Point","coordinates":[53.53,9.83,13]},"properties":{"stationId":"EDHI","rawText":"EDHI 310420Z AUTO 11003KT 4000 0300 R05/P2000N // SCT002/// 00/M00 Q1028","observationTime":"2019-10-31T04:20:00Z","temp":0,"dewpoint":0,"windDirection":110,"windSpeed":5.556,"visibility":2.49,"altim":30.35433,"flightCategory":"IFR","metarType":"METAR","geometry_esri":{"x":53.53,"y":9.83,"z":13}}}