{"type":"Feature","geometry":{"type":"Point","coordinates":[53.53,9.83,13]},"properties":{"stationId":"EDHI","rawText":"EDHI 261220Z 29017KT CAVOK 25/18 Q1022","observationTime":"2019-06-26T12:20:00Z","temp":25,"dewpoint":18,"windDirection":290,"windSpeed":31.484,"visibility":6.21,"altim":30.177166,"flightCategory":"VFR","metarType":"METAR","geometry_esri":{"x":53.53,"y":9.83,"z":13}}}