{"type":"Feature","geometry":{"type":"Point","coordinates":[53.53,9.83,13]},"properties":{"stationId":"EDHI","rawText":"EDHI 200820Z AUTO VRB02KT 6000 // BKN085/// OVC098/// 11/11 Q1009","observationTime":"2019-10-20T08:20:00Z","temp":11,"dewpoint":11,"windDirection":0,"windSpeed":3.704,"visibility":3.73,"altim":29.793306,"flightCategory":"MVFR","metarType":"METAR","geometry_esri":{"x":53.53,"y":9.83,"z":13}}}