{"type":"Feature","geometry":{"type":"Point","coordinates":[53.53,9.83,13]},"properties":{"stationId":"EDHI","rawText":"EDHI 311020Z AUTO 13004KT 050V160 9999 // NCD 06/02 Q1027","observationTime":"2019-10-31T10:20:00Z","temp":6,"dewpoint":2,"windDirection":130,"windSpeed":7.408,"visibility":6.21,"altim":30.324802,"flightCategory":"VFR","metarType":"METAR","geometry_esri":{"x":53.53,"y":9.83,"z":13}}}