{"type":"Feature","geometry":{"type":"Point","coordinates":[53.53,9.83,13]},"properties":{"stationId":"EDHI","rawText":"EDHI 190120Z AUTO 21014KT 9999 // BKN019/// OVC027/// 06/04 Q1008","observationTime":"2020-02-19T01:20:00Z","temp":6,"dewpoint":4,"windDirection":210,"windSpeed":25.928,"visibility":6.21,"altim":29.763779,"flightCategory":"MVFR","metarType":"METAR","geometry_esri":{"x":53.53,"y":9.83,"z":13}}}