{"type":"Feature","geometry":{"type":"Point","coordinates":[53.53,9.83,13]},"properties":{"stationId":"EDHI","rawText":"EDHI 162250Z AUTO 06008KT 030V090 7000 // FEW004/// BKN009/// OVC016/// 10/09 Q1014","observationTime":"2019-05-16T22:50:00Z","temp":10,"dewpoint":9,"windDirection":60,"windSpeed":14.816,"visibility":4.35,"altim":29.940945,"flightCategory":"IFR","metarType":"METAR","geometry_esri":{"x":53.53,"y":9.83,"z":13}}}