{"type":"Feature","geometry":{"type":"Point","coordinates":[53.53,9.83,13]},"properties":{"stationId":"EDHI","rawText":"EDHI 281150Z 28009KT 9999 FEW009 SCT012 OVC026 11/09 Q1034","observationTime":"2019-03-28T11:50:00Z","temp":11,"dewpoint":9,"windDirection":280,"windSpeed":16.668,"visibility":6.21,"altim":30.531496,"flightCategory":"MVFR","metarType":"METAR","geometry_esri":{"x":53.53,"y":9.83,"z":13}}}