{"type":"Feature","geometry":{"type":"Point","coordinates":[53.53,9.83,13]},"properties":{"stationId":"EDHI","rawText":"EDHI 250350Z AUTO 14004KT 100V180 4800 // OVC005/// 05/04 Q1011","observationTime":"2019-11-25T03:50:00Z","temp":5,"dewpoint":4,"windDirection":140,"windSpeed":7.408,"visibility":2.98,"altim":29.852362,"flightCategory":"IFR","metarType":"METAR","geometry_esri":{"x":53.53,"y":9.83,"z":13}}}