{"type":"Feature","geometry":{"type":"Point","coordinates":[53.53,9.83,13]},"properties":{"stationId":"EDHI","rawText":"EDHI 050850Z 10004KT 060V130 8000 FEW039 04/03 Q1003","observationTime":"2020-03-05T08:50:00Z","temp":4,"dewpoint":3,"windDirection":100,"windSpeed":7.408,"visibility":4.97,"altim":29.616142,"flightCategory":"MVFR","metarType":"METAR","geometry_esri":{"x":53.53,"y":9.83,"z":13}}}