{"type":"Feature","geometry":{"type":"Point","coordinates":[53.53,9.83,13]},"properties":{"stationId":"EDHI","rawText":"EDHI 020150Z AUTO 20006KT 9999 // FEW035/// OVC072/// 08/07 Q1000","observationTime":"2020-05-02T01:50:00Z","temp":8,"dewpoint":7,"windDirection":200,"windSpeed":11.112,"visibility":6.21,"altim":29.52756,"flightCategory":"VFR","metarType":"METAR","geometry_esri":{"x":53.53,"y":9.83,"z":13}}}