{"type":"Feature","geometry":{"type":"Point","coordinates":[53.53,9.83,13]},"properties":{"stationId":"EDHI","rawText":"EDHI 061750Z AUTO 08009KT 050V120 9999 // BKN240/// 09/04 Q1018","observationTime":"2019-10-06T17:50:00Z","temp":9,"dewpoint":4,"windDirection":80,"windSpeed":16.668,"visibility":6.21,"altim":30.059055,"flightCategory":"VFR","metarType":"METAR","geometry_esri":{"x":53.53,"y":9.83,"z":13}}}