{"type":"Feature","geometry":{"type":"Point","coordinates":[53.53,9.83,13]},"properties":{"stationId":"EDHI","rawText":"EDHI 180150Z AUTO 20007KT 170V240 9999 // FEW010/// BKN015/// OVC024/// 14/13 Q1008","observationTime":"2019-10-18T01:50:00Z","temp":14,"dewpoint":13,"windDirection":200,"windSpeed":12.964,"visibility":6.21,"altim":29.763779,"flightCategory":"MVFR","metarType":"METAR","geometry_esri":{"x":53.53,"y":9.83,"z":13}}}