{"type":"Feature","geometry":{"type":"Point","coordinates":[53.53,9.83,13]},"properties":{"stationId":"EDHI","rawText":"EDHI 040550Z 27007KT 4600 BR OVC005 06/06 Q0999","observationTime":"2019-04-04T05:50:00Z","temp":6,"dewpoint":6,"windDirection":270,"windSpeed":12.964,"visibility":2.86,"altim":29.498032,"flightCategory":"IFR","metarType":"METAR","geometry_esri":{"x":53.53,"y":9.83,"z":13}}}