{"type":"Feature","geometry":{"type":"Point","coordinates":[53.53,9.83,13]},"properties":{"stationId":"EDHI","rawText":"EDHI 192150Z AUTO 05008KT 9999 // NCD 07/M02 Q1026","observationTime":"2020-04-19T21:50:00Z","temp":7,"dewpoint":-2,"windDirection":50,"windSpeed":14.816,"visibility":6.21,"altim":30.295275,"flightCategory":"VFR","metarType":"METAR","geometry_esri":{"x":53.53,"y":9.83,"z":13}}}