{"type":"Feature","geometry":{"type":"Point","coordinates":[53.53,9.83,13]},"properties":{"stationId":"EDHI","rawText":"EDHI 060150Z AUTO 08009KT 040V100 9999 // SCT045/// BKN052/// OVC076/// 07/00 Q0991","observationTime":"2020-03-06T01:50:00Z","temp":7,"dewpoint":0,"windDirection":80,"windSpeed":16.668,"visibility":6.21,"altim":29.26181,"flightCategory":"VFR","metarType":"METAR","geometry_esri":{"x":53.53,"y":9.83,"z":13}}}