{"type":"Feature","geometry":{"type":"Point","coordinates":[53.53,9.83,13]},"properties":{"stationId":"EDHI","rawText":"EDHI 052050Z AUTO 23006KT 4700 // FEW029/// 01/01 Q1026","observationTime":"2019-02-05T20:50:00Z","temp":1,"dewpoint":1,"windDirection":230,"windSpeed":11.112,"visibility":2.92,"altim":30.295275,"flightCategory":"IFR","metarType":"METAR","geometry_esri":{"x":53.53,"y":9.83,"z":13}}}