{"type":"Feature","geometry":{"type":"Point","coordinates":[53.53,9.83,13]},"properties":{"stationId":"EDHI","rawText":"EDHI 261020Z AUTO 16006KT 130V190 9999 // SCT007/// OVC009/// 02/01 Q1017","observationTime":"2020-01-26T10:20:00Z","temp":2,"dewpoint":1,"windDirection":160,"windSpeed":11.112,"visibility":6.21,"altim":30.029528,"flightCategory":"IFR","metarType":"METAR","geometry_esri":{"x":53.53,"y":9.83,"z":13}}}