{"type":"Feature","geometry":{"type":"Point","coordinates":[53.53,9.83,13]},"properties":{"stationId":"EDHI","rawText":"EDHI 091250Z 25011KT 9999 SCT022 SCT028 10/05 Q1009","observationTime":"2020-03-09T12:50:00Z","temp":10,"dewpoint":5,"windDirection":250,"windSpeed":20.372,"visibility":6.21,"altim":29.793306,"flightCategory":"VFR","metarType":"METAR","geometry_esri":{"x":53.53,"y":9.83,"z":13}}}