{"type":"Feature","geometry":{"type":"Point","coordinates":[53.53,9.83,13]},"properties":{"stationId":"EDHI","rawText":"EDHI 151520Z 29014KT 9999 BKN031 16/10 Q1016","observationTime":"2019-07-15T15:20:00Z","temp":16,"dewpoint":10,"windDirection":290,"windSpeed":25.928,"visibility":6.21,"altim":30,"flightCategory":"VFR","metarType":"METAR","geometry_esri":{"x":53.53,"y":9.83,"z":13}}}