{"type":"Feature","geometry":{"type":"Point","coordinates":[53.53,9.83,13]},"properties":{"stationId":"EDHI","rawText":"EDHI 211050Z AUTO 08007KT 050V160 9999 // NCD 18/M01 Q1023","observationTime":"2019-04-21T10:50:00Z","temp":18,"dewpoint":-1,"windDirection":80,"windSpeed":12.964,"visibility":6.21,"altim":30.206694,"flightCategory":"VFR","metarType":"METAR","geometry_esri":{"x":53.53,"y":9.83,"z":13}}}