{"type":"Feature","geometry":{"type":"Point","coordinates":[53.53,9.83,13]},"properties":{"stationId":"EDHI","rawText":"EDHI 231020Z 15006KT 100V180 CAVOK 04/M04 Q1042","observationTime":"2019-02-23T10:20:00Z","temp":4,"dewpoint":-4,"windDirection":150,"windSpeed":11.112,"visibility":6.21,"altim":30.767717,"flightCategory":"VFR","metarType":"METAR","geometry_esri":{"x":53.53,"y":9.83,"z":13}}}