{"type":"Feature","geometry":{"type":"Point","coordinates":[53.53,9.83,13]},"properties":{"stationId":"EDHI","rawText":"EDHI 040650Z 22009KT CAVOK 00/M02 Q1024","observationTime":"2019-02-04T06:50:00Z","temp":0,"dewpoint":-2,"windDirection":220,"windSpeed":16.668,"visibility":6.21,"altim":30.236221,"flightCategory":"VFR","metarType":"METAR","geometry_esri":{"x":53.53,"y":9.83,"z":13}}}