{"type":"Feature","geometry":{"type":"Point","coordinates":[53.53,9.83,13]},"properties":{"stationId":"EDHI","rawText":"EDHI 020020Z AUTO 14003KT 9999 // SCT065/// BKN098/// OVC120/// 18/14 Q1015","observationTime":"2019-08-02T00:20:00Z","temp":18,"dewpoint":14,"windDirection":140,"windSpeed":5.556,"visibility":6.21,"altim":29.970472,"flightCategory":"VFR","metarType":"METAR","geometry_esri":{"x":53.53,"y":9.83,"z":13}}}