{"type":"Feature","geometry":{"type":"Point","coordinates":[53.53,9.83,13]},"properties":{"stationId":"EDHI","rawText":"EDHI 011550Z AUTO 23011KT 190V250 9999 2600 // FEW014/// SCT020/// 06/03 Q0991","observationTime":"2020-03-01T15:50:00Z","temp":6,"dewpoint":3,"windDirection":230,"windSpeed":20.372,"visibility":6.21,"altim":29.26181,"flightCategory":"VFR","metarType":"METAR","geometry_esri":{"x":53.53,"y":9.83,"z":13}}}