{"type":"Feature","geometry":{"type":"Point","coordinates":[53.53,9.83,13]},"properties":{"stationId":"EDHI","rawText":"EDHI 290220Z AUTO 22011KT 3800 // SCT007/// BKN033/// OVC051/// 14/13 Q1005","observationTime":"2019-09-29T02:20:00Z","temp":14,"dewpoint":13,"windDirection":220,"windSpeed":20.372,"visibility":2.36,"altim":29.675198,"flightCategory":"IFR","metarType":"METAR","geometry_esri":{"x":53.53,"y":9.83,"z":13}}}