{"type":"Feature","geometry":{"type":"Point","coordinates":[53.53,9.83,13]},"properties":{"stationId":"EDHI","rawText":"EDHI 281020Z 01005KT 320V060 CAVOK 14/04 Q1005","observationTime":"2020-04-28T10:20:00Z","temp":14,"dewpoint":4,"windDirection":10,"windSpeed":9.26,"visibility":6.21,"altim":29.675198,"flightCategory":"VFR","metarType":"METAR","geometry_esri":{"x":53.53,"y":9.83,"z":13}}}