{"type":"Feature","geometry":{"type":"Point","coordinates":[53.53,9.83,13]},"properties":{"stationId":"EDHI","rawText":"EDHI 041150Z 23003KT 170V310 9999 VCSH BKN035 BKN041 BKN068 08/03 Q1006","observationTime":"2019-05-04T11:50:00Z","temp":8,"dewpoint":3,"windDirection":230,"windSpeed":5.556,"visibility":6.21,"altim":29.704725,"flightCategory":"VFR","metarType":"METAR","geometry_esri":{"x":53.53,"y":9.83,"z":13}}}