{"type":"Feature","geometry":{"type":"Point","coordinates":[53.53,9.83,13]},"properties":{"stationId":"EDHI","rawText":"EDHI 212350Z AUTO 25010KT 4500 // OVC008/// 05/03 Q1034","observationTime":"2020-01-21T23:50:00Z","temp":5,"dewpoint":3,"windDirection":250,"windSpeed":18.52,"visibility":2.8,"altim":30.531496,"flightCategory":"IFR","metarType":"METAR","geometry_esri":{"x":53.53,"y":9.83,"z":13}}}