{"type":"Feature","geometry":{"type":"Point","coordinates":[53.53,9.83,13]},"properties":{"stationId":"EDHI","rawText":"EDHI 250620Z AUTO 27013KT 9000 3500 // FEW016/// BKN022/// OVC035/// 05/03 Q1029","observationTime":"2018-12-25T06:20:00Z","temp":5,"dewpoint":3,"windDirection":270,"windSpeed":24.076,"visibility":5.59,"altim":30.383858,"flightCategory":"MVFR","metarType":"METAR","geometry_esri":{"x":53.53,"y":9.83,"z":13}}}