{"type":"Feature","geometry":{"type":"Point","coordinates":[53.53,9.83,13]},"properties":{"stationId":"EDHI","rawText":"EDHI 091150Z 30012KT 9999 VCSH FEW017 SCT021 BKN048 14/11 Q1018","observationTime":"2019-07-09T11:50:00Z","temp":14,"dewpoint":11,"windDirection":300,"windSpeed":22.224,"visibility":6.21,"altim":30.059055,"flightCategory":"VFR","metarType":"METAR","geometry_esri":{"x":53.53,"y":9.83,"z":13}}}