{"type":"Feature","geometry":{"type":"Point","coordinates":[53.53,9.83,13]},"properties":{"stationId":"EDHI","rawText":"EDHI 020350Z AUTO 11003KT 070V140 4100 // OVC005/// 08/08 Q0991","observationTime":"2019-11-02T03:50:00Z","temp":8,"dewpoint":8,"windDirection":110,"windSpeed":5.556,"visibility":2.55,"altim":29.26181,"flightCategory":"IFR","metarType":"METAR","geometry_esri":{"x":53.53,"y":9.83,"z":13}}}