{"type":"Feature","geometry":{"type":"Point","coordinates":[53.53,9.83,13]},"properties":{"stationId":"EDHI","rawText":"EDHI 172350Z AUTO 16004KT 130V220 8000 // FEW012/// SCT020/// OVC033/// 14/13 Q1008","observationTime":"2019-10-17T23:50:00Z","temp":14,"dewpoint":13,"windDirection":160,"windSpeed":7.408,"visibility":4.97,"altim":29.763779,"flightCategory":"MVFR","metarType":"METAR","geometry_esri":{"x":53.53,"y":9.83,"z":13}}}