{"type":"Feature","geometry":{"type":"Point","coordinates":[53.53,9.83,13]},"properties":{"stationId":"EDHI","rawText":"EDHI 221950Z AUTO 05011KT 9999 // NCD 17/08 Q1022","observationTime":"2019-06-22T19:50:00Z","temp":17,"dewpoint":8,"windDirection":50,"windSpeed":20.372,"visibility":6.21,"altim":30.177166,"flightCategory":"VFR","metarType":"METAR","geometry_esri":{"x":53.53,"y":9.83,"z":13}}}