{"type":"Feature","geometry":{"type":"Point","coordinates":[53.53,9.83,13]},"properties":{"stationId":"EDHI","rawText":"EDHI 231450Z 29008KT CAVOK 25/11 Q1025","observationTime":"2019-08-23T14:50:00Z","temp":25,"dewpoint":11,"windDirection":290,"windSpeed":14.816,"visibility":6.21,"altim":30.265747,"flightCategory":"VFR","metarType":"METAR","geometry_esri":{"x":53.53,"y":9.83,"z":13}}}