{"type":"Feature","geometry":{"type":"Point","coordinates":[53.53,9.83,13]},"properties":{"stationId":"EDHI","rawText":"EDHI 151150Z 21015G25KT 4500 -RA BR BKN008 OVC015 07/06 Q0993","observationTime":"2019-03-15T11:50:00Z","temp":7,"dewpoint":6,"windDirection":210,"windSpeed":27.78,"visibility":2.8,"altim":29.320866,"flightCategory":"IFR","metarType":"METAR","geometry_esri":{"x":53.53,"y":9.83,"z":13}}}