{"type":"Feature","geometry":{"type":"Point","coordinates":[53.53,9.83,13]},"properties":{"stationId":"EDHI","rawText":"EDHI 262350Z AUTO 21003KT 150V260 4000 // OVC100/// 10/10 Q1012","observationTime":"2019-04-26T23:50:00Z","temp":10,"dewpoint":10,"windDirection":210,"windSpeed":5.556,"visibility":2.49,"altim":29.88189,"flightCategory":"IFR","metarType":"METAR","geometry_esri":{"x":53.53,"y":9.83,"z":13}}}