{"type":"Feature","geometry":{"type":"Point","coordinates":[53.53,9.83,13]},"properties":{"stationId":"EDHI","rawText":"EDHI 052020Z AUTO 07006KT 9999 // NCD 07/05 Q1022","observationTime":"2019-10-05T20:20:00Z","temp":7,"dewpoint":5,"windDirection":70,"windSpeed":11.112,"visibility":6.21,"altim":30.177166,"flightCategory":"VFR","metarType":"METAR","geometry_esri":{"x":53.53,"y":9.83,"z":13}}}