{"type":"Feature","geometry":{"type":"Point","coordinates":[53.53,9.83,13]},"properties":{"stationId":"EDHI","rawText":"EDHI 070420Z AUTO 26018KT 3800 // SCT007/// BKN009/// OVC014/// 08/08 Q0999","observationTime":"2019-12-07T04:20:00Z","temp":8,"dewpoint":8,"windDirection":260,"windSpeed":33.336,"visibility":2.36,"altim":29.498032,"flightCategory":"IFR","metarType":"METAR","geometry_esri":{"x":53.53,"y":9.83,"z":13}}}