{"type":"Feature","geometry":{"type":"Point","coordinates":[53.53,9.83,13]},"properties":{"stationId":"EDHI","rawText":"EDHI 150620Z AUTO 20010KT 170V230 9999 // BKN091/// BKN180/// OVC210/// 06/03 Q1017","observationTime":"2020-02-15T06:20:00Z","temp":6,"dewpoint":3,"windDirection":200,"windSpeed":18.52,"visibility":6.21,"altim":30.029528,"flightCategory":"VFR","metarType":"METAR","geometry_esri":{"x":53.53,"y":9.83,"z":13}}}