{"type":"Feature","geometry":{"type":"Point","coordinates":[53.53,9.83,13]},"properties":{"stationId":"EDHI","rawText":"EDHI 151050Z 21014KT 9999 -RA SCT017 BKN024 OVC036 08/05 Q0995","observationTime":"2019-03-15T10:50:00Z","temp":8,"dewpoint":5,"windDirection":210,"windSpeed":25.928,"visibility":6.21,"altim":29.379921,"flightCategory":"MVFR","metarType":"METAR","geometry_esri":{"x":53.53,"y":9.83,"z":13}}}