{"type":"Feature","geometry":{"type":"Point","coordinates":[53.53,9.83,13]},"properties":{"stationId":"EDHI","rawText":"EDHI 240220Z AUTO 24006KT 0500 0450 R23/0600N // VV002 M00/M00 Q1024","observationTime":"2020-01-24T02:20:00Z","temp":0,"dewpoint":0,"windDirection":240,"windSpeed":11.112,"visibility":0.31,"altim":30.236221,"flightCategory":"LIFR","metarType":"METAR","geometry_esri":{"x":53.53,"y":9.83,"z":13}}}