{"type":"Feature","geometry":{"type":"Point","coordinates":[53.53,9.83,13]},"properties":{"stationId":"EDHI","rawText":"EDHI 140220Z AUTO 31007KT 270V350 9999 // FEW011/// BKN015/// OVC018/// 14/12 Q1016","observationTime":"2019-07-14T02:20:00Z","temp":14,"dewpoint":12,"windDirection":310,"windSpeed":12.964,"visibility":6.21,"altim":30,"flightCategory":"MVFR","metarType":"METAR","geometry_esri":{"x":53.53,"y":9.83,"z":13}}}