{"type":"Feature","geometry":{"type":"Point","coordinates":[53.53,9.83,13]},"properties":{"stationId":"EDHI","rawText":"EDHI 261420Z 29013KT 260V330 CAVOK 23/18 Q1023","observationTime":"2019-06-26T14:20:00Z","temp":23,"dewpoint":18,"windDirection":290,"windSpeed":24.076,"visibility":6.21,"altim":30.206694,"flightCategory":"VFR","metarType":"METAR","geometry_esri":{"x":53.53,"y":9.83,"z":13}}}