{"type":"Feature","geometry":{"type":"Point","coordinates":[53.53,9.83,13]},"properties":{"stationId":"EDHI","rawText":"EDHI 120020Z AUTO 24007KT 5000 // OVC007/// 15/14 Q1020","observationTime":"2019-09-12T00:20:00Z","temp":15,"dewpoint":14,"windDirection":240,"windSpeed":12.964,"visibility":3.11,"altim":30.11811,"flightCategory":"IFR","metarType":"METAR","geometry_esri":{"x":53.53,"y":9.83,"z":13}}}