{"type":"Feature","geometry":{"type":"Point","coordinates":[53.53,9.83,13]},"properties":{"stationId":"EDHI","rawText":"EDHI 261620Z AUTO 20003KT 160V220 1400 0900 R23/P2000N // BKN002/// OVC007/// 04/04 Q0998","observationTime":"2019-01-26T16:20:00Z","temp":4,"dewpoint":4,"windDirection":200,"windSpeed":5.556,"visibility":0.87,"altim":29.468504,"flightCategory":"LIFR","metarType":"METAR","geometry_esri":{"x":53.53,"y":9.83,"z":13}}}