{"type":"Feature","geometry":{"type":"Point","coordinates":[53.53,9.83,13]},"properties":{"stationId":"EDHI","rawText":"EDHI 092250Z AUTO 13005KT 090V170 9999 // SCT056/// BKN065/// OVC190/// 20/17 Q1005","observationTime":"2019-08-09T22:50:00Z","temp":20,"dewpoint":17,"windDirection":130,"windSpeed":9.26,"visibility":6.21,"altim":29.675198,"flightCategory":"VFR","metarType":"METAR","geometry_esri":{"x":53.53,"y":9.83,"z":13}}}