{"type":"Feature","geometry":{"type":"Point","coordinates":[53.53,9.83,13]},"properties":{"stationId":"EDHI","rawText":"EDHI 161520Z 21006KT 170V250 CAVOK 08/06 Q1005","observationTime":"2019-12-16T15:20:00Z","temp":8,"dewpoint":6,"windDirection":210,"windSpeed":11.112,"visibility":6.21,"altim":29.675198,"flightCategory":"VFR","metarType":"METAR","geometry_esri":{"x":53.53,"y":9.83,"z":13}}}