{"type":"Feature","geometry":{"type":"Point","coordinates":[53.53,9.83,13]},"properties":{"stationId":"EDHI","rawText":"EDHI 161520Z AUTO 21023G37KT 180V250 9999 // SCT037/// BKN043/// OVC074/// 15/08 Q0995","observationTime":"2020-02-16T15:20:00Z","temp":15,"dewpoint":8,"windDirection":210,"windSpeed":42.596000000000004,"visibility":6.21,"altim":29.379921,"flightCategory":"VFR","metarType":"METAR","geometry_esri":{"x":53.53,"y":9.83,"z":13}}}