{"type":"Feature","geometry":{"type":"Point","coordinates":[53.53,9.83,13]},"properties":{"stationId":"EDHI","rawText":"EDHI 090850Z 17007KT 130V210 9999 FEW005 OVC007 09/08 Q1013","observationTime":"2020-01-09T08:50:00Z","temp":9,"dewpoint":8,"windDirection":170,"windSpeed":12.964,"visibility":6.21,"altim":29.911417,"flightCategory":"IFR","metarType":"METAR","geometry_esri":{"x":53.53,"y":9.83,"z":13}}}