{"type":"Feature","geometry":{"type":"Point","coordinates":[53.53,9.83,13]},"properties":{"stationId":"EDHI","rawText":"EDHI 300450Z VRB02KT 0450 R05/0400D FEW001 SCT005 14/13 Q1021","observationTime":"2019-08-30T04:50:00Z","temp":14,"dewpoint":13,"windDirection":0,"windSpeed":3.704,"visibility":0.28,"altim":30.147638,"flightCategory":"LIFR","metarType":"METAR","geometry_esri":{"x":53.53,"y":9.83,"z":13}}}