{"type":"Feature","geometry":{"type":"Point","coordinates":[53.53,9.83,13]},"properties":{"stationId":"EDHI","rawText":"EDHI 160250Z AUTO 25004KT 230V290 7000 // NCD 11/11 Q1017","observationTime":"2019-06-16T02:50:00Z","temp":11,"dewpoint":11,"windDirection":250,"windSpeed":7.408,"visibility":4.35,"altim":30.029528,"flightCategory":"MVFR","metarType":"METAR","geometry_esri":{"x":53.53,"y":9.83,"z":13}}}