{"type":"Feature","geometry":{"type":"Point","coordinates":[53.53,9.83,13]},"properties":{"stationId":"EDHI","rawText":"EDHI 170750Z 16004KT 100V270 CAVOK 21/13 Q1022","observationTime":"2019-06-17T07:50:00Z","temp":21,"dewpoint":13,"windDirection":160,"windSpeed":7.408,"visibility":6.21,"altim":30.177166,"flightCategory":"VFR","metarType":"METAR","geometry_esri":{"x":53.53,"y":9.83,"z":13}}}