{"type":"Feature","geometry":{"type":"Point","coordinates":[53.53,9.83,13]},"properties":{"stationId":"EDHI","rawText":"EDHI 171620Z AUTO 20008KT 160V220 9999 // FEW015/// OVC054/// 20/17 Q1007","observationTime":"2019-08-17T16:20:00Z","temp":20,"dewpoint":17,"windDirection":200,"windSpeed":14.816,"visibility":6.21,"altim":29.734253,"flightCategory":"VFR","metarType":"METAR","geometry_esri":{"x":53.53,"y":9.83,"z":13}}}