{"type":"Feature","geometry":{"type":"Point","coordinates":[53.53,9.83,13]},"properties":{"stationId":"EDHI","rawText":"EDHI 230150Z AUTO 12004KT 090V150 9999 // NCD M01/M06 Q1038","observationTime":"2020-03-23T01:50:00Z","temp":-1,"dewpoint":-6,"windDirection":120,"windSpeed":7.408,"visibility":6.21,"altim":30.649607,"flightCategory":"VFR","metarType":"METAR","geometry_esri":{"x":53.53,"y":9.83,"z":13}}}