{"type":"Feature","geometry":{"type":"Point","coordinates":[53.53,9.83,13]},"properties":{"stationId":"EDHI","rawText":"EDHI 190950Z AUTO 04007KT 010V070 9999 // BKN180/// BKN220/// 18/13 Q1006","observationTime":"2019-05-19T09:50:00Z","temp":18,"dewpoint":13,"windDirection":40,"windSpeed":12.964,"visibility":6.21,"altim":29.704725,"flightCategory":"VFR","metarType":"METAR","geometry_esri":{"x":53.53,"y":9.83,"z":13}}}