{"type":"Feature","geometry":{"type":"Point","coordinates":[53.53,9.83,13]},"properties":{"stationId":"EDHI","rawText":"EDHI 190750Z AUTO 03004KT 360V070 9999 // OVC007/// 14/12 Q1007","observationTime":"2019-05-19T07:50:00Z","temp":14,"dewpoint":12,"windDirection":30,"windSpeed":7.408,"visibility":6.21,"altim":29.734253,"flightCategory":"IFR","metarType":"METAR","geometry_esri":{"x":53.53,"y":9.83,"z":13}}}