{"type":"Feature","geometry":{"type":"Point","coordinates":[53.53,9.83,13]},"properties":{"stationId":"EDHI","rawText":"EDHI 220450Z AUTO 10004KT 070V130 9999 // NCD 01/M05 Q1036","observationTime":"2020-03-22T04:50:00Z","temp":1,"dewpoint":-5,"windDirection":100,"windSpeed":7.408,"visibility":6.21,"altim":30.590551,"flightCategory":"VFR","metarType":"METAR","geometry_esri":{"x":53.53,"y":9.83,"z":13}}}