{"type":"Feature","geometry":{"type":"Point","coordinates":[53.53,9.83,13]},"properties":{"stationId":"EDHI","rawText":"EDHI 292320Z AUTO 29013KT 3300 // OVC005/// 07/07 Q1016","observationTime":"2018-12-29T23:20:00Z","temp":7,"dewpoint":7,"windDirection":290,"windSpeed":24.076,"visibility":2.05,"altim":30,"flightCategory":"IFR","metarType":"METAR","geometry_esri":{"x":53.53,"y":9.83,"z":13}}}