{"type":"Feature","geometry":{"type":"Point","coordinates":[53.53,9.83,13]},"properties":{"stationId":"EDHI","rawText":"EDHI 050920Z 33004KT 290V010 4600 BR SCT010 BKN012 09/06 Q1005","observationTime":"2019-04-05T09:20:00Z","temp":9,"dewpoint":6,"windDirection":330,"windSpeed":7.408,"visibility":2.86,"altim":29.675198,"flightCategory":"IFR","metarType":"METAR","geometry_esri":{"x":53.53,"y":9.83,"z":13}}}