{"type":"Feature","geometry":{"type":"Point","coordinates":[53.53,9.83,13]},"properties":{"stationId":"EDHI","rawText":"EDHI 061520Z AUTO 30018G28KT 9999 // FEW029/// BKN180/// 16/10 Q1007","observationTime":"2019-07-06T15:20:00Z","temp":16,"dewpoint":10,"windDirection":300,"windSpeed":33.336,"visibility":6.21,"altim":29.734253,"flightCategory":"VFR","metarType":"METAR","geometry_esri":{"x":53.53,"y":9.83,"z":13}}}