{"type":"Feature","geometry":{"type":"Point","coordinates":[53.53,9.83,13]},"properties":{"stationId":"EDHI","rawText":"EDHI 130620Z AUTO 05011KT 030V090 2600 // SCT012/// BKN015/// OVC018/// 02/M01 Q1027","observationTime":"2019-04-13T06:20:00Z","temp":2,"dewpoint":-1,"windDirection":50,"windSpeed":20.372,"visibility":1.62,"altim":30.324802,"flightCategory":"IFR","metarType":"METAR","geometry_esri":{"x":53.53,"y":9.83,"z":13}}}