{"type":"Feature","geometry":{"type":"Point","coordinates":[53.53,9.83,13]},"properties":{"stationId":"EDHI","rawText":"EDHI 061350Z 11007KT 050V170 CAVOK 21/08 Q1006","observationTime":"2019-04-06T13:50:00Z","temp":21,"dewpoint":8,"windDirection":110,"windSpeed":12.964,"visibility":6.21,"altim":29.704725,"flightCategory":"VFR","metarType":"METAR","geometry_esri":{"x":53.53,"y":9.83,"z":13}}}