{"type":"Feature","geometry":{"type":"Point","coordinates":[53.53,9.83,13]},"properties":{"stationId":"EDHI","rawText":"EDHI 200820Z 24002KT 1800 BR OVC004 04/03 Q1045","observationTime":"2020-01-20T08:20:00Z","temp":4,"dewpoint":3,"windDirection":240,"windSpeed":3.704,"visibility":1.12,"altim":30.856298,"flightCategory":"LIFR","metarType":"METAR","geometry_esri":{"x":53.53,"y":9.83,"z":13}}}