{"type":"Feature","geometry":{"type":"Point","coordinates":[53.53,9.83,13]},"properties":{"stationId":"EDHI","rawText":"EDHI 010920Z 10011KT 060V150 8000 FEW013 M01/M03 Q0994","observationTime":"2019-02-01T09:20:00Z","temp":-1,"dewpoint":-3,"windDirection":100,"windSpeed":20.372,"visibility":4.97,"altim":29.350393,"flightCategory":"MVFR","metarType":"METAR","geometry_esri":{"x":53.53,"y":9.83,"z":13}}}