{"type":"Feature","geometry":{"type":"Point","coordinates":[53.53,9.83,13]},"properties":{"stationId":"EDHI","rawText":"EDHI 311420Z 31005KT 270V360 CAVOK 07/M05 Q1030","observationTime":"2020-03-31T14:20:00Z","temp":7,"dewpoint":-5,"windDirection":310,"windSpeed":9.26,"visibility":6.21,"altim":30.413385,"flightCategory":"VFR","metarType":"METAR","geometry_esri":{"x":53.53,"y":9.83,"z":13}}}