{"type":"Feature","geometry":{"type":"Point","coordinates":[53.53,9.83,13]},"properties":{"stationId":"EDHI","rawText":"EDHI 221650Z 27008KT 9999 BKN042 23/16 Q1020","observationTime":"2019-07-22T16:50:00Z","temp":23,"dewpoint":16,"windDirection":270,"windSpeed":14.816,"visibility":6.21,"altim":30.11811,"flightCategory":"VFR","metarType":"METAR","geometry_esri":{"x":53.53,"y":9.83,"z":13}}}