{"type":"Feature","geometry":{"type":"Point","coordinates":[53.53,9.83,13]},"properties":{"stationId":"EDHI","rawText":"EDHI 271120Z 28012KT 7000 -DZ FEW014 BKN018 OVC022 09/07 Q1030","observationTime":"2019-03-27T11:20:00Z","temp":9,"dewpoint":7,"windDirection":280,"windSpeed":22.224,"visibility":4.35,"altim":30.413385,"flightCategory":"MVFR","metarType":"METAR","geometry_esri":{"x":53.53,"y":9.83,"z":13}}}