{"type":"Feature","geometry":{"type":"Point","coordinates":[53.53,9.83,13]},"properties":{"stationId":"EDHI","rawText":"EDHI 012220Z AUTO 07003KT 030V160 9999 // BKN077/// 18/13 Q1015","observationTime":"2019-08-01T22:20:00Z","temp":18,"dewpoint":13,"windDirection":70,"windSpeed":5.556,"visibility":6.21,"altim":29.970472,"flightCategory":"VFR","metarType":"METAR","geometry_esri":{"x":53.53,"y":9.83,"z":13}}}