{"type":"Feature","geometry":{"type":"Point","coordinates":[53.53,9.83,13]},"properties":{"stationId":"EDHI","rawText":"EDHI 030920Z 22012KT 3300 -DZ BR OVC006 07/06 Q1013","observationTime":"2020-01-03T09:20:00Z","temp":7,"dewpoint":6,"windDirection":220,"windSpeed":22.224,"visibility":2.05,"altim":29.911417,"flightCategory":"IFR","metarType":"METAR","geometry_esri":{"x":53.53,"y":9.83,"z":13}}}