{"type":"Feature","geometry":{"type":"Point","coordinates":[53.53,9.83,13]},"properties":{"stationId":"EDHI","rawText":"EDHI 200720Z 12006KT 070V160 3600 BR SCT002 BKN003 04/04 Q0995","observationTime":"2019-12-20T07:20:00Z","temp":4,"dewpoint":4,"windDirection":120,"windSpeed":11.112,"visibility":2.24,"altim":29.379921,"flightCategory":"LIFR","metarType":"METAR","geometry_esri":{"x":53.53,"y":9.83,"z":13}}}