{"type":"Feature","geometry":{"type":"Point","coordinates":[53.53,9.83,13]},"properties":{"stationId":"EDHI","rawText":"EDHI 170820Z AUTO 20011KT 170V240 9999 // BKN039/// BKN046/// OVC069/// 17/14 Q1007","observationTime":"2019-08-17T08:20:00Z","temp":17,"dewpoint":14,"windDirection":200,"windSpeed":20.372,"visibility":6.21,"altim":29.734253,"flightCategory":"VFR","metarType":"METAR","geometry_esri":{"x":53.53,"y":9.83,"z":13}}}