{"type":"Feature","geometry":{"type":"Point","coordinates":[53.53,9.83,13]},"properties":{"stationId":"EDHI","rawText":"EDHI 310520Z AUTO 34011KT 300V010 9999 // FEW013/// SCT041/// OVC170/// 07/03 Q1022","observationTime":"2019-03-31T05:20:00Z","temp":7,"dewpoint":3,"windDirection":340,"windSpeed":20.372,"visibility":6.21,"altim":30.177166,"flightCategory":"VFR","metarType":"METAR","geometry_esri":{"x":53.53,"y":9.83,"z":13}}}