{"type":"Feature","geometry":{"type":"Point","coordinates":[53.53,9.83,13]},"properties":{"stationId":"EDHI","rawText":"EDHI 010720Z 11004KT 050V170 CAVOK 05/M02 Q1028","observationTime":"2019-04-01T07:20:00Z","temp":5,"dewpoint":-2,"windDirection":110,"windSpeed":7.408,"visibility":6.21,"altim":30.35433,"flightCategory":"VFR","metarType":"METAR","geometry_esri":{"x":53.53,"y":9.83,"z":13}}}