{"type":"Feature","geometry":{"type":"Point","coordinates":[53.53,9.83,13]},"properties":{"stationId":"EDHI","rawText":"EDHI 081920Z AUTO 21008KT 180V260 9999 // FEW012/// BKN014/// OVC038/// 09/07 Q1008","observationTime":"2020-03-08T19:20:00Z","temp":9,"dewpoint":7,"windDirection":210,"windSpeed":14.816,"visibility":6.21,"altim":29.763779,"flightCategory":"MVFR","metarType":"METAR","geometry_esri":{"x":53.53,"y":9.83,"z":13}}}