{"type":"Feature","geometry":{"type":"Point","coordinates":[53.53,9.83,13]},"properties":{"stationId":"EDHI","rawText":"EDHI 222020Z AUTO 35004KT 270V040 9999 // NCD 20/12 Q1024","observationTime":"2019-08-22T20:20:00Z","temp":20,"dewpoint":12,"windDirection":350,"windSpeed":7.408,"visibility":6.21,"altim":30.236221,"flightCategory":"VFR","metarType":"METAR","geometry_esri":{"x":53.53,"y":9.83,"z":13}}}