{"type":"Feature","geometry":{"type":"Point","coordinates":[53.53,9.83,13]},"properties":{"stationId":"EDHI","rawText":"EDHI 200750Z 25005KT 220V280 9999 BKN048 10/08 Q1029","observationTime":"2019-09-20T07:50:00Z","temp":10,"dewpoint":8,"windDirection":250,"windSpeed":9.26,"visibility":6.21,"altim":30.383858,"flightCategory":"VFR","metarType":"METAR","geometry_esri":{"x":53.53,"y":9.83,"z":13}}}