{"type":"Feature","geometry":{"type":"Point","coordinates":[53.53,9.83,13]},"properties":{"stationId":"EDHI","rawText":"EDHI 290520Z 30006KT 270V330 4500 BR OVC004 08/08 Q1022","observationTime":"2019-04-29T05:20:00Z","temp":8,"dewpoint":8,"windDirection":300,"windSpeed":11.112,"visibility":2.8,"altim":30.177166,"flightCategory":"LIFR","metarType":"METAR","geometry_esri":{"x":53.53,"y":9.83,"z":13}}}