{"type":"Feature","geometry":{"type":"Point","coordinates":[53.53,9.83,13]},"properties":{"stationId":"EDHI","rawText":"EDHI 190120Z AUTO 34006KT 5000 // OVC004/// 08/08 Q1023","observationTime":"2020-03-19T01:20:00Z","temp":8,"dewpoint":8,"windDirection":340,"windSpeed":11.112,"visibility":3.11,"altim":30.206694,"flightCategory":"LIFR","metarType":"METAR","geometry_esri":{"x":53.53,"y":9.83,"z":13}}}