{"type":"Feature","geometry":{"type":"Point","coordinates":[53.53,9.83,13]},"properties":{"stationId":"EDHI","rawText":"EDHI 131420Z AUTO 27021KT 9000 // OVC010/// 09/07 Q0991","observationTime":"2019-01-13T14:20:00Z","temp":9,"dewpoint":7,"windDirection":270,"windSpeed":38.892,"visibility":5.59,"altim":29.26181,"flightCategory":"MVFR","metarType":"METAR","geometry_esri":{"x":53.53,"y":9.83,"z":13}}}