{"type":"Feature","geometry":{"type":"Point","coordinates":[53.53,9.83,13]},"properties":{"stationId":"EDHI","rawText":"EDHI 082150Z AUTO 20007KT 9999 // SCT051/// SCT062/// BKN200/// 08/06 Q1007","observationTime":"2020-03-08T21:50:00Z","temp":8,"dewpoint":6,"windDirection":200,"windSpeed":12.964,"visibility":6.21,"altim":29.734253,"flightCategory":"VFR","metarType":"METAR","geometry_esri":{"x":53.53,"y":9.83,"z":13}}}