{"type":"Feature","geometry":{"type":"Point","coordinates":[53.53,9.83,13]},"properties":{"stationId":"EDHI","rawText":"EDHI 102120Z AUTO 22016KT 3600 // FEW013/// BKN015/// OVC024/// 03/01 Q0987","observationTime":"2020-02-10T21:20:00Z","temp":3,"dewpoint":1,"windDirection":220,"windSpeed":29.632,"visibility":2.24,"altim":29.143702,"flightCategory":"IFR","metarType":"METAR","geometry_esri":{"x":53.53,"y":9.83,"z":13}}}