{"type":"Feature","geometry":{"type":"Point","coordinates":[53.53,9.83,13]},"properties":{"stationId":"EDHI","rawText":"EDHI 100350Z AUTO 35004KT 9999 // OVC028/// 02/M02 Q1023","observationTime":"2019-01-10T03:50:00Z","temp":2,"dewpoint":-2,"windDirection":350,"windSpeed":7.408,"visibility":6.21,"altim":30.206694,"flightCategory":"MVFR","metarType":"METAR","geometry_esri":{"x":53.53,"y":9.83,"z":13}}}