{"type":"Feature","geometry":{"type":"Point","coordinates":[53.53,9.83,13]},"properties":{"stationId":"EDHI","rawText":"EDHI 240650Z AUTO 10011KT 070V140 5000 // OVC007/// 05/03 Q1009","observationTime":"2019-11-24T06:50:00Z","temp":5,"dewpoint":3,"windDirection":100,"windSpeed":20.372,"visibility":3.11,"altim":29.793306,"flightCategory":"IFR","metarType":"METAR","geometry_esri":{"x":53.53,"y":9.83,"z":13}}}