{"type":"Feature","geometry":{"type":"Point","coordinates":[53.53,9.83,13]},"properties":{"stationId":"EDHI","rawText":"EDHI 171920Z AUTO 02011KT 9999 // BKN007/// BKN009/// OVC033/// 05/04 Q1010","observationTime":"2019-11-17T19:20:00Z","temp":5,"dewpoint":4,"windDirection":20,"windSpeed":20.372,"visibility":6.21,"altim":29.822834,"flightCategory":"IFR","metarType":"METAR","geometry_esri":{"x":53.53,"y":9.83,"z":13}}}