{"type":"Feature","geometry":{"type":"Point","coordinates":[53.53,9.83,13]},"properties":{"stationId":"EDHI","rawText":"EDHI 261520Z AUTO VRB02KT 1200 0900 R23/1700U // BKN002/// OVC007/// 04/04 Q0998","observationTime":"2019-01-26T15:20:00Z","temp":4,"dewpoint":4,"windDirection":0,"windSpeed":3.704,"visibility":0.75,"altim":29.468504,"flightCategory":"LIFR","metarType":"METAR","geometry_esri":{"x":53.53,"y":9.83,"z":13}}}