{"type":"Feature","geometry":{"type":"Point","coordinates":[53.53,9.83,13]},"properties":{"stationId":"EDHI","rawText":"EDHI 231420Z 21007KT 180V250 CAVOK 19/06 Q1016","observationTime":"2019-05-23T14:20:00Z","temp":19,"dewpoint":6,"windDirection":210,"windSpeed":12.964,"visibility":6.21,"altim":30,"flightCategory":"VFR","metarType":"METAR","geometry_esri":{"x":53.53,"y":9.83,"z":13}}}