{"type":"Feature","geometry":{"type":"Point","coordinates":[53.53,9.83,13]},"properties":{"stationId":"EDHI","rawText":"EDHI 080420Z 19009KT 5000 -RA FEW010 BKN015 BKN040 10/09 Q1005","observationTime":"2019-10-08T04:20:00Z","temp":10,"dewpoint":9,"windDirection":190,"windSpeed":16.668,"visibility":3.11,"altim":29.675198,"flightCategory":"MVFR","metarType":"METAR","geometry_esri":{"x":53.53,"y":9.83,"z":13}}}