{"type":"Feature","geometry":{"type":"Point","coordinates":[53.53,9.83,13]},"properties":{"stationId":"EDHI","rawText":"EDHI 301020Z 10003KT 030V140 9999 FEW024 08/02 Q1031","observationTime":"2019-10-30T10:20:00Z","temp":8,"dewpoint":2,"windDirection":100,"windSpeed":5.556,"visibility":6.21,"altim":30.442913,"flightCategory":"VFR","metarType":"METAR","geometry_esri":{"x":53.53,"y":9.83,"z":13}}}