{"type":"Feature","geometry":{"type":"Point","coordinates":[53.53,9.83,13]},"properties":{"stationId":"EDHI","rawText":"EDHI 300420Z 25006KT 0150 R05/0325N FG OVC001 05/05 Q1021","observationTime":"2019-04-30T04:20:00Z","temp":5,"dewpoint":5,"windDirection":250,"windSpeed":11.112,"visibility":0.09,"altim":30.147638,"flightCategory":"LIFR","metarType":"METAR","geometry_esri":{"x":53.53,"y":9.83,"z":13}}}