{"type":"Feature","geometry":{"type":"Point","coordinates":[53.53,9.83,13]},"properties":{"stationId":"EDHI","rawText":"EDHI 201650Z 27006KT CAVOK 20/15 Q1011","observationTime":"2019-06-20T16:50:00Z","temp":20,"dewpoint":15,"windDirection":270,"windSpeed":11.112,"visibility":6.21,"altim":29.852362,"flightCategory":"VFR","metarType":"METAR","geometry_esri":{"x":53.53,"y":9.83,"z":13}}}