{"type":"Feature","geometry":{"type":"Point","coordinates":[53.53,9.83,13]},"properties":{"stationId":"EDHI","rawText":"EDHI 011220Z AUTO 30011KT 9999 // FEW025/// BKN035/// BKN220/// 20/13 Q1012","observationTime":"2019-09-01T12:20:00Z","temp":20,"dewpoint":13,"windDirection":300,"windSpeed":20.372,"visibility":6.21,"altim":29.88189,"flightCategory":"VFR","metarType":"METAR","geometry_esri":{"x":53.53,"y":9.83,"z":13}}}