{"type":"Feature","geometry":{"type":"Point","coordinates":[53.53,9.83,13]},"properties":{"stationId":"EDHI","rawText":"EDHI 080950Z 27009KT 9999 FEW019 SCT049 14/11 Q1015","observationTime":"2019-07-08T09:50:00Z","temp":14,"dewpoint":11,"windDirection":270,"windSpeed":16.668,"visibility":6.21,"altim":29.970472,"flightCategory":"VFR","metarType":"METAR","geometry_esri":{"x":53.53,"y":9.83,"z":13}}}