{"type":"Feature","geometry":{"type":"Point","coordinates":[53.53,9.83,13]},"properties":{"stationId":"EDHI","rawText":"EDHI 231320Z 28009KT 8000 FEW015 BKN026 10/07 Q1029","observationTime":"2019-03-23T13:20:00Z","temp":10,"dewpoint":7,"windDirection":280,"windSpeed":16.668,"visibility":4.97,"altim":30.383858,"flightCategory":"MVFR","metarType":"METAR","geometry_esri":{"x":53.53,"y":9.83,"z":13}}}