{"type":"Feature","geometry":{"type":"Point","coordinates":[53.53,9.83,13]},"properties":{"stationId":"EDHI","rawText":"EDHI 040120Z AUTO 24006KT 9999 3300 // FEW023/// OVC210/// M00/M02 Q1035","observationTime":"2019-01-04T01:20:00Z","temp":0,"dewpoint":-2,"windDirection":240,"windSpeed":11.112,"visibility":6.21,"altim":30.561024,"flightCategory":"VFR","metarType":"METAR","geometry_esri":{"x":53.53,"y":9.83,"z":13}}}