{"type":"Feature","geometry":{"type":"Point","coordinates":[53.53,9.83,13]},"properties":{"stationId":"EDHI","rawText":"EDHI 100020Z AUTO 11003KT 9999 // NCD 12/09 Q1009","observationTime":"2020-05-10T00:20:00Z","temp":12,"dewpoint":9,"windDirection":110,"windSpeed":5.556,"visibility":6.21,"altim":29.793306,"flightCategory":"VFR","metarType":"METAR","geometry_esri":{"x":53.53,"y":9.83,"z":13}}}