{"type":"Feature","geometry":{"type":"Point","coordinates":[53.53,9.83,13]},"properties":{"stationId":"EDHI","rawText":"EDHI 141450Z 15009KT 110V180 CAVOK 09/M00 Q1022","observationTime":"2020-03-14T14:50:00Z","temp":9,"dewpoint":0,"windDirection":150,"windSpeed":16.668,"visibility":6.21,"altim":30.177166,"flightCategory":"VFR","metarType":"METAR","geometry_esri":{"x":53.53,"y":9.83,"z":13}}}