{"type":"Feature","geometry":{"type":"Point","coordinates":[53.53,9.83,13]},"properties":{"stationId":"EDHI","rawText":"EDHI 090520Z AUTO 24020G33KT 200V260 1700 1000 R23/P2000N // BKN008/// BKN011/// OVC016/// 06/06 Q0999","observationTime":"2019-03-09T05:20:00Z","temp":6,"dewpoint":6,"windDirection":240,"windSpeed":37.04,"visibility":1.06,"altim":29.498032,"flightCategory":"IFR","metarType":"METAR","geometry_esri":{"x":53.53,"y":9.83,"z":13}}}