{"type":"Feature","geometry":{"type":"Point","coordinates":[53.53,9.83,13]},"properties":{"stationId":"EDHI","rawText":"EDHI 151150Z AUTO 24026G37KT 9999 // NCD 09/M00 Q0993","observationTime":"2019-12-15T11:50:00Z","temp":9,"dewpoint":0,"windDirection":240,"windSpeed":48.152,"visibility":6.21,"altim":29.320866,"flightCategory":"VFR","metarType":"METAR","geometry_esri":{"x":53.53,"y":9.83,"z":13}}}