{"type":"Feature","geometry":{"type":"Point","coordinates":[53.53,9.83,13]},"properties":{"stationId":"EDHI","rawText":"EDHI 212050Z AUTO 29008KT 4400 // OVC003/// 07/07 Q1026","observationTime":"2019-02-21T20:50:00Z","temp":7,"dewpoint":7,"windDirection":290,"windSpeed":14.816,"visibility":2.73,"altim":30.295275,"flightCategory":"LIFR","metarType":"METAR","geometry_esri":{"x":53.53,"y":9.83,"z":13}}}