{"type":"Feature","geometry":{"type":"Point","coordinates":[53.53,9.83,13]},"properties":{"stationId":"EDHI","rawText":"EDHI 150220Z AUTO 10005KT 060V130 9999 // FEW250/// 13/11 Q1007","observationTime":"2019-10-15T02:20:00Z","temp":13,"dewpoint":11,"windDirection":100,"windSpeed":9.26,"visibility":6.21,"altim":29.734253,"flightCategory":"VFR","metarType":"METAR","geometry_esri":{"x":53.53,"y":9.83,"z":13}}}