{"type":"Feature","geometry":{"type":"Point","coordinates":[53.53,9.83,13]},"properties":{"stationId":"EDHI","rawText":"EDHI 050750Z 33005KT 270V050 3700 BR BKN006 08/07 Q1004","observationTime":"2019-04-05T07:50:00Z","temp":8,"dewpoint":7,"windDirection":330,"windSpeed":9.26,"visibility":2.3,"altim":29.64567,"flightCategory":"IFR","metarType":"METAR","geometry_esri":{"x":53.53,"y":9.83,"z":13}}}