{"type":"Feature","geometry":{"type":"Point","coordinates":[53.53,9.83,13]},"properties":{"stationId":"EDHI","rawText":"EDHI 120650Z 26006KT 4900 BR VCSH FEW004 SCT009 BKN018 16/15 Q1009","observationTime":"2019-07-12T06:50:00Z","temp":16,"dewpoint":15,"windDirection":260,"windSpeed":11.112,"visibility":3.04,"altim":29.793306,"flightCategory":"MVFR","metarType":"METAR","geometry_esri":{"x":53.53,"y":9.83,"z":13}}}