{"type":"Feature","geometry":{"type":"Point","coordinates":[53.53,9.83,13]},"properties":{"stationId":"EDHI","rawText":"EDHI 181520Z AUTO 26011KT 9999 // SCT013/// BKN023/// OVC036/// 05/03 Q1021","observationTime":"2020-01-18T15:20:00Z","temp":5,"dewpoint":3,"windDirection":260,"windSpeed":20.372,"visibility":6.21,"altim":30.147638,"flightCategory":"MVFR","metarType":"METAR","geometry_esri":{"x":53.53,"y":9.83,"z":13}}}