{"type":"Feature","geometry":{"type":"Point","coordinates":[53.53,9.83,13]},"properties":{"stationId":"EDHI","rawText":"EDHI 140050Z AUTO 00000KT 6000 // FEW026/// OVC041/// 02/02 Q1004","observationTime":"2020-02-14T00:50:00Z","temp":2,"dewpoint":2,"windDirection":0,"windSpeed":0,"visibility":3.73,"altim":29.64567,"flightCategory":"MVFR","metarType":"METAR","geometry_esri":{"x":53.53,"y":9.83,"z":13}}}