{"type":"Feature","geometry":{"type":"Point","coordinates":[53.53,9.83,13]},"properties":{"stationId":"EDHI","rawText":"EDHI 291720Z AUTO 21008KT 180V250 6000 // SCT006/// OVC008/// 14/14 Q0992","observationTime":"2019-09-29T17:20:00Z","temp":14,"dewpoint":14,"windDirection":210,"windSpeed":14.816,"visibility":3.73,"altim":29.291338,"flightCategory":"IFR","metarType":"METAR","geometry_esri":{"x":53.53,"y":9.83,"z":13}}}