{"type":"Feature","geometry":{"type":"Point","coordinates":[53.53,9.83,13]},"properties":{"stationId":"EDHI","rawText":"EDHI 120120Z AUTO 19009KT 150V210 9999 // BKN029/// OVC033/// 05/02 Q1000","observationTime":"2019-11-12T01:20:00Z","temp":5,"dewpoint":2,"windDirection":190,"windSpeed":16.668,"visibility":6.21,"altim":29.52756,"flightCategory":"MVFR","metarType":"METAR","geometry_esri":{"x":53.53,"y":9.83,"z":13}}}