{"type":"Feature","geometry":{"type":"Point","coordinates":[53.53,9.83,13]},"properties":{"stationId":"EDHI","rawText":"EDHI 171620Z 12004KT 040V170 3900 -DZ BR OVC009 03/02 Q1019","observationTime":"2018-12-17T16:20:00Z","temp":3,"dewpoint":2,"windDirection":120,"windSpeed":7.408,"visibility":2.42,"altim":30.088583,"flightCategory":"IFR","metarType":"METAR","geometry_esri":{"x":53.53,"y":9.83,"z":13}}}