{"type":"Feature","geometry":{"type":"Point","coordinates":[53.53,9.83,13]},"properties":{"stationId":"EDHI","rawText":"EDHI 172350Z AUTO 24016KT 9999 // FEW024/// BKN037/// 07/03 Q1014","observationTime":"2020-01-17T23:50:00Z","temp":7,"dewpoint":3,"windDirection":240,"windSpeed":29.632,"visibility":6.21,"altim":29.940945,"flightCategory":"VFR","metarType":"METAR","geometry_esri":{"x":53.53,"y":9.83,"z":13}}}