{"type":"Feature","geometry":{"type":"Point","coordinates":[53.53,9.83,13]},"properties":{"stationId":"EDHI","rawText":"EDHI 231920Z AUTO 27019G32KT 8000 2300 // SCT019/// BKN026/// BKN034/// 04/02 Q1008","observationTime":"2020-02-23T19:20:00Z","temp":4,"dewpoint":2,"windDirection":270,"windSpeed":35.188,"visibility":4.97,"altim":29.763779,"flightCategory":"MVFR","metarType":"METAR","geometry_esri":{"x":53.53,"y":9.83,"z":13}}}