{"type":"Feature","geometry":{"type":"Point","coordinates":[53.53,9.83,13]},"properties":{"stationId":"EDHI","rawText":"EDHI 260250Z AUTO 19006KT 5000 // FEW004/// OVC019/// 00/M01 Q1018","observationTime":"2020-01-26T02:50:00Z","temp":0,"dewpoint":-1,"windDirection":190,"windSpeed":11.112,"visibility":3.11,"altim":30.059055,"flightCategory":"MVFR","metarType":"METAR","geometry_esri":{"x":53.53,"y":9.83,"z":13}}}