{"type":"Feature","geometry":{"type":"Point","coordinates":[53.53,9.83,13]},"properties":{"stationId":"EDHI","rawText":"EDHI 070150Z AUTO 23013KT 2600 // OVC006/// 08/07 Q0998","observationTime":"2019-12-07T01:50:00Z","temp":8,"dewpoint":7,"windDirection":230,"windSpeed":24.076,"visibility":1.62,"altim":29.468504,"flightCategory":"IFR","metarType":"METAR","geometry_esri":{"x":53.53,"y":9.83,"z":13}}}