{"type":"Feature","geometry":{"type":"Point","coordinates":[53.53,9.83,13]},"properties":{"stationId":"EDHI","rawText":"EDHI 091320Z AUTO 06005KT 340V120 9999 // FEW077/// 22/06 Q1013","observationTime":"2020-05-09T13:20:00Z","temp":22,"dewpoint":6,"windDirection":60,"windSpeed":9.26,"visibility":6.21,"altim":29.911417,"flightCategory":"VFR","metarType":"METAR","geometry_esri":{"x":53.53,"y":9.83,"z":13}}}