{"type":"Feature","geometry":{"type":"Point","coordinates":[53.53,9.83,13]},"properties":{"stationId":"EDHI","rawText":"EDHI 021250Z 14006KT 110V180 9999 SCT029 09/02 Q0991","observationTime":"2020-03-02T12:50:00Z","temp":9,"dewpoint":2,"windDirection":140,"windSpeed":11.112,"visibility":6.21,"altim":29.26181,"flightCategory":"VFR","metarType":"METAR","geometry_esri":{"x":53.53,"y":9.83,"z":13}}}