{"type":"Feature","geometry":{"type":"Point","coordinates":[53.53,9.83,13]},"properties":{"stationId":"EDHI","rawText":"EDHI 240920Z 12006KT 080V150 7000 FEW020 OVC025 M04/M07 Q1012","observationTime":"2019-01-24T09:20:00Z","temp":-4,"dewpoint":-7,"windDirection":120,"windSpeed":11.112,"visibility":4.35,"altim":29.88189,"flightCategory":"MVFR","metarType":"METAR","geometry_esri":{"x":53.53,"y":9.83,"z":13}}}