{"type":"Feature","geometry":{"type":"Point","coordinates":[53.53,9.83,13]},"properties":{"stationId":"EDHI","rawText":"EDHI 072350Z AUTO 25016KT 9999 // SCT017/// OVC150/// 07/05 Q0996","observationTime":"2018-12-07T23:50:00Z","temp":7,"dewpoint":5,"windDirection":250,"windSpeed":29.632,"visibility":6.21,"altim":29.409449,"skyCondition1a":"SCT","skyCondition1b":1700,"skyCondition2a":"OVC","skyCondition2b":15000,"flightCategory":"VFR","metarType":"METAR","geometry_esri":{"x":53.53,"y":9.83,"z":13}}}