{"type":"Feature","geometry":{"type":"Point","coordinates":[53.53,9.83,13]},"properties":{"stationId":"EDHI","rawText":"EDHI 300450Z 31020G33KT 9999 -RA BKN009 14/12 Q0991 RERA","observationTime":"2019-09-30T04:50:00Z","temp":14,"dewpoint":12,"windDirection":310,"windSpeed":37.04,"visibility":6.21,"altim":29.26181,"flightCategory":"IFR","metarType":"METAR","geometry_esri":{"x":53.53,"y":9.83,"z":13}}}