{"type":"Feature","geometry":{"type":"Point","coordinates":[53.53,9.83,13]},"properties":{"stationId":"EDHI","rawText":"EDHI 021220Z 20005KT 150V240 9999 FEW026 09/03 Q0991","observationTime":"2020-03-02T12:20:00Z","temp":9,"dewpoint":3,"windDirection":200,"windSpeed":9.26,"visibility":6.21,"altim":29.26181,"flightCategory":"VFR","metarType":"METAR","geometry_esri":{"x":53.53,"y":9.83,"z":13}}}