{"type":"Feature","geometry":{"type":"Point","coordinates":[53.53,9.83,13]},"properties":{"stationId":"EDHI","rawText":"EDHI 230420Z AUTO 25017KT //// R23/P2000N // FEW028/// SCT055/// OVC110/// 07/03 Q1011","observationTime":"2020-02-23T04:20:00Z","temp":7,"dewpoint":3,"windDirection":250,"windSpeed":31.484,"visibility":1.24,"altim":29.852362,"flightCategory":"IFR","metarType":"METAR","geometry_esri":{"x":53.53,"y":9.83,"z":13}}}