{"type":"Feature","geometry":{"type":"Point","coordinates":[53.53,9.83,13]},"properties":{"stationId":"EDHI","rawText":"EDHI 300120Z AUTO 31018G31KT 270V340 9999 // OVC014/// 07/04 Q1019","observationTime":"2018-12-30T01:20:00Z","temp":7,"dewpoint":4,"windDirection":310,"windSpeed":33.336,"visibility":6.21,"altim":30.088583,"flightCategory":"MVFR","metarType":"METAR","geometry_esri":{"x":53.53,"y":9.83,"z":13}}}