{"type":"Feature","geometry":{"type":"Point","coordinates":[53.53,9.83,13]},"properties":{"stationId":"EDHI","rawText":"EDHI 070550Z AUTO 27013KT 9999 R/////// // FEW035/// OVC046/// 13/07 Q1009","observationTime":"2019-07-07T05:50:00Z","temp":13,"dewpoint":7,"windDirection":270,"windSpeed":24.076,"visibility":6.21,"altim":29.793306,"flightCategory":"VFR","metarType":"METAR","geometry_esri":{"x":53.53,"y":9.83,"z":13}}}