{"type":"Feature","geometry":{"type":"Point","coordinates":[53.53,9.83,13]},"properties":{"stationId":"EDHI","rawText":"EDHI 210020Z AUTO 14003KT 3900 // NCD M07/M08 Q1023","observationTime":"2019-01-21T00:20:00Z","temp":-7,"dewpoint":-8,"windDirection":140,"windSpeed":5.556,"visibility":2.42,"altim":30.206694,"flightCategory":"IFR","metarType":"METAR","geometry_esri":{"x":53.53,"y":9.83,"z":13}}}