{"type":"Feature","geometry":{"type":"Point","coordinates":[53.53,9.83,13]},"properties":{"stationId":"EDHI","rawText":"EDHI 020520Z 12008KT 060V170 CAVOK 03/M04 Q1013","observationTime":"2019-04-02T05:20:00Z","temp":3,"dewpoint":-4,"windDirection":120,"windSpeed":14.816,"visibility":6.21,"altim":29.911417,"flightCategory":"VFR","metarType":"METAR","geometry_esri":{"x":53.53,"y":9.83,"z":13}}}