{"type":"Feature","geometry":{"type":"Point","coordinates":[53.53,9.83,13]},"properties":{"stationId":"EDHI","rawText":"EDHI 252120Z AUTO 18004KT 130V230 3400 // BKN009/// BKN014/// OVC024/// M02/M03 Q1006","observationTime":"2019-01-25T21:20:00Z","temp":-2,"dewpoint":-3,"windDirection":180,"windSpeed":7.408,"visibility":2.11,"altim":29.704725,"flightCategory":"IFR","metarType":"METAR","geometry_esri":{"x":53.53,"y":9.83,"z":13}}}