{"type":"Feature","geometry":{"type":"Point","coordinates":[53.53,9.83,13]},"properties":{"stationId":"EDHI","rawText":"EDHI 222220Z AUTO VRB01KT 9000 // NCD 15/12 Q1025","observationTime":"2019-08-22T22:20:00Z","temp":15,"dewpoint":12,"windDirection":0,"windSpeed":1.852,"visibility":5.59,"altim":30.265747,"flightCategory":"VFR","metarType":"METAR","geometry_esri":{"x":53.53,"y":9.83,"z":13}}}