{"type":"Feature","geometry":{"type":"Point","coordinates":[53.53,9.83,13]},"properties":{"stationId":"EDHI","rawText":"EDHI 110320Z AUTO 05008KT 9999 // OVC071/// 03/M03 Q1024","observationTime":"2019-04-11T03:20:00Z","temp":3,"dewpoint":-3,"windDirection":50,"windSpeed":14.816,"visibility":6.21,"altim":30.236221,"flightCategory":"VFR","metarType":"METAR","geometry_esri":{"x":53.53,"y":9.83,"z":13}}}