{"type":"Feature","geometry":{"type":"Point","coordinates":[53.53,9.83,13]},"properties":{"stationId":"EDHI","rawText":"EDHI 261020Z AUTO 24014KT 9999 // OVC025/// 15/11 Q1009","observationTime":"2019-05-26T10:20:00Z","temp":15,"dewpoint":11,"windDirection":240,"windSpeed":25.928,"visibility":6.21,"altim":29.793306,"flightCategory":"MVFR","metarType":"METAR","geometry_esri":{"x":53.53,"y":9.83,"z":13}}}