{"type":"Feature","geometry":{"type":"Point","coordinates":[53.53,9.83,13]},"properties":{"stationId":"EDHI","rawText":"EDHI 130820Z AUTO 24014KT 1700 1300 R23/P2000N // OVC007/// 07/06 Q0997","observationTime":"2019-01-13T08:20:00Z","temp":7,"dewpoint":6,"windDirection":240,"windSpeed":25.928,"visibility":1.06,"altim":29.438976,"flightCategory":"IFR","metarType":"METAR","geometry_esri":{"x":53.53,"y":9.83,"z":13}}}