{"type":"Feature","geometry":{"type":"Point","coordinates":[53.53,9.83,13]},"properties":{"stationId":"EDHI","rawText":"EDHI 190220Z AUTO 05008KT 9999 // OVC100/// 06/M02 Q1021","observationTime":"2020-04-19T02:20:00Z","temp":6,"dewpoint":-2,"windDirection":50,"windSpeed":14.816,"visibility":6.21,"altim":30.147638,"flightCategory":"VFR","metarType":"METAR","geometry_esri":{"x":53.53,"y":9.83,"z":13}}}