{"type":"Feature","geometry":{"type":"Point","coordinates":[53.53,9.83,13]},"properties":{"stationId":"EDHI","rawText":"EDHI 262050Z AUTO 26005KT 5000 1400 R23/P2000N // SCT006/// BKN014/// OVC063/// 11/10 Q1013","observationTime":"2019-04-26T20:50:00Z","temp":11,"dewpoint":10,"windDirection":260,"windSpeed":9.26,"visibility":3.11,"altim":29.911417,"flightCategory":"MVFR","metarType":"METAR","geometry_esri":{"x":53.53,"y":9.83,"z":13}}}