{"type":"Feature","geometry":{"type":"Point","coordinates":[53.53,9.83,13]},"properties":{"stationId":"EDHI","rawText":"EDHI 272320Z AUTO 24007KT 8000 // OVC007/// 02/01 Q1003","observationTime":"2020-02-27T23:20:00Z","temp":2,"dewpoint":1,"windDirection":240,"windSpeed":12.964,"visibility":4.97,"altim":29.616142,"flightCategory":"IFR","metarType":"METAR","geometry_esri":{"x":53.53,"y":9.83,"z":13}}}