{"type":"Feature","geometry":{"type":"Point","coordinates":[53.53,9.83,13]},"properties":{"stationId":"EDHI","rawText":"EDHI 141320Z 24017KT 9999 FEW020 SCT044 06/03 Q0985","observationTime":"2019-12-14T13:20:00Z","temp":6,"dewpoint":3,"windDirection":240,"windSpeed":31.484,"visibility":6.21,"altim":29.084646,"flightCategory":"VFR","metarType":"METAR","geometry_esri":{"x":53.53,"y":9.83,"z":13}}}