{"type":"Feature","geometry":{"type":"Point","coordinates":[53.53,9.83,13]},"properties":{"stationId":"EDHI","rawText":"EDHI 161950Z AUTO 28006KT 250V310 9999 // FEW028/// SCT035/// OVC040/// 13/11 Q1017","observationTime":"2019-09-16T19:50:00Z","temp":13,"dewpoint":11,"windDirection":280,"windSpeed":11.112,"visibility":6.21,"altim":30.029528,"flightCategory":"VFR","metarType":"METAR","geometry_esri":{"x":53.53,"y":9.83,"z":13}}}