{"type":"Feature","geometry":{"type":"Point","coordinates":[53.53,9.83,13]},"properties":{"stationId":"EDHI","rawText":"EDHI 230820Z 11008KT 060V150 5000 BR BKN010 M06/M07 Q1002","observationTime":"2019-01-23T08:20:00Z","temp":-6,"dewpoint":-7,"windDirection":110,"windSpeed":14.816,"visibility":3.11,"altim":29.586615,"flightCategory":"MVFR","metarType":"METAR","geometry_esri":{"x":53.53,"y":9.83,"z":13}}}