{"type":"Feature","geometry":{"type":"Point","coordinates":[53.53,9.83,13]},"properties":{"stationId":"EDHI","rawText":"EDHI 202220Z AUTO 06005KT 9999 // NCD 08/M01 Q1028","observationTime":"2019-04-20T22:20:00Z","temp":8,"dewpoint":-1,"windDirection":60,"windSpeed":9.26,"visibility":6.21,"altim":30.35433,"flightCategory":"VFR","metarType":"METAR","geometry_esri":{"x":53.53,"y":9.83,"z":13}}}