{"type":"Feature","geometry":{"type":"Point","coordinates":[53.53,9.83,13]},"properties":{"stationId":"EDHI","rawText":"EDHI 062020Z AUTO 19005KT 150V220 9999 // BKN240/// 03/01 Q1019","observationTime":"2020-01-06T20:20:00Z","temp":3,"dewpoint":1,"windDirection":190,"windSpeed":9.26,"visibility":6.21,"altim":30.088583,"flightCategory":"VFR","metarType":"METAR","geometry_esri":{"x":53.53,"y":9.83,"z":13}}}