{"type":"Feature","geometry":{"type":"Point","coordinates":[53.53,9.83,13]},"properties":{"stationId":"EDHI","rawText":"EDHI 230350Z AUTO VRB01KT 2600 0900 R23/P2000N // FEW006/// 07/07 Q1021","observationTime":"2019-10-23T03:50:00Z","temp":7,"dewpoint":7,"windDirection":0,"windSpeed":1.852,"visibility":1.62,"altim":30.147638,"flightCategory":"IFR","metarType":"METAR","geometry_esri":{"x":53.53,"y":9.83,"z":13}}}