{"type":"Feature","geometry":{"type":"Point","coordinates":[53.53,9.83,13]},"properties":{"stationId":"EDHI","rawText":"EDHI 011220Z AUTO 20011KT 170V230 9999 // FEW036/// SCT063/// BKN077/// 13/06 Q0998","observationTime":"2020-05-01T12:20:00Z","temp":13,"dewpoint":6,"windDirection":200,"windSpeed":20.372,"visibility":6.21,"altim":29.468504,"flightCategory":"VFR","metarType":"METAR","geometry_esri":{"x":53.53,"y":9.83,"z":13}}}