{"type":"Feature","geometry":{"type":"Point","coordinates":[53.53,9.83,13]},"properties":{"stationId":"EDHI","rawText":"EDHI 101250Z AUTO 28009KT 240V300 9999 // FEW250/// 11/03 Q1027","observationTime":"2020-04-10T12:50:00Z","temp":11,"dewpoint":3,"windDirection":280,"windSpeed":16.668,"visibility":6.21,"altim":30.324802,"flightCategory":"VFR","metarType":"METAR","geometry_esri":{"x":53.53,"y":9.83,"z":13}}}