{"type":"Feature","geometry":{"type":"Point","coordinates":[53.53,9.83,13]},"properties":{"stationId":"EDHI","rawText":"EDHI 232120Z AUTO 07004KT 9999 // NCD 18/15 Q1025","observationTime":"2019-08-23T21:20:00Z","temp":18,"dewpoint":15,"windDirection":70,"windSpeed":7.408,"visibility":6.21,"altim":30.265747,"flightCategory":"VFR","metarType":"METAR","geometry_esri":{"x":53.53,"y":9.83,"z":13}}}