{"type":"Feature","geometry":{"type":"Point","coordinates":[53.53,9.83,13]},"properties":{"stationId":"EDHI","rawText":"EDHI 140050Z AUTO 31017KT 280V350 9999 // OVC034/// 05/M01 Q0996","observationTime":"2019-01-14T00:50:00Z","temp":5,"dewpoint":-1,"windDirection":310,"windSpeed":31.484,"visibility":6.21,"altim":29.409449,"flightCategory":"VFR","metarType":"METAR","geometry_esri":{"x":53.53,"y":9.83,"z":13}}}