{"type":"Feature","geometry":{"type":"Point","coordinates":[53.53,9.83,13]},"properties":{"stationId":"EDHI","rawText":"EDHI 150020Z AUTO 27012KT 9999 // FEW022/// BKN028/// OVC150/// 06/02 Q1023","observationTime":"2020-04-15T00:20:00Z","temp":6,"dewpoint":2,"windDirection":270,"windSpeed":22.224,"visibility":6.21,"altim":30.206694,"flightCategory":"MVFR","metarType":"METAR","geometry_esri":{"x":53.53,"y":9.83,"z":13}}}