{"type":"Feature","geometry":{"type":"Point","coordinates":[53.53,9.83,13]},"properties":{"stationId":"EDHI","rawText":"EDHI 180520Z 25019KT 9999 FEW014 SCT028 BKN042 04/02 Q1004","observationTime":"2019-03-18T05:20:00Z","temp":4,"dewpoint":2,"windDirection":250,"windSpeed":35.188,"visibility":6.21,"altim":29.64567,"flightCategory":"VFR","metarType":"METAR","geometry_esri":{"x":53.53,"y":9.83,"z":13}}}