{"type":"Feature","geometry":{"type":"Point","coordinates":[53.53,9.83,13]},"properties":{"stationId":"EDHI","rawText":"EDHI 082120Z AUTO 22011KT 180V250 9999 // BKN026/// BKN039/// OVC069/// 08/05 Q0989","observationTime":"2018-12-08T21:20:00Z","temp":8,"dewpoint":5,"windDirection":220,"windSpeed":20.372,"visibility":6.21,"altim":29.202755,"skyCondition1a":"BKN","skyCondition1b":2600,"skyCondition2a":"BKN","skyCondition2b":3900,"flightCategory":"MVFR","metarType":"METAR","geometry_esri":{"x":53.53,"y":9.83,"z":13}}}