{"type":"Feature","geometry":{"type":"Point","coordinates":[53.53,9.83,13]},"properties":{"stationId":"EDHI","rawText":"EDHI 051450Z 12005KT 080V160 4500 HZ BKN019 11/07 Q1005","observationTime":"2019-04-05T14:50:00Z","temp":11,"dewpoint":7,"windDirection":120,"windSpeed":9.26,"visibility":2.8,"altim":29.675198,"flightCategory":"IFR","metarType":"METAR","geometry_esri":{"x":53.53,"y":9.83,"z":13}}}