{"type":"Feature","geometry":{"type":"Point","coordinates":[53.53,9.83,13]},"properties":{"stationId":"EDHI","rawText":"EDHI 050250Z AUTO 30007KT 270V330 1700 // OVC002/// 07/07 Q1003","observationTime":"2019-04-05T02:50:00Z","temp":7,"dewpoint":7,"windDirection":300,"windSpeed":12.964,"visibility":1.06,"altim":29.616142,"flightCategory":"LIFR","metarType":"METAR","geometry_esri":{"x":53.53,"y":9.83,"z":13}}}