{"type":"Feature","geometry":{"type":"Point","coordinates":[53.53,9.83,13]},"properties":{"stationId":"EDHI","rawText":"EDHI 110120Z AUTO 24013KT 9999 // OVC010/// 02/01 Q1006","observationTime":"2019-03-11T01:20:00Z","temp":2,"dewpoint":1,"windDirection":240,"windSpeed":24.076,"visibility":6.21,"altim":29.704725,"flightCategory":"MVFR","metarType":"METAR","geometry_esri":{"x":53.53,"y":9.83,"z":13}}}