{"type":"Feature","geometry":{"type":"Point","coordinates":[53.53,9.83,13]},"properties":{"stationId":"EDHI","rawText":"EDHI 262050Z AUTO 26004KT 9999 // OVC031/// 02/01 Q1000","observationTime":"2020-02-26T20:50:00Z","temp":2,"dewpoint":1,"windDirection":260,"windSpeed":7.408,"visibility":6.21,"altim":29.52756,"flightCategory":"VFR","metarType":"METAR","geometry_esri":{"x":53.53,"y":9.83,"z":13}}}