{"type":"Feature","geometry":{"type":"Point","coordinates":[53.53,9.83,13]},"properties":{"stationId":"EDHI","rawText":"EDHI 190950Z AUTO 10012KT 060V140 9999 // NCD 12/M05 Q1024","observationTime":"2020-04-19T09:50:00Z","temp":12,"dewpoint":-5,"windDirection":100,"windSpeed":22.224,"visibility":6.21,"altim":30.236221,"flightCategory":"VFR","metarType":"METAR","geometry_esri":{"x":53.53,"y":9.83,"z":13}}}