{"type":"Feature","geometry":{"type":"Point","coordinates":[53.53,9.83,13]},"properties":{"stationId":"EDHI","rawText":"EDHI 092320Z AUTO 25017KT 9999 3700 // FEW021/// SCT024/// BKN035/// 05/02 Q1006","observationTime":"2019-03-09T23:20:00Z","temp":5,"dewpoint":2,"windDirection":250,"windSpeed":31.484,"visibility":6.21,"altim":29.704725,"flightCategory":"VFR","metarType":"METAR","geometry_esri":{"x":53.53,"y":9.83,"z":13}}}