{"type":"Feature","geometry":{"type":"Point","coordinates":[53.53,9.83,13]},"properties":{"stationId":"EDHI","rawText":"EDHI 281850Z AUTO 27009KT 7000 // SCT008/// BKN010/// OVC027/// 09/08 Q0988","observationTime":"2019-11-28T18:50:00Z","temp":9,"dewpoint":8,"windDirection":270,"windSpeed":16.668,"visibility":4.35,"altim":29.17323,"flightCategory":"MVFR","metarType":"METAR","geometry_esri":{"x":53.53,"y":9.83,"z":13}}}