{"type":"Feature","geometry":{"type":"Point","coordinates":[53.53,9.83,13]},"properties":{"stationId":"EDHI","rawText":"EDHI 241120Z AUTO 10008KT 040V160 9999 // NCD 27/12 Q1023","observationTime":"2019-08-24T11:20:00Z","temp":27,"dewpoint":12,"windDirection":100,"windSpeed":14.816,"visibility":6.21,"altim":30.206694,"flightCategory":"VFR","metarType":"METAR","geometry_esri":{"x":53.53,"y":9.83,"z":13}}}