{"type":"Feature","geometry":{"type":"Point","coordinates":[53.53,9.83,13]},"properties":{"stationId":"EDHI","rawText":"EDHI 192220Z AUTO 07006KT 9999 // NCD 06/M02 Q1026","observationTime":"2020-04-19T22:20:00Z","temp":6,"dewpoint":-2,"windDirection":70,"windSpeed":11.112,"visibility":6.21,"altim":30.295275,"flightCategory":"VFR","metarType":"METAR","geometry_esri":{"x":53.53,"y":9.83,"z":13}}}