{"type":"Feature","geometry":{"type":"Point","coordinates":[53.53,9.83,13]},"properties":{"stationId":"EDHI","rawText":"EDHI 230020Z AUTO 11008KT 060V140 9000 // OVC011/// 08/06 Q1007","observationTime":"2019-11-23T00:20:00Z","temp":8,"dewpoint":6,"windDirection":110,"windSpeed":14.816,"visibility":5.59,"altim":29.734253,"flightCategory":"MVFR","metarType":"METAR","geometry_esri":{"x":53.53,"y":9.83,"z":13}}}