{"type":"Feature","geometry":{"type":"Point","coordinates":[53.53,9.83,13]},"properties":{"stationId":"EDHI","rawText":"EDHI 091950Z AUTO 30021G31KT 9999 // FEW018/// BKN031/// OVC039/// 06/03 Q1001","observationTime":"2018-12-09T19:50:00Z","temp":6,"dewpoint":3,"windDirection":300,"windSpeed":38.892,"visibility":6.21,"altim":29.557087,"skyCondition1a":"FEW","skyCondition1b":1800,"skyCondition2a":"BKN","skyCondition2b":3100,"flightCategory":"VFR","metarType":"METAR","geometry_esri":{"x":53.53,"y":9.83,"z":13}}}