{"type":"Feature","geometry":{"type":"Point","coordinates":[53.53,9.83,13]},"properties":{"stationId":"EDHI","rawText":"EDHI 101720Z AUTO 20016G29KT 9999 2400 // SCT035/// BKN040/// 19/16 Q1009","observationTime":"2019-08-10T17:20:00Z","temp":19,"dewpoint":16,"windDirection":200,"windSpeed":29.632,"visibility":6.21,"altim":29.793306,"flightCategory":"VFR","metarType":"METAR","geometry_esri":{"x":53.53,"y":9.83,"z":13}}}