{"type":"Feature","geometry":{"type":"Point","coordinates":[53.53,9.83,13]},"properties":{"stationId":"EDHI","rawText":"EDHI 051120Z 25008KT CAVOK 03/00 Q1018","observationTime":"2019-12-05T11:20:00Z","temp":3,"dewpoint":0,"windDirection":250,"windSpeed":14.816,"visibility":6.21,"altim":30.059055,"flightCategory":"VFR","metarType":"METAR","geometry_esri":{"x":53.53,"y":9.83,"z":13}}}