{"type":"Feature","geometry":{"type":"Point","coordinates":[53.53,9.83,13]},"properties":{"stationId":"EDHI","rawText":"EDHI 281920Z AUTO 27016KT 7000 // BKN008/// BKN012/// OVC015/// 09/08 Q0988","observationTime":"2019-11-28T19:20:00Z","temp":9,"dewpoint":8,"windDirection":270,"windSpeed":29.632,"visibility":4.35,"altim":29.17323,"flightCategory":"IFR","metarType":"METAR","geometry_esri":{"x":53.53,"y":9.83,"z":13}}}