{"type":"Feature","geometry":{"type":"Point","coordinates":[53.53,9.83,13]},"properties":{"stationId":"EDHI","rawText":"EDHI 180820Z AUTO 07007KT 020V120 9999 // NCD 18/12 Q1007","observationTime":"2019-05-18T08:20:00Z","temp":18,"dewpoint":12,"windDirection":70,"windSpeed":12.964,"visibility":6.21,"altim":29.734253,"flightCategory":"VFR","metarType":"METAR","geometry_esri":{"x":53.53,"y":9.83,"z":13}}}