{"type":"Feature","geometry":{"type":"Point","coordinates":[53.53,9.83,13]},"properties":{"stationId":"EDHI","rawText":"EDHI 022220Z AUTO 18005KT 140V230 9999 // FEW240/// 11/08 Q0988","observationTime":"2019-11-02T22:20:00Z","temp":11,"dewpoint":8,"windDirection":180,"windSpeed":9.26,"visibility":6.21,"altim":29.17323,"flightCategory":"VFR","metarType":"METAR","geometry_esri":{"x":53.53,"y":9.83,"z":13}}}