{"type":"Feature","geometry":{"type":"Point","coordinates":[53.53,9.83,13]},"properties":{"stationId":"EDHI","rawText":"EDHI 081020Z AUTO 19007KT 160V230 9999 // BKN240/// 06/M00 Q1020","observationTime":"2020-02-08T10:20:00Z","temp":6,"dewpoint":0,"windDirection":190,"windSpeed":12.964,"visibility":6.21,"altim":30.11811,"flightCategory":"VFR","metarType":"METAR","geometry_esri":{"x":53.53,"y":9.83,"z":13}}}