{"type":"Feature","geometry":{"type":"Point","coordinates":[53.53,9.83,13]},"properties":{"stationId":"EDHI","rawText":"EDHI 150620Z 15005KT 110V200 9999 FEW011 BKN028 OVC037 15/13 Q1008","observationTime":"2019-08-15T06:20:00Z","temp":15,"dewpoint":13,"windDirection":150,"windSpeed":9.26,"visibility":6.21,"altim":29.763779,"flightCategory":"MVFR","metarType":"METAR","geometry_esri":{"x":53.53,"y":9.83,"z":13}}}