{"type":"Feature","geometry":{"type":"Point","coordinates":[53.53,9.83,13]},"properties":{"stationId":"EDHI","rawText":"EDHI 271250Z 03006KT 360V070 9999 FEW020 BKN023 03/M01 Q1032","observationTime":"2019-12-27T12:50:00Z","temp":3,"dewpoint":-1,"windDirection":30,"windSpeed":11.112,"visibility":6.21,"altim":30.47244,"flightCategory":"MVFR","metarType":"METAR","geometry_esri":{"x":53.53,"y":9.83,"z":13}}}