{"type":"Feature","geometry":{"type":"Point","coordinates":[53.53,9.83,13]},"properties":{"stationId":"EDHI","rawText":"EDHI 050950Z 12005KT 090V170 CAVOK 21/14 Q1009","observationTime":"2019-08-05T09:50:00Z","temp":21,"dewpoint":14,"windDirection":120,"windSpeed":9.26,"visibility":6.21,"altim":29.793306,"flightCategory":"VFR","metarType":"METAR","geometry_esri":{"x":53.53,"y":9.83,"z":13}}}