{"type":"Feature","geometry":{"type":"Point","coordinates":[53.53,9.83,13]},"properties":{"stationId":"EDHI","rawText":"EDHI 301650Z AUTO 27007KT 9999 // FEW062/// 16/07 Q1017","observationTime":"2019-03-30T16:50:00Z","temp":16,"dewpoint":7,"windDirection":270,"windSpeed":12.964,"visibility":6.21,"altim":30.029528,"flightCategory":"VFR","metarType":"METAR","geometry_esri":{"x":53.53,"y":9.83,"z":13}}}