{"type":"Feature","geometry":{"type":"Point","coordinates":[53.53,9.83,13]},"properties":{"stationId":"EDHI","rawText":"EDHI 190750Z 12005KT 080V160 CAVOK 25/17 Q1008","observationTime":"2019-06-19T07:50:00Z","temp":25,"dewpoint":17,"windDirection":120,"windSpeed":9.26,"visibility":6.21,"altim":29.763779,"flightCategory":"VFR","metarType":"METAR","geometry_esri":{"x":53.53,"y":9.83,"z":13}}}