{"type":"Feature","geometry":{"type":"Point","coordinates":[53.53,9.83,13]},"properties":{"stationId":"EDHI","rawText":"EDHI 220950Z AUTO 09014G24KT 060V140 9999 // NCD 18/M02 Q1016","observationTime":"2019-04-22T09:50:00Z","temp":18,"dewpoint":-2,"windDirection":90,"windSpeed":25.928,"visibility":6.21,"altim":30,"flightCategory":"VFR","metarType":"METAR","geometry_esri":{"x":53.53,"y":9.83,"z":13}}}