{"type":"Feature","geometry":{"type":"Point","coordinates":[53.53,9.83,13]},"properties":{"stationId":"EDHI","rawText":"EDHI 220950Z 19005KT 160V230 CAVOK 19/13 Q1022","observationTime":"2019-07-22T09:50:00Z","temp":19,"dewpoint":13,"windDirection":190,"windSpeed":9.26,"visibility":6.21,"altim":30.177166,"flightCategory":"VFR","metarType":"METAR","geometry_esri":{"x":53.53,"y":9.83,"z":13}}}