{"type":"Feature","geometry":{"type":"Point","coordinates":[53.53,9.83,13]},"properties":{"stationId":"EDHI","rawText":"EDHI 071050Z VRB05KT 9999 FEW036 15/06 Q1033","observationTime":"2020-04-07T10:50:00Z","temp":15,"dewpoint":6,"windDirection":0,"windSpeed":9.26,"visibility":6.21,"altim":30.501968,"flightCategory":"VFR","metarType":"METAR","geometry_esri":{"x":53.53,"y":9.83,"z":13}}}