{"type":"Feature","geometry":{"type":"Point","coordinates":[53.53,9.83,13]},"properties":{"stationId":"EDHI","rawText":"EDHI 300320Z AUTO 24005KT 0400 0350 R05/0600N // VV002 04/04 Q1022","observationTime":"2019-04-30T03:20:00Z","temp":4,"dewpoint":4,"windDirection":240,"windSpeed":9.26,"visibility":0.25,"altim":30.177166,"flightCategory":"LIFR","metarType":"METAR","geometry_esri":{"x":53.53,"y":9.83,"z":13}}}