{"type":"Feature","geometry":{"type":"Point","coordinates":[53.53,9.83,13]},"properties":{"stationId":"EDHI","rawText":"EDHI 070620Z 26017KT 9999 BKN015 OVC022 09/07 Q1001","observationTime":"2019-12-07T06:20:00Z","temp":9,"dewpoint":7,"windDirection":260,"windSpeed":31.484,"visibility":6.21,"altim":29.557087,"flightCategory":"MVFR","metarType":"METAR","geometry_esri":{"x":53.53,"y":9.83,"z":13}}}