{"type":"Feature","geometry":{"type":"Point","coordinates":[53.53,9.83,13]},"properties":{"stationId":"EDHI","rawText":"EDHI 242220Z AUTO 23017KT 1100 0750 R23/P2000N // OVC008/// 09/08 Q0995","observationTime":"2020-02-24T22:20:00Z","temp":9,"dewpoint":8,"windDirection":230,"windSpeed":31.484,"visibility":0.68,"altim":29.379921,"flightCategory":"LIFR","metarType":"METAR","geometry_esri":{"x":53.53,"y":9.83,"z":13}}}