{"type":"Feature","geometry":{"type":"Point","coordinates":[53.53,9.83,13]},"properties":{"stationId":"EDHI","rawText":"EDHI 120150Z AUTO 29014KT 9999 // SCT036/// BKN041/// 03/M00 Q1025","observationTime":"2019-02-12T01:50:00Z","temp":3,"dewpoint":0,"windDirection":290,"windSpeed":25.928,"visibility":6.21,"altim":30.265747,"flightCategory":"VFR","metarType":"METAR","geometry_esri":{"x":53.53,"y":9.83,"z":13}}}