{"type":"Feature","geometry":{"type":"Point","coordinates":[53.53,9.83,13]},"properties":{"stationId":"EDHI","rawText":"EDHI 110350Z AUTO 06009KT 9999 // OVC071/// 03/M02 Q1024","observationTime":"2019-04-11T03:50:00Z","temp":3,"dewpoint":-2,"windDirection":60,"windSpeed":16.668,"visibility":6.21,"altim":30.236221,"flightCategory":"VFR","metarType":"METAR","geometry_esri":{"x":53.53,"y":9.83,"z":13}}}