{"type":"Feature","geometry":{"type":"Point","coordinates":[53.53,9.83,13]},"properties":{"stationId":"EDHI","rawText":"EDHI 122320Z AUTO 21004KT 6000 // NCD 13/12 Q1010","observationTime":"2019-06-12T23:20:00Z","temp":13,"dewpoint":12,"windDirection":210,"windSpeed":7.408,"visibility":3.73,"altim":29.822834,"flightCategory":"MVFR","metarType":"METAR","geometry_esri":{"x":53.53,"y":9.83,"z":13}}}