{"type":"Feature","geometry":{"type":"Point","coordinates":[53.53,9.83,13]},"properties":{"stationId":"EDHI","rawText":"EDHI 151220Z 14007KT 110V170 9999 FEW024 BKN030 01/M04 Q1028","observationTime":"2018-12-15T12:20:00Z","temp":1,"dewpoint":-4,"windDirection":140,"windSpeed":12.964,"visibility":6.21,"altim":30.35433,"flightCategory":"MVFR","metarType":"METAR","geometry_esri":{"x":53.53,"y":9.83,"z":13}}}