{"type":"Feature","geometry":{"type":"Point","coordinates":[53.53,9.83,13]},"properties":{"stationId":"EDHI","rawText":"EDHI 270550Z 08004KT 020V120 CAVOK 22/17 Q1018","observationTime":"2019-08-27T05:50:00Z","temp":22,"dewpoint":17,"windDirection":80,"windSpeed":7.408,"visibility":6.21,"altim":30.059055,"flightCategory":"VFR","metarType":"METAR","geometry_esri":{"x":53.53,"y":9.83,"z":13}}}