{"type":"Feature","geometry":{"type":"Point","coordinates":[53.53,9.83,13]},"properties":{"stationId":"EDHI","rawText":"EDHI 270450Z AUTO 27009KT 8000 // BKN008/// OVC071/// 06/05 Q1028","observationTime":"2019-03-27T04:50:00Z","temp":6,"dewpoint":5,"windDirection":270,"windSpeed":16.668,"visibility":4.97,"altim":30.35433,"flightCategory":"IFR","metarType":"METAR","geometry_esri":{"x":53.53,"y":9.83,"z":13}}}