{"type":"Feature","geometry":{"type":"Point","coordinates":[53.53,9.83,13]},"properties":{"stationId":"EDHI","rawText":"EDHI 141450Z 20013KT 9999 -RA SCT011 BKN017 05/04 Q0987","observationTime":"2019-03-14T14:50:00Z","temp":5,"dewpoint":4,"windDirection":200,"windSpeed":24.076,"visibility":6.21,"altim":29.143702,"flightCategory":"MVFR","metarType":"METAR","geometry_esri":{"x":53.53,"y":9.83,"z":13}}}