{"type":"Feature","geometry":{"type":"Point","coordinates":[53.53,9.83,13]},"properties":{"stationId":"EDHI","rawText":"EDHI 220950Z AUTO 11011G21KT 060V160 9999 // SCT045/// 05/M06 Q1037","observationTime":"2020-03-22T09:50:00Z","temp":5,"dewpoint":-6,"windDirection":110,"windSpeed":20.372,"visibility":6.21,"altim":30.620079,"flightCategory":"VFR","metarType":"METAR","geometry_esri":{"x":53.53,"y":9.83,"z":13}}}