{"type":"Feature","geometry":{"type":"Point","coordinates":[53.53,9.83,13]},"properties":{"stationId":"EDHI","rawText":"EDHI 290250Z AUTO 25007KT 3700 // OVC003/// 06/06 Q1027","observationTime":"2018-12-29T02:50:00Z","temp":6,"dewpoint":6,"windDirection":250,"windSpeed":12.964,"visibility":2.3,"altim":30.324802,"flightCategory":"LIFR","metarType":"METAR","geometry_esri":{"x":53.53,"y":9.83,"z":13}}}