{"type":"Feature","geometry":{"type":"Point","coordinates":[53.53,9.83,13]},"properties":{"stationId":"EDHI","rawText":"EDHI 202250Z AUTO 08010KT 050V130 9999 // NCD 10/M01 Q1026","observationTime":"2020-04-20T22:50:00Z","temp":10,"dewpoint":-1,"windDirection":80,"windSpeed":18.52,"visibility":6.21,"altim":30.295275,"flightCategory":"VFR","metarType":"METAR","geometry_esri":{"x":53.53,"y":9.83,"z":13}}}