{"type":"Feature","geometry":{"type":"Point","coordinates":[53.53,9.83,13]},"properties":{"stationId":"EDHI","rawText":"EDHI 061650Z AUTO 07007KT 030V090 9999 // SCT064/// BKN110/// 19/10 Q1006","observationTime":"2019-04-06T16:50:00Z","temp":19,"dewpoint":10,"windDirection":70,"windSpeed":12.964,"visibility":6.21,"altim":29.704725,"flightCategory":"VFR","metarType":"METAR","geometry_esri":{"x":53.53,"y":9.83,"z":13}}}