{"type":"Feature","geometry":{"type":"Point","coordinates":[53.53,9.83,13]},"properties":{"stationId":"EDHI","rawText":"EDHI 310950Z 19005KT 140V250 9999 FEW016 23/15 Q1014","observationTime":"2019-07-31T09:50:00Z","temp":23,"dewpoint":15,"windDirection":190,"windSpeed":9.26,"visibility":6.21,"altim":29.940945,"flightCategory":"VFR","metarType":"METAR","geometry_esri":{"x":53.53,"y":9.83,"z":13}}}