{"type":"Feature","geometry":{"type":"Point","coordinates":[53.53,9.83,13]},"properties":{"stationId":"EDHI","rawText":"EDHI 260750Z AUTO 27011KT 1500 1300 R23/P2000N // OVC002/// 06/06 Q1027","observationTime":"2018-12-26T07:50:00Z","temp":6,"dewpoint":6,"windDirection":270,"windSpeed":20.372,"visibility":0.93,"altim":30.324802,"flightCategory":"LIFR","metarType":"METAR","geometry_esri":{"x":53.53,"y":9.83,"z":13}}}