{"type":"Feature","geometry":{"type":"Point","coordinates":[53.53,9.83,13]},"properties":{"stationId":"EDHI","rawText":"EDHI 131520Z 23023G36KT 8000 -SHRA BKN017CB 06/04 Q0994","observationTime":"2019-03-13T15:20:00Z","temp":6,"dewpoint":4,"windDirection":230,"windSpeed":42.596000000000004,"visibility":4.97,"altim":29.350393,"flightCategory":"MVFR","metarType":"METAR","geometry_esri":{"x":53.53,"y":9.83,"z":13}}}