{"type":"Feature","geometry":{"type":"Point","coordinates":[53.53,9.83,13]},"properties":{"stationId":"EDHI","rawText":"EDHI 221620Z AUTO 11006KT 070V150 9999 // NCD 23/09 Q1009","observationTime":"2019-09-22T16:20:00Z","temp":23,"dewpoint":9,"windDirection":110,"windSpeed":11.112,"visibility":6.21,"altim":29.793306,"flightCategory":"VFR","metarType":"METAR","geometry_esri":{"x":53.53,"y":9.83,"z":13}}}