{"type":"Feature","geometry":{"type":"Point","coordinates":[53.53,9.83,13]},"properties":{"stationId":"EDHI","rawText":"EDHI 161850Z AUTO 21003KT 180V240 9999 // SCT082/// OVC100/// 07/05 Q1005","observationTime":"2019-12-16T18:50:00Z","temp":7,"dewpoint":5,"windDirection":210,"windSpeed":5.556,"visibility":6.21,"altim":29.675198,"flightCategory":"VFR","metarType":"METAR","geometry_esri":{"x":53.53,"y":9.83,"z":13}}}