{"type":"Feature","geometry":{"type":"Point","coordinates":[53.53,9.83,13]},"properties":{"stationId":"EDHI","rawText":"EDHI 110950Z 02017KT 340V050 9999 3900 SCT047 10/M03 Q1011","observationTime":"2020-05-11T09:50:00Z","temp":10,"dewpoint":-3,"windDirection":20,"windSpeed":31.484,"visibility":6.21,"altim":29.852362,"flightCategory":"VFR","metarType":"METAR","geometry_esri":{"x":53.53,"y":9.83,"z":13}}}