{"type":"Feature","geometry":{"type":"Point","coordinates":[53.53,9.83,13]},"properties":{"stationId":"EDHI","rawText":"EDHI 080850Z 28021KT 9999 FEW019 BKN029 07/03 Q1001","observationTime":"2019-03-08T08:50:00Z","temp":7,"dewpoint":3,"windDirection":280,"windSpeed":38.892,"visibility":6.21,"altim":29.557087,"flightCategory":"MVFR","metarType":"METAR","geometry_esri":{"x":53.53,"y":9.83,"z":13}}}