{"type":"Feature","geometry":{"type":"Point","coordinates":[53.53,9.83,13]},"properties":{"stationId":"EDHI","rawText":"EDHI 070820Z 19007KT 150V210 5000 -SHRA SCT046CB 16/15 Q1005","observationTime":"2019-08-07T08:20:00Z","temp":16,"dewpoint":15,"windDirection":190,"windSpeed":12.964,"visibility":3.11,"altim":29.675198,"flightCategory":"MVFR","metarType":"METAR","geometry_esri":{"x":53.53,"y":9.83,"z":13}}}