{"type":"Feature","geometry":{"type":"Point","coordinates":[53.53,9.83,13]},"properties":{"stationId":"EDHI","rawText":"EDHI 230450Z AUTO 25003KT 220V280 9999 // OVC022/// 05/04 Q1034","observationTime":"2020-01-23T04:50:00Z","temp":5,"dewpoint":4,"windDirection":250,"windSpeed":5.556,"visibility":6.21,"altim":30.531496,"flightCategory":"MVFR","metarType":"METAR","geometry_esri":{"x":53.53,"y":9.83,"z":13}}}