{"type":"Feature","geometry":{"type":"Point","coordinates":[53.53,9.83,13]},"properties":{"stationId":"EDHI","rawText":"EDHI 301520Z 17003KT 130V200 9999 FEW035 07/01 Q1029","observationTime":"2019-10-30T15:20:00Z","temp":7,"dewpoint":1,"windDirection":170,"windSpeed":5.556,"visibility":6.21,"altim":30.383858,"flightCategory":"VFR","metarType":"METAR","geometry_esri":{"x":53.53,"y":9.83,"z":13}}}