{"type":"Feature","geometry":{"type":"Point","coordinates":[53.53,9.83,13]},"properties":{"stationId":"EDHI","rawText":"EDHI 201450Z AUTO 36003KT 330V110 9999 // BKN050/// OVC060/// 13/10 Q1011","observationTime":"2019-10-20T14:50:00Z","temp":13,"dewpoint":10,"windDirection":360,"windSpeed":5.556,"visibility":6.21,"altim":29.852362,"flightCategory":"VFR","metarType":"METAR","geometry_esri":{"x":53.53,"y":9.83,"z":13}}}