{"type":"Feature","geometry":{"type":"Point","coordinates":[53.53,9.83,13]},"properties":{"stationId":"EDHI","rawText":"EDHI 240350Z AUTO 26013KT 9000 // BKN020/// 05/03 Q1017","observationTime":"2020-02-24T03:50:00Z","temp":5,"dewpoint":3,"windDirection":260,"windSpeed":24.076,"visibility":5.59,"altim":30.029528,"flightCategory":"MVFR","metarType":"METAR","geometry_esri":{"x":53.53,"y":9.83,"z":13}}}