{"type":"Feature","geometry":{"type":"Point","coordinates":[53.53,9.83,13]},"properties":{"stationId":"EDHI","rawText":"EDHI 032150Z AUTO 24005KT 9999 // NCD M01/M02 Q1022","observationTime":"2019-02-03T21:50:00Z","temp":-1,"dewpoint":-2,"windDirection":240,"windSpeed":9.26,"visibility":6.21,"altim":30.177166,"flightCategory":"VFR","metarType":"METAR","geometry_esri":{"x":53.53,"y":9.83,"z":13}}}