{"type":"Feature","geometry":{"type":"Point","coordinates":[53.53,9.83,13]},"properties":{"stationId":"EDHI","rawText":"EDHI 252020Z AUTO 15006KT 3700 // OVC003/// 05/04 Q1010","observationTime":"2019-11-25T20:20:00Z","temp":5,"dewpoint":4,"windDirection":150,"windSpeed":11.112,"visibility":2.3,"altim":29.822834,"flightCategory":"LIFR","metarType":"METAR","geometry_esri":{"x":53.53,"y":9.83,"z":13}}}