{"type":"Feature","geometry":{"type":"Point","coordinates":[53.53,9.83,13]},"properties":{"stationId":"EDHI","rawText":"EDHI 301450Z AUTO 30011KT 9999 // SCT014/// BKN150/// BKN190/// 08/05 Q1027","observationTime":"2018-12-30T14:50:00Z","temp":8,"dewpoint":5,"windDirection":300,"windSpeed":20.372,"visibility":6.21,"altim":30.324802,"flightCategory":"VFR","metarType":"METAR","geometry_esri":{"x":53.53,"y":9.83,"z":13}}}