{"type":"Feature","geometry":{"type":"Point","coordinates":[53.53,9.83,13]},"properties":{"stationId":"EDHI","rawText":"EDHI 270220Z AUTO 25010KT 9000 // OVC009/// 14/13 Q1004","observationTime":"2019-05-27T02:20:00Z","temp":14,"dewpoint":13,"windDirection":250,"windSpeed":18.52,"visibility":5.59,"altim":29.64567,"flightCategory":"IFR","metarType":"METAR","geometry_esri":{"x":53.53,"y":9.83,"z":13}}}