{"type":"Feature","geometry":{"type":"Point","coordinates":[53.53,9.83,13]},"properties":{"stationId":"EDHI","rawText":"EDHI 011620Z 02009KT 350V050 9999 SCT010 BKN017 10/09 Q0998","observationTime":"2019-10-01T16:20:00Z","temp":10,"dewpoint":9,"windDirection":20,"windSpeed":16.668,"visibility":6.21,"altim":29.468504,"flightCategory":"MVFR","metarType":"METAR","geometry_esri":{"x":53.53,"y":9.83,"z":13}}}