{"type":"Feature","geometry":{"type":"Point","coordinates":[53.53,9.83,13]},"properties":{"stationId":"EDHI","rawText":"EDHI 280850Z 29010KT 1600 BR OVC003 05/05 Q1012","observationTime":"2019-02-28T08:50:00Z","temp":5,"dewpoint":5,"windDirection":290,"windSpeed":18.52,"visibility":0.99,"altim":29.88189,"flightCategory":"LIFR","metarType":"METAR","geometry_esri":{"x":53.53,"y":9.83,"z":13}}}