{"type":"Feature","geometry":{"type":"Point","coordinates":[53.53,9.83,13]},"properties":{"stationId":"EDHI","rawText":"EDHI 130620Z AUTO 30006KT 7000 // BKN007/// OVC120/// 17/15 Q1012","observationTime":"2019-07-13T06:20:00Z","temp":17,"dewpoint":15,"windDirection":300,"windSpeed":11.112,"visibility":4.35,"altim":29.88189,"flightCategory":"IFR","metarType":"METAR","geometry_esri":{"x":53.53,"y":9.83,"z":13}}}