{"type":"Feature","geometry":{"type":"Point","coordinates":[53.53,9.83,13]},"properties":{"stationId":"EDHI","rawText":"EDHI 200350Z 23005KT 190V270 CAVOK 16/15 Q1007","observationTime":"2019-06-20T03:50:00Z","temp":16,"dewpoint":15,"windDirection":230,"windSpeed":9.26,"visibility":6.21,"altim":29.734253,"flightCategory":"VFR","metarType":"METAR","geometry_esri":{"x":53.53,"y":9.83,"z":13}}}