{"type":"Feature","geometry":{"type":"Point","coordinates":[53.53,9.83,13]},"properties":{"stationId":"EDHI","rawText":"EDHI 210150Z AUTO 23006KT 3700 // BKN016/// OVC018/// 09/08 Q1032","observationTime":"2019-03-21T01:50:00Z","temp":9,"dewpoint":8,"windDirection":230,"windSpeed":11.112,"visibility":2.3,"altim":30.47244,"flightCategory":"IFR","metarType":"METAR","geometry_esri":{"x":53.53,"y":9.83,"z":13}}}