{"type":"Feature","geometry":{"type":"Point","coordinates":[53.53,9.83,13]},"properties":{"stationId":"EDHI","rawText":"EDHI 050420Z AUTO 23003KT 190V280 3900 // NCD M01/M01 Q1018","observationTime":"2019-12-05T04:20:00Z","temp":-1,"dewpoint":-1,"windDirection":230,"windSpeed":5.556,"visibility":2.42,"altim":30.059055,"flightCategory":"IFR","metarType":"METAR","geometry_esri":{"x":53.53,"y":9.83,"z":13}}}