{"type":"Feature","geometry":{"type":"Point","coordinates":[53.53,9.83,13]},"properties":{"stationId":"EDHI","rawText":"EDHI 011220Z AUTO 29023G33KT 270V330 9999 // OVC037/// 07/04 Q1017","observationTime":"2019-01-01T12:20:00Z","temp":7,"dewpoint":4,"windDirection":290,"windSpeed":42.596000000000004,"visibility":6.21,"altim":30.029528,"flightCategory":"VFR","metarType":"METAR","geometry_esri":{"x":53.53,"y":9.83,"z":13}}}