{"type":"Feature","geometry":{"type":"Point","coordinates":[53.53,9.83,13]},"properties":{"stationId":"EDHI","rawText":"EDHI 010150Z AUTO 28003KT 4300 // SCT021/// 02/01 Q1033","observationTime":"2020-01-01T01:50:00Z","temp":2,"dewpoint":1,"windDirection":280,"windSpeed":5.556,"visibility":2.67,"altim":30.501968,"flightCategory":"IFR","metarType":"METAR","geometry_esri":{"x":53.53,"y":9.83,"z":13}}}