{"type":"Feature","geometry":{"type":"Point","coordinates":[53.53,9.83,13]},"properties":{"stationId":"EDHI","rawText":"EDHI 262020Z AUTO 28008KT 3300 1200 R23/P2000N // SCT006/// BKN016/// OVC086/// 11/10 Q1013","observationTime":"2019-04-26T20:20:00Z","temp":11,"dewpoint":10,"windDirection":280,"windSpeed":14.816,"visibility":2.05,"altim":29.911417,"flightCategory":"IFR","metarType":"SPECI","geometry_esri":{"x":53.53,"y":9.83,"z":13}}}