{"type":"Feature","geometry":{"type":"Point","coordinates":[53.53,9.83,13]},"properties":{"stationId":"EDHI","rawText":"EDHI 080350Z AUTO 24023KT 1300 1000 R23/P2000N // BKN010/// OVC017/// 07/05 Q0991","observationTime":"2019-03-08T03:50:00Z","temp":7,"dewpoint":5,"windDirection":240,"windSpeed":42.596000000000004,"visibility":0.81,"altim":29.26181,"flightCategory":"LIFR","metarType":"METAR","geometry_esri":{"x":53.53,"y":9.83,"z":13}}}