{"type":"Feature","geometry":{"type":"Point","coordinates":[53.53,9.83,13]},"properties":{"stationId":"EDHI","rawText":"EDHI 152220Z AUTO 06003KT 030V090 7000 // NCD 14/13 Q1005","observationTime":"2019-10-15T22:20:00Z","temp":14,"dewpoint":13,"windDirection":60,"windSpeed":5.556,"visibility":4.35,"altim":29.675198,"flightCategory":"MVFR","metarType":"METAR","geometry_esri":{"x":53.53,"y":9.83,"z":13}}}