{"type":"Feature","geometry":{"type":"Point","coordinates":[53.53,9.83,13]},"properties":{"stationId":"EDHI","rawText":"EDHI 201920Z AUTO 14003KT 100V170 2300 // BKN002/// OVC005/// M05/M06 Q1022","observationTime":"2019-01-20T19:20:00Z","temp":-5,"dewpoint":-6,"windDirection":140,"windSpeed":5.556,"visibility":1.43,"altim":30.177166,"flightCategory":"LIFR","metarType":"METAR","geometry_esri":{"x":53.53,"y":9.83,"z":13}}}