{"type":"Feature","geometry":{"type":"Point","coordinates":[53.53,9.83,13]},"properties":{"stationId":"EDHI","rawText":"EDHI 290520Z 31003KT 270V010 9999 BCFG NSC 03/03 Q1023","observationTime":"2019-10-29T05:20:00Z","temp":3,"dewpoint":3,"windDirection":310,"windSpeed":5.556,"visibility":6.21,"altim":30.206694,"flightCategory":"VFR","metarType":"METAR","geometry_esri":{"x":53.53,"y":9.83,"z":13}}}