{"type":"Feature","geometry":{"type":"Point","coordinates":[53.53,9.83,13]},"properties":{"stationId":"EDHI","rawText":"EDHI 271250Z 27010KT 5000 -DZ BR SCT006 BKN009 OVC015 09/08 Q1030","observationTime":"2019-03-27T12:50:00Z","temp":9,"dewpoint":8,"windDirection":270,"windSpeed":18.52,"visibility":3.11,"altim":30.413385,"flightCategory":"IFR","metarType":"METAR","geometry_esri":{"x":53.53,"y":9.83,"z":13}}}