{"type":"Feature","geometry":{"type":"Point","coordinates":[53.53,9.83,13]},"properties":{"stationId":"EDHI","rawText":"EDHI 032350Z AUTO 25010KT 9999 // FEW012/// SCT038/// BKN049/// 03/02 Q1006","observationTime":"2019-05-03T23:50:00Z","temp":3,"dewpoint":2,"windDirection":250,"windSpeed":18.52,"visibility":6.21,"altim":29.704725,"flightCategory":"VFR","metarType":"METAR","geometry_esri":{"x":53.53,"y":9.83,"z":13}}}