{"type":"Feature","geometry":{"type":"Point","coordinates":[53.53,9.83,13]},"properties":{"stationId":"EDHI","rawText":"EDHI 071820Z AUTO 10004KT 050V170 9999 // FEW160/// 23/10 Q1008","observationTime":"2019-06-07T18:20:00Z","temp":23,"dewpoint":10,"windDirection":100,"windSpeed":7.408,"visibility":6.21,"altim":29.763779,"flightCategory":"VFR","metarType":"METAR","geometry_esri":{"x":53.53,"y":9.83,"z":13}}}