{"type":"Feature","geometry":{"type":"Point","coordinates":[53.53,9.83,13]},"properties":{"stationId":"EDHI","rawText":"EDHI 050150Z AUTO VRB02KT 2000 0700 R23/2000D // FEW049/// SCT170/// 02/02 Q1006","observationTime":"2020-03-05T01:50:00Z","temp":2,"dewpoint":2,"windDirection":0,"windSpeed":3.704,"visibility":1.24,"altim":29.704725,"flightCategory":"IFR","metarType":"METAR","geometry_esri":{"x":53.53,"y":9.83,"z":13}}}