{"type":"Feature","geometry":{"type":"Point","coordinates":[53.53,9.83,13]},"properties":{"stationId":"EDHI","rawText":"EDHI 051320Z AUTO 15010KT 110V190 9999 // NCD 18/02 Q1025","observationTime":"2020-04-05T13:20:00Z","temp":18,"dewpoint":2,"windDirection":150,"windSpeed":18.52,"visibility":6.21,"altim":30.265747,"flightCategory":"VFR","metarType":"METAR","geometry_esri":{"x":53.53,"y":9.83,"z":13}}}