{"type":"Feature","geometry":{"type":"Point","coordinates":[53.53,9.83,13]},"properties":{"stationId":"EDHI","rawText":"EDHI 210820Z 05006KT 2700 -DZ BR BKN006 OVC016 04/03 Q1013","observationTime":"2019-11-21T08:20:00Z","temp":4,"dewpoint":3,"windDirection":50,"windSpeed":11.112,"visibility":1.68,"altim":29.911417,"flightCategory":"IFR","metarType":"METAR","geometry_esri":{"x":53.53,"y":9.83,"z":13}}}