{"type":"Feature","geometry":{"type":"Point","coordinates":[53.53,9.83,13]},"properties":{"stationId":"EDHI","rawText":"EDHI 092220Z AUTO 29016KT 9999 // FEW035/// SCT060/// BKN076/// 06/03 Q1004","observationTime":"2018-12-09T22:20:00Z","temp":6,"dewpoint":3,"windDirection":290,"windSpeed":29.632,"visibility":6.21,"altim":29.64567,"skyCondition1a":"FEW","skyCondition1b":3500,"skyCondition2a":"SCT","skyCondition2b":6000,"flightCategory":"VFR","metarType":"METAR","geometry_esri":{"x":53.53,"y":9.83,"z":13}}}