{"type":"Feature","geometry":{"type":"Point","coordinates":[53.53,9.83,13]},"properties":{"stationId":"EDHI","rawText":"EDHI 292120Z AUTO 13003KT 090V180 8000 // FEW030/// M01/M02 Q1001","observationTime":"2019-01-29T21:20:00Z","temp":-1,"dewpoint":-2,"windDirection":130,"windSpeed":5.556,"visibility":4.97,"altim":29.557087,"flightCategory":"MVFR","metarType":"METAR","geometry_esri":{"x":53.53,"y":9.83,"z":13}}}