{"type":"Feature","geometry":{"type":"Point","coordinates":[53.53,9.83,13]},"properties":{"stationId":"EDHI","rawText":"EDHI 281020Z 15003KT 120V210 7000 -DZ FEW010 SCT012 BKN018 03/02 Q0988","observationTime":"2019-01-28T10:20:00Z","temp":3,"dewpoint":2,"windDirection":150,"windSpeed":5.556,"visibility":4.35,"altim":29.17323,"flightCategory":"MVFR","metarType":"SPECI","geometry_esri":{"x":53.53,"y":9.83,"z":13}}}