{"type":"Feature","geometry":{"type":"Point","coordinates":[53.53,9.83,13]},"properties":{"stationId":"EDHI","rawText":"EDHI 170920Z 13003KT 060V210 1600 BR OVC003 01/01 Q1018","observationTime":"2018-12-17T09:20:00Z","temp":1,"dewpoint":1,"windDirection":130,"windSpeed":5.556,"visibility":0.99,"altim":30.059055,"flightCategory":"LIFR","metarType":"METAR","geometry_esri":{"x":53.53,"y":9.83,"z":13}}}