{"type":"Feature","geometry":{"type":"Point","coordinates":[53.53,9.83,13]},"properties":{"stationId":"EDHI","rawText":"EDHI 121750Z 04007KT 9999 BKN022 BKN029 03/01 Q1027","observationTime":"2018-12-12T17:50:00Z","temp":3,"dewpoint":1,"windDirection":40,"windSpeed":12.964,"visibility":6.21,"altim":30.324802,"skyCondition1a":"BKN","skyCondition1b":2200,"skyCondition2a":"BKN","skyCondition2b":2900,"flightCategory":"MVFR","metarType":"METAR","geometry_esri":{"x":53.53,"y":9.83,"z":13}}}