{"type":"Feature","geometry":{"type":"Point","coordinates":[53.53,9.83,13]},"properties":{"stationId":"EDHI","rawText":"EDHI 301850Z AUTO 28006KT 9999 // SCT008/// OVC010/// 07/06 Q1029","observationTime":"2018-12-30T18:50:00Z","temp":7,"dewpoint":6,"windDirection":280,"windSpeed":11.112,"visibility":6.21,"altim":30.383858,"flightCategory":"MVFR","metarType":"METAR","geometry_esri":{"x":53.53,"y":9.83,"z":13}}}