{"type":"Feature","geometry":{"type":"Point","coordinates":[53.53,9.83,13]},"properties":{"stationId":"EDHI","rawText":"EDHI 120420Z AUTO 28014KT 3500 // SCT006/// BKN010/// OVC034/// 06/05 Q1014","observationTime":"2019-01-12T04:20:00Z","temp":6,"dewpoint":5,"windDirection":280,"windSpeed":25.928,"visibility":2.17,"altim":29.940945,"flightCategory":"IFR","metarType":"METAR","geometry_esri":{"x":53.53,"y":9.83,"z":13}}}