{"type":"Feature","geometry":{"type":"Point","coordinates":[53.53,9.83,13]},"properties":{"stationId":"EDHI","rawText":"EDHI 051520Z 05009KT CAVOK 28/18 Q1006","observationTime":"2019-06-05T15:20:00Z","temp":28,"dewpoint":18,"windDirection":50,"windSpeed":16.668,"visibility":6.21,"altim":29.704725,"flightCategory":"VFR","metarType":"METAR","geometry_esri":{"x":53.53,"y":9.83,"z":13}}}