{"type":"Feature","geometry":{"type":"Point","coordinates":[53.53,9.83,13]},"properties":{"stationId":"EDHI","rawText":"EDHI 170220Z AUTO 31007KT 280V360 9999 // BKN020/// 14/10 Q1015","observationTime":"2019-07-17T02:20:00Z","temp":14,"dewpoint":10,"windDirection":310,"windSpeed":12.964,"visibility":6.21,"altim":29.970472,"flightCategory":"MVFR","metarType":"METAR","geometry_esri":{"x":53.53,"y":9.83,"z":13}}}