{"type":"Feature","geometry":{"type":"Point","coordinates":[53.53,9.83,13]},"properties":{"stationId":"EDHI","rawText":"EDHI 131150Z AUTO 28016KT 4400 0900 R23/P2000N // OVC005/// 08/08 Q0994","observationTime":"2019-01-13T11:50:00Z","temp":8,"dewpoint":8,"windDirection":280,"windSpeed":29.632,"visibility":2.73,"altim":29.350393,"flightCategory":"IFR","metarType":"METAR","geometry_esri":{"x":53.53,"y":9.83,"z":13}}}