{"type":"Feature","geometry":{"type":"Point","coordinates":[53.53,9.83,13]},"properties":{"stationId":"EDHI","rawText":"EDHI 021220Z 35004KT 320V020 3000 BR BKN010 OVC034 02/00 Q0999","observationTime":"2019-02-02T12:20:00Z","temp":2,"dewpoint":0,"windDirection":350,"windSpeed":7.408,"visibility":1.86,"altim":29.498032,"flightCategory":"IFR","metarType":"METAR","geometry_esri":{"x":53.53,"y":9.83,"z":13}}}