{"type":"Feature","geometry":{"type":"Point","coordinates":[53.53,9.83,13]},"properties":{"stationId":"EDHI","rawText":"EDHI 262150Z AUTO 25010KT 3800 // OVC004/// 07/06 Q1026","observationTime":"2018-12-26T21:50:00Z","temp":7,"dewpoint":6,"windDirection":250,"windSpeed":18.52,"visibility":2.36,"altim":30.295275,"flightCategory":"LIFR","metarType":"METAR","geometry_esri":{"x":53.53,"y":9.83,"z":13}}}