{"type":"Feature","geometry":{"type":"Point","coordinates":[53.53,9.83,13]},"properties":{"stationId":"EDHI","rawText":"EDHI 211220Z AUTO 08011KT 050V120 9999 // SCT051/// 07/M04 Q1033","observationTime":"2020-03-21T12:20:00Z","temp":7,"dewpoint":-4,"windDirection":80,"windSpeed":20.372,"visibility":6.21,"altim":30.501968,"flightCategory":"VFR","metarType":"METAR","geometry_esri":{"x":53.53,"y":9.83,"z":13}}}