{"type":"Feature","geometry":{"type":"Point","coordinates":[53.53,9.83,13]},"properties":{"stationId":"EDHI","rawText":"EDHI 091350Z AUTO 18005KT 120V230 9999 // FEW062/// 21/08 Q1022","observationTime":"2019-06-09T13:50:00Z","temp":21,"dewpoint":8,"windDirection":180,"windSpeed":9.26,"visibility":6.21,"altim":30.177166,"flightCategory":"VFR","metarType":"METAR","geometry_esri":{"x":53.53,"y":9.83,"z":13}}}