{"type":"Feature","geometry":{"type":"Point","coordinates":[53.53,9.83,13]},"properties":{"stationId":"EDHI","rawText":"EDHI 241150Z 19005KT 140V220 7000 SCT011 OVC013 15/12 Q1007","observationTime":"2019-10-24T11:50:00Z","temp":15,"dewpoint":12,"windDirection":190,"windSpeed":9.26,"visibility":4.35,"altim":29.734253,"flightCategory":"MVFR","metarType":"METAR","geometry_esri":{"x":53.53,"y":9.83,"z":13}}}