{"type":"Feature","geometry":{"type":"Point","coordinates":[53.53,9.83,13]},"properties":{"stationId":"EDHI","rawText":"EDHI 300450Z AUTO 09004KT 060V130 9000 // FEW160/// OVC180/// M01/M03 Q0998","observationTime":"2019-01-30T04:50:00Z","temp":-1,"dewpoint":-3,"windDirection":90,"windSpeed":7.408,"visibility":5.59,"altim":29.468504,"flightCategory":"VFR","metarType":"METAR","geometry_esri":{"x":53.53,"y":9.83,"z":13}}}