{"type":"Feature","geometry":{"type":"Point","coordinates":[53.53,9.83,13]},"properties":{"stationId":"EDHI","rawText":"EDHI 140950Z AUTO 25006KT 220V280 9999 // FEW010/// OVC020/// 15/12 Q1018","observationTime":"2019-07-14T09:50:00Z","temp":15,"dewpoint":12,"windDirection":250,"windSpeed":11.112,"visibility":6.21,"altim":30.059055,"flightCategory":"MVFR","metarType":"METAR","geometry_esri":{"x":53.53,"y":9.83,"z":13}}}