{"type":"Feature","geometry":{"type":"Point","coordinates":[53.53,9.83,13]},"properties":{"stationId":"EDHI","rawText":"EDHI 070620Z 12003KT 070V180 9999 VCSH FEW033CB 18/13 Q1005","observationTime":"2019-08-07T06:20:00Z","temp":18,"dewpoint":13,"windDirection":120,"windSpeed":5.556,"visibility":6.21,"altim":29.675198,"flightCategory":"VFR","metarType":"METAR","geometry_esri":{"x":53.53,"y":9.83,"z":13}}}