{"type":"Feature","geometry":{"type":"Point","coordinates":[53.53,9.83,13]},"properties":{"stationId":"EDHI","rawText":"EDHI 070950Z 13005KT 090V170 CAVOK 10/02 Q1021","observationTime":"2019-10-07T09:50:00Z","temp":10,"dewpoint":2,"windDirection":130,"windSpeed":9.26,"visibility":6.21,"altim":30.147638,"flightCategory":"VFR","metarType":"METAR","geometry_esri":{"x":53.53,"y":9.83,"z":13}}}