{"type":"Feature","geometry":{"type":"Point","coordinates":[53.53,9.83,13]},"properties":{"stationId":"EDHI","rawText":"EDHI 292250Z AUTO 28011KT 2600 // OVC004/// 07/07 Q1016","observationTime":"2018-12-29T22:50:00Z","temp":7,"dewpoint":7,"windDirection":280,"windSpeed":20.372,"visibility":1.62,"altim":30,"flightCategory":"LIFR","metarType":"METAR","geometry_esri":{"x":53.53,"y":9.83,"z":13}}}