{"type":"Feature","geometry":{"type":"Point","coordinates":[53.53,9.83,13]},"properties":{"stationId":"EDHI","rawText":"EDHI 130820Z 35006KT 300V020 9000 SCT015 BKN022 19/15 Q1013","observationTime":"2019-07-13T08:20:00Z","temp":19,"dewpoint":15,"windDirection":350,"windSpeed":11.112,"visibility":5.59,"altim":29.911417,"flightCategory":"MVFR","metarType":"METAR","geometry_esri":{"x":53.53,"y":9.83,"z":13}}}