{"type":"Feature","geometry":{"type":"Point","coordinates":[53.53,9.83,13]},"properties":{"stationId":"EDHI","rawText":"EDHI 060920Z AUTO 21008KT 9999 // SCT008/// OVC040/// 15/14 Q1007","observationTime":"2019-07-06T09:20:00Z","temp":15,"dewpoint":14,"windDirection":210,"windSpeed":14.816,"visibility":6.21,"altim":29.734253,"flightCategory":"VFR","metarType":"METAR","geometry_esri":{"x":53.53,"y":9.83,"z":13}}}