{"type":"Feature","geometry":{"type":"Point","coordinates":[53.53,9.83,13]},"properties":{"stationId":"EDHI","rawText":"EDHI 071520Z 22010KT 2400 DZ BR OVC005 06/06 Q1021","observationTime":"2019-01-07T15:20:00Z","temp":6,"dewpoint":6,"windDirection":220,"windSpeed":18.52,"visibility":1.49,"altim":30.147638,"flightCategory":"IFR","metarType":"METAR","geometry_esri":{"x":53.53,"y":9.83,"z":13}}}