{"type":"Feature","geometry":{"type":"Point","coordinates":[53.53,9.83,13]},"properties":{"stationId":"EDHI","rawText":"EDHI 191020Z AUTO 05006KT 020V090 9999 // FEW170/// 20/14 Q1006","observationTime":"2019-05-19T10:20:00Z","temp":20,"dewpoint":14,"windDirection":50,"windSpeed":11.112,"visibility":6.21,"altim":29.704725,"flightCategory":"VFR","metarType":"METAR","geometry_esri":{"x":53.53,"y":9.83,"z":13}}}