{"type":"Feature","geometry":{"type":"Point","coordinates":[53.53,9.83,13]},"properties":{"stationId":"EDHI","rawText":"EDHI 061550Z AUTO 31016KT 9999 // BKN030/// BKN220/// 16/11 Q1007","observationTime":"2019-07-06T15:50:00Z","temp":16,"dewpoint":11,"windDirection":310,"windSpeed":29.632,"visibility":6.21,"altim":29.734253,"flightCategory":"MVFR","metarType":"METAR","geometry_esri":{"x":53.53,"y":9.83,"z":13}}}