{"type":"Feature","geometry":{"type":"Point","coordinates":[53.53,9.83,13]},"properties":{"stationId":"EDHI","rawText":"EDHI 260920Z 25006KT 8000 SCT006 BKN044 03/02 Q0991","observationTime":"2020-02-26T09:20:00Z","temp":3,"dewpoint":2,"windDirection":250,"windSpeed":11.112,"visibility":4.97,"altim":29.26181,"flightCategory":"MVFR","metarType":"METAR","geometry_esri":{"x":53.53,"y":9.83,"z":13}}}