{"type":"Feature","geometry":{"type":"Point","coordinates":[53.53,9.83,13]},"properties":{"stationId":"EDHI","rawText":"EDHI 151750Z AUTO 24008KT 9999 // SCT022/// SCT029/// BKN088/// 18/16 Q1008","observationTime":"2019-08-15T17:50:00Z","temp":18,"dewpoint":16,"windDirection":240,"windSpeed":14.816,"visibility":6.21,"altim":29.763779,"flightCategory":"VFR","metarType":"METAR","geometry_esri":{"x":53.53,"y":9.83,"z":13}}}