{"type":"Feature","geometry":{"type":"Point","coordinates":[53.53,9.83,13]},"properties":{"stationId":"EDHI","rawText":"EDHI 040620Z 13004KT 090V160 3300 BR OVC002 09/08 Q1009","observationTime":"2019-10-04T06:20:00Z","temp":9,"dewpoint":8,"windDirection":130,"windSpeed":7.408,"visibility":2.05,"altim":29.793306,"flightCategory":"LIFR","metarType":"METAR","geometry_esri":{"x":53.53,"y":9.83,"z":13}}}