{"type":"Feature","geometry":{"type":"Point","coordinates":[53.53,9.83,13]},"properties":{"stationId":"EDHI","rawText":"EDHI 011520Z AUTO 25003KT 210V280 2500 // OVC003/// 03/03 Q1021","observationTime":"2019-12-01T15:20:00Z","temp":3,"dewpoint":3,"windDirection":250,"windSpeed":5.556,"visibility":1.55,"altim":30.147638,"flightCategory":"LIFR","metarType":"METAR","geometry_esri":{"x":53.53,"y":9.83,"z":13}}}