{"type":"Feature","geometry":{"type":"Point","coordinates":[53.53,9.83,13]},"properties":{"stationId":"EDHI","rawText":"EDHI 130450Z AUTO 35005KT 310V020 5000 // OVC008/// 17/15 Q1012","observationTime":"2019-07-13T04:50:00Z","temp":17,"dewpoint":15,"windDirection":350,"windSpeed":9.26,"visibility":3.11,"altim":29.88189,"flightCategory":"IFR","metarType":"METAR","geometry_esri":{"x":53.53,"y":9.83,"z":13}}}