{"type":"Feature","geometry":{"type":"Point","coordinates":[53.53,9.83,13]},"properties":{"stationId":"EDHI","rawText":"EDHI 092150Z AUTO 17003KT 130V250 7000 // BKN041/// 04/03 Q1008","observationTime":"2019-11-09T21:50:00Z","temp":4,"dewpoint":3,"windDirection":170,"windSpeed":5.556,"visibility":4.35,"altim":29.763779,"flightCategory":"MVFR","metarType":"METAR","geometry_esri":{"x":53.53,"y":9.83,"z":13}}}