{"type":"Feature","geometry":{"type":"Point","coordinates":[53.53,9.83,13]},"properties":{"stationId":"EDHI","rawText":"EDHI 150650Z AUTO 19013KT 150V230 9000 // SCT014/// OVC020/// 05/04 Q0989","observationTime":"2019-12-15T06:50:00Z","temp":5,"dewpoint":4,"windDirection":190,"windSpeed":24.076,"visibility":5.59,"altim":29.202755,"flightCategory":"MVFR","metarType":"METAR","geometry_esri":{"x":53.53,"y":9.83,"z":13}}}