{"type":"Feature","geometry":{"type":"Point","coordinates":[53.53,9.83,13]},"properties":{"stationId":"EDHI","rawText":"EDHI 101950Z AUTO 24006KT 9999 // FEW084/// 14/11 Q1017","observationTime":"2019-09-10T19:50:00Z","temp":14,"dewpoint":11,"windDirection":240,"windSpeed":11.112,"visibility":6.21,"altim":30.029528,"flightCategory":"VFR","metarType":"METAR","geometry_esri":{"x":53.53,"y":9.83,"z":13}}}