{"type":"Feature","geometry":{"type":"Point","coordinates":[53.53,9.83,13]},"properties":{"stationId":"EDHI","rawText":"EDHI 040350Z 23006KT 4700 BR FEW008 05/04 Q0999","observationTime":"2019-04-04T03:50:00Z","temp":5,"dewpoint":4,"windDirection":230,"windSpeed":11.112,"visibility":2.92,"altim":29.498032,"flightCategory":"IFR","metarType":"METAR","geometry_esri":{"x":53.53,"y":9.83,"z":13}}}