{"type":"Feature","geometry":{"type":"Point","coordinates":[53.53,9.83,13]},"properties":{"stationId":"EDHI","rawText":"EDHI 290720Z 20013KT 3000 -RA BKN005 OVC013 06/06 Q0993","observationTime":"2020-02-29T07:20:00Z","temp":6,"dewpoint":6,"windDirection":200,"windSpeed":24.076,"visibility":1.86,"altim":29.320866,"flightCategory":"IFR","metarType":"METAR","geometry_esri":{"x":53.53,"y":9.83,"z":13}}}