{"type":"Feature","geometry":{"type":"Point","coordinates":[53.53,9.83,13]},"properties":{"stationId":"EDHI","rawText":"EDHI 280150Z AUTO 25010KT 9999 // SCT015/// SCT019/// BKN026/// 08/06 Q1017","observationTime":"2019-10-28T01:50:00Z","temp":8,"dewpoint":6,"windDirection":250,"windSpeed":18.52,"visibility":6.21,"altim":30.029528,"flightCategory":"MVFR","metarType":"METAR","geometry_esri":{"x":53.53,"y":9.83,"z":13}}}