{"type":"Feature","geometry":{"type":"Point","coordinates":[53.53,9.83,13]},"properties":{"stationId":"EDHI","rawText":"EDHI 181820Z AUTO 04011KT 9999 // FEW067/// 20/13 Q1006","observationTime":"2019-05-18T18:20:00Z","temp":20,"dewpoint":13,"windDirection":40,"windSpeed":20.372,"visibility":6.21,"altim":29.704725,"flightCategory":"VFR","metarType":"METAR","geometry_esri":{"x":53.53,"y":9.83,"z":13}}}