{"type":"Feature","geometry":{"type":"Point","coordinates":[53.53,9.83,13]},"properties":{"stationId":"EDHI","rawText":"EDHI 091950Z AUTO 10006KT 060V130 9000 // FEW042/// BKN070/// OVC110/// 20/18 Q1006","observationTime":"2019-08-09T19:50:00Z","temp":20,"dewpoint":18,"windDirection":100,"windSpeed":11.112,"visibility":5.59,"altim":29.704725,"flightCategory":"VFR","metarType":"METAR","geometry_esri":{"x":53.53,"y":9.83,"z":13}}}