{"type":"Feature","geometry":{"type":"Point","coordinates":[53.53,9.83,13]},"properties":{"stationId":"EDHI","rawText":"EDHI 310150Z AUTO 07003KT 010V150 9999 // NCD 00/M05 Q1030","observationTime":"2020-03-31T01:50:00Z","temp":0,"dewpoint":-5,"windDirection":70,"windSpeed":5.556,"visibility":6.21,"altim":30.413385,"flightCategory":"VFR","metarType":"METAR","geometry_esri":{"x":53.53,"y":9.83,"z":13}}}