{"type":"Feature","geometry":{"type":"Point","coordinates":[53.53,9.83,13]},"properties":{"stationId":"EDHI","rawText":"EDHI 190150Z AUTO 29006KT 9000 // FEW074/// SCT085/// BKN110/// 17/15 Q1010","observationTime":"2019-07-19T01:50:00Z","temp":17,"dewpoint":15,"windDirection":290,"windSpeed":11.112,"visibility":5.59,"altim":29.822834,"flightCategory":"VFR","metarType":"METAR","geometry_esri":{"x":53.53,"y":9.83,"z":13}}}