{"type":"Feature","geometry":{"type":"Point","coordinates":[53.53,9.83,13]},"properties":{"stationId":"EDHI","rawText":"EDHI 200350Z AUTO 12004KT 090V150 8000 // SCT024/// SCT042/// OVC160/// 04/03 Q1011","observationTime":"2018-12-20T03:50:00Z","temp":4,"dewpoint":3,"windDirection":120,"windSpeed":7.408,"visibility":4.97,"altim":29.852362,"flightCategory":"MVFR","metarType":"METAR","geometry_esri":{"x":53.53,"y":9.83,"z":13}}}