{"type":"Feature","geometry":{"type":"Point","coordinates":[53.53,9.83,13]},"properties":{"stationId":"EDHI","rawText":"EDHI 290720Z 28003KT 210V330 CAVOK 18/13 Q1022","observationTime":"2019-06-29T07:20:00Z","temp":18,"dewpoint":13,"windDirection":280,"windSpeed":5.556,"visibility":6.21,"altim":30.177166,"flightCategory":"VFR","metarType":"METAR","geometry_esri":{"x":53.53,"y":9.83,"z":13}}}