{"type":"Feature","geometry":{"type":"Point","coordinates":[53.53,9.83,13]},"properties":{"stationId":"EDHI","rawText":"EDHI 121820Z AUTO 27018KT 9000 // FEW011/// BKN013/// OVC016/// 06/05 Q1004","observationTime":"2019-01-12T18:20:00Z","temp":6,"dewpoint":5,"windDirection":270,"windSpeed":33.336,"visibility":5.59,"altim":29.64567,"flightCategory":"MVFR","metarType":"METAR","geometry_esri":{"x":53.53,"y":9.83,"z":13}}}