{"type":"Feature","geometry":{"type":"Point","coordinates":[53.53,9.83,13]},"properties":{"stationId":"EDHI","rawText":"EDHI 020950Z 36004KT 310V030 3000 BR FEW008 BKN035 01/M01 Q0998","observationTime":"2019-02-02T09:50:00Z","temp":1,"dewpoint":-1,"windDirection":360,"windSpeed":7.408,"visibility":1.86,"altim":29.468504,"flightCategory":"IFR","metarType":"METAR","geometry_esri":{"x":53.53,"y":9.83,"z":13}}}