{"type":"Feature","geometry":{"type":"Point","coordinates":[53.53,9.83,13]},"properties":{"stationId":"EDHI","rawText":"EDHI 272150Z AUTO 23003KT 180V250 3800 // SCT065/// OVC075/// 08/07 Q1012","observationTime":"2019-04-27T21:50:00Z","temp":8,"dewpoint":7,"windDirection":230,"windSpeed":5.556,"visibility":2.36,"altim":29.88189,"flightCategory":"IFR","metarType":"METAR","geometry_esri":{"x":53.53,"y":9.83,"z":13}}}