{"type":"Feature","geometry":{"type":"Point","coordinates":[53.53,9.83,13]},"properties":{"stationId":"EDHI","rawText":"EDHI 290050Z AUTO 25008KT 5000 // OVC005/// 06/05 Q1027","observationTime":"2018-12-29T00:50:00Z","temp":6,"dewpoint":5,"windDirection":250,"windSpeed":14.816,"visibility":3.11,"altim":30.324802,"flightCategory":"IFR","metarType":"METAR","geometry_esri":{"x":53.53,"y":9.83,"z":13}}}