{"type":"Feature","geometry":{"type":"Point","coordinates":[53.53,9.83,13]},"properties":{"stationId":"EDHI","rawText":"EDHI 200420Z AUTO 10007KT 070V140 3000 // BKN002/// OVC005/// 05/04 Q0998","observationTime":"2019-12-20T04:20:00Z","temp":5,"dewpoint":4,"windDirection":100,"windSpeed":12.964,"visibility":1.86,"altim":29.468504,"flightCategory":"LIFR","metarType":"METAR","geometry_esri":{"x":53.53,"y":9.83,"z":13}}}