{"type":"Feature","geometry":{"type":"Point","coordinates":[53.53,9.83,13]},"properties":{"stationId":"EDHI","rawText":"EDHI 051020Z 27018KT 9999 VCSH FEW017CB SCT021 15/12 Q1012","observationTime":"2019-09-05T10:20:00Z","temp":15,"dewpoint":12,"windDirection":270,"windSpeed":33.336,"visibility":6.21,"altim":29.88189,"flightCategory":"VFR","metarType":"METAR","geometry_esri":{"x":53.53,"y":9.83,"z":13}}}