{"type":"Feature","geometry":{"type":"Point","coordinates":[53.53,9.83,13]},"properties":{"stationId":"EDHI","rawText":"EDHI 171520Z 28006KT 230V320 CAVOK 14/01 Q1018","observationTime":"2020-04-17T15:20:00Z","temp":14,"dewpoint":1,"windDirection":280,"windSpeed":11.112,"visibility":6.21,"altim":30.059055,"flightCategory":"VFR","metarType":"METAR","geometry_esri":{"x":53.53,"y":9.83,"z":13}}}