{"type":"Feature","geometry":{"type":"Point","coordinates":[53.53,9.83,13]},"properties":{"stationId":"EDHI","rawText":"EDHI 100020Z AUTO 25018KT 9999 3400 // BKN021/// BKN062/// 05/03 Q1006","observationTime":"2019-03-10T00:20:00Z","temp":5,"dewpoint":3,"windDirection":250,"windSpeed":33.336,"visibility":6.21,"altim":29.704725,"flightCategory":"MVFR","metarType":"METAR","geometry_esri":{"x":53.53,"y":9.83,"z":13}}}