{"type":"Feature","geometry":{"type":"Point","coordinates":[53.53,9.83,13]},"properties":{"stationId":"EDHI","rawText":"EDHI 291920Z AUTO 01005KT 340V050 9999 // NCD 02/M11 Q1033","observationTime":"2020-03-29T19:20:00Z","temp":2,"dewpoint":-11,"windDirection":10,"windSpeed":9.26,"visibility":6.21,"altim":30.501968,"flightCategory":"VFR","metarType":"METAR","geometry_esri":{"x":53.53,"y":9.83,"z":13}}}