{"type":"Feature","geometry":{"type":"Point","coordinates":[53.53,9.83,13]},"properties":{"stationId":"EDHI","rawText":"EDHI 271950Z AUTO 25010KT 220V280 3800 // BKN005/// OVC013/// 05/04 Q0983","observationTime":"2019-01-27T19:50:00Z","temp":5,"dewpoint":4,"windDirection":250,"windSpeed":18.52,"visibility":2.36,"altim":29.02559,"flightCategory":"IFR","metarType":"METAR","geometry_esri":{"x":53.53,"y":9.83,"z":13}}}