{"type":"Feature","geometry":{"type":"Point","coordinates":[53.53,9.83,13]},"properties":{"stationId":"EDHI","rawText":"EDHI 011920Z AUTO 31018KT 280V340 9999 // OVC040/// 05/M00 Q1018","observationTime":"2019-01-01T19:20:00Z","temp":5,"dewpoint":0,"windDirection":310,"windSpeed":33.336,"visibility":6.21,"altim":30.059055,"flightCategory":"VFR","metarType":"METAR","geometry_esri":{"x":53.53,"y":9.83,"z":13}}}