{"type":"Feature","geometry":{"type":"Point","coordinates":[53.53,9.83,13]},"properties":{"stationId":"EDHI","rawText":"EDHI 071420Z AUTO 31015KT 280V340 9999 // SCT028/// BKN035/// OVC040/// 13/08 Q1013","observationTime":"2019-07-07T14:20:00Z","temp":13,"dewpoint":8,"windDirection":310,"windSpeed":27.78,"visibility":6.21,"altim":29.911417,"flightCategory":"VFR","metarType":"METAR","geometry_esri":{"x":53.53,"y":9.83,"z":13}}}