{"type":"Feature","geometry":{"type":"Point","coordinates":[53.53,9.83,13]},"properties":{"stationId":"EDHI","rawText":"EDHI 230050Z AUTO 24007KT 6000 // OVC007/// 07/06 Q1015","observationTime":"2018-12-23T00:50:00Z","temp":7,"dewpoint":6,"windDirection":240,"windSpeed":12.964,"visibility":3.73,"altim":29.970472,"flightCategory":"IFR","metarType":"METAR","geometry_esri":{"x":53.53,"y":9.83,"z":13}}}