{"type":"Feature","geometry":{"type":"Point","coordinates":[53.53,9.83,13]},"properties":{"stationId":"EDHI","rawText":"EDHI 290350Z AUTO 27005KT 5000 // FEW035/// BKN049/// OVC061/// M00/M01 Q1001","observationTime":"2019-01-29T03:50:00Z","temp":0,"dewpoint":-1,"windDirection":270,"windSpeed":9.26,"visibility":3.11,"altim":29.557087,"flightCategory":"MVFR","metarType":"METAR","geometry_esri":{"x":53.53,"y":9.83,"z":13}}}