{"type":"Feature","geometry":{"type":"Point","coordinates":[53.53,9.83,13]},"properties":{"stationId":"EDHI","rawText":"EDHI 280420Z AUTO 20013KT 9999 3100 // FEW016/// OVC036/// 10/08 Q0984","observationTime":"2019-11-28T04:20:00Z","temp":10,"dewpoint":8,"windDirection":200,"windSpeed":24.076,"visibility":6.21,"altim":29.055119,"flightCategory":"VFR","metarType":"METAR","geometry_esri":{"x":53.53,"y":9.83,"z":13}}}