{"type":"Feature","geometry":{"type":"Point","coordinates":[53.53,9.83,13]},"properties":{"stationId":"EDHI","rawText":"EDHI 011820Z 25004KT 9999 FEW040TCU 22/12 Q1015","observationTime":"2019-08-01T18:20:00Z","temp":22,"dewpoint":12,"windDirection":250,"windSpeed":7.408,"visibility":6.21,"altim":29.970472,"flightCategory":"VFR","metarType":"METAR","geometry_esri":{"x":53.53,"y":9.83,"z":13}}}