{"type":"Feature","geometry":{"type":"Point","coordinates":[53.53,9.83,13]},"properties":{"stationId":"EDHI","rawText":"EDHI 162020Z AUTO 24004KT 9999 // FEW029/// SCT040/// OVC057/// 12/11 Q1017","observationTime":"2019-09-16T20:20:00Z","temp":12,"dewpoint":11,"windDirection":240,"windSpeed":7.408,"visibility":6.21,"altim":30.029528,"flightCategory":"VFR","metarType":"METAR","geometry_esri":{"x":53.53,"y":9.83,"z":13}}}