{"type":"Feature","geometry":{"type":"Point","coordinates":[53.53,9.83,13]},"properties":{"stationId":"EDHI","rawText":"EDHI 280820Z AUTO 23007KT 5000 2300 // SCT005/// BKN026/// OVC038/// 08/07 Q1017","observationTime":"2019-04-28T08:20:00Z","temp":8,"dewpoint":7,"windDirection":230,"windSpeed":12.964,"visibility":3.11,"altim":30.029528,"flightCategory":"MVFR","metarType":"METAR","geometry_esri":{"x":53.53,"y":9.83,"z":13}}}