{"type":"Feature","geometry":{"type":"Point","coordinates":[53.53,9.83,13]},"properties":{"stationId":"EDHI","rawText":"EDHI 130220Z AUTO 25014KT 7000 // OVC011/// 06/05 Q1029","observationTime":"2019-02-13T02:20:00Z","temp":6,"dewpoint":5,"windDirection":250,"windSpeed":25.928,"visibility":4.35,"altim":30.383858,"flightCategory":"MVFR","metarType":"SPECI","geometry_esri":{"x":53.53,"y":9.83,"z":13}}}