{"type":"Feature","geometry":{"type":"Point","coordinates":[53.53,9.83,13]},"properties":{"stationId":"EDHI","rawText":"EDHI 011120Z AUTO 29012KT 9999 // FEW017/// SCT020/// OVC027/// 18/15 Q1012","observationTime":"2019-09-01T11:20:00Z","temp":18,"dewpoint":15,"windDirection":290,"windSpeed":22.224,"visibility":6.21,"altim":29.88189,"flightCategory":"MVFR","metarType":"METAR","geometry_esri":{"x":53.53,"y":9.83,"z":13}}}