{"type":"Feature","geometry":{"type":"Point","coordinates":[53.53,9.83,13]},"properties":{"stationId":"EDHI","rawText":"EDHI 290320Z AUTO VRB02KT 4300 1600 // FEW004/// 02/02 Q1022","observationTime":"2019-10-29T03:20:00Z","temp":2,"dewpoint":2,"windDirection":0,"windSpeed":3.704,"visibility":2.67,"altim":30.177166,"flightCategory":"IFR","metarType":"METAR","geometry_esri":{"x":53.53,"y":9.83,"z":13}}}