{"type":"Feature","geometry":{"type":"Point","coordinates":[53.53,9.83,13]},"properties":{"stationId":"EDHI","rawText":"EDHI 150320Z AUTO 32010KT 280V350 9999 // FEW016/// OVC020/// 14/10 Q1017","observationTime":"2019-07-15T03:20:00Z","temp":14,"dewpoint":10,"windDirection":320,"windSpeed":18.52,"visibility":6.21,"altim":30.029528,"flightCategory":"MVFR","metarType":"METAR","geometry_esri":{"x":53.53,"y":9.83,"z":13}}}