{"type":"Feature","geometry":{"type":"Point","coordinates":[53.53,9.83,13]},"properties":{"stationId":"EDHI","rawText":"EDHI 010120Z AUTO 27001KT 2400 // OVC004/// 04/04 Q1011","observationTime":"2019-03-01T01:20:00Z","temp":4,"dewpoint":4,"windDirection":270,"windSpeed":1.852,"visibility":1.49,"altim":29.852362,"flightCategory":"LIFR","metarType":"METAR","geometry_esri":{"x":53.53,"y":9.83,"z":13}}}