{"type":"Feature","geometry":{"type":"Point","coordinates":[53.53,9.83,13]},"properties":{"stationId":"EDHI","rawText":"EDHI 290720Z VRB02KT 9999 BCFG FEW030 01/01 Q1024","observationTime":"2019-10-29T07:20:00Z","temp":1,"dewpoint":1,"windDirection":0,"windSpeed":3.704,"visibility":6.21,"altim":30.236221,"flightCategory":"VFR","metarType":"METAR","geometry_esri":{"x":53.53,"y":9.83,"z":13}}}