{"type":"Feature","geometry":{"type":"Point","coordinates":[53.53,9.83,13]},"properties":{"stationId":"EDHI","rawText":"EDHI 241220Z 11008KT 060V210 CAVOK 28/11 Q1022","observationTime":"2019-06-24T12:20:00Z","temp":28,"dewpoint":11,"windDirection":110,"windSpeed":14.816,"visibility":6.21,"altim":30.177166,"flightCategory":"VFR","metarType":"METAR","geometry_esri":{"x":53.53,"y":9.83,"z":13}}}