{"type":"Feature","geometry":{"type":"Point","coordinates":[53.53,9.83,13]},"properties":{"stationId":"EDHI","rawText":"EDHI 200050Z AUTO VRB02KT 9000 // FEW013/// OVC024/// 01/01 Q1044","observationTime":"2020-01-20T00:50:00Z","temp":1,"dewpoint":1,"windDirection":0,"windSpeed":3.704,"visibility":5.59,"altim":30.82677,"flightCategory":"MVFR","metarType":"METAR","geometry_esri":{"x":53.53,"y":9.83,"z":13}}}