{"type":"Feature","geometry":{"type":"Point","coordinates":[53.53,9.83,13]},"properties":{"stationId":"EDHI","rawText":"EDHI 110120Z AUTO 32006KT 290V350 9999 // OVC064/// 05/00 Q1009","observationTime":"2020-05-11T01:20:00Z","temp":5,"dewpoint":0,"windDirection":320,"windSpeed":11.112,"visibility":6.21,"altim":29.793306,"flightCategory":"VFR","metarType":"METAR","geometry_esri":{"x":53.53,"y":9.83,"z":13}}}