{"type":"Feature","geometry":{"type":"Point","coordinates":[53.53,9.83,13]},"properties":{"stationId":"EDHI","rawText":"EDHI 190720Z 25014KT 9999 FEW017 BKN048 05/02 Q1008","observationTime":"2020-02-19T07:20:00Z","temp":5,"dewpoint":2,"windDirection":250,"windSpeed":25.928,"visibility":6.21,"altim":29.763779,"flightCategory":"VFR","metarType":"METAR","geometry_esri":{"x":53.53,"y":9.83,"z":13}}}