{"type":"Feature","geometry":{"type":"Point","coordinates":[53.53,9.83,13]},"properties":{"stationId":"EDHI","rawText":"EDHI 300450Z AUTO 23017KT 2800 // SCT011/// OVC013/// 06/04 Q1003","observationTime":"2020-01-30T04:50:00Z","temp":6,"dewpoint":4,"windDirection":230,"windSpeed":31.484,"visibility":1.74,"altim":29.616142,"flightCategory":"IFR","metarType":"METAR","geometry_esri":{"x":53.53,"y":9.83,"z":13}}}