{"type":"Feature","geometry":{"type":"Point","coordinates":[53.53,9.83,13]},"properties":{"stationId":"EDHI","rawText":"EDHI 290220Z AUTO 24004KT 0900 0600 R23/P2000N // FEW002/// 03/02 Q1022","observationTime":"2019-10-29T02:20:00Z","temp":3,"dewpoint":2,"windDirection":240,"windSpeed":7.408,"visibility":0.56,"altim":30.177166,"flightCategory":"LIFR","metarType":"METAR","geometry_esri":{"x":53.53,"y":9.83,"z":13}}}