{"type":"Feature","geometry":{"type":"Point","coordinates":[53.53,9.83,13]},"properties":{"stationId":"EDHI","rawText":"EDHI 010020Z AUTO 19005KT 3800 // FEW006/// SCT018/// OVC026/// 02/02 Q1023","observationTime":"2019-12-01T00:20:00Z","temp":2,"dewpoint":2,"windDirection":190,"windSpeed":9.26,"visibility":2.36,"altim":30.206694,"flightCategory":"IFR","metarType":"METAR","geometry_esri":{"x":53.53,"y":9.83,"z":13}}}