{"type":"Feature","geometry":{"type":"Point","coordinates":[53.53,9.83,13]},"properties":{"stationId":"EDHI","rawText":"EDHI 221720Z AUTO 05010KT 030V100 9999 // FEW055/// 21/10 Q1022","observationTime":"2019-06-22T17:20:00Z","temp":21,"dewpoint":10,"windDirection":50,"windSpeed":18.52,"visibility":6.21,"altim":30.177166,"flightCategory":"VFR","metarType":"METAR","geometry_esri":{"x":53.53,"y":9.83,"z":13}}}