{"type":"Feature","geometry":{"type":"Point","coordinates":[53.53,9.83,13]},"properties":{"stationId":"EDHI","rawText":"EDHI 190650Z 23009KT 4700 BR BKN010 BKN017 06/05 Q1012","observationTime":"2019-02-19T06:50:00Z","temp":6,"dewpoint":5,"windDirection":230,"windSpeed":16.668,"visibility":2.92,"altim":29.88189,"flightCategory":"IFR","metarType":"METAR","geometry_esri":{"x":53.53,"y":9.83,"z":13}}}