{"type":"Feature","geometry":{"type":"Point","coordinates":[53.53,9.83,13]},"properties":{"stationId":"EDHI","rawText":"EDHI 111420Z 36009KT 320V030 CAVOK 14/02 Q1015","observationTime":"2019-05-11T14:20:00Z","temp":14,"dewpoint":2,"windDirection":360,"windSpeed":16.668,"visibility":6.21,"altim":29.970472,"flightCategory":"VFR","metarType":"METAR","geometry_esri":{"x":53.53,"y":9.83,"z":13}}}