{"type":"Feature","geometry":{"type":"Point","coordinates":[53.53,9.83,13]},"properties":{"stationId":"EDHI","rawText":"EDHI 110520Z AUTO VRB01KT 5000 // NCD 02/01 Q1027","observationTime":"2020-04-11T05:20:00Z","temp":2,"dewpoint":1,"windDirection":0,"windSpeed":1.852,"visibility":3.11,"altim":30.324802,"flightCategory":"MVFR","metarType":"METAR","geometry_esri":{"x":53.53,"y":9.83,"z":13}}}