{"type":"Feature","geometry":{"type":"Point","coordinates":[53.53,9.83,13]},"properties":{"stationId":"EDHI","rawText":"EDHI 110250Z AUTO 29014KT 9999 // BKN018/// BKN026/// OVC039/// 05/03 Q0999","observationTime":"2019-02-11T02:50:00Z","temp":5,"dewpoint":3,"windDirection":290,"windSpeed":25.928,"visibility":6.21,"altim":29.498032,"flightCategory":"MVFR","metarType":"METAR","geometry_esri":{"x":53.53,"y":9.83,"z":13}}}