{"type":"Feature","geometry":{"type":"Point","coordinates":[53.53,9.83,13]},"properties":{"stationId":"EDHI","rawText":"EDHI 300420Z 30018G28KT 6000 RA FEW005 BKN007 OVC013 14/13 Q0989","observationTime":"2019-09-30T04:20:00Z","temp":14,"dewpoint":13,"windDirection":300,"windSpeed":33.336,"visibility":3.73,"altim":29.202755,"flightCategory":"IFR","metarType":"METAR","geometry_esri":{"x":53.53,"y":9.83,"z":13}}}