{"type":"Feature","geometry":{"type":"Point","coordinates":[53.53,9.83,13]},"properties":{"stationId":"EDHI","rawText":"EDHI 112350Z AUTO 24018KT 9999 2600 // FEW011/// SCT018/// OVC058/// 03/01 Q0999","observationTime":"2020-02-11T23:50:00Z","temp":3,"dewpoint":1,"windDirection":240,"windSpeed":33.336,"visibility":6.21,"altim":29.498032,"flightCategory":"VFR","metarType":"METAR","geometry_esri":{"x":53.53,"y":9.83,"z":13}}}