{"type":"Feature","geometry":{"type":"Point","coordinates":[53.53,9.83,13]},"properties":{"stationId":"EDHI","rawText":"EDHI 311450Z 23006KT 190V260 CAVOK 25/13 Q1013","observationTime":"2019-07-31T14:50:00Z","temp":25,"dewpoint":13,"windDirection":230,"windSpeed":11.112,"visibility":6.21,"altim":29.911417,"flightCategory":"VFR","metarType":"METAR","geometry_esri":{"x":53.53,"y":9.83,"z":13}}}