{"type":"Feature","geometry":{"type":"Point","coordinates":[53.53,9.83,13]},"properties":{"stationId":"EDHI","rawText":"EDHI 271220Z 26012KT 220V280 9999 FEW048 17/07 Q1007","observationTime":"2019-05-27T12:20:00Z","temp":17,"dewpoint":7,"windDirection":260,"windSpeed":22.224,"visibility":6.21,"altim":29.734253,"flightCategory":"VFR","metarType":"METAR","geometry_esri":{"x":53.53,"y":9.83,"z":13}}}