{"type":"Feature","geometry":{"type":"Point","coordinates":[53.53,9.83,13]},"properties":{"stationId":"EDHI","rawText":"EDHI 172350Z AUTO 10003KT 070V130 9999 // NCD 19/13 Q1017","observationTime":"2019-06-17T23:50:00Z","temp":19,"dewpoint":13,"windDirection":100,"windSpeed":5.556,"visibility":6.21,"altim":30.029528,"flightCategory":"VFR","metarType":"METAR","geometry_esri":{"x":53.53,"y":9.83,"z":13}}}