{"type":"Feature","geometry":{"type":"Point","coordinates":[53.53,9.83,13]},"properties":{"stationId":"EDHI","rawText":"EDHI 181850Z 21011KT 180V240 CAVOK 11/08 Q1005","observationTime":"2019-10-18T18:50:00Z","temp":11,"dewpoint":8,"windDirection":210,"windSpeed":20.372,"visibility":6.21,"altim":29.675198,"flightCategory":"VFR","metarType":"METAR","geometry_esri":{"x":53.53,"y":9.83,"z":13}}}