{"type":"Feature","geometry":{"type":"Point","coordinates":[53.53,9.83,13]},"properties":{"stationId":"EDHI","rawText":"EDHI 261050Z 15004KT 090V180 8000 SCT007 07/06 Q1005","observationTime":"2019-11-26T10:50:00Z","temp":7,"dewpoint":6,"windDirection":150,"windSpeed":7.408,"visibility":4.97,"altim":29.675198,"flightCategory":"MVFR","metarType":"METAR","geometry_esri":{"x":53.53,"y":9.83,"z":13}}}