{"type":"Feature","geometry":{"type":"Point","coordinates":[53.53,9.83,13]},"properties":{"stationId":"EDHI","rawText":"EDHI 220720Z 30016KT 9000 OVC007 11/10 Q1014","observationTime":"2019-05-22T07:20:00Z","temp":11,"dewpoint":10,"windDirection":300,"windSpeed":29.632,"visibility":5.59,"altim":29.940945,"flightCategory":"IFR","metarType":"METAR","geometry_esri":{"x":53.53,"y":9.83,"z":13}}}