{"type":"Feature","geometry":{"type":"Point","coordinates":[53.53,9.83,13]},"properties":{"stationId":"EDHI","rawText":"EDHI 250120Z AUTO 23018KT 9999 1400 R23/P2000N // FEW018/// BKN021/// OVC028/// 10/07 Q0994","observationTime":"2020-02-25T01:20:00Z","temp":10,"dewpoint":7,"windDirection":230,"windSpeed":33.336,"visibility":6.21,"altim":29.350393,"flightCategory":"MVFR","metarType":"METAR","geometry_esri":{"x":53.53,"y":9.83,"z":13}}}