{"type":"Feature","geometry":{"type":"Point","coordinates":[53.53,9.83,13]},"properties":{"stationId":"EDHI","rawText":"EDHI 100720Z AUTO 23009KT 9999 2900 // FEW034/// BKN110/// BKN140/// 05/03 Q1003","observationTime":"2019-03-10T07:20:00Z","temp":5,"dewpoint":3,"windDirection":230,"windSpeed":16.668,"visibility":6.21,"altim":29.616142,"flightCategory":"VFR","metarType":"METAR","geometry_esri":{"x":53.53,"y":9.83,"z":13}}}