{"type":"Feature","geometry":{"type":"Point","coordinates":[53.53,9.83,13]},"properties":{"stationId":"EDHI","rawText":"EDHI 280220Z AUTO 19010KT 160V220 9999 3200 // OVC021/// 10/08 Q0985","observationTime":"2019-11-28T02:20:00Z","temp":10,"dewpoint":8,"windDirection":190,"windSpeed":18.52,"visibility":6.21,"altim":29.084646,"flightCategory":"MVFR","metarType":"METAR","geometry_esri":{"x":53.53,"y":9.83,"z":13}}}