{"type":"Feature","geometry":{"type":"Point","coordinates":[53.53,9.83,13]},"properties":{"stationId":"EDHI","rawText":"EDHI 200520Z 07006KT CAVOK 05/M02 Q1027","observationTime":"2020-04-20T05:20:00Z","temp":5,"dewpoint":-2,"windDirection":70,"windSpeed":11.112,"visibility":6.21,"altim":30.324802,"flightCategory":"VFR","metarType":"METAR","geometry_esri":{"x":53.53,"y":9.83,"z":13}}}