{"type":"Feature","geometry":{"type":"Point","coordinates":[53.53,9.83,13]},"properties":{"stationId":"EDHI","rawText":"EDHI 172320Z AUTO 15005KT 110V180 9999 // FEW012/// BKN045/// OVC065/// 13/12 Q1009","observationTime":"2019-10-17T23:20:00Z","temp":13,"dewpoint":12,"windDirection":150,"windSpeed":9.26,"visibility":6.21,"altim":29.793306,"flightCategory":"VFR","metarType":"METAR","geometry_esri":{"x":53.53,"y":9.83,"z":13}}}