{"type":"Feature","geometry":{"type":"Point","coordinates":[53.53,9.83,13]},"properties":{"stationId":"EDHI","rawText":"EDHI 031320Z 25010KT 9999 SCT017 BKN025 08/05 Q1024","observationTime":"2019-12-03T13:20:00Z","temp":8,"dewpoint":5,"windDirection":250,"windSpeed":18.52,"visibility":6.21,"altim":30.236221,"flightCategory":"MVFR","metarType":"METAR","geometry_esri":{"x":53.53,"y":9.83,"z":13}}}