{"type":"Feature","geometry":{"type":"Point","coordinates":[53.53,9.83,13]},"properties":{"stationId":"EDHI","rawText":"EDHI 082050Z AUTO 04003KT 9999 // FEW071/// SCT100/// 13/12 Q1017","observationTime":"2019-09-08T20:50:00Z","temp":13,"dewpoint":12,"windDirection":40,"windSpeed":5.556,"visibility":6.21,"altim":30.029528,"flightCategory":"VFR","metarType":"METAR","geometry_esri":{"x":53.53,"y":9.83,"z":13}}}