{"type":"Feature","geometry":{"type":"Point","coordinates":[53.53,9.83,13]},"properties":{"stationId":"EDHI","rawText":"EDHI 291820Z 04004KT CAVOK 06/01 Q1029","observationTime":"2019-10-29T18:20:00Z","temp":6,"dewpoint":1,"windDirection":40,"windSpeed":7.408,"visibility":6.21,"altim":30.383858,"flightCategory":"VFR","metarType":"METAR","geometry_esri":{"x":53.53,"y":9.83,"z":13}}}