{"type":"Feature","geometry":{"type":"Point","coordinates":[53.53,9.83,13]},"properties":{"stationId":"EDHI","rawText":"EDHI 021320Z 25011KT 1400 R23/2000D BR OVC002 M01/M01 Q1023","observationTime":"2020-01-02T13:20:00Z","temp":-1,"dewpoint":-1,"windDirection":250,"windSpeed":20.372,"visibility":0.87,"altim":30.206694,"flightCategory":"LIFR","metarType":"METAR","geometry_esri":{"x":53.53,"y":9.83,"z":13}}}