{"type":"Feature","geometry":{"type":"Point","coordinates":[53.53,9.83,13]},"properties":{"stationId":"EDHI","rawText":"EDHI 212120Z AUTO 13004KT 090V170 9999 // SCT044/// SCT100/// 05/03 Q0988","observationTime":"2019-12-21T21:20:00Z","temp":5,"dewpoint":3,"windDirection":130,"windSpeed":7.408,"visibility":6.21,"altim":29.17323,"flightCategory":"VFR","metarType":"METAR","geometry_esri":{"x":53.53,"y":9.83,"z":13}}}