{"type":"Feature","geometry":{"type":"Point","coordinates":[53.53,9.83,13]},"properties":{"stationId":"EDHI","rawText":"EDHI 181320Z AUTO 07008KT 040V120 9999 // NCD 16/M00 Q1018","observationTime":"2020-04-18T13:20:00Z","temp":16,"dewpoint":0,"windDirection":70,"windSpeed":14.816,"visibility":6.21,"altim":30.059055,"flightCategory":"VFR","metarType":"METAR","geometry_esri":{"x":53.53,"y":9.83,"z":13}}}