{"type":"Feature","geometry":{"type":"Point","coordinates":[53.53,9.83,13]},"properties":{"stationId":"EDHI","rawText":"EDHI 021720Z AUTO 19004KT 150V220 9999 // OVC049/// 07/02 Q1010","observationTime":"2019-03-02T17:20:00Z","temp":7,"dewpoint":2,"windDirection":190,"windSpeed":7.408,"visibility":6.21,"altim":29.822834,"flightCategory":"VFR","metarType":"METAR","geometry_esri":{"x":53.53,"y":9.83,"z":13}}}