{"type":"Feature","geometry":{"type":"Point","coordinates":[53.53,9.83,13]},"properties":{"stationId":"EDHI","rawText":"EDHI 041320Z 32010KT 290V350 9999 SCT049 14/02 Q1018","observationTime":"2020-05-04T13:20:00Z","temp":14,"dewpoint":2,"windDirection":320,"windSpeed":18.52,"visibility":6.21,"altim":30.059055,"flightCategory":"VFR","metarType":"METAR","geometry_esri":{"x":53.53,"y":9.83,"z":13}}}