{"type":"Feature","geometry":{"type":"Point","coordinates":[53.53,9.83,13]},"properties":{"stationId":"EDHI","rawText":"EDHI 011820Z 13005KT 100V160 4100 -RA BR BKN005 04/04 Q1001","observationTime":"2019-11-01T18:20:00Z","temp":4,"dewpoint":4,"windDirection":130,"windSpeed":9.26,"visibility":2.55,"altim":29.557087,"flightCategory":"IFR","metarType":"METAR","geometry_esri":{"x":53.53,"y":9.83,"z":13}}}