{"type":"Feature","geometry":{"type":"Point","coordinates":[53.53,9.83,13]},"properties":{"stationId":"EDHI","rawText":"EDHI 021020Z 27011KT 230V290 9999 SCT030CB 12/06 Q1005","observationTime":"2019-10-02T10:20:00Z","temp":12,"dewpoint":6,"windDirection":270,"windSpeed":20.372,"visibility":6.21,"altim":29.675198,"flightCategory":"VFR","metarType":"METAR","geometry_esri":{"x":53.53,"y":9.83,"z":13}}}