{"type":"Feature","geometry":{"type":"Point","coordinates":[53.53,9.83,13]},"properties":{"stationId":"EDHI","rawText":"EDHI 020320Z AUTO 12003KT 080V150 4000 // OVC005/// 08/07 Q0991","observationTime":"2019-11-02T03:20:00Z","temp":8,"dewpoint":7,"windDirection":120,"windSpeed":5.556,"visibility":2.49,"altim":29.26181,"flightCategory":"IFR","metarType":"METAR","geometry_esri":{"x":53.53,"y":9.83,"z":13}}}