{"type":"Feature","geometry":{"type":"Point","coordinates":[53.53,9.83,13]},"properties":{"stationId":"EDHI","rawText":"EDHI 060820Z 34005KT 290V360 9999 VCSH FEW020 SCT047CB 19/17 Q1006 RETS","observationTime":"2019-06-06T08:20:00Z","temp":19,"dewpoint":17,"windDirection":340,"windSpeed":9.26,"visibility":6.21,"altim":29.704725,"flightCategory":"VFR","metarType":"METAR","geometry_esri":{"x":53.53,"y":9.83,"z":13}}}