{"type":"Feature","geometry":{"type":"Point","coordinates":[53.53,9.83,13]},"properties":{"stationId":"EDHI","rawText":"EDHI 032050Z AUTO 22014KT 7000 // FEW011/// BKN013/// OVC034/// 10/09 Q0996","observationTime":"2019-03-03T20:50:00Z","temp":10,"dewpoint":9,"windDirection":220,"windSpeed":25.928,"visibility":4.35,"altim":29.409449,"flightCategory":"MVFR","metarType":"METAR","geometry_esri":{"x":53.53,"y":9.83,"z":13}}}