{"type":"Feature","geometry":{"type":"Point","coordinates":[53.53,9.83,13]},"properties":{"stationId":"EDHI","rawText":"EDHI 291520Z 28007KT 240V310 CAVOK 16/06 Q1028","observationTime":"2019-03-29T15:20:00Z","temp":16,"dewpoint":6,"windDirection":280,"windSpeed":12.964,"visibility":6.21,"altim":30.35433,"flightCategory":"VFR","metarType":"METAR","geometry_esri":{"x":53.53,"y":9.83,"z":13}}}