{"type":"Feature","geometry":{"type":"Point","coordinates":[53.53,9.83,13]},"properties":{"stationId":"EDHI","rawText":"EDHI 190520Z 13008KT 100V170 CAVOK 02/M00 Q1012","observationTime":"2018-12-19T05:20:00Z","temp":2,"dewpoint":0,"windDirection":130,"windSpeed":14.816,"visibility":6.21,"altim":29.88189,"flightCategory":"VFR","metarType":"METAR","geometry_esri":{"x":53.53,"y":9.83,"z":13}}}