{"type":"Feature","geometry":{"type":"Point","coordinates":[53.53,9.83,13]},"properties":{"stationId":"EDHI","rawText":"EDHI 302150Z AUTO 10007KT 030V150 8000 // FEW017/// BKN037/// OVC043/// 01/M02 Q0995","observationTime":"2019-01-30T21:50:00Z","temp":1,"dewpoint":-2,"windDirection":100,"windSpeed":12.964,"visibility":4.97,"altim":29.379921,"flightCategory":"MVFR","metarType":"METAR","geometry_esri":{"x":53.53,"y":9.83,"z":13}}}