{"type":"Feature","geometry":{"type":"Point","coordinates":[53.53,9.83,13]},"properties":{"stationId":"EDHI","rawText":"EDHI 261850Z AUTO 25012KT 2500 // SCT007/// BKN015/// OVC037/// 15/14 Q1006","observationTime":"2019-05-26T18:50:00Z","temp":15,"dewpoint":14,"windDirection":250,"windSpeed":22.224,"visibility":1.55,"altim":29.704725,"flightCategory":"IFR","metarType":"METAR","geometry_esri":{"x":53.53,"y":9.83,"z":13}}}