{"type":"Feature","geometry":{"type":"Point","coordinates":[53.53,9.83,13]},"properties":{"stationId":"EDHI","rawText":"EDHI 271220Z 25010KT 9999 FEW024 18/12 Q1006","observationTime":"2019-09-27T12:20:00Z","temp":18,"dewpoint":12,"windDirection":250,"windSpeed":18.52,"visibility":6.21,"altim":29.704725,"flightCategory":"VFR","metarType":"METAR","geometry_esri":{"x":53.53,"y":9.83,"z":13}}}