{"type":"Feature","geometry":{"type":"Point","coordinates":[53.53,9.83,13]},"properties":{"stationId":"EDHI","rawText":"EDHI 240750Z AUTO 10010G20KT 060V130 5000 // OVC008/// 05/03 Q1009","observationTime":"2019-11-24T07:50:00Z","temp":5,"dewpoint":3,"windDirection":100,"windSpeed":18.52,"visibility":3.11,"altim":29.793306,"flightCategory":"IFR","metarType":"METAR","geometry_esri":{"x":53.53,"y":9.83,"z":13}}}