{"type":"Feature","geometry":{"type":"Point","coordinates":[53.53,9.83,13]},"properties":{"stationId":"EDHI","rawText":"EDHI 051350Z 16003KT 090V230 6000 BKN019 11/07 Q1005","observationTime":"2019-04-05T13:50:00Z","temp":11,"dewpoint":7,"windDirection":160,"windSpeed":5.556,"visibility":3.73,"altim":29.675198,"flightCategory":"MVFR","metarType":"METAR","geometry_esri":{"x":53.53,"y":9.83,"z":13}}}