{"type":"Feature","geometry":{"type":"Point","coordinates":[53.53,9.83,13]},"properties":{"stationId":"EDHI","rawText":"EDHI 061720Z 21013KT 2700 DZ BR OVC005 06/05 Q1001","observationTime":"2019-12-06T17:20:00Z","temp":6,"dewpoint":5,"windDirection":210,"windSpeed":24.076,"visibility":1.68,"altim":29.557087,"flightCategory":"IFR","metarType":"METAR","geometry_esri":{"x":53.53,"y":9.83,"z":13}}}