{"type":"Feature","geometry":{"type":"Point","coordinates":[53.53,9.83,13]},"properties":{"stationId":"EDHI","rawText":"EDHI 300550Z AUTO 11003KT 080V140 1500 0300 R23/P2000N // NCD 04/03 Q1022","observationTime":"2019-03-30T05:50:00Z","temp":4,"dewpoint":3,"windDirection":110,"windSpeed":5.556,"visibility":0.93,"altim":30.177166,"flightCategory":"LIFR","metarType":"METAR","geometry_esri":{"x":53.53,"y":9.83,"z":13}}}