{"type":"Feature","geometry":{"type":"Point","coordinates":[53.53,9.83,13]},"properties":{"stationId":"EDHI","rawText":"EDHI 070720Z AUTO 28015KT 9999 R/////// // FEW035/// BKN051/// 14/07 Q1010","observationTime":"2019-07-07T07:20:00Z","temp":14,"dewpoint":7,"windDirection":280,"windSpeed":27.78,"visibility":6.21,"altim":29.822834,"flightCategory":"VFR","metarType":"METAR","geometry_esri":{"x":53.53,"y":9.83,"z":13}}}