{"type":"Feature","geometry":{"type":"Point","coordinates":[53.53,9.83,13]},"properties":{"stationId":"EDHI","rawText":"EDHI 010250Z AUTO 04004KT 9999 // NCD 01/M03 Q1028","observationTime":"2019-04-01T02:50:00Z","temp":1,"dewpoint":-3,"windDirection":40,"windSpeed":7.408,"visibility":6.21,"altim":30.35433,"flightCategory":"VFR","metarType":"METAR","geometry_esri":{"x":53.53,"y":9.83,"z":13}}}