{"type":"Feature","geometry":{"type":"Point","coordinates":[53.53,9.83,13]},"properties":{"stationId":"EDHI","rawText":"EDHI 041520Z 21008KT 9000 OVC017 06/04 Q1021","observationTime":"2019-12-04T15:20:00Z","temp":6,"dewpoint":4,"windDirection":210,"windSpeed":14.816,"visibility":5.59,"altim":30.147638,"flightCategory":"MVFR","metarType":"METAR","geometry_esri":{"x":53.53,"y":9.83,"z":13}}}