{"type":"Feature","geometry":{"type":"Point","coordinates":[53.53,9.83,13]},"properties":{"stationId":"EDHI","rawText":"EDHI 051150Z 21008KT 180V240 CAVOK 04/00 Q1017","observationTime":"2019-12-05T11:50:00Z","temp":4,"dewpoint":0,"windDirection":210,"windSpeed":14.816,"visibility":6.21,"altim":30.029528,"flightCategory":"VFR","metarType":"METAR","geometry_esri":{"x":53.53,"y":9.83,"z":13}}}