{"type":"Feature","geometry":{"type":"Point","coordinates":[53.53,9.83,13]},"properties":{"stationId":"EDHI","rawText":"EDHI 100420Z 26008KT 9999 FEW032 SCT048 04/02 Q1008","observationTime":"2018-12-10T04:20:00Z","temp":4,"dewpoint":2,"windDirection":260,"windSpeed":14.816,"visibility":6.21,"altim":29.763779,"skyCondition1a":"FEW","skyCondition1b":3200,"skyCondition2a":"SCT","skyCondition2b":4800,"flightCategory":"VFR","metarType":"METAR","geometry_esri":{"x":53.53,"y":9.83,"z":13}}}