{"type":"Feature","geometry":{"type":"Point","coordinates":[53.53,9.83,13]},"properties":{"stationId":"EDHI","rawText":"EDHI 090320Z AUTO 05003KT 5000 // BKN130/// 11/10 Q1015","observationTime":"2019-09-09T03:20:00Z","temp":11,"dewpoint":10,"windDirection":50,"windSpeed":5.556,"visibility":3.11,"altim":29.970472,"flightCategory":"MVFR","metarType":"METAR","geometry_esri":{"x":53.53,"y":9.83,"z":13}}}