{"type":"Feature","geometry":{"type":"Point","coordinates":[53.53,9.83,13]},"properties":{"stationId":"EDHI","rawText":"EDHI 070520Z 23006KT 3900 BR BKN005 04/03 Q1019","observationTime":"2020-01-07T05:20:00Z","temp":4,"dewpoint":3,"windDirection":230,"windSpeed":11.112,"visibility":2.42,"altim":30.088583,"flightCategory":"IFR","metarType":"METAR","geometry_esri":{"x":53.53,"y":9.83,"z":13}}}