{"type":"Feature","geometry":{"type":"Point","coordinates":[53.53,9.83,13]},"properties":{"stationId":"EDHI","rawText":"EDHI 211850Z 23006KT 8000 OVC010 M01/M03 Q1017","observationTime":"2019-01-21T18:50:00Z","temp":-1,"dewpoint":-3,"windDirection":230,"windSpeed":11.112,"visibility":4.97,"altim":30.029528,"flightCategory":"MVFR","metarType":"METAR","geometry_esri":{"x":53.53,"y":9.83,"z":13}}}