{"type":"Feature","geometry":{"type":"Point","coordinates":[53.53,9.83,13]},"properties":{"stationId":"EDHI","rawText":"EDHI 300820Z 23005KT 9000 FEW009 SCT039 19/16 Q1022","observationTime":"2019-08-30T08:20:00Z","temp":19,"dewpoint":16,"windDirection":230,"windSpeed":9.26,"visibility":5.59,"altim":30.177166,"flightCategory":"VFR","metarType":"METAR","geometry_esri":{"x":53.53,"y":9.83,"z":13}}}