{"type":"Feature","geometry":{"type":"Point","coordinates":[53.53,9.83,13]},"properties":{"stationId":"EDHI","rawText":"EDHI 072350Z AUTO 07003KT 040V120 9999 // FEW250/// 08/03 Q1010","observationTime":"2019-04-07T23:50:00Z","temp":8,"dewpoint":3,"windDirection":70,"windSpeed":5.556,"visibility":6.21,"altim":29.822834,"flightCategory":"VFR","metarType":"METAR","geometry_esri":{"x":53.53,"y":9.83,"z":13}}}