{"type":"Feature","geometry":{"type":"Point","coordinates":[53.53,9.83,13]},"properties":{"stationId":"EDHI","rawText":"EDHI 180950Z 24006KT CAVOK 00/M02 Q1016","observationTime":"2019-01-18T09:50:00Z","temp":0,"dewpoint":-2,"windDirection":240,"windSpeed":11.112,"visibility":6.21,"altim":30,"flightCategory":"VFR","metarType":"METAR","geometry_esri":{"x":53.53,"y":9.83,"z":13}}}