{"type":"Feature","geometry":{"type":"Point","coordinates":[53.53,9.83,13]},"properties":{"stationId":"EDHI","rawText":"EDHI 310550Z AUTO 08003KT 0350 0250 R05/0350D // VV001 M01/M01 Q1027","observationTime":"2019-10-31T05:50:00Z","temp":-1,"dewpoint":-1,"windDirection":80,"windSpeed":5.556,"visibility":0.22,"altim":30.324802,"flightCategory":"LIFR","metarType":"METAR","geometry_esri":{"x":53.53,"y":9.83,"z":13}}}