{"type":"Feature","geometry":{"type":"Point","coordinates":[53.53,9.83,13]},"properties":{"stationId":"EDHI","rawText":"EDHI 261320Z 27013KT 9999 R23/P2000N -SHRA FEW017CB 04/02 Q0994","observationTime":"2020-02-26T13:20:00Z","temp":4,"dewpoint":2,"windDirection":270,"windSpeed":24.076,"visibility":6.21,"altim":29.350393,"flightCategory":"VFR","metarType":"METAR","geometry_esri":{"x":53.53,"y":9.83,"z":13}}}