{"type":"Feature","geometry":{"type":"Point","coordinates":[53.53,9.83,13]},"properties":{"stationId":"EDHI","rawText":"EDHI 221120Z AUTO 12005KT 090V160 9000 // OVC053/// 04/03 Q0985","observationTime":"2019-12-22T11:20:00Z","temp":4,"dewpoint":3,"windDirection":120,"windSpeed":9.26,"visibility":5.59,"altim":29.084646,"flightCategory":"VFR","metarType":"METAR","geometry_esri":{"x":53.53,"y":9.83,"z":13}}}