{"type":"Feature","geometry":{"type":"Point","coordinates":[53.53,9.83,13]},"properties":{"stationId":"EDHI","rawText":"EDHI 121150Z 20009G20KT 180V240 9999 SCT026 BKN033 07/02 Q1001","observationTime":"2019-11-12T11:50:00Z","temp":7,"dewpoint":2,"windDirection":200,"windSpeed":16.668,"visibility":6.21,"altim":29.557087,"flightCategory":"VFR","metarType":"METAR","geometry_esri":{"x":53.53,"y":9.83,"z":13}}}