{"type":"Feature","geometry":{"type":"Point","coordinates":[53.53,9.83,13]},"properties":{"stationId":"EDHI","rawText":"EDHI 051020Z 27006KT CAVOK 03/M01 Q1034","observationTime":"2020-02-05T10:20:00Z","temp":3,"dewpoint":-1,"windDirection":270,"windSpeed":11.112,"visibility":6.21,"altim":30.531496,"flightCategory":"VFR","metarType":"METAR","geometry_esri":{"x":53.53,"y":9.83,"z":13}}}