{"type":"Feature","geometry":{"type":"Point","coordinates":[53.53,9.83,13]},"properties":{"stationId":"EDHI","rawText":"EDHI 151620Z 28032G45KT 9999 SCT035 09/03 Q0994","observationTime":"2019-03-15T16:20:00Z","temp":9,"dewpoint":3,"windDirection":280,"windSpeed":59.264,"visibility":6.21,"altim":29.350393,"flightCategory":"VFR","metarType":"METAR","geometry_esri":{"x":53.53,"y":9.83,"z":13}}}