{"type":"Feature","geometry":{"type":"Point","coordinates":[53.53,9.83,13]},"properties":{"stationId":"EDHI","rawText":"EDHI 102120Z AUTO 05009KT 9999 // FEW023/// BKN077/// OVC096/// 17/15 Q1010","observationTime":"2019-06-10T21:20:00Z","temp":17,"dewpoint":15,"windDirection":50,"windSpeed":16.668,"visibility":6.21,"altim":29.822834,"flightCategory":"VFR","metarType":"METAR","geometry_esri":{"x":53.53,"y":9.83,"z":13}}}