{"type":"Feature","geometry":{"type":"Point","coordinates":[53.53,9.83,13]},"properties":{"stationId":"EDHI","rawText":"EDHI 070820Z 17004KT 090V240 9999 FEW006 17/08 Q1015","observationTime":"2019-06-07T08:20:00Z","temp":17,"dewpoint":8,"windDirection":170,"windSpeed":7.408,"visibility":6.21,"altim":29.970472,"flightCategory":"VFR","metarType":"METAR","geometry_esri":{"x":53.53,"y":9.83,"z":13}}}