{"type":"Feature","geometry":{"type":"Point","coordinates":[53.53,9.83,13]},"properties":{"stationId":"EDHI","rawText":"EDHI 060150Z AUTO 07004KT 3900 // BKN077/// 07/06 Q1008","observationTime":"2019-04-06T01:50:00Z","temp":7,"dewpoint":6,"windDirection":70,"windSpeed":7.408,"visibility":2.42,"altim":29.763779,"flightCategory":"IFR","metarType":"METAR","geometry_esri":{"x":53.53,"y":9.83,"z":13}}}