{"type":"Feature","geometry":{"type":"Point","coordinates":[53.53,9.83,13]},"properties":{"stationId":"EDHI","rawText":"EDHI 031920Z AUTO 31010KT 280V350 9999 // SCT033/// 15/08 Q1023","observationTime":"2019-07-03T19:20:00Z","temp":15,"dewpoint":8,"windDirection":310,"windSpeed":18.52,"visibility":6.21,"altim":30.206694,"flightCategory":"VFR","metarType":"METAR","geometry_esri":{"x":53.53,"y":9.83,"z":13}}}