{"type":"Feature","geometry":{"type":"Point","coordinates":[53.53,9.83,13]},"properties":{"stationId":"EDHI","rawText":"EDHI 101750Z 26005KT 9000 -SNRA BKN039 02/00 Q1024","observationTime":"2019-01-10T17:50:00Z","temp":2,"dewpoint":0,"windDirection":260,"windSpeed":9.26,"visibility":5.59,"altim":30.236221,"flightCategory":"VFR","metarType":"METAR","geometry_esri":{"x":53.53,"y":9.83,"z":13}}}