{"type":"Feature","geometry":{"type":"Point","coordinates":[53.53,9.83,13]},"properties":{"stationId":"EDHI","rawText":"EDHI 062050Z AUTO 05008KT 9000 // NCD 13/08 Q1007","observationTime":"2019-04-06T20:50:00Z","temp":13,"dewpoint":8,"windDirection":50,"windSpeed":14.816,"visibility":5.59,"altim":29.734253,"flightCategory":"VFR","metarType":"METAR","geometry_esri":{"x":53.53,"y":9.83,"z":13}}}