{"type":"Feature","geometry":{"type":"Point","coordinates":[53.53,9.83,13]},"properties":{"stationId":"EDHI","rawText":"EDHI 250850Z VRB02KT CAVOK 03/M01 Q1039","observationTime":"2019-02-25T08:50:00Z","temp":3,"dewpoint":-1,"windDirection":0,"windSpeed":3.704,"visibility":6.21,"altim":30.679134,"flightCategory":"VFR","metarType":"METAR","geometry_esri":{"x":53.53,"y":9.83,"z":13}}}