{"type":"Feature","geometry":{"type":"Point","coordinates":[53.53,9.83,13]},"properties":{"stationId":"EDHI","rawText":"EDHI 280950Z 26008KT 230V290 9999 VCSH FEW013 10/08 Q1020","observationTime":"2019-10-28T09:50:00Z","temp":10,"dewpoint":8,"windDirection":260,"windSpeed":14.816,"visibility":6.21,"altim":30.11811,"flightCategory":"VFR","metarType":"METAR","geometry_esri":{"x":53.53,"y":9.83,"z":13}}}