{"type":"Feature","geometry":{"type":"Point","coordinates":[53.53,9.83,13]},"properties":{"stationId":"EDHI","rawText":"EDHI 230920Z 13007KT 090V170 5000 BR BKN010 M05/M07 Q1003","observationTime":"2019-01-23T09:20:00Z","temp":-5,"dewpoint":-7,"windDirection":130,"windSpeed":12.964,"visibility":3.11,"altim":29.616142,"flightCategory":"MVFR","metarType":"METAR","geometry_esri":{"x":53.53,"y":9.83,"z":13}}}