{"type":"Feature","geometry":{"type":"Point","coordinates":[53.53,9.83,13]},"properties":{"stationId":"EDHI","rawText":"EDHI 010220Z AUTO 00000KT 2500 // SCT002/// BKN011/// OVC013/// 04/04 Q1010","observationTime":"2019-03-01T02:20:00Z","temp":4,"dewpoint":4,"windDirection":0,"windSpeed":0,"visibility":1.55,"altim":29.822834,"flightCategory":"IFR","metarType":"SPECI","geometry_esri":{"x":53.53,"y":9.83,"z":13}}}