{"type":"Feature","geometry":{"type":"Point","coordinates":[53.53,9.83,13]},"properties":{"stationId":"EDHI","rawText":"EDHI 031720Z 23008KT 9999 BKN020 07/04 Q1024","observationTime":"2019-12-03T17:20:00Z","temp":7,"dewpoint":4,"windDirection":230,"windSpeed":14.816,"visibility":6.21,"altim":30.236221,"flightCategory":"MVFR","metarType":"METAR","geometry_esri":{"x":53.53,"y":9.83,"z":13}}}