{"type":"Feature","geometry":{"type":"Point","coordinates":[53.53,9.83,13]},"properties":{"stationId":"EDHI","rawText":"EDHI 032120Z AUTO 12003KT 9999 // BKN033/// 08/06 Q1013","observationTime":"2019-10-03T21:20:00Z","temp":8,"dewpoint":6,"windDirection":120,"windSpeed":5.556,"visibility":6.21,"altim":29.911417,"flightCategory":"VFR","metarType":"METAR","geometry_esri":{"x":53.53,"y":9.83,"z":13}}}