{"type":"Feature","geometry":{"type":"Point","coordinates":[53.53,9.83,13]},"properties":{"stationId":"EDHI","rawText":"EDHI 091820Z AUTO 30018G28KT 280V340 4700 // FEW017/// BKN140/// 05/03 Q1002","observationTime":"2019-03-09T18:20:00Z","temp":5,"dewpoint":3,"windDirection":300,"windSpeed":33.336,"visibility":2.92,"altim":29.586615,"flightCategory":"IFR","metarType":"METAR","geometry_esri":{"x":53.53,"y":9.83,"z":13}}}