{"type":"Feature","geometry":{"type":"Point","coordinates":[53.53,9.83,13]},"properties":{"stationId":"EDHI","rawText":"EDHI 302320Z AUTO 24005KT 9999 // NCD 15/14 Q1014","observationTime":"2019-06-30T23:20:00Z","temp":15,"dewpoint":14,"windDirection":240,"windSpeed":9.26,"visibility":6.21,"altim":29.940945,"flightCategory":"VFR","metarType":"METAR","geometry_esri":{"x":53.53,"y":9.83,"z":13}}}