{"type":"Feature","geometry":{"type":"Point","coordinates":[53.53,9.83,13]},"properties":{"stationId":"EDHI","rawText":"EDHI 132220Z AUTO 31021G33KT 280V340 9999 // SCT030/// OVC040/// 06/01 Q0993","observationTime":"2019-01-13T22:20:00Z","temp":6,"dewpoint":1,"windDirection":310,"windSpeed":38.892,"visibility":6.21,"altim":29.320866,"flightCategory":"VFR","metarType":"METAR","geometry_esri":{"x":53.53,"y":9.83,"z":13}}}