{"type":"Feature","geometry":{"type":"Point","coordinates":[53.53,9.83,13]},"properties":{"stationId":"EDHI","rawText":"EDHI 020750Z 13005KT 080V180 4500 -DZ BR OVC007 11/10 Q0988","observationTime":"2019-11-02T07:50:00Z","temp":11,"dewpoint":10,"windDirection":130,"windSpeed":9.26,"visibility":2.8,"altim":29.17323,"flightCategory":"IFR","metarType":"METAR","geometry_esri":{"x":53.53,"y":9.83,"z":13}}}