{"type":"Feature","geometry":{"type":"Point","coordinates":[53.53,9.83,13]},"properties":{"stationId":"EDHI","rawText":"EDHI 210250Z AUTO 23005KT 3900 // FEW012/// OVC018/// 09/08 Q1032","observationTime":"2019-03-21T02:50:00Z","temp":9,"dewpoint":8,"windDirection":230,"windSpeed":9.26,"visibility":2.42,"altim":30.47244,"flightCategory":"IFR","metarType":"METAR","geometry_esri":{"x":53.53,"y":9.83,"z":13}}}