{"type":"Feature","geometry":{"type":"Point","coordinates":[53.53,9.83,13]},"properties":{"stationId":"EDHI","rawText":"EDHI 100350Z AUTO 25013KT 9999 3500 // FEW017/// BKN030/// BKN180/// 05/03 Q1005","observationTime":"2019-03-10T03:50:00Z","temp":5,"dewpoint":3,"windDirection":250,"windSpeed":24.076,"visibility":6.21,"altim":29.675198,"flightCategory":"MVFR","metarType":"METAR","geometry_esri":{"x":53.53,"y":9.83,"z":13}}}