{"type":"Feature","geometry":{"type":"Point","coordinates":[53.53,9.83,13]},"properties":{"stationId":"EDHI","rawText":"EDHI 160950Z AUTO 28013KT 250V310 9999 // SCT044/// BKN074/// OVC084/// 14/05 Q1020","observationTime":"2020-05-16T09:50:00Z","temp":14,"dewpoint":5,"windDirection":280,"windSpeed":24.076,"visibility":6.21,"altim":30.11811,"flightCategory":"VFR","metarType":"METAR","geometry_esri":{"x":53.53,"y":9.83,"z":13}}}