{"type":"Feature","geometry":{"type":"Point","coordinates":[53.53,9.83,13]},"properties":{"stationId":"EDHI","rawText":"EDHI 171820Z 29012KT 260V320 4500 -SHSN SCT007CB BKN011 01/00 Q0999 RESHSN","observationTime":"2019-01-17T18:20:00Z","temp":1,"dewpoint":0,"windDirection":290,"windSpeed":22.224,"visibility":2.8,"altim":29.498032,"flightCategory":"IFR","metarType":"METAR","geometry_esri":{"x":53.53,"y":9.83,"z":13}}}