{"type":"Feature","geometry":{"type":"Point","coordinates":[53.53,9.83,13]},"properties":{"stationId":"EDHI","rawText":"EDHI 100050Z AUTO 22011KT 9999 // BKN026/// BKN036/// OVC055/// 07/03 Q1002","observationTime":"2019-02-10T00:50:00Z","temp":7,"dewpoint":3,"windDirection":220,"windSpeed":20.372,"visibility":6.21,"altim":29.586615,"flightCategory":"MVFR","metarType":"METAR","geometry_esri":{"x":53.53,"y":9.83,"z":13}}}