{"type":"Feature","geometry":{"type":"Point","coordinates":[53.53,9.83,13]},"properties":{"stationId":"EDHI","rawText":"EDHI 262120Z AUTO 23005KT 4700 1400 R23/P2000N // BKN005/// BKN013/// OVC059/// 11/10 Q1013","observationTime":"2019-04-26T21:20:00Z","temp":11,"dewpoint":10,"windDirection":230,"windSpeed":9.26,"visibility":2.92,"altim":29.911417,"flightCategory":"IFR","metarType":"METAR","geometry_esri":{"x":53.53,"y":9.83,"z":13}}}