{"type":"Feature","geometry":{"type":"Point","coordinates":[53.53,9.83,13]},"properties":{"stationId":"EDHI","rawText":"EDHI 200750Z 26003KT 3500 BR FEW004 SCT008 BKN017 04/03 Q1045","observationTime":"2020-01-20T07:50:00Z","temp":4,"dewpoint":3,"windDirection":260,"windSpeed":5.556,"visibility":2.17,"altim":30.856298,"flightCategory":"IFR","metarType":"METAR","geometry_esri":{"x":53.53,"y":9.83,"z":13}}}