{"type":"Feature","geometry":{"type":"Point","coordinates":[53.53,9.83,13]},"properties":{"stationId":"EDHI","rawText":"EDHI 011320Z AUTO 28014KT 9999 // FEW014/// OVC017/// 11/07 Q1014","observationTime":"2019-05-01T13:20:00Z","temp":11,"dewpoint":7,"windDirection":280,"windSpeed":25.928,"visibility":6.21,"altim":29.940945,"flightCategory":"MVFR","metarType":"METAR","geometry_esri":{"x":53.53,"y":9.83,"z":13}}}