{"type":"Feature","geometry":{"type":"Point","coordinates":[53.53,9.83,13]},"properties":{"stationId":"EDHI","rawText":"EDHI 132020Z AUTO 17005KT 130V210 9999 // SCT110/// 18/11 Q1013","observationTime":"2019-06-13T20:20:00Z","temp":18,"dewpoint":11,"windDirection":170,"windSpeed":9.26,"visibility":6.21,"altim":29.911417,"flightCategory":"VFR","metarType":"METAR","geometry_esri":{"x":53.53,"y":9.83,"z":13}}}