{"type":"Feature","geometry":{"type":"Point","coordinates":[53.53,9.83,13]},"properties":{"stationId":"EDHI","rawText":"EDHI 110750Z 12005KT 070V160 8000 NSC M00/M01 Q1009","observationTime":"2019-11-11T07:50:00Z","temp":0,"dewpoint":-1,"windDirection":120,"windSpeed":9.26,"visibility":4.97,"altim":29.793306,"flightCategory":"MVFR","metarType":"METAR","geometry_esri":{"x":53.53,"y":9.83,"z":13}}}