{"type":"Feature","geometry":{"type":"Point","coordinates":[53.53,9.83,13]},"properties":{"stationId":"EDHI","rawText":"EDHI 131420Z 30015KT 270V330 9999 FEW018 SCT037 21/16 Q1014","observationTime":"2019-07-13T14:20:00Z","temp":21,"dewpoint":16,"windDirection":300,"windSpeed":27.78,"visibility":6.21,"altim":29.940945,"flightCategory":"VFR","metarType":"METAR","geometry_esri":{"x":53.53,"y":9.83,"z":13}}}