{"type":"Feature","geometry":{"type":"Point","coordinates":[53.53,9.83,13]},"properties":{"stationId":"EDHI","rawText":"EDHI 282220Z AUTO 31004KT 280V350 9999 // NCD 16/13 Q1023","observationTime":"2019-06-28T22:20:00Z","temp":16,"dewpoint":13,"windDirection":310,"windSpeed":7.408,"visibility":6.21,"altim":30.206694,"flightCategory":"VFR","metarType":"METAR","geometry_esri":{"x":53.53,"y":9.83,"z":13}}}