{"type":"Feature","geometry":{"type":"Point","coordinates":[53.53,9.83,13]},"properties":{"stationId":"EDHI","rawText":"EDHI 050150Z AUTO 30015G25KT 270V330 5000 // OVC005/// 07/06 Q1022","observationTime":"2019-01-05T01:50:00Z","temp":7,"dewpoint":6,"windDirection":300,"windSpeed":27.78,"visibility":3.11,"altim":30.177166,"flightCategory":"IFR","metarType":"METAR","geometry_esri":{"x":53.53,"y":9.83,"z":13}}}