{"type":"Feature","geometry":{"type":"Point","coordinates":[53.53,9.83,13]},"properties":{"stationId":"EDHI","rawText":"EDHI 310920Z 19005KT 150V220 9999 FEW009 SCT012 22/18 Q1014","observationTime":"2019-07-31T09:20:00Z","temp":22,"dewpoint":18,"windDirection":190,"windSpeed":9.26,"visibility":6.21,"altim":29.940945,"flightCategory":"VFR","metarType":"METAR","geometry_esri":{"x":53.53,"y":9.83,"z":13}}}