{"type":"Feature","geometry":{"type":"Point","coordinates":[53.53,9.83,13]},"properties":{"stationId":"EDHI","rawText":"EDHI 280020Z AUTO 21005KT 180V240 9999 // FEW027/// BKN035/// OVC091/// 02/02 Q0986","observationTime":"2019-01-28T00:20:00Z","temp":2,"dewpoint":2,"windDirection":210,"windSpeed":9.26,"visibility":6.21,"altim":29.114174,"flightCategory":"VFR","metarType":"METAR","geometry_esri":{"x":53.53,"y":9.83,"z":13}}}