{"type":"Feature","geometry":{"type":"Point","coordinates":[53.53,9.83,13]},"properties":{"stationId":"EDHI","rawText":"EDHI 121320Z 04008KT 9999 SCT014 BKN033 05/02 Q1027","observationTime":"2018-12-12T13:20:00Z","temp":5,"dewpoint":2,"windDirection":40,"windSpeed":14.816,"visibility":6.21,"altim":30.324802,"skyCondition1a":"SCT","skyCondition1b":1400,"skyCondition2a":"BKN","skyCondition2b":3300,"flightCategory":"VFR","metarType":"METAR","geometry_esri":{"x":53.53,"y":9.83,"z":13}}}