{"type":"Feature","geometry":{"type":"Point","coordinates":[53.53,9.83,13]},"properties":{"stationId":"EDHI","rawText":"EDHI 232250Z AUTO 35007KT 9000 // BKN005/// BKN015/// OVC018/// 06/05 Q1013","observationTime":"2018-12-23T22:50:00Z","temp":6,"dewpoint":5,"windDirection":350,"windSpeed":12.964,"visibility":5.59,"altim":29.911417,"flightCategory":"IFR","metarType":"METAR","geometry_esri":{"x":53.53,"y":9.83,"z":13}}}