{"type":"Feature","geometry":{"type":"Point","coordinates":[53.53,9.83,13]},"properties":{"stationId":"EDHI","rawText":"EDHI 060120Z AUTO 35004KT 9999 // BKN006/// BKN013/// OVC027/// 07/06 Q0998","observationTime":"2019-11-06T01:20:00Z","temp":7,"dewpoint":6,"windDirection":350,"windSpeed":7.408,"visibility":6.21,"altim":29.468504,"flightCategory":"IFR","metarType":"METAR","geometry_esri":{"x":53.53,"y":9.83,"z":13}}}