{"type":"Feature","geometry":{"type":"Point","coordinates":[53.53,9.83,13]},"properties":{"stationId":"EDHI","rawText":"EDHI 300650Z VRB02KT CAVOK 07/06 Q1022","observationTime":"2019-03-30T06:50:00Z","temp":7,"dewpoint":6,"windDirection":0,"windSpeed":3.704,"visibility":6.21,"altim":30.177166,"flightCategory":"VFR","metarType":"METAR","geometry_esri":{"x":53.53,"y":9.83,"z":13}}}