{"type":"Feature","geometry":{"type":"Point","coordinates":[53.53,9.83,13]},"properties":{"stationId":"EDHI","rawText":"EDHI 301320Z 24007KT 220V280 9999 FEW048 17/06 Q1019","observationTime":"2019-03-30T13:20:00Z","temp":17,"dewpoint":6,"windDirection":240,"windSpeed":12.964,"visibility":6.21,"altim":30.088583,"flightCategory":"VFR","metarType":"METAR","geometry_esri":{"x":53.53,"y":9.83,"z":13}}}