{"type":"Feature","geometry":{"type":"Point","coordinates":[53.53,9.83,13]},"properties":{"stationId":"EDHI","rawText":"EDHI 131420Z 21022KT 9999 SCT021 BKN029 07/04 Q0994","observationTime":"2019-03-13T14:20:00Z","temp":7,"dewpoint":4,"windDirection":210,"windSpeed":40.744,"visibility":6.21,"altim":29.350393,"flightCategory":"MVFR","metarType":"METAR","geometry_esri":{"x":53.53,"y":9.83,"z":13}}}