{"type":"Feature","geometry":{"type":"Point","coordinates":[53.53,9.83,13]},"properties":{"stationId":"EDHI","rawText":"EDHI 040350Z AUTO 27009KT 220V330 8000 // BKN024/// BKN027/// BKN053/// 04/03 Q1001","observationTime":"2020-02-04T03:50:00Z","temp":4,"dewpoint":3,"windDirection":270,"windSpeed":16.668,"visibility":4.97,"altim":29.557087,"flightCategory":"MVFR","metarType":"METAR","geometry_esri":{"x":53.53,"y":9.83,"z":13}}}