{"type":"Feature","geometry":{"type":"Point","coordinates":[53.53,9.83,13]},"properties":{"stationId":"EDHI","rawText":"EDHI 181750Z 19009KT 9000 -RA BKN008 OVC037 06/05 Q1004","observationTime":"2019-11-18T17:50:00Z","temp":6,"dewpoint":5,"windDirection":190,"windSpeed":16.668,"visibility":5.59,"altim":29.64567,"flightCategory":"IFR","metarType":"METAR","geometry_esri":{"x":53.53,"y":9.83,"z":13}}}