{"type":"Feature","geometry":{"type":"Point","coordinates":[53.53,9.83,13]},"properties":{"stationId":"EDHI","rawText":"EDHI 180150Z AUTO 27021KT 9999 3000 // BKN012/// BKN018/// OVC027/// 09/07 Q1005","observationTime":"2019-12-18T01:50:00Z","temp":9,"dewpoint":7,"windDirection":270,"windSpeed":38.892,"visibility":6.21,"altim":29.675198,"flightCategory":"MVFR","metarType":"METAR","geometry_esri":{"x":53.53,"y":9.83,"z":13}}}