{"type":"Feature","geometry":{"type":"Point","coordinates":[53.53,9.83,13]},"properties":{"stationId":"EDHI","rawText":"EDHI 221150Z 14008KT 110V170 CAVOK M00/M06 Q1008","observationTime":"2019-01-22T11:50:00Z","temp":0,"dewpoint":-6,"windDirection":140,"windSpeed":14.816,"visibility":6.21,"altim":29.763779,"flightCategory":"VFR","metarType":"METAR","geometry_esri":{"x":53.53,"y":9.83,"z":13}}}