{"type":"Feature","geometry":{"type":"Point","coordinates":[53.53,9.83,13]},"properties":{"stationId":"EDHI","rawText":"EDHI 300220Z AUTO 08003KT 050V120 7000 // BKN170/// BKN210/// M01/M02 Q0999","observationTime":"2019-01-30T02:20:00Z","temp":-1,"dewpoint":-2,"windDirection":80,"windSpeed":5.556,"visibility":4.35,"altim":29.498032,"flightCategory":"MVFR","metarType":"METAR","geometry_esri":{"x":53.53,"y":9.83,"z":13}}}