{"type":"Feature","geometry":{"type":"Point","coordinates":[53.53,9.83,13]},"properties":{"stationId":"EDHI","rawText":"EDHI 060050Z AUTO 22003KT 190V250 4900 // OVC022/// 01/M00 Q1026","observationTime":"2019-02-06T00:50:00Z","temp":1,"dewpoint":0,"windDirection":220,"windSpeed":5.556,"visibility":3.04,"altim":30.295275,"flightCategory":"MVFR","metarType":"METAR","geometry_esri":{"x":53.53,"y":9.83,"z":13}}}