{"type":"Feature","geometry":{"type":"Point","coordinates":[53.53,9.83,13]},"properties":{"stationId":"EDHI","rawText":"EDHI 140150Z AUTO 19010KT 150V220 9999 // BKN030/// BKN069/// OVC170/// 08/04 Q1006","observationTime":"2020-01-14T01:50:00Z","temp":8,"dewpoint":4,"windDirection":190,"windSpeed":18.52,"visibility":6.21,"altim":29.704725,"flightCategory":"MVFR","metarType":"METAR","geometry_esri":{"x":53.53,"y":9.83,"z":13}}}