{"type":"Feature","geometry":{"type":"Point","coordinates":[53.53,9.83,13]},"properties":{"stationId":"EDHI","rawText":"EDHI 131250Z 26012KT 2800 -DZ BKN006 07/06 Q1031","observationTime":"2019-02-13T12:50:00Z","temp":7,"dewpoint":6,"windDirection":260,"windSpeed":22.224,"visibility":1.74,"altim":30.442913,"flightCategory":"IFR","metarType":"METAR","geometry_esri":{"x":53.53,"y":9.83,"z":13}}}