{"type":"Feature","geometry":{"type":"Point","coordinates":[53.53,9.83,13]},"properties":{"stationId":"EDHI","rawText":"EDHI 201820Z 31007KT 9999 BKN029 BKN035 15/11 Q1026","observationTime":"2019-09-20T18:20:00Z","temp":15,"dewpoint":11,"windDirection":310,"windSpeed":12.964,"visibility":6.21,"altim":30.295275,"flightCategory":"MVFR","metarType":"METAR","geometry_esri":{"x":53.53,"y":9.83,"z":13}}}