{"type":"Feature","geometry":{"type":"Point","coordinates":[53.53,9.83,13]},"properties":{"stationId":"EDHI","rawText":"EDHI 200550Z 08007KT 060V120 CAVOK 06/M02 Q1027","observationTime":"2020-04-20T05:50:00Z","temp":6,"dewpoint":-2,"windDirection":80,"windSpeed":12.964,"visibility":6.21,"altim":30.324802,"flightCategory":"VFR","metarType":"METAR","geometry_esri":{"x":53.53,"y":9.83,"z":13}}}