{"type":"Feature","geometry":{"type":"Point","coordinates":[53.53,9.83,13]},"properties":{"stationId":"EDHI","rawText":"EDHI 082320Z AUTO VRB01KT 3800 // SCT021/// BKN042/// OVC061/// 07/07 Q1021","observationTime":"2020-01-08T23:20:00Z","temp":7,"dewpoint":7,"windDirection":0,"windSpeed":1.852,"visibility":2.36,"altim":30.147638,"flightCategory":"IFR","metarType":"METAR","geometry_esri":{"x":53.53,"y":9.83,"z":13}}}