{"type":"Feature","geometry":{"type":"Point","coordinates":[53.53,9.83,13]},"properties":{"stationId":"EDHI","rawText":"EDHI 061220Z AUTO 25009KT 5000 1800 // FEW008/// OVC015/// 16/15 Q1007","observationTime":"2019-07-06T12:20:00Z","temp":16,"dewpoint":15,"windDirection":250,"windSpeed":16.668,"visibility":3.11,"altim":29.734253,"flightCategory":"MVFR","metarType":"METAR","geometry_esri":{"x":53.53,"y":9.83,"z":13}}}