{"type":"Feature","geometry":{"type":"Point","coordinates":[53.53,9.83,13]},"properties":{"stationId":"EDHI","rawText":"EDHI 160050Z AUTO 26015KT 9999 // SCT013/// SCT040/// OVC055/// 07/06 Q1007","observationTime":"2019-01-16T00:50:00Z","temp":7,"dewpoint":6,"windDirection":260,"windSpeed":27.78,"visibility":6.21,"altim":29.734253,"flightCategory":"VFR","metarType":"METAR","geometry_esri":{"x":53.53,"y":9.83,"z":13}}}