{"type":"Feature","geometry":{"type":"Point","coordinates":[53.53,9.83,13]},"properties":{"stationId":"EDHI","rawText":"EDHI 060720Z AUTO 06006KT 2100 // FEW100/// BKN120/// 09/07 Q1008","observationTime":"2019-04-06T07:20:00Z","temp":9,"dewpoint":7,"windDirection":60,"windSpeed":11.112,"visibility":1.3,"altim":29.763779,"flightCategory":"IFR","metarType":"METAR","geometry_esri":{"x":53.53,"y":9.83,"z":13}}}