{"type":"Feature","geometry":{"type":"Point","coordinates":[53.53,9.83,13]},"properties":{"stationId":"EDHI","rawText":"EDHI 121520Z 29007KT 260V320 9999 FEW032 BKN048 07/02 Q1030","observationTime":"2019-02-12T15:20:00Z","temp":7,"dewpoint":2,"windDirection":290,"windSpeed":12.964,"visibility":6.21,"altim":30.413385,"flightCategory":"VFR","metarType":"METAR","geometry_esri":{"x":53.53,"y":9.83,"z":13}}}