{"type":"Feature","geometry":{"type":"Point","coordinates":[53.53,9.83,13]},"properties":{"stationId":"EDHI","rawText":"EDHI 070850Z AUTO 29016G27KT 260V320 9999 R/////// // SCT032/// BKN037/// OVC053/// 13/07 Q1011","observationTime":"2019-07-07T08:50:00Z","temp":13,"dewpoint":7,"windDirection":290,"windSpeed":29.632,"visibility":6.21,"altim":29.852362,"flightCategory":"VFR","metarType":"METAR","geometry_esri":{"x":53.53,"y":9.83,"z":13}}}