{"type":"Feature","geometry":{"type":"Point","coordinates":[53.53,9.83,13]},"properties":{"stationId":"EDHI","rawText":"EDHI 021650Z 23008KT 7000 -SHRA BKN040CB 09/07 Q1007","observationTime":"2019-10-02T16:50:00Z","temp":9,"dewpoint":7,"windDirection":230,"windSpeed":14.816,"visibility":4.35,"altim":29.734253,"flightCategory":"MVFR","metarType":"METAR","geometry_esri":{"x":53.53,"y":9.83,"z":13}}}