{"type":"Feature","geometry":{"type":"Point","coordinates":[53.53,9.83,13]},"properties":{"stationId":"EDHI","rawText":"EDHI 151020Z 28012KT 9999 BKN021 15/10 Q1017","observationTime":"2019-07-15T10:20:00Z","temp":15,"dewpoint":10,"windDirection":280,"windSpeed":22.224,"visibility":6.21,"altim":30.029528,"flightCategory":"MVFR","metarType":"METAR","geometry_esri":{"x":53.53,"y":9.83,"z":13}}}