{"type":"Feature","geometry":{"type":"Point","coordinates":[53.53,9.83,13]},"properties":{"stationId":"EDHI","rawText":"EDHI 301750Z 12009KT 070V170 3500 -SN SCT020 BKN023 OVC074 01/M02 Q0995","observationTime":"2019-01-30T17:50:00Z","temp":1,"dewpoint":-2,"windDirection":120,"windSpeed":16.668,"visibility":2.17,"altim":29.379921,"flightCategory":"IFR","metarType":"METAR","geometry_esri":{"x":53.53,"y":9.83,"z":13}}}