{"type":"Feature","geometry":{"type":"Point","coordinates":[53.53,9.83,13]},"properties":{"stationId":"EDHI","rawText":"EDHI 080350Z AUTO 25006KT 3700 // FEW011/// BKN023/// OVC028/// 11/10 Q1014","observationTime":"2019-07-08T03:50:00Z","temp":11,"dewpoint":10,"windDirection":250,"windSpeed":11.112,"visibility":2.3,"altim":29.940945,"flightCategory":"IFR","metarType":"METAR","geometry_esri":{"x":53.53,"y":9.83,"z":13}}}