{"type":"Feature","geometry":{"type":"Point","coordinates":[53.53,9.83,13]},"properties":{"stationId":"EDHI","rawText":"EDHI 040020Z AUTO 11003KT 050V150 9999 // SCT034/// BKN040/// OVC046/// 09/07 Q1012","observationTime":"2019-10-04T00:20:00Z","temp":9,"dewpoint":7,"windDirection":110,"windSpeed":5.556,"visibility":6.21,"altim":29.88189,"flightCategory":"VFR","metarType":"METAR","geometry_esri":{"x":53.53,"y":9.83,"z":13}}}