{"type":"Feature","geometry":{"type":"Point","coordinates":[53.53,9.83,13]},"properties":{"stationId":"EDHI","rawText":"EDHI 312120Z AUTO 26013KT 9999 // FEW011/// BKN018/// OVC021/// 08/06 Q1027","observationTime":"2018-12-31T21:20:00Z","temp":8,"dewpoint":6,"windDirection":260,"windSpeed":24.076,"visibility":6.21,"altim":30.324802,"flightCategory":"MVFR","metarType":"METAR","geometry_esri":{"x":53.53,"y":9.83,"z":13}}}