{"type":"Feature","geometry":{"type":"Point","coordinates":[53.53,9.83,13]},"properties":{"stationId":"EDHI","rawText":"EDHI 070220Z AUTO 30011KT 6000 // FEW006/// SCT008/// 03/02 Q1007","observationTime":"2020-03-07T02:20:00Z","temp":3,"dewpoint":2,"windDirection":300,"windSpeed":20.372,"visibility":3.73,"altim":29.734253,"flightCategory":"MVFR","metarType":"METAR","geometry_esri":{"x":53.53,"y":9.83,"z":13}}}