{"type":"Feature","geometry":{"type":"Point","coordinates":[53.53,9.83,13]},"properties":{"stationId":"EDHI","rawText":"EDHI 012320Z AUTO 11004KT 080V150 4000 // OVC006/// 06/05 Q0995","observationTime":"2019-11-01T23:20:00Z","temp":6,"dewpoint":5,"windDirection":110,"windSpeed":7.408,"visibility":2.49,"altim":29.379921,"flightCategory":"IFR","metarType":"METAR","geometry_esri":{"x":53.53,"y":9.83,"z":13}}}