{"type":"Feature","geometry":{"type":"Point","coordinates":[53.53,9.83,13]},"properties":{"stationId":"EDHI","rawText":"EDHI 081850Z AUTO 04011KT 9999 // FEW029/// 08/02 Q1014","observationTime":"2019-04-08T18:50:00Z","temp":8,"dewpoint":2,"windDirection":40,"windSpeed":20.372,"visibility":6.21,"altim":29.940945,"flightCategory":"VFR","metarType":"METAR","geometry_esri":{"x":53.53,"y":9.83,"z":13}}}