{"type":"Feature","geometry":{"type":"Point","coordinates":[53.53,9.83,13]},"properties":{"stationId":"EDHI","rawText":"EDHI 030120Z AUTO 17005KT 140V200 9999 // BKN072/// BKN220/// 10/07 Q1002","observationTime":"2019-04-03T01:20:00Z","temp":10,"dewpoint":7,"windDirection":170,"windSpeed":9.26,"visibility":6.21,"altim":29.586615,"flightCategory":"VFR","metarType":"METAR","geometry_esri":{"x":53.53,"y":9.83,"z":13}}}