{"type":"Feature","geometry":{"type":"Point","coordinates":[53.53,9.83,13]},"properties":{"stationId":"EDHI","rawText":"EDHI 062020Z AUTO 09007KT 050V120 9999 // NCD 08/03 Q1018","observationTime":"2019-10-06T20:20:00Z","temp":8,"dewpoint":3,"windDirection":90,"windSpeed":12.964,"visibility":6.21,"altim":30.059055,"flightCategory":"VFR","metarType":"METAR","geometry_esri":{"x":53.53,"y":9.83,"z":13}}}