{"type":"Feature","geometry":{"type":"Point","coordinates":[53.53,9.83,13]},"properties":{"stationId":"EDHI","rawText":"EDHI 030450Z AUTO VRB01KT 0200 0150 R05/0225N // SCT003/// 13/13 Q1014","observationTime":"2019-08-03T04:50:00Z","temp":13,"dewpoint":13,"windDirection":0,"windSpeed":1.852,"visibility":0.12,"altim":29.940945,"flightCategory":"LIFR","metarType":"METAR","geometry_esri":{"x":53.53,"y":9.83,"z":13}}}