{"type":"Feature","geometry":{"type":"Point","coordinates":[53.53,9.83,13]},"properties":{"stationId":"EDHI","rawText":"EDHI 252120Z AUTO 27006KT 3100 // NCD 05/03 Q1024","observationTime":"2019-03-25T21:20:00Z","temp":5,"dewpoint":3,"windDirection":270,"windSpeed":11.112,"visibility":1.93,"altim":30.236221,"flightCategory":"IFR","metarType":"METAR","geometry_esri":{"x":53.53,"y":9.83,"z":13}}}