{"type":"Feature","geometry":{"type":"Point","coordinates":[53.53,9.83,13]},"properties":{"stationId":"EDHI","rawText":"EDHI 160850Z 29013KT 250V320 9999 FEW009 SCT014 BKN018 16/14 Q1014","observationTime":"2019-07-16T08:50:00Z","temp":16,"dewpoint":14,"windDirection":290,"windSpeed":24.076,"visibility":6.21,"altim":29.940945,"flightCategory":"MVFR","metarType":"METAR","geometry_esri":{"x":53.53,"y":9.83,"z":13}}}