{"type":"Feature","geometry":{"type":"Point","coordinates":[53.53,9.83,13]},"properties":{"stationId":"EDHI","rawText":"EDHI 062020Z AUTO 31006KT 280V350 9999 // BKN130/// BKN150/// 14/10 Q1014","observationTime":"2019-06-06T20:20:00Z","temp":14,"dewpoint":10,"windDirection":310,"windSpeed":11.112,"visibility":6.21,"altim":29.940945,"flightCategory":"VFR","metarType":"METAR","geometry_esri":{"x":53.53,"y":9.83,"z":13}}}