{"type":"Feature","geometry":{"type":"Point","coordinates":[53.53,9.83,13]},"properties":{"stationId":"EDHI","rawText":"EDHI 221520Z 08010KT 040V110 CAVOK 18/M05 Q1025","observationTime":"2020-04-22T15:20:00Z","temp":18,"dewpoint":-5,"windDirection":80,"windSpeed":18.52,"visibility":6.21,"altim":30.265747,"flightCategory":"VFR","metarType":"METAR","geometry_esri":{"x":53.53,"y":9.83,"z":13}}}