{"type":"Feature","geometry":{"type":"Point","coordinates":[53.53,9.83,13]},"properties":{"stationId":"EDHI","rawText":"EDHI 060720Z 25010KT 9999 FEW017 20/15 Q1008","observationTime":"2019-08-06T07:20:00Z","temp":20,"dewpoint":15,"windDirection":250,"windSpeed":18.52,"visibility":6.21,"altim":29.763779,"flightCategory":"VFR","metarType":"METAR","geometry_esri":{"x":53.53,"y":9.83,"z":13}}}