{"type":"Feature","geometry":{"type":"Point","coordinates":[53.53,9.83,13]},"properties":{"stationId":"EDHI","rawText":"EDHI 180550Z 26015KT 9999 SCT026 BKN030 05/02 Q1012 RESHRA","observationTime":"2020-02-18T05:50:00Z","temp":5,"dewpoint":2,"windDirection":260,"windSpeed":27.78,"visibility":6.21,"altim":29.88189,"flightCategory":"MVFR","metarType":"METAR","geometry_esri":{"x":53.53,"y":9.83,"z":13}}}