{"type":"Feature","geometry":{"type":"Point","coordinates":[53.53,9.83,13]},"properties":{"stationId":"EDHI","rawText":"EDHI 120750Z 20008KT 4200 BR SCT009 OVC028 05/04 Q1000","observationTime":"2019-12-12T07:50:00Z","temp":5,"dewpoint":4,"windDirection":200,"windSpeed":14.816,"visibility":2.61,"altim":29.52756,"flightCategory":"IFR","metarType":"METAR","geometry_esri":{"x":53.53,"y":9.83,"z":13}}}