{"type":"Feature","geometry":{"type":"Point","coordinates":[53.53,9.83,13]},"properties":{"stationId":"EDHI","rawText":"EDHI 051820Z AUTO 07007KT 040V100 9999 // NCD 26/16 Q1006","observationTime":"2019-06-05T18:20:00Z","temp":26,"dewpoint":16,"windDirection":70,"windSpeed":12.964,"visibility":6.21,"altim":29.704725,"flightCategory":"VFR","metarType":"METAR","geometry_esri":{"x":53.53,"y":9.83,"z":13}}}