{"type":"Feature","geometry":{"type":"Point","coordinates":[53.53,9.83,13]},"properties":{"stationId":"EDHI","rawText":"EDHI 010620Z AUTO 25002KT 1900 // SCT018/// M01/M02 Q1033","observationTime":"2020-01-01T06:20:00Z","temp":-1,"dewpoint":-2,"windDirection":250,"windSpeed":3.704,"visibility":1.18,"altim":30.501968,"flightCategory":"IFR","metarType":"METAR","geometry_esri":{"x":53.53,"y":9.83,"z":13}}}