{"type":"Feature","geometry":{"type":"Point","coordinates":[53.53,9.83,13]},"properties":{"stationId":"EDHI","rawText":"EDHI 161850Z AUTO 21023G38KT 190V260 9999 // OVC052/// 17/08 Q0991","observationTime":"2020-02-16T18:50:00Z","temp":17,"dewpoint":8,"windDirection":210,"windSpeed":42.596000000000004,"visibility":6.21,"altim":29.26181,"flightCategory":"VFR","metarType":"METAR","geometry_esri":{"x":53.53,"y":9.83,"z":13}}}