{"type":"Feature","geometry":{"type":"Point","coordinates":[53.53,9.83,13]},"properties":{"stationId":"EDHI","rawText":"EDHI 251520Z 33009KT 9999 FEW029 SCT040 08/03 Q1018","observationTime":"2019-03-25T15:20:00Z","temp":8,"dewpoint":3,"windDirection":330,"windSpeed":16.668,"visibility":6.21,"altim":30.059055,"flightCategory":"VFR","metarType":"METAR","geometry_esri":{"x":53.53,"y":9.83,"z":13}}}