{"type":"Feature","geometry":{"type":"Point","coordinates":[53.53,9.83,13]},"properties":{"stationId":"EDHI","rawText":"EDHI 221620Z AUTO 12009KT 080V160 9999 // NCD 06/M06 Q1036","observationTime":"2020-03-22T16:20:00Z","temp":6,"dewpoint":-6,"windDirection":120,"windSpeed":16.668,"visibility":6.21,"altim":30.590551,"flightCategory":"VFR","metarType":"METAR","geometry_esri":{"x":53.53,"y":9.83,"z":13}}}