{"type":"Feature","geometry":{"type":"Point","coordinates":[53.53,9.83,13]},"properties":{"stationId":"EDHI","rawText":"EDHI 112120Z AUTO 08009KT 060V130 9999 // BKN026/// BKN040/// OVC061/// 04/M02 Q1027","observationTime":"2019-04-11T21:20:00Z","temp":4,"dewpoint":-2,"windDirection":80,"windSpeed":16.668,"visibility":6.21,"altim":30.324802,"flightCategory":"MVFR","metarType":"METAR","geometry_esri":{"x":53.53,"y":9.83,"z":13}}}