{"type":"Feature","geometry":{"type":"Point","coordinates":[53.53,9.83,13]},"properties":{"stationId":"EDHI","rawText":"EDHI 222120Z AUTO 34003KT 280V040 9999 // NCD 16/12 Q1025","observationTime":"2019-08-22T21:20:00Z","temp":16,"dewpoint":12,"windDirection":340,"windSpeed":5.556,"visibility":6.21,"altim":30.265747,"flightCategory":"VFR","metarType":"METAR","geometry_esri":{"x":53.53,"y":9.83,"z":13}}}