{"type":"Feature","geometry":{"type":"Point","coordinates":[53.53,9.83,13]},"properties":{"stationId":"EDHI","rawText":"EDHI 240750Z 25007KT 0900 R23/1400N FG VV/// 01/01 Q1022","observationTime":"2020-01-24T07:50:00Z","temp":1,"dewpoint":1,"windDirection":250,"windSpeed":12.964,"visibility":0.56,"altim":30.177166,"flightCategory":"LIFR","metarType":"METAR","geometry_esri":{"x":53.53,"y":9.83,"z":13}}}