{"type":"Feature","geometry":{"type":"Point","coordinates":[53.53,9.83,13]},"properties":{"stationId":"EDHI","rawText":"EDHI 192350Z AUTO 13005KT 9999 // FEW130/// BKN160/// BKN190/// 16/15 Q1007","observationTime":"2019-06-19T23:50:00Z","temp":16,"dewpoint":15,"windDirection":130,"windSpeed":9.26,"visibility":6.21,"altim":29.734253,"flightCategory":"VFR","metarType":"METAR","geometry_esri":{"x":53.53,"y":9.83,"z":13}}}