{"type":"Feature","geometry":{"type":"Point","coordinates":[53.53,9.83,13]},"properties":{"stationId":"EDHI","rawText":"EDHI 070350Z AUTO 28010KT 9999 // FEW035/// 13/09 Q1009","observationTime":"2019-07-07T03:50:00Z","temp":13,"dewpoint":9,"windDirection":280,"windSpeed":18.52,"visibility":6.21,"altim":29.793306,"flightCategory":"VFR","metarType":"METAR","geometry_esri":{"x":53.53,"y":9.83,"z":13}}}