{"type":"Feature","geometry":{"type":"Point","coordinates":[53.53,9.83,13]},"properties":{"stationId":"EDHI","rawText":"EDHI 111750Z 21010KT 180V240 4200 -RADZ SCT008 BKN022 OVC025 14/13 Q1019","observationTime":"2019-09-11T17:50:00Z","temp":14,"dewpoint":13,"windDirection":210,"windSpeed":18.52,"visibility":2.61,"altim":30.088583,"flightCategory":"IFR","metarType":"METAR","geometry_esri":{"x":53.53,"y":9.83,"z":13}}}