{"type":"Feature","geometry":{"type":"Point","coordinates":[53.53,9.83,13]},"properties":{"stationId":"EDHI","rawText":"EDHI 190050Z AUTO 23007KT 9999 // SCT078/// BKN095/// OVC110/// 18/13 Q1010","observationTime":"2019-07-19T00:50:00Z","temp":18,"dewpoint":13,"windDirection":230,"windSpeed":12.964,"visibility":6.21,"altim":29.822834,"flightCategory":"VFR","metarType":"METAR","geometry_esri":{"x":53.53,"y":9.83,"z":13}}}