{"type":"Feature","geometry":{"type":"Point","coordinates":[53.53,9.83,13]},"properties":{"stationId":"EDHI","rawText":"EDHI 071620Z AUTO 28014KT 9999 // SCT037/// SCT051/// OVC068/// 15/08 Q1013","observationTime":"2019-07-07T16:20:00Z","temp":15,"dewpoint":8,"windDirection":280,"windSpeed":25.928,"visibility":6.21,"altim":29.911417,"flightCategory":"VFR","metarType":"SPECI","geometry_esri":{"x":53.53,"y":9.83,"z":13}}}