{"type":"Feature","geometry":{"type":"Point","coordinates":[53.53,9.83,13]},"properties":{"stationId":"EDHI","rawText":"EDHI 181820Z 19006KT 140V220 9999 OVC024 06/04 Q1018","observationTime":"2019-12-18T18:20:00Z","temp":6,"dewpoint":4,"windDirection":190,"windSpeed":11.112,"visibility":6.21,"altim":30.059055,"flightCategory":"MVFR","metarType":"SPECI","geometry_esri":{"x":53.53,"y":9.83,"z":13}}}