{"type":"Feature","geometry":{"type":"Point","coordinates":[53.53,9.83,13]},"properties":{"stationId":"EDHI","rawText":"EDHI 092250Z AUTO 01010KT 9999 // OVC027/// 03/M03 Q1022","observationTime":"2019-01-09T22:50:00Z","temp":3,"dewpoint":-3,"windDirection":10,"windSpeed":18.52,"visibility":6.21,"altim":30.177166,"flightCategory":"MVFR","metarType":"METAR","geometry_esri":{"x":53.53,"y":9.83,"z":13}}}