{"type":"Feature","geometry":{"type":"Point","coordinates":[53.53,9.83,13]},"properties":{"stationId":"EDHI","rawText":"EDHI 272220Z AUTO 24008KT 7000 // FEW008/// BKN010/// OVC077/// 02/01 Q1003","observationTime":"2020-02-27T22:20:00Z","temp":2,"dewpoint":1,"windDirection":240,"windSpeed":14.816,"visibility":4.35,"altim":29.616142,"flightCategory":"MVFR","metarType":"METAR","geometry_esri":{"x":53.53,"y":9.83,"z":13}}}