{"type":"Feature","geometry":{"type":"Point","coordinates":[53.53,9.83,13]},"properties":{"stationId":"EDHI","rawText":"EDHI 171850Z 13003KT 100V160 CAVOK 13/12 Q1010","observationTime":"2019-10-17T18:50:00Z","temp":13,"dewpoint":12,"windDirection":130,"windSpeed":5.556,"visibility":6.21,"altim":29.822834,"flightCategory":"VFR","metarType":"METAR","geometry_esri":{"x":53.53,"y":9.83,"z":13}}}