{"type":"Feature","geometry":{"type":"Point","coordinates":[53.53,9.83,13]},"properties":{"stationId":"EDHI","rawText":"EDHI 190350Z AUTO 08005KT 050V110 9999 // NCD 05/01 Q1021","observationTime":"2020-04-19T03:50:00Z","temp":5,"dewpoint":1,"windDirection":80,"windSpeed":9.26,"visibility":6.21,"altim":30.147638,"flightCategory":"VFR","metarType":"METAR","geometry_esri":{"x":53.53,"y":9.83,"z":13}}}