{"type":"Feature","geometry":{"type":"Point","coordinates":[53.53,9.83,13]},"properties":{"stationId":"EDHI","rawText":"EDHI 170750Z 12003KT 090V160 1600 BR OVC002 01/00 Q1017","observationTime":"2018-12-17T07:50:00Z","temp":1,"dewpoint":0,"windDirection":120,"windSpeed":5.556,"visibility":0.99,"altim":30.029528,"flightCategory":"LIFR","metarType":"METAR","geometry_esri":{"x":53.53,"y":9.83,"z":13}}}