{"type":"Feature","geometry":{"type":"Point","coordinates":[53.53,9.83,13]},"properties":{"stationId":"EDHI","rawText":"EDHI 051050Z VRB03KT 5000 BR BKN013 10/07 Q1005","observationTime":"2019-04-05T10:50:00Z","temp":10,"dewpoint":7,"windDirection":0,"windSpeed":5.556,"visibility":3.11,"altim":29.675198,"flightCategory":"MVFR","metarType":"METAR","geometry_esri":{"x":53.53,"y":9.83,"z":13}}}