{"type":"Feature","geometry":{"type":"Point","coordinates":[53.53,9.83,13]},"properties":{"stationId":"EDHI","rawText":"EDHI 151050Z 28014KT 260V330 CAVOK 13/05 Q1022","observationTime":"2020-04-15T10:50:00Z","temp":13,"dewpoint":5,"windDirection":280,"windSpeed":25.928,"visibility":6.21,"altim":30.177166,"flightCategory":"VFR","metarType":"METAR","geometry_esri":{"x":53.53,"y":9.83,"z":13}}}