{"type":"Feature","geometry":{"type":"Point","coordinates":[53.53,9.83,13]},"properties":{"stationId":"EDHI","rawText":"EDHI 052250Z AUTO 22005KT 4400 // NCD 01/00 Q1026","observationTime":"2019-02-05T22:50:00Z","temp":1,"dewpoint":0,"windDirection":220,"windSpeed":9.26,"visibility":2.73,"altim":30.295275,"flightCategory":"IFR","metarType":"METAR","geometry_esri":{"x":53.53,"y":9.83,"z":13}}}