{"type":"Feature","geometry":{"type":"Point","coordinates":[53.53,9.83,13]},"properties":{"stationId":"EDHI","rawText":"EDHI 160350Z AUTO 27014KT 9999 // BKN024/// OVC041/// 06/03 Q1004","observationTime":"2019-03-16T03:50:00Z","temp":6,"dewpoint":3,"windDirection":270,"windSpeed":25.928,"visibility":6.21,"altim":29.64567,"flightCategory":"MVFR","metarType":"METAR","geometry_esri":{"x":53.53,"y":9.83,"z":13}}}