{"type":"Feature","geometry":{"type":"Point","coordinates":[53.53,9.83,13]},"properties":{"stationId":"EDHI","rawText":"EDHI 010020Z AUTO 09006KT 050V130 9999 // NCD M01/M03 Q0997","observationTime":"2019-02-01T00:20:00Z","temp":-1,"dewpoint":-3,"windDirection":90,"windSpeed":11.112,"visibility":6.21,"altim":29.438976,"flightCategory":"VFR","metarType":"METAR","geometry_esri":{"x":53.53,"y":9.83,"z":13}}}