{"type":"Feature","geometry":{"type":"Point","coordinates":[53.53,9.83,13]},"properties":{"stationId":"EDHI","rawText":"EDHI 121050Z 25023KT 9999 VCSH FEW021 BKN025 05/02 Q1003","observationTime":"2020-02-12T10:50:00Z","temp":5,"dewpoint":2,"windDirection":250,"windSpeed":42.596000000000004,"visibility":6.21,"altim":29.616142,"flightCategory":"MVFR","metarType":"METAR","geometry_esri":{"x":53.53,"y":9.83,"z":13}}}