{"type":"Feature","geometry":{"type":"Point","coordinates":[53.53,9.83,13]},"properties":{"stationId":"EDHI","rawText":"EDHI 270320Z AUTO 26003KT 0300 R23/0400N // FEW001/// BKN003/// BKN220/// 09/09 Q1011","observationTime":"2019-04-27T03:20:00Z","temp":9,"dewpoint":9,"windDirection":260,"windSpeed":5.556,"visibility":0.19,"altim":29.852362,"flightCategory":"LIFR","metarType":"METAR","geometry_esri":{"x":53.53,"y":9.83,"z":13}}}