{"type":"Feature","geometry":{"type":"Point","coordinates":[53.53,9.83,13]},"properties":{"stationId":"EDHI","rawText":"EDHI 310350Z AUTO 25006KT 7000 // FEW009/// SCT027/// OVC180/// 15/14 Q1020","observationTime":"2019-05-31T03:50:00Z","temp":15,"dewpoint":14,"windDirection":250,"windSpeed":11.112,"visibility":4.35,"altim":30.11811,"flightCategory":"MVFR","metarType":"METAR","geometry_esri":{"x":53.53,"y":9.83,"z":13}}}