{"type":"Feature","geometry":{"type":"Point","coordinates":[53.53,9.83,13]},"properties":{"stationId":"EDHI","rawText":"EDHI 271620Z 08015KT 050V130 9999 -TSRA SCT048CB 28/16 Q1015","observationTime":"2019-08-27T16:20:00Z","temp":28,"dewpoint":16,"windDirection":80,"windSpeed":27.78,"visibility":6.21,"altim":29.970472,"flightCategory":"VFR","metarType":"METAR","geometry_esri":{"x":53.53,"y":9.83,"z":13}}}