{"type":"Feature","geometry":{"type":"Point","coordinates":[53.53,9.83,13]},"properties":{"stationId":"EDHI","rawText":"EDHI 040350Z AUTO 21007KT 9999 // FEW099/// M02/M03 Q1024","observationTime":"2019-02-04T03:50:00Z","temp":-2,"dewpoint":-3,"windDirection":210,"windSpeed":12.964,"visibility":6.21,"altim":30.236221,"flightCategory":"VFR","metarType":"METAR","geometry_esri":{"x":53.53,"y":9.83,"z":13}}}