{"type":"Feature","geometry":{"type":"Point","coordinates":[53.53,9.83,13]},"properties":{"stationId":"EDHI","rawText":"EDHI 181150Z 19006KT 160V220 8000 BKN009 BKN027 07/05 Q1022","observationTime":"2018-12-18T11:50:00Z","temp":7,"dewpoint":5,"windDirection":190,"windSpeed":11.112,"visibility":4.97,"altim":30.177166,"flightCategory":"IFR","metarType":"METAR","geometry_esri":{"x":53.53,"y":9.83,"z":13}}}