{"type":"Feature","geometry":{"type":"Point","coordinates":[53.53,9.83,13]},"properties":{"stationId":"EDHI","rawText":"EDHI 301150Z 17004KT 130V230 9999 FEW028 09/01 Q1031","observationTime":"2019-10-30T11:50:00Z","temp":9,"dewpoint":1,"windDirection":170,"windSpeed":7.408,"visibility":6.21,"altim":30.442913,"flightCategory":"VFR","metarType":"METAR","geometry_esri":{"x":53.53,"y":9.83,"z":13}}}