{"type":"Feature","geometry":{"type":"Point","coordinates":[53.53,9.83,13]},"properties":{"stationId":"EDHI","rawText":"EDHI 291750Z AUTO 23015KT 7000 // BKN008/// OVC011/// 08/07 Q1016","observationTime":"2018-12-29T17:50:00Z","temp":8,"dewpoint":7,"windDirection":230,"windSpeed":27.78,"visibility":4.35,"altim":30,"flightCategory":"IFR","metarType":"METAR","geometry_esri":{"x":53.53,"y":9.83,"z":13}}}