{"type":"Feature","geometry":{"type":"Point","coordinates":[53.53,9.83,13]},"properties":{"stationId":"EDHI","rawText":"EDHI 111950Z AUTO 14008KT 110V180 9999 // OVC130/// 03/02 Q1002","observationTime":"2019-11-11T19:50:00Z","temp":3,"dewpoint":2,"windDirection":140,"windSpeed":14.816,"visibility":6.21,"altim":29.586615,"flightCategory":"VFR","metarType":"METAR","geometry_esri":{"x":53.53,"y":9.83,"z":13}}}