{"type":"Feature","geometry":{"type":"Point","coordinates":[53.53,9.83,13]},"properties":{"stationId":"EDHI","rawText":"EDHI 141620Z 07011KT 020V100 CAVOK 14/M01 Q1031","observationTime":"2019-05-14T16:20:00Z","temp":14,"dewpoint":-1,"windDirection":70,"windSpeed":20.372,"visibility":6.21,"altim":30.442913,"flightCategory":"VFR","metarType":"METAR","geometry_esri":{"x":53.53,"y":9.83,"z":13}}}