{"type":"Feature","geometry":{"type":"Point","coordinates":[53.53,9.83,13]},"properties":{"stationId":"EDHI","rawText":"EDHI 171120Z 09011KT 060V140 CAVOK 15/M04 Q1027","observationTime":"2019-04-17T11:20:00Z","temp":15,"dewpoint":-4,"windDirection":90,"windSpeed":20.372,"visibility":6.21,"altim":30.324802,"flightCategory":"VFR","metarType":"METAR","geometry_esri":{"x":53.53,"y":9.83,"z":13}}}