{"type":"Feature","geometry":{"type":"Point","coordinates":[53.53,9.83,13]},"properties":{"stationId":"EDHI","rawText":"EDHI 162220Z AUTO 27009KT 9999 // FEW059/// OVC120/// 10/07 Q1020","observationTime":"2020-05-16T22:20:00Z","temp":10,"dewpoint":7,"windDirection":270,"windSpeed":16.668,"visibility":6.21,"altim":30.11811,"flightCategory":"VFR","metarType":"METAR","geometry_esri":{"x":53.53,"y":9.83,"z":13}}}