{"type":"Feature","geometry":{"type":"Point","coordinates":[53.53,9.83,13]},"properties":{"stationId":"EDHI","rawText":"EDHI 120050Z AUTO 24005KT 210V270 9999 // FEW031/// 02/M02 Q1015","observationTime":"2020-05-12T00:50:00Z","temp":2,"dewpoint":-2,"windDirection":240,"windSpeed":9.26,"visibility":6.21,"altim":29.970472,"flightCategory":"VFR","metarType":"METAR","geometry_esri":{"x":53.53,"y":9.83,"z":13}}}