{"type":"Feature","geometry":{"type":"Point","coordinates":[53.53,9.83,13]},"properties":{"stationId":"EDHI","rawText":"EDHI 240520Z 12007KT 090V160 3000 BR OVC004 13/12 Q1007","observationTime":"2019-10-24T05:20:00Z","temp":13,"dewpoint":12,"windDirection":120,"windSpeed":12.964,"visibility":1.86,"altim":29.734253,"flightCategory":"LIFR","metarType":"METAR","geometry_esri":{"x":53.53,"y":9.83,"z":13}}}