{"type":"Feature","geometry":{"type":"Point","coordinates":[53.53,9.83,13]},"properties":{"stationId":"EDHI","rawText":"EDHI 290920Z AUTO 19008KT 150V210 9000 // SCT006/// BKN009/// OVC015/// 13/12 Q1001","observationTime":"2019-09-29T09:20:00Z","temp":13,"dewpoint":12,"windDirection":190,"windSpeed":14.816,"visibility":5.59,"altim":29.557087,"flightCategory":"IFR","metarType":"METAR","geometry_esri":{"x":53.53,"y":9.83,"z":13}}}