{"type":"Feature","geometry":{"type":"Point","coordinates":[53.53,9.83,13]},"properties":{"stationId":"EDHI","rawText":"EDHI 101450Z 27023G40KT 250V310 9999 VCSH SCT027 SCT033CB 07/01 Q0991","observationTime":"2020-02-10T14:50:00Z","temp":7,"dewpoint":1,"windDirection":270,"windSpeed":42.596000000000004,"visibility":6.21,"altim":29.26181,"flightCategory":"VFR","metarType":"METAR","geometry_esri":{"x":53.53,"y":9.83,"z":13}}}