{"type":"Feature","geometry":{"type":"Point","coordinates":[53.53,9.83,13]},"properties":{"stationId":"EDHI","rawText":"EDHI 041820Z AUTO 08009KT 050V120 9999 1900 // OVC009/// 09/08 Q1006","observationTime":"2019-10-04T18:20:00Z","temp":9,"dewpoint":8,"windDirection":80,"windSpeed":16.668,"visibility":6.21,"altim":29.704725,"flightCategory":"IFR","metarType":"METAR","geometry_esri":{"x":53.53,"y":9.83,"z":13}}}