{"type":"Feature","geometry":{"type":"Point","coordinates":[53.53,9.83,13]},"properties":{"stationId":"EDHI","rawText":"EDHI 230620Z 00000KT CAVOK 17/13 Q1026","observationTime":"2019-08-23T06:20:00Z","temp":17,"dewpoint":13,"windDirection":0,"windSpeed":0,"visibility":6.21,"altim":30.295275,"flightCategory":"VFR","metarType":"METAR","geometry_esri":{"x":53.53,"y":9.83,"z":13}}}