{"type":"Feature","geometry":{"type":"Point","coordinates":[53.53,9.83,13]},"properties":{"stationId":"EDHI","rawText":"EDHI 161650Z AUTO 13004KT 110V180 6000 // OVC026/// M00/M03 Q1012","observationTime":"2018-12-16T16:50:00Z","temp":0,"dewpoint":-3,"windDirection":130,"windSpeed":7.408,"visibility":3.73,"altim":29.88189,"flightCategory":"MVFR","metarType":"METAR","geometry_esri":{"x":53.53,"y":9.83,"z":13}}}