{"type":"Feature","geometry":{"type":"Point","coordinates":[53.53,9.83,13]},"properties":{"stationId":"EDHI","rawText":"EDHI 240620Z 34008KT 9999 FEW025 BKN038 01/M01 Q1023","observationTime":"2018-12-24T06:20:00Z","temp":1,"dewpoint":-1,"windDirection":340,"windSpeed":14.816,"visibility":6.21,"altim":30.206694,"flightCategory":"VFR","metarType":"METAR","geometry_esri":{"x":53.53,"y":9.83,"z":13}}}