{"type":"Feature","geometry":{"type":"Point","coordinates":[53.53,9.83,13]},"properties":{"stationId":"EDHI","rawText":"EDHI 010320Z AUTO 19005KT 130V240 9999 // BKN016/// BKN022/// OVC027/// 09/07 Q0998","observationTime":"2020-05-01T03:20:00Z","temp":9,"dewpoint":7,"windDirection":190,"windSpeed":9.26,"visibility":6.21,"altim":29.468504,"flightCategory":"MVFR","metarType":"METAR","geometry_esri":{"x":53.53,"y":9.83,"z":13}}}