{"type":"Feature","geometry":{"type":"Point","coordinates":[53.53,9.83,13]},"properties":{"stationId":"EDHI","rawText":"EDHI 190820Z AUTO 09008KT 060V130 9999 // NCD 11/M04 Q1023","observationTime":"2020-04-19T08:20:00Z","temp":11,"dewpoint":-4,"windDirection":90,"windSpeed":14.816,"visibility":6.21,"altim":30.206694,"flightCategory":"VFR","metarType":"METAR","geometry_esri":{"x":53.53,"y":9.83,"z":13}}}