{"type":"Feature","geometry":{"type":"Point","coordinates":[53.53,9.83,13]},"properties":{"stationId":"EDHI","rawText":"EDHI 200720Z 05006KT 020V090 9999 OVC006 14/12 Q1005","observationTime":"2019-05-20T07:20:00Z","temp":14,"dewpoint":12,"windDirection":50,"windSpeed":11.112,"visibility":6.21,"altim":29.675198,"flightCategory":"IFR","metarType":"METAR","geometry_esri":{"x":53.53,"y":9.83,"z":13}}}