{"type":"Feature","geometry":{"type":"Point","coordinates":[53.53,9.83,13]},"properties":{"stationId":"EDHI","rawText":"EDHI 242150Z AUTO 23016KT 1500 0900 R23/P2000N // OVC008/// 09/08 Q0996","observationTime":"2020-02-24T21:50:00Z","temp":9,"dewpoint":8,"windDirection":230,"windSpeed":29.632,"visibility":0.93,"altim":29.409449,"flightCategory":"LIFR","metarType":"METAR","geometry_esri":{"x":53.53,"y":9.83,"z":13}}}