{"type":"Feature","geometry":{"type":"Point","coordinates":[53.53,9.83,13]},"properties":{"stationId":"EDHI","rawText":"EDHI 021920Z 25015KT 9999 -SHRA BKN014CB 10/08 Q1006","observationTime":"2019-10-02T19:20:00Z","temp":10,"dewpoint":8,"windDirection":250,"windSpeed":27.78,"visibility":6.21,"altim":29.704725,"flightCategory":"MVFR","metarType":"METAR","geometry_esri":{"x":53.53,"y":9.83,"z":13}}}