{"type":"Feature","geometry":{"type":"Point","coordinates":[53.53,9.83,13]},"properties":{"stationId":"EDHI","rawText":"EDHI 011050Z AUTO 25012KT 220V280 9999 // FEW036/// 22/13 Q1020","observationTime":"2019-06-01T10:50:00Z","temp":22,"dewpoint":13,"windDirection":250,"windSpeed":22.224,"visibility":6.21,"altim":30.11811,"flightCategory":"VFR","metarType":"METAR","geometry_esri":{"x":53.53,"y":9.83,"z":13}}}