{"type":"Feature","geometry":{"type":"Point","coordinates":[53.53,9.83,13]},"properties":{"stationId":"EDHI","rawText":"EDHI 310920Z AUTO 34011KT 310V010 9999 // SCT033/// BKN210/// 07/M00 Q1025","observationTime":"2019-03-31T09:20:00Z","temp":7,"dewpoint":0,"windDirection":340,"windSpeed":20.372,"visibility":6.21,"altim":30.265747,"flightCategory":"VFR","metarType":"METAR","geometry_esri":{"x":53.53,"y":9.83,"z":13}}}