{"type":"Feature","geometry":{"type":"Point","coordinates":[53.53,9.83,13]},"properties":{"stationId":"EDHI","rawText":"EDHI 191120Z 29008KT 260V330 9999 SCT037 15/07 Q1029","observationTime":"2019-09-19T11:20:00Z","temp":15,"dewpoint":7,"windDirection":290,"windSpeed":14.816,"visibility":6.21,"altim":30.383858,"flightCategory":"VFR","metarType":"METAR","geometry_esri":{"x":53.53,"y":9.83,"z":13}}}