{"type":"Feature","geometry":{"type":"Point","coordinates":[53.53,9.83,13]},"properties":{"stationId":"EDHI","rawText":"EDHI 010150Z AUTO 23005KT 9999 // FEW100/// BKN120/// OVC180/// 20/15 Q1007","observationTime":"2019-09-01T01:50:00Z","temp":20,"dewpoint":15,"windDirection":230,"windSpeed":9.26,"visibility":6.21,"altim":29.734253,"flightCategory":"VFR","metarType":"METAR","geometry_esri":{"x":53.53,"y":9.83,"z":13}}}