{"type":"Feature","geometry":{"type":"Point","coordinates":[53.53,9.83,13]},"properties":{"stationId":"EDHI","rawText":"EDHI 112150Z AUTO 23011KT 7000 // OVC006/// 14/13 Q1020","observationTime":"2019-09-11T21:50:00Z","temp":14,"dewpoint":13,"windDirection":230,"windSpeed":20.372,"visibility":4.35,"altim":30.11811,"flightCategory":"IFR","metarType":"METAR","geometry_esri":{"x":53.53,"y":9.83,"z":13}}}