{"type":"Feature","geometry":{"type":"Point","coordinates":[53.53,9.83,13]},"properties":{"stationId":"EDHI","rawText":"EDHI 300020Z AUTO 10003KT 080V140 9999 // NCD 20/13 Q1013","observationTime":"2019-06-30T00:20:00Z","temp":20,"dewpoint":13,"windDirection":100,"windSpeed":5.556,"visibility":6.21,"altim":29.911417,"flightCategory":"VFR","metarType":"METAR","geometry_esri":{"x":53.53,"y":9.83,"z":13}}}