{"type":"Feature","geometry":{"type":"Point","coordinates":[53.53,9.83,13]},"properties":{"stationId":"EDHI","rawText":"EDHI 121150Z 24018KT 2500 -RA BR OVC006 06/05 Q1008","observationTime":"2019-01-12T11:50:00Z","temp":6,"dewpoint":5,"windDirection":240,"windSpeed":33.336,"visibility":1.55,"altim":29.763779,"flightCategory":"IFR","metarType":"METAR","geometry_esri":{"x":53.53,"y":9.83,"z":13}}}