{"type":"Feature","geometry":{"type":"Point","coordinates":[53.53,9.83,13]},"properties":{"stationId":"EDHI","rawText":"EDHI 111220Z 16009KT 130V200 CAVOK 06/02 Q1006","observationTime":"2019-11-11T12:20:00Z","temp":6,"dewpoint":2,"windDirection":160,"windSpeed":16.668,"visibility":6.21,"altim":29.704725,"flightCategory":"VFR","metarType":"METAR","geometry_esri":{"x":53.53,"y":9.83,"z":13}}}