{"type":"Feature","geometry":{"type":"Point","coordinates":[53.53,9.83,13]},"properties":{"stationId":"EDHI","rawText":"EDHI 222050Z AUTO 10010G24KT 060V140 9999 // NCD 15/01 Q1013","observationTime":"2019-04-22T20:50:00Z","temp":15,"dewpoint":1,"windDirection":100,"windSpeed":18.52,"visibility":6.21,"altim":29.911417,"flightCategory":"VFR","metarType":"METAR","geometry_esri":{"x":53.53,"y":9.83,"z":13}}}