{"type":"Feature","geometry":{"type":"Point","coordinates":[53.53,9.83,13]},"properties":{"stationId":"EDHI","rawText":"EDHI 172350Z AUTO 24021KT 3700 // BKN020/// OVC042/// 05/01 Q1002","observationTime":"2019-03-17T23:50:00Z","temp":5,"dewpoint":1,"windDirection":240,"windSpeed":38.892,"visibility":2.3,"altim":29.586615,"flightCategory":"IFR","metarType":"METAR","geometry_esri":{"x":53.53,"y":9.83,"z":13}}}