{"type":"Feature","geometry":{"type":"Point","coordinates":[53.53,9.83,13]},"properties":{"stationId":"EDHI","rawText":"EDHI 032350Z AUTO 23012KT 200V270 4700 1800 // BKN006/// BKN009/// OVC058/// 08/07 Q1000","observationTime":"2019-04-03T23:50:00Z","temp":8,"dewpoint":7,"windDirection":230,"windSpeed":22.224,"visibility":2.92,"altim":29.52756,"flightCategory":"IFR","metarType":"METAR","geometry_esri":{"x":53.53,"y":9.83,"z":13}}}