{"type":"Feature","geometry":{"type":"Point","coordinates":[53.53,9.83,13]},"properties":{"stationId":"EDHI","rawText":"EDHI 070820Z AUTO 30017KT 270V330 9999 R/////// // BKN037/// OVC049/// 14/07 Q1011","observationTime":"2019-07-07T08:20:00Z","temp":14,"dewpoint":7,"windDirection":300,"windSpeed":31.484,"visibility":6.21,"altim":29.852362,"flightCategory":"VFR","metarType":"METAR","geometry_esri":{"x":53.53,"y":9.83,"z":13}}}