{"type":"Feature","geometry":{"type":"Point","coordinates":[53.53,9.83,13]},"properties":{"stationId":"EDHI","rawText":"EDHI 291750Z 24003KT CAVOK 13/07 Q1027","observationTime":"2019-03-29T17:50:00Z","temp":13,"dewpoint":7,"windDirection":240,"windSpeed":5.556,"visibility":6.21,"altim":30.324802,"flightCategory":"VFR","metarType":"METAR","geometry_esri":{"x":53.53,"y":9.83,"z":13}}}