{"type":"Feature","geometry":{"type":"Point","coordinates":[53.53,9.83,13]},"properties":{"stationId":"EDHI","rawText":"EDHI 151050Z 34009KT 280V010 9999 VCSH FEW015 BKN029 09/05 Q1019","observationTime":"2020-05-15T10:50:00Z","temp":9,"dewpoint":5,"windDirection":340,"windSpeed":16.668,"visibility":6.21,"altim":30.088583,"flightCategory":"MVFR","metarType":"METAR","geometry_esri":{"x":53.53,"y":9.83,"z":13}}}