{"type":"Feature","geometry":{"type":"Point","coordinates":[53.53,9.83,13]},"properties":{"stationId":"EDHI","rawText":"EDHI 121750Z 25004KT CAVOK 18/12 Q1025","observationTime":"2019-09-12T17:50:00Z","temp":18,"dewpoint":12,"windDirection":250,"windSpeed":7.408,"visibility":6.21,"altim":30.265747,"flightCategory":"VFR","metarType":"METAR","geometry_esri":{"x":53.53,"y":9.83,"z":13}}}