{"type":"Feature","geometry":{"type":"Point","coordinates":[53.53,9.83,13]},"properties":{"stationId":"EDHI","rawText":"EDHI 291820Z AUTO 24008KT 9999 // FEW016/// BKN086/// BKN100/// 12/10 Q1004","observationTime":"2020-04-29T18:20:00Z","temp":12,"dewpoint":10,"windDirection":240,"windSpeed":14.816,"visibility":6.21,"altim":29.64567,"flightCategory":"VFR","metarType":"METAR","geometry_esri":{"x":53.53,"y":9.83,"z":13}}}