{"type":"Feature","geometry":{"type":"Point","coordinates":[53.53,9.83,13]},"properties":{"stationId":"EDHI","rawText":"EDHI 151720Z AUTO 26012KT 9999 // BKN022/// BKN025/// BKN036/// 20/16 Q1012","observationTime":"2019-06-15T17:20:00Z","temp":20,"dewpoint":16,"windDirection":260,"windSpeed":22.224,"visibility":6.21,"altim":29.88189,"flightCategory":"MVFR","metarType":"METAR","geometry_esri":{"x":53.53,"y":9.83,"z":13}}}