{"type":"Feature","geometry":{"type":"Point","coordinates":[53.53,9.83,13]},"properties":{"stationId":"EDHI","rawText":"EDHI 220520Z AUTO 10006KT 070V130 9999 // NCD 11/08 Q1014","observationTime":"2019-09-22T05:20:00Z","temp":11,"dewpoint":8,"windDirection":100,"windSpeed":11.112,"visibility":6.21,"altim":29.940945,"flightCategory":"VFR","metarType":"METAR","geometry_esri":{"x":53.53,"y":9.83,"z":13}}}