{"type":"Feature","geometry":{"type":"Point","coordinates":[53.53,9.83,13]},"properties":{"stationId":"EDHI","rawText":"EDHI 221320Z AUTO 04006KT 310V110 9999 // FEW056/// 22/09 Q1023","observationTime":"2019-06-22T13:20:00Z","temp":22,"dewpoint":9,"windDirection":40,"windSpeed":11.112,"visibility":6.21,"altim":30.206694,"flightCategory":"VFR","metarType":"METAR","geometry_esri":{"x":53.53,"y":9.83,"z":13}}}