{"type":"Feature","geometry":{"type":"Point","coordinates":[53.53,9.83,13]},"properties":{"stationId":"EDHI","rawText":"EDHI 130520Z AUTO 33004KT 5000 // SCT008/// BKN068/// OVC110/// 17/15 Q1012","observationTime":"2019-07-13T05:20:00Z","temp":17,"dewpoint":15,"windDirection":330,"windSpeed":7.408,"visibility":3.11,"altim":29.88189,"flightCategory":"MVFR","metarType":"METAR","geometry_esri":{"x":53.53,"y":9.83,"z":13}}}