{"type":"Feature","geometry":{"type":"Point","coordinates":[53.53,9.83,13]},"properties":{"stationId":"EDHI","rawText":"EDHI 050550Z AUTO 02009KT 9999 // FEW065/// 07/06 Q1013","observationTime":"2019-10-05T05:50:00Z","temp":7,"dewpoint":6,"windDirection":20,"windSpeed":16.668,"visibility":6.21,"altim":29.911417,"flightCategory":"VFR","metarType":"METAR","geometry_esri":{"x":53.53,"y":9.83,"z":13}}}