{"type":"Feature","geometry":{"type":"Point","coordinates":[53.53,9.83,13]},"properties":{"stationId":"EDHI","rawText":"EDHI 012050Z AUTO 35004KT 320V030 9999 // FEW041/// BKN059/// OVC091/// 09/08 Q1000","observationTime":"2019-10-01T20:50:00Z","temp":9,"dewpoint":8,"windDirection":350,"windSpeed":7.408,"visibility":6.21,"altim":29.52756,"flightCategory":"VFR","metarType":"METAR","geometry_esri":{"x":53.53,"y":9.83,"z":13}}}