{"type":"Feature","geometry":{"type":"Point","coordinates":[53.53,9.83,13]},"properties":{"stationId":"EDHI","rawText":"EDHI 011750Z 29020G30KT CAVOK 18/11 Q1015","observationTime":"2019-07-01T17:50:00Z","temp":18,"dewpoint":11,"windDirection":290,"windSpeed":37.04,"visibility":6.21,"altim":29.970472,"flightCategory":"VFR","metarType":"METAR","geometry_esri":{"x":53.53,"y":9.83,"z":13}}}