{"type":"Feature","geometry":{"type":"Point","coordinates":[53.53,9.83,13]},"properties":{"stationId":"EDHI","rawText":"EDHI 300720Z VRB02KT CAVOK 09/07 Q1022","observationTime":"2019-03-30T07:20:00Z","temp":9,"dewpoint":7,"windDirection":0,"windSpeed":3.704,"visibility":6.21,"altim":30.177166,"flightCategory":"VFR","metarType":"METAR","geometry_esri":{"x":53.53,"y":9.83,"z":13}}}