{"type":"Feature","geometry":{"type":"Point","coordinates":[53.53,9.83,13]},"properties":{"stationId":"EDHI","rawText":"EDHI 271550Z AUTO 05018KT 9999 // FEW076/// 27/15 Q1004","observationTime":"2019-07-27T15:50:00Z","temp":27,"dewpoint":15,"windDirection":50,"windSpeed":33.336,"visibility":6.21,"altim":29.64567,"flightCategory":"VFR","metarType":"METAR","geometry_esri":{"x":53.53,"y":9.83,"z":13}}}