{"type":"Feature","geometry":{"type":"Point","coordinates":[53.53,9.83,13]},"properties":{"stationId":"EDHI","rawText":"EDHI 081650Z AUTO 26017KT 9999 // FEW022/// SCT046/// BKN055/// 09/05 Q0994","observationTime":"2019-12-08T16:50:00Z","temp":9,"dewpoint":5,"windDirection":260,"windSpeed":31.484,"visibility":6.21,"altim":29.350393,"flightCategory":"VFR","metarType":"METAR","geometry_esri":{"x":53.53,"y":9.83,"z":13}}}