{"type":"Feature","geometry":{"type":"Point","coordinates":[53.53,9.83,13]},"properties":{"stationId":"EDHI","rawText":"EDHI 050950Z 36010KT 330V050 9999 SCT043 11/M02 Q1021","observationTime":"2020-05-05T09:50:00Z","temp":11,"dewpoint":-2,"windDirection":360,"windSpeed":18.52,"visibility":6.21,"altim":30.147638,"flightCategory":"VFR","metarType":"METAR","geometry_esri":{"x":53.53,"y":9.83,"z":13}}}