{"type":"Feature","geometry":{"type":"Point","coordinates":[53.53,9.83,13]},"properties":{"stationId":"EDHI","rawText":"EDHI 220350Z 29014KT 270V330 5000 -RA OVC006 11/10 Q1012","observationTime":"2019-05-22T03:50:00Z","temp":11,"dewpoint":10,"windDirection":290,"windSpeed":25.928,"visibility":3.11,"altim":29.88189,"flightCategory":"IFR","metarType":"METAR","geometry_esri":{"x":53.53,"y":9.83,"z":13}}}