{"type":"Feature","geometry":{"type":"Point","coordinates":[53.53,9.83,13]},"properties":{"stationId":"EDHI","rawText":"EDHI 160050Z AUTO 21003KT 180V240 9999 // FEW018/// 12/11 Q1017","observationTime":"2019-06-16T00:50:00Z","temp":12,"dewpoint":11,"windDirection":210,"windSpeed":5.556,"visibility":6.21,"altim":30.029528,"flightCategory":"VFR","metarType":"METAR","geometry_esri":{"x":53.53,"y":9.83,"z":13}}}