{"type":"Feature","geometry":{"type":"Point","coordinates":[53.53,9.83,13]},"properties":{"stationId":"EDHI","rawText":"EDHI 211650Z AUTO 11003KT 060V150 9999 // NCD 19/11 Q1018","observationTime":"2019-09-21T16:50:00Z","temp":19,"dewpoint":11,"windDirection":110,"windSpeed":5.556,"visibility":6.21,"altim":30.059055,"flightCategory":"VFR","metarType":"METAR","geometry_esri":{"x":53.53,"y":9.83,"z":13}}}