{"type":"Feature","geometry":{"type":"Point","coordinates":[53.53,9.83,13]},"properties":{"stationId":"EDHI","rawText":"EDHI 020750Z 20006KT 180V240 CAVOK 05/03 Q0992","observationTime":"2020-03-02T07:50:00Z","temp":5,"dewpoint":3,"windDirection":200,"windSpeed":11.112,"visibility":6.21,"altim":29.291338,"flightCategory":"VFR","metarType":"METAR","geometry_esri":{"x":53.53,"y":9.83,"z":13}}}