{"type":"Feature","geometry":{"type":"Point","coordinates":[53.53,9.83,13]},"properties":{"stationId":"EDHI","rawText":"EDHI 181250Z AUTO 07009KT 040V130 9999 // NCD 16/M01 Q1018","observationTime":"2020-04-18T12:50:00Z","temp":16,"dewpoint":-1,"windDirection":70,"windSpeed":16.668,"visibility":6.21,"altim":30.059055,"flightCategory":"VFR","metarType":"METAR","geometry_esri":{"x":53.53,"y":9.83,"z":13}}}