{"type":"Feature","geometry":{"type":"Point","coordinates":[53.53,9.83,13]},"properties":{"stationId":"EDHI","rawText":"EDHI 110920Z 04007KT 340V080 CAVOK 11/02 Q1014","observationTime":"2019-05-11T09:20:00Z","temp":11,"dewpoint":2,"windDirection":40,"windSpeed":12.964,"visibility":6.21,"altim":29.940945,"flightCategory":"VFR","metarType":"METAR","geometry_esri":{"x":53.53,"y":9.83,"z":13}}}