{"type":"Feature","geometry":{"type":"Point","coordinates":[53.53,9.83,13]},"properties":{"stationId":"EDHI","rawText":"EDHI 271820Z 28011KT 7000 -DZ BKN007 09/08 Q1031","observationTime":"2019-03-27T18:20:00Z","temp":9,"dewpoint":8,"windDirection":280,"windSpeed":20.372,"visibility":4.35,"altim":30.442913,"flightCategory":"IFR","metarType":"METAR","geometry_esri":{"x":53.53,"y":9.83,"z":13}}}