{"type":"Feature","geometry":{"type":"Point","coordinates":[53.53,9.83,13]},"properties":{"stationId":"EDHI","rawText":"EDHI 072220Z AUTO 16009KT 120V200 9999 // OVC016/// 05/01 Q1024","observationTime":"2020-02-07T22:20:00Z","temp":5,"dewpoint":1,"windDirection":160,"windSpeed":16.668,"visibility":6.21,"altim":30.236221,"flightCategory":"MVFR","metarType":"METAR","geometry_esri":{"x":53.53,"y":9.83,"z":13}}}