{"type":"Feature","geometry":{"type":"Point","coordinates":[53.53,9.83,13]},"properties":{"stationId":"EDHI","rawText":"EDHI 271820Z 01006KT 340V040 9999 BKN025 03/M01 Q1037","observationTime":"2019-12-27T18:20:00Z","temp":3,"dewpoint":-1,"windDirection":10,"windSpeed":11.112,"visibility":6.21,"altim":30.620079,"flightCategory":"MVFR","metarType":"METAR","geometry_esri":{"x":53.53,"y":9.83,"z":13}}}