{"type":"Feature","geometry":{"type":"Point","coordinates":[51.43,12.23,149]},"properties":{"stationId":"EDDP","rawText":"EDDP 072320Z 26023G36KT 9999 -RA FEW011 SCT020 BKN030 10/06 Q1000 NOSIG","observationTime":"2018-12-07T23:20:00Z","temp":10,"dewpoint":6,"windDirection":260,"windSpeed":42.596000000000004,"visibility":6.21,"altim":29.52756,"skyCondition1a":"FEW","skyCondition1b":1100,"skyCondition2a":"SCT","skyCondition2b":2000,"flightCategory":"MVFR","metarType":"METAR","geometry_esri":{"x":51.43,"y":12.23,"z":149}}}