{"type":"Feature","geometry":{"type":"Point","coordinates":[53.53,9.83,13]},"properties":{"stationId":"EDHI","rawText":"EDHI 151020Z 09012KT 050V130 9000 OVC012 05/03 Q1005","observationTime":"2019-11-15T10:20:00Z","temp":5,"dewpoint":3,"windDirection":90,"windSpeed":22.224,"visibility":5.59,"altim":29.675198,"flightCategory":"MVFR","metarType":"SPECI","geometry_esri":{"x":53.53,"y":9.83,"z":13}}}