{"type":"Feature","geometry":{"type":"Point","coordinates":[53.53,9.83,13]},"properties":{"stationId":"EDHI","rawText":"EDHI 310820Z AUTO 09003KT 060V140 3600 // FEW002/// 01/01 Q1027","observationTime":"2019-10-31T08:20:00Z","temp":1,"dewpoint":1,"windDirection":90,"windSpeed":5.556,"visibility":2.24,"altim":30.324802,"flightCategory":"IFR","metarType":"METAR","geometry_esri":{"x":53.53,"y":9.83,"z":13}}}