{"type":"Feature","geometry":{"type":"Point","coordinates":[53.53,9.83,13]},"properties":{"stationId":"EDHI","rawText":"EDHI 221620Z 13008KT 080V150 CAVOK M00/M05 Q1004","observationTime":"2019-01-22T16:20:00Z","temp":0,"dewpoint":-5,"windDirection":130,"windSpeed":14.816,"visibility":6.21,"altim":29.64567,"flightCategory":"VFR","metarType":"METAR","geometry_esri":{"x":53.53,"y":9.83,"z":13}}}