{"type":"Feature","geometry":{"type":"Point","coordinates":[53.53,9.83,13]},"properties":{"stationId":"EDHI","rawText":"EDHI 060950Z 08006KT 040V120 7000 NSC 14/08 Q1008","observationTime":"2019-04-06T09:50:00Z","temp":14,"dewpoint":8,"windDirection":80,"windSpeed":11.112,"visibility":4.35,"altim":29.763779,"flightCategory":"MVFR","metarType":"METAR","geometry_esri":{"x":53.53,"y":9.83,"z":13}}}