{"type":"Feature","geometry":{"type":"Point","coordinates":[53.53,9.83,13]},"properties":{"stationId":"EDHI","rawText":"EDHI 121350Z 19015G25KT 140V220 9999 FEW034 BKN064 07/02 Q1008","observationTime":"2019-03-12T13:50:00Z","temp":7,"dewpoint":2,"windDirection":190,"windSpeed":27.78,"visibility":6.21,"altim":29.763779,"flightCategory":"VFR","metarType":"METAR","geometry_esri":{"x":53.53,"y":9.83,"z":13}}}