{"type":"Feature","geometry":{"type":"Point","coordinates":[53.53,9.83,13]},"properties":{"stationId":"EDHI","rawText":"EDHI 130750Z AUTO 33018KT 280V360 9999 // BKN048/// 06/M05 Q1018","observationTime":"2020-04-13T07:50:00Z","temp":6,"dewpoint":-5,"windDirection":330,"windSpeed":33.336,"visibility":6.21,"altim":30.059055,"flightCategory":"VFR","metarType":"METAR","geometry_esri":{"x":53.53,"y":9.83,"z":13}}}