{"type":"Feature","geometry":{"type":"Point","coordinates":[53.53,9.83,13]},"properties":{"stationId":"EDHI","rawText":"EDHI 272050Z AUTO 23006KT 3100 // FEW056/// BKN063/// OVC073/// 08/08 Q1012","observationTime":"2019-04-27T20:50:00Z","temp":8,"dewpoint":8,"windDirection":230,"windSpeed":11.112,"visibility":1.93,"altim":29.88189,"flightCategory":"IFR","metarType":"METAR","geometry_esri":{"x":53.53,"y":9.83,"z":13}}}