{"type":"Feature","geometry":{"type":"Point","coordinates":[53.53,9.83,13]},"properties":{"stationId":"EDHI","rawText":"EDHI 280820Z 21010KT 170V230 9999 -RA FEW011 SCT013 BKN015 09/08 Q0985","observationTime":"2019-11-28T08:20:00Z","temp":9,"dewpoint":8,"windDirection":210,"windSpeed":18.52,"visibility":6.21,"altim":29.084646,"flightCategory":"MVFR","metarType":"METAR","geometry_esri":{"x":53.53,"y":9.83,"z":13}}}