{"type":"Feature","geometry":{"type":"Point","coordinates":[53.53,9.83,13]},"properties":{"stationId":"EDHI","rawText":"EDHI 211520Z 08005KT 050V120 4900 -RA BR OVC006 07/06 Q1009","observationTime":"2019-11-21T15:20:00Z","temp":7,"dewpoint":6,"windDirection":80,"windSpeed":9.26,"visibility":3.04,"altim":29.793306,"flightCategory":"IFR","metarType":"METAR","geometry_esri":{"x":53.53,"y":9.83,"z":13}}}