{"type":"Feature","geometry":{"type":"Point","coordinates":[53.53,9.83,13]},"properties":{"stationId":"EDHI","rawText":"EDHI 181120Z AUTO 23007KT 200V260 9999 // SCT008/// SCT013/// OVC021/// 16/15 Q1004","observationTime":"2019-08-18T11:20:00Z","temp":16,"dewpoint":15,"windDirection":230,"windSpeed":12.964,"visibility":6.21,"altim":29.64567,"flightCategory":"MVFR","metarType":"METAR","geometry_esri":{"x":53.53,"y":9.83,"z":13}}}