{"type":"Feature","geometry":{"type":"Point","coordinates":[53.53,9.83,13]},"properties":{"stationId":"EDHI","rawText":"EDHI 110120Z AUTO 04007KT 7000 // BKN006/// OVC019/// 15/15 Q1010","observationTime":"2019-06-11T01:20:00Z","temp":15,"dewpoint":15,"windDirection":40,"windSpeed":12.964,"visibility":4.35,"altim":29.822834,"flightCategory":"IFR","metarType":"METAR","geometry_esri":{"x":53.53,"y":9.83,"z":13}}}