{"type":"Feature","geometry":{"type":"Point","coordinates":[53.53,9.83,13]},"properties":{"stationId":"EDHI","rawText":"EDHI 170520Z AUTO VRB01KT 8000 // BKN022/// 05/02 Q1023","observationTime":"2019-02-17T05:20:00Z","temp":5,"dewpoint":2,"windDirection":0,"windSpeed":1.852,"visibility":4.97,"altim":30.206694,"flightCategory":"MVFR","metarType":"METAR","geometry_esri":{"x":53.53,"y":9.83,"z":13}}}