{"type":"Feature","geometry":{"type":"Point","coordinates":[53.53,9.83,13]},"properties":{"stationId":"EDHI","rawText":"EDHI 191950Z AUTO 26009KT 9999 // OVC044/// 05/02 Q1017","observationTime":"2020-02-19T19:50:00Z","temp":5,"dewpoint":2,"windDirection":260,"windSpeed":16.668,"visibility":6.21,"altim":30.029528,"flightCategory":"VFR","metarType":"METAR","geometry_esri":{"x":53.53,"y":9.83,"z":13}}}