{"type":"Feature","geometry":{"type":"Point","coordinates":[53.53,9.83,13]},"properties":{"stationId":"EDHI","rawText":"EDHI 060750Z 08006KT 050V110 4500 BR NSC 10/08 Q1008","observationTime":"2019-04-06T07:50:00Z","temp":10,"dewpoint":8,"windDirection":80,"windSpeed":11.112,"visibility":2.8,"altim":29.763779,"flightCategory":"IFR","metarType":"METAR","geometry_esri":{"x":53.53,"y":9.83,"z":13}}}