{"type":"Feature","geometry":{"type":"Point","coordinates":[53.53,9.83,13]},"properties":{"stationId":"EDHI","rawText":"EDHI 081050Z 22019KT 9999 RA BKN013 OVC022 07/05 Q0994","observationTime":"2018-12-08T10:50:00Z","temp":7,"dewpoint":5,"windDirection":220,"windSpeed":35.188,"visibility":6.21,"altim":29.350393,"skyCondition1a":"BKN","skyCondition1b":1300,"skyCondition2a":"OVC","skyCondition2b":2200,"flightCategory":"MVFR","metarType":"METAR","geometry_esri":{"x":53.53,"y":9.83,"z":13}}}