{"type":"Feature","geometry":{"type":"Point","coordinates":[53.53,9.83,13]},"properties":{"stationId":"EDHI","rawText":"EDHI 130650Z AUTO 33015KT 300V360 9999 // FEW048/// 06/M04 Q1017","observationTime":"2020-04-13T06:50:00Z","temp":6,"dewpoint":-4,"windDirection":330,"windSpeed":27.78,"visibility":6.21,"altim":30.029528,"flightCategory":"VFR","metarType":"METAR","geometry_esri":{"x":53.53,"y":9.83,"z":13}}}