{"type":"Feature","geometry":{"type":"Point","coordinates":[53.53,9.83,13]},"properties":{"stationId":"EDHI","rawText":"EDHI 221820Z AUTO 10007KT 060V160 9999 // NCD 05/M08 Q1037","observationTime":"2020-03-22T18:20:00Z","temp":5,"dewpoint":-8,"windDirection":100,"windSpeed":12.964,"visibility":6.21,"altim":30.620079,"flightCategory":"VFR","metarType":"METAR","geometry_esri":{"x":53.53,"y":9.83,"z":13}}}