{"type":"Feature","geometry":{"type":"Point","coordinates":[53.53,9.83,13]},"properties":{"stationId":"EDHI","rawText":"EDHI 031150Z 28009KT 9999 FEW020 07/03 Q0999","observationTime":"2020-03-03T11:50:00Z","temp":7,"dewpoint":3,"windDirection":280,"windSpeed":16.668,"visibility":6.21,"altim":29.498032,"flightCategory":"VFR","metarType":"METAR","geometry_esri":{"x":53.53,"y":9.83,"z":13}}}