{"type":"Feature","geometry":{"type":"Point","coordinates":[53.53,9.83,13]},"properties":{"stationId":"EDHI","rawText":"EDHI 220350Z AUTO 14004KT 110V180 7000 // BKN084/// BKN110/// OVC140/// 06/05 Q1007","observationTime":"2019-11-22T03:50:00Z","temp":6,"dewpoint":5,"windDirection":140,"windSpeed":7.408,"visibility":4.35,"altim":29.734253,"flightCategory":"MVFR","metarType":"METAR","geometry_esri":{"x":53.53,"y":9.83,"z":13}}}