{"type":"Feature","geometry":{"type":"Point","coordinates":[53.53,9.83,13]},"properties":{"stationId":"EDHI","rawText":"EDHI 112120Z AUTO 24024G39KT 1700 0900 R23/P2000N // SCT009/// BKN014/// OVC042/// 02/00 Q0998","observationTime":"2020-02-11T21:20:00Z","temp":2,"dewpoint":0,"windDirection":240,"windSpeed":44.448,"visibility":1.06,"altim":29.468504,"flightCategory":"IFR","metarType":"METAR","geometry_esri":{"x":53.53,"y":9.83,"z":13}}}