{"type":"Feature","geometry":{"type":"Point","coordinates":[53.53,9.83,13]},"properties":{"stationId":"EDHI","rawText":"EDHI 101620Z 23015KT 2800 -RADZ BKN005 OVC013 11/10 Q0996","observationTime":"2020-03-10T16:20:00Z","temp":11,"dewpoint":10,"windDirection":230,"windSpeed":27.78,"visibility":1.74,"altim":29.409449,"flightCategory":"IFR","metarType":"METAR","geometry_esri":{"x":53.53,"y":9.83,"z":13}}}