{"type":"Feature","geometry":{"type":"Point","coordinates":[53.53,9.83,13]},"properties":{"stationId":"EDHI","rawText":"EDHI 011050Z 27011KT 9999 SCT027 BKN032 08/02 Q1019","observationTime":"2020-04-01T10:50:00Z","temp":8,"dewpoint":2,"windDirection":270,"windSpeed":20.372,"visibility":6.21,"altim":30.088583,"flightCategory":"VFR","metarType":"METAR","geometry_esri":{"x":53.53,"y":9.83,"z":13}}}