{"type":"Feature","geometry":{"type":"Point","coordinates":[53.53,9.83,13]},"properties":{"stationId":"EDHI","rawText":"EDHI 171420Z AUTO 24011KT 9999 // FEW024/// OVC027/// 20/16 Q1007","observationTime":"2019-08-17T14:20:00Z","temp":20,"dewpoint":16,"windDirection":240,"windSpeed":20.372,"visibility":6.21,"altim":29.734253,"flightCategory":"MVFR","metarType":"METAR","geometry_esri":{"x":53.53,"y":9.83,"z":13}}}