{"type":"Feature","geometry":{"type":"Point","coordinates":[53.53,9.83,13]},"properties":{"stationId":"EDHI","rawText":"EDHI 310350Z AUTO 18006KT 9999 // OVC018/// 00/M03 Q0995","observationTime":"2019-01-31T03:50:00Z","temp":0,"dewpoint":-3,"windDirection":180,"windSpeed":11.112,"visibility":6.21,"altim":29.379921,"flightCategory":"MVFR","metarType":"METAR","geometry_esri":{"x":53.53,"y":9.83,"z":13}}}