{"type":"Feature","geometry":{"type":"Point","coordinates":[53.53,9.83,13]},"properties":{"stationId":"EDHI","rawText":"EDHI 200520Z AUTO VRB02KT 3100 // FEW001/// OVC130/// M04/M04 Q1017","observationTime":"2019-01-20T05:20:00Z","temp":-4,"dewpoint":-4,"windDirection":0,"windSpeed":3.704,"visibility":1.93,"altim":30.029528,"flightCategory":"IFR","metarType":"METAR","geometry_esri":{"x":53.53,"y":9.83,"z":13}}}