{"type":"Feature","geometry":{"type":"Point","coordinates":[53.53,9.83,13]},"properties":{"stationId":"EDHI","rawText":"EDHI 051220Z 26010KT 9999 FEW020 SCT024 BKN031 17/13 Q1015","observationTime":"2019-07-05T12:20:00Z","temp":17,"dewpoint":13,"windDirection":260,"windSpeed":18.52,"visibility":6.21,"altim":29.970472,"flightCategory":"VFR","metarType":"METAR","geometry_esri":{"x":53.53,"y":9.83,"z":13}}}