{"type":"Feature","geometry":{"type":"Point","coordinates":[53.53,9.83,13]},"properties":{"stationId":"EDHI","rawText":"EDHI 100550Z 05005KT 360V070 9999 FEW016 01/M03 Q1019","observationTime":"2019-04-10T05:50:00Z","temp":1,"dewpoint":-3,"windDirection":50,"windSpeed":9.26,"visibility":6.21,"altim":30.088583,"flightCategory":"VFR","metarType":"METAR","geometry_esri":{"x":53.53,"y":9.83,"z":13}}}