{"type":"Feature","geometry":{"type":"Point","coordinates":[53.53,9.83,13]},"properties":{"stationId":"EDHI","rawText":"EDHI 170020Z AUTO 35004KT 280V060 9999 // FEW160/// OVC200/// 06/03 Q1018","observationTime":"2020-04-17T00:20:00Z","temp":6,"dewpoint":3,"windDirection":350,"windSpeed":7.408,"visibility":6.21,"altim":30.059055,"flightCategory":"VFR","metarType":"METAR","geometry_esri":{"x":53.53,"y":9.83,"z":13}}}