{"type":"Feature","geometry":{"type":"Point","coordinates":[53.53,9.83,13]},"properties":{"stationId":"EDHI","rawText":"EDHI 050720Z AUTO 32008KT 280V360 9999 // OVC006/// 07/07 Q1021","observationTime":"2019-01-05T07:20:00Z","temp":7,"dewpoint":7,"windDirection":320,"windSpeed":14.816,"visibility":6.21,"altim":30.147638,"flightCategory":"IFR","metarType":"METAR","geometry_esri":{"x":53.53,"y":9.83,"z":13}}}