{"type":"Feature","geometry":{"type":"Point","coordinates":[53.53,9.83,13]},"properties":{"stationId":"EDHI","rawText":"EDHI 170020Z AUTO 24004KT 3300 // NCD 14/13 Q1021","observationTime":"2019-06-17T00:20:00Z","temp":14,"dewpoint":13,"windDirection":240,"windSpeed":7.408,"visibility":2.05,"altim":30.147638,"flightCategory":"IFR","metarType":"METAR","geometry_esri":{"x":53.53,"y":9.83,"z":13}}}