{"type":"Feature","geometry":{"type":"Point","coordinates":[53.53,9.83,13]},"properties":{"stationId":"EDHI","rawText":"EDHI 160620Z AUTO 29006KT 250V330 1800 // BKN003/// OVC008/// 06/06 Q1002","observationTime":"2019-11-16T06:20:00Z","temp":6,"dewpoint":6,"windDirection":290,"windSpeed":11.112,"visibility":1.12,"altim":29.586615,"flightCategory":"LIFR","metarType":"METAR","geometry_esri":{"x":53.53,"y":9.83,"z":13}}}