{"type":"Feature","geometry":{"type":"Point","coordinates":[53.53,9.83,13]},"properties":{"stationId":"EDHI","rawText":"EDHI 150650Z 10004KT 050V160 9000 FEW011 OVC041 00/M02 Q1029","observationTime":"2018-12-15T06:50:00Z","temp":0,"dewpoint":-2,"windDirection":100,"windSpeed":7.408,"visibility":5.59,"altim":30.383858,"flightCategory":"VFR","metarType":"METAR","geometry_esri":{"x":53.53,"y":9.83,"z":13}}}