{"type":"Feature","geometry":{"type":"Point","coordinates":[53.53,9.83,13]},"properties":{"stationId":"EDHI","rawText":"EDHI 060450Z AUTO 06004KT 2600 // FEW230/// 06/04 Q1008","observationTime":"2019-04-06T04:50:00Z","temp":6,"dewpoint":4,"windDirection":60,"windSpeed":7.408,"visibility":1.62,"altim":29.763779,"flightCategory":"IFR","metarType":"METAR","geometry_esri":{"x":53.53,"y":9.83,"z":13}}}