{"type":"Feature","geometry":{"type":"Point","coordinates":[53.53,9.83,13]},"properties":{"stationId":"EDHI","rawText":"EDHI 122250Z AUTO 25012KT 9999 // FEW020/// OVC180/// 06/03 Q1030","observationTime":"2019-02-12T22:50:00Z","temp":6,"dewpoint":3,"windDirection":250,"windSpeed":22.224,"visibility":6.21,"altim":30.413385,"flightCategory":"VFR","metarType":"METAR","geometry_esri":{"x":53.53,"y":9.83,"z":13}}}