{"type":"Feature","geometry":{"type":"Point","coordinates":[53.53,9.83,13]},"properties":{"stationId":"EDHI","rawText":"EDHI 150320Z AUTO 26013KT 3600 // FEW027/// BKN092/// OVC120/// 03/M00 Q1012","observationTime":"2019-01-15T03:20:00Z","temp":3,"dewpoint":0,"windDirection":260,"windSpeed":24.076,"visibility":2.24,"altim":29.88189,"flightCategory":"IFR","metarType":"METAR","geometry_esri":{"x":53.53,"y":9.83,"z":13}}}