{"type":"Feature","geometry":{"type":"Point","coordinates":[53.53,9.83,13]},"properties":{"stationId":"EDHI","rawText":"EDHI 080520Z AUTO 20010KT 9999 3500 // OVC064/// 07/02 Q1012","observationTime":"2020-03-08T05:20:00Z","temp":7,"dewpoint":2,"windDirection":200,"windSpeed":18.52,"visibility":6.21,"altim":29.88189,"flightCategory":"VFR","metarType":"METAR","geometry_esri":{"x":53.53,"y":9.83,"z":13}}}