{"type":"Feature","geometry":{"type":"Point","coordinates":[53.53,9.83,13]},"properties":{"stationId":"EDHI","rawText":"EDHI 022250Z AUTO 21003KT 5000 // FEW004/// BKN017/// OVC021/// 05/05 Q1005","observationTime":"2020-02-02T22:50:00Z","temp":5,"dewpoint":5,"windDirection":210,"windSpeed":5.556,"visibility":3.11,"altim":29.675198,"flightCategory":"MVFR","metarType":"METAR","geometry_esri":{"x":53.53,"y":9.83,"z":13}}}