{"type":"Feature","geometry":{"type":"Point","coordinates":[53.53,9.83,13]},"properties":{"stationId":"EDHI","rawText":"EDHI 070320Z AUTO 30007KT 270V330 5000 // BKN005/// BKN032/// 03/02 Q1008","observationTime":"2020-03-07T03:20:00Z","temp":3,"dewpoint":2,"windDirection":300,"windSpeed":12.964,"visibility":3.11,"altim":29.763779,"flightCategory":"IFR","metarType":"METAR","geometry_esri":{"x":53.53,"y":9.83,"z":13}}}