{"type":"Feature","geometry":{"type":"Point","coordinates":[53.53,9.83,13]},"properties":{"stationId":"EDHI","rawText":"EDHI 231150Z AUTO 26012KT 9999 // BKN014/// BKN031/// OVC038/// 08/06 Q1014","observationTime":"2018-12-23T11:50:00Z","temp":8,"dewpoint":6,"windDirection":260,"windSpeed":22.224,"visibility":6.21,"altim":29.940945,"flightCategory":"MVFR","metarType":"METAR","geometry_esri":{"x":53.53,"y":9.83,"z":13}}}