{"type":"Feature","geometry":{"type":"Point","coordinates":[53.53,9.83,13]},"properties":{"stationId":"EDHI","rawText":"EDHI 300150Z AUTO 12006KT 080V160 7000 // BKN043/// OVC052/// 10/08 Q1002","observationTime":"2020-04-30T01:50:00Z","temp":10,"dewpoint":8,"windDirection":120,"windSpeed":11.112,"visibility":4.35,"altim":29.586615,"flightCategory":"MVFR","metarType":"METAR","geometry_esri":{"x":53.53,"y":9.83,"z":13}}}