{"type":"Feature","geometry":{"type":"Point","coordinates":[53.53,9.83,13]},"properties":{"stationId":"EDHI","rawText":"EDHI 220320Z AUTO 27016KT 9999 // BKN014/// BKN022/// OVC030/// 07/05 Q1002","observationTime":"2018-12-22T03:20:00Z","temp":7,"dewpoint":5,"windDirection":270,"windSpeed":29.632,"visibility":6.21,"altim":29.586615,"flightCategory":"MVFR","metarType":"METAR","geometry_esri":{"x":53.53,"y":9.83,"z":13}}}