{"type":"Feature","geometry":{"type":"Point","coordinates":[53.53,9.83,13]},"properties":{"stationId":"EDHI","rawText":"EDHI 021120Z 27008KT 9999 BKN030 06/M00 Q1013","observationTime":"2019-03-02T11:20:00Z","temp":6,"dewpoint":0,"windDirection":270,"windSpeed":14.816,"visibility":6.21,"altim":29.911417,"flightCategory":"MVFR","metarType":"METAR","geometry_esri":{"x":53.53,"y":9.83,"z":13}}}