{"type":"Feature","geometry":{"type":"Point","coordinates":[53.53,9.83,13]},"properties":{"stationId":"EDHI","rawText":"EDHI 041320Z 36006KT 310V030 9999 BKN016 10/07 Q0999","observationTime":"2019-04-04T13:20:00Z","temp":10,"dewpoint":7,"windDirection":360,"windSpeed":11.112,"visibility":6.21,"altim":29.498032,"flightCategory":"MVFR","metarType":"METAR","geometry_esri":{"x":53.53,"y":9.83,"z":13}}}