{"type":"Feature","geometry":{"type":"Point","coordinates":[53.53,9.83,13]},"properties":{"stationId":"EDHI","rawText":"EDHI 270250Z AUTO 06003KT 030V090 5000 2400 // BKN037/// 03/03 Q1024","observationTime":"2019-12-27T02:50:00Z","temp":3,"dewpoint":3,"windDirection":60,"windSpeed":5.556,"visibility":3.11,"altim":30.236221,"flightCategory":"MVFR","metarType":"METAR","geometry_esri":{"x":53.53,"y":9.83,"z":13}}}