{"type":"Feature","geometry":{"type":"Point","coordinates":[53.53,9.83,13]},"properties":{"stationId":"EDHI","rawText":"EDHI 232050Z AUTO 28003KT 250V320 9000 // FEW035/// OVC042/// 15/14 Q1015","observationTime":"2019-09-23T20:50:00Z","temp":15,"dewpoint":14,"windDirection":280,"windSpeed":5.556,"visibility":5.59,"altim":29.970472,"flightCategory":"VFR","metarType":"METAR","geometry_esri":{"x":53.53,"y":9.83,"z":13}}}