{"type":"Feature","geometry":{"type":"Point","coordinates":[53.53,9.83,13]},"properties":{"stationId":"EDHI","rawText":"EDHI 012250Z AUTO 32016KT 290V350 9999 // BKN027/// OVC100/// 05/01 Q1020","observationTime":"2019-01-01T22:50:00Z","temp":5,"dewpoint":1,"windDirection":320,"windSpeed":29.632,"visibility":6.21,"altim":30.11811,"flightCategory":"MVFR","metarType":"METAR","geometry_esri":{"x":53.53,"y":9.83,"z":13}}}