{"type":"Feature","geometry":{"type":"Point","coordinates":[53.53,9.83,13]},"properties":{"stationId":"EDHI","rawText":"EDHI 201050Z 04008KT CAVOK 19/13 Q1005","observationTime":"2019-05-20T10:50:00Z","temp":19,"dewpoint":13,"windDirection":40,"windSpeed":14.816,"visibility":6.21,"altim":29.675198,"flightCategory":"VFR","metarType":"METAR","geometry_esri":{"x":53.53,"y":9.83,"z":13}}}