{"type":"Feature","geometry":{"type":"Point","coordinates":[53.53,9.83,13]},"properties":{"stationId":"EDHI","rawText":"EDHI 242250Z AUTO VRB01KT 5000 1200 R23/P2000N // FEW021/// SCT067/// BKN120/// 04/03 Q1007","observationTime":"2019-12-24T22:50:00Z","temp":4,"dewpoint":3,"windDirection":0,"windSpeed":1.852,"visibility":3.11,"altim":29.734253,"flightCategory":"MVFR","metarType":"METAR","geometry_esri":{"x":53.53,"y":9.83,"z":13}}}