{"type":"Feature","geometry":{"type":"Point","coordinates":[53.53,9.83,13]},"properties":{"stationId":"EDHI","rawText":"EDHI 200650Z AUTO VRB02KT 2600 // FEW002/// SCT004/// OVC130/// M04/M05 Q1018","observationTime":"2019-01-20T06:50:00Z","temp":-4,"dewpoint":-5,"windDirection":0,"windSpeed":3.704,"visibility":1.62,"altim":30.059055,"flightCategory":"IFR","metarType":"METAR","geometry_esri":{"x":53.53,"y":9.83,"z":13}}}