{"type":"Feature","geometry":{"type":"Point","coordinates":[53.53,9.83,13]},"properties":{"stationId":"EDHI","rawText":"EDHI 090720Z 08010KT 050V110 9999 FEW017 06/02 Q1017","observationTime":"2019-04-09T07:20:00Z","temp":6,"dewpoint":2,"windDirection":80,"windSpeed":18.52,"visibility":6.21,"altim":30.029528,"flightCategory":"VFR","metarType":"METAR","geometry_esri":{"x":53.53,"y":9.83,"z":13}}}