{"type":"Feature","geometry":{"type":"Point","coordinates":[53.53,9.83,13]},"properties":{"stationId":"EDHI","rawText":"EDHI 180820Z 00000KT CAVOK 07/03 Q1019","observationTime":"2019-02-18T08:20:00Z","temp":7,"dewpoint":3,"windDirection":0,"windSpeed":0,"visibility":6.21,"altim":30.088583,"flightCategory":"VFR","metarType":"METAR","geometry_esri":{"x":53.53,"y":9.83,"z":13}}}