{"type":"Feature","geometry":{"type":"Point","coordinates":[53.53,9.83,13]},"properties":{"stationId":"EDHI","rawText":"EDHI 080720Z 05007KT 8000 NSC 10/05 Q1012","observationTime":"2019-04-08T07:20:00Z","temp":10,"dewpoint":5,"windDirection":50,"windSpeed":12.964,"visibility":4.97,"altim":29.88189,"flightCategory":"MVFR","metarType":"METAR","geometry_esri":{"x":53.53,"y":9.83,"z":13}}}