{"type":"Feature","geometry":{"type":"Point","coordinates":[53.53,9.83,13]},"properties":{"stationId":"EDHI","rawText":"EDHI 281420Z AUTO 22014KT 9999 // SCT037/// SCT045/// BKN059/// 18/10 Q1006","observationTime":"2019-09-28T14:20:00Z","temp":18,"dewpoint":10,"windDirection":220,"windSpeed":25.928,"visibility":6.21,"altim":29.704725,"flightCategory":"VFR","metarType":"METAR","geometry_esri":{"x":53.53,"y":9.83,"z":13}}}