{"type":"Feature","geometry":{"type":"Point","coordinates":[53.53,9.83,13]},"properties":{"stationId":"EDHI","rawText":"EDHI 290250Z AUTO 24003KT 210V270 9999 // FEW035/// BKN046/// 06/04 Q1017","observationTime":"2019-05-29T02:50:00Z","temp":6,"dewpoint":4,"windDirection":240,"windSpeed":5.556,"visibility":6.21,"altim":30.029528,"flightCategory":"VFR","metarType":"METAR","geometry_esri":{"x":53.53,"y":9.83,"z":13}}}