{"type":"Feature","geometry":{"type":"Point","coordinates":[53.53,9.83,13]},"properties":{"stationId":"EDHI","rawText":"EDHI 180520Z AUTO 19004KT 7000 // SCT006/// BKN069/// OVC098/// 17/16 Q1005","observationTime":"2019-08-18T05:20:00Z","temp":17,"dewpoint":16,"windDirection":190,"windSpeed":7.408,"visibility":4.35,"altim":29.675198,"flightCategory":"MVFR","metarType":"METAR","geometry_esri":{"x":53.53,"y":9.83,"z":13}}}