{"type":"Feature","geometry":{"type":"Point","coordinates":[53.53,9.83,13]},"properties":{"stationId":"EDHI","rawText":"EDHI 201450Z AUTO VRB02KT 2800 R23/1400U // BKN003/// M03/M04 Q1020","observationTime":"2019-01-20T14:50:00Z","temp":-3,"dewpoint":-4,"windDirection":0,"windSpeed":3.704,"visibility":1.74,"altim":30.11811,"flightCategory":"LIFR","metarType":"METAR","geometry_esri":{"x":53.53,"y":9.83,"z":13}}}