{"type":"Feature","geometry":{"type":"Point","coordinates":[53.53,9.83,13]},"properties":{"stationId":"EDHI","rawText":"EDHI 290620Z AUTO 02016KT 2600 // BKN007/// OVC013/// 01/00 Q1024","observationTime":"2020-03-29T06:20:00Z","temp":1,"dewpoint":0,"windDirection":20,"windSpeed":29.632,"visibility":1.62,"altim":30.236221,"flightCategory":"IFR","metarType":"METAR","geometry_esri":{"x":53.53,"y":9.83,"z":13}}}