{"type":"Feature","geometry":{"type":"Point","coordinates":[53.53,9.83,13]},"properties":{"stationId":"EDHI","rawText":"EDHI 141850Z AUTO 28014KT 9999 // FEW028/// OVC035/// 07/02 Q1024","observationTime":"2020-04-14T18:50:00Z","temp":7,"dewpoint":2,"windDirection":280,"windSpeed":25.928,"visibility":6.21,"altim":30.236221,"flightCategory":"VFR","metarType":"METAR","geometry_esri":{"x":53.53,"y":9.83,"z":13}}}