{"type":"Feature","geometry":{"type":"Point","coordinates":[53.53,9.83,13]},"properties":{"stationId":"EDHI","rawText":"EDHI 100020Z AUTO 23006KT 9000 // FEW066/// SCT090/// 09/08 Q1002","observationTime":"2019-10-10T00:20:00Z","temp":9,"dewpoint":8,"windDirection":230,"windSpeed":11.112,"visibility":5.59,"altim":29.586615,"flightCategory":"VFR","metarType":"METAR","geometry_esri":{"x":53.53,"y":9.83,"z":13}}}