{"type":"Feature","geometry":{"type":"Point","coordinates":[53.53,9.83,13]},"properties":{"stationId":"EDHI","rawText":"EDHI 300550Z VRB01KT 1200 500S R05/0600D BCFG BR SCT003 15/15 Q1022","observationTime":"2019-08-30T05:50:00Z","temp":15,"dewpoint":15,"windDirection":0,"windSpeed":1.852,"visibility":0.75,"altim":30.177166,"flightCategory":"LIFR","metarType":"METAR","geometry_esri":{"x":53.53,"y":9.83,"z":13}}}