{"type":"Feature","geometry":{"type":"Point","coordinates":[53.53,9.83,13]},"properties":{"stationId":"EDHI","rawText":"EDHI 191550Z 23008G19KT 9999 TS VCSH BKN056CB 28/14 Q1005 RETS","observationTime":"2019-06-19T15:50:00Z","temp":28,"dewpoint":14,"windDirection":230,"windSpeed":14.816,"visibility":6.21,"altim":29.675198,"flightCategory":"VFR","metarType":"METAR","geometry_esri":{"x":53.53,"y":9.83,"z":13}}}