{"type":"Feature","geometry":{"type":"Point","coordinates":[53.53,9.83,13]},"properties":{"stationId":"EDHI","rawText":"EDHI 021020Z 21009KT 5000 BR BKN007 OVC015 13/12 Q0988","observationTime":"2019-11-02T10:20:00Z","temp":13,"dewpoint":12,"windDirection":210,"windSpeed":16.668,"visibility":3.11,"altim":29.17323,"flightCategory":"IFR","metarType":"METAR","geometry_esri":{"x":53.53,"y":9.83,"z":13}}}