{"type":"Feature","geometry":{"type":"Point","coordinates":[53.53,9.83,13]},"properties":{"stationId":"EDHI","rawText":"EDHI 070650Z AUTO 08005KT 9000 // NCD 11/06 Q1008","observationTime":"2019-04-07T06:50:00Z","temp":11,"dewpoint":6,"windDirection":80,"windSpeed":9.26,"visibility":5.59,"altim":29.763779,"flightCategory":"VFR","metarType":"METAR","geometry_esri":{"x":53.53,"y":9.83,"z":13}}}