{"type":"Feature","geometry":{"type":"Point","coordinates":[53.53,9.83,13]},"properties":{"stationId":"EDHI","rawText":"EDHI 050150Z AUTO 32008KT 280V350 9999 // BKN240/// 01/M01 Q1026","observationTime":"2020-02-05T01:50:00Z","temp":1,"dewpoint":-1,"windDirection":320,"windSpeed":14.816,"visibility":6.21,"altim":30.295275,"flightCategory":"VFR","metarType":"METAR","geometry_esri":{"x":53.53,"y":9.83,"z":13}}}