{"type":"Feature","geometry":{"type":"Point","coordinates":[53.53,9.83,13]},"properties":{"stationId":"EDHI","rawText":"EDHI 051520Z 21007KT 180V240 9999 BKN018 03/01 Q1015","observationTime":"2019-12-05T15:20:00Z","temp":3,"dewpoint":1,"windDirection":210,"windSpeed":12.964,"visibility":6.21,"altim":29.970472,"flightCategory":"MVFR","metarType":"METAR","geometry_esri":{"x":53.53,"y":9.83,"z":13}}}