{"type":"Feature","geometry":{"type":"Point","coordinates":[53.53,9.83,13]},"properties":{"stationId":"EDHI","rawText":"EDHI 291650Z AUTO 18010KT 130V240 9999 // BKN053/// OVC068/// 13/05 Q0984","observationTime":"2020-02-29T16:50:00Z","temp":13,"dewpoint":5,"windDirection":180,"windSpeed":18.52,"visibility":6.21,"altim":29.055119,"flightCategory":"VFR","metarType":"METAR","geometry_esri":{"x":53.53,"y":9.83,"z":13}}}