{"type":"Feature","geometry":{"type":"Point","coordinates":[53.53,9.83,13]},"properties":{"stationId":"EDHI","rawText":"EDHI 060050Z AUTO 05003KT 4700 // FEW075/// 07/05 Q1008","observationTime":"2019-04-06T00:50:00Z","temp":7,"dewpoint":5,"windDirection":50,"windSpeed":5.556,"visibility":2.92,"altim":29.763779,"flightCategory":"IFR","metarType":"METAR","geometry_esri":{"x":53.53,"y":9.83,"z":13}}}