{"type":"Feature","geometry":{"type":"Point","coordinates":[53.53,9.83,13]},"properties":{"stationId":"EDHI","rawText":"EDHI 011750Z AUTO 30010KT 270V340 9999 // FEW056/// SCT077/// 18/11 Q1014","observationTime":"2019-09-01T17:50:00Z","temp":18,"dewpoint":11,"windDirection":300,"windSpeed":18.52,"visibility":6.21,"altim":29.940945,"flightCategory":"VFR","metarType":"METAR","geometry_esri":{"x":53.53,"y":9.83,"z":13}}}