{"type":"Feature","geometry":{"type":"Point","coordinates":[53.53,9.83,13]},"properties":{"stationId":"EDHI","rawText":"EDHI 301820Z AUTO 14002KT 9999 // FEW160/// BKN180/// 13/05 Q0999","observationTime":"2020-04-30T18:20:00Z","temp":13,"dewpoint":5,"windDirection":140,"windSpeed":3.704,"visibility":6.21,"altim":29.498032,"flightCategory":"VFR","metarType":"METAR","geometry_esri":{"x":53.53,"y":9.83,"z":13}}}