{"type":"Feature","geometry":{"type":"Point","coordinates":[53.53,9.83,13]},"properties":{"stationId":"EDHI","rawText":"EDHI 130750Z 12012KT 080V160 9999 SCT011 01/M01 Q0980","observationTime":"2019-12-13T07:50:00Z","temp":1,"dewpoint":-1,"windDirection":120,"windSpeed":22.224,"visibility":6.21,"altim":28.937008,"flightCategory":"VFR","metarType":"METAR","geometry_esri":{"x":53.53,"y":9.83,"z":13}}}