{"type":"Feature","geometry":{"type":"Point","coordinates":[53.53,9.83,13]},"properties":{"stationId":"EDHI","rawText":"EDHI 070120Z AUTO 07005KT 7000 // NCD 09/07 Q1007","observationTime":"2019-04-07T01:20:00Z","temp":9,"dewpoint":7,"windDirection":70,"windSpeed":9.26,"visibility":4.35,"altim":29.734253,"flightCategory":"MVFR","metarType":"METAR","geometry_esri":{"x":53.53,"y":9.83,"z":13}}}