{"type":"Feature","geometry":{"type":"Point","coordinates":[53.53,9.83,13]},"properties":{"stationId":"EDHI","rawText":"EDHI 270420Z AUTO 12003KT 070V210 9999 // FEW008/// SCT014/// OVC018/// 08/07 Q0996","observationTime":"2019-11-27T04:20:00Z","temp":8,"dewpoint":7,"windDirection":120,"windSpeed":5.556,"visibility":6.21,"altim":29.409449,"flightCategory":"MVFR","metarType":"METAR","geometry_esri":{"x":53.53,"y":9.83,"z":13}}}