{"type":"Feature","geometry":{"type":"Point","coordinates":[53.53,9.83,13]},"properties":{"stationId":"EDHI","rawText":"EDHI 310420Z 23004KT 7000 SCT009 15/14 Q1020","observationTime":"2019-05-31T04:20:00Z","temp":15,"dewpoint":14,"windDirection":230,"windSpeed":7.408,"visibility":4.35,"altim":30.11811,"flightCategory":"MVFR","metarType":"METAR","geometry_esri":{"x":53.53,"y":9.83,"z":13}}}