{"type":"Feature","geometry":{"type":"Point","coordinates":[53.53,9.83,13]},"properties":{"stationId":"EDHI","rawText":"EDHI 190220Z AUTO 08006KT 2900 // BKN002/// 13/12 Q1006","observationTime":"2019-05-19T02:20:00Z","temp":13,"dewpoint":12,"windDirection":80,"windSpeed":11.112,"visibility":1.8,"altim":29.704725,"flightCategory":"LIFR","metarType":"METAR","geometry_esri":{"x":53.53,"y":9.83,"z":13}}}