{"type":"Feature","geometry":{"type":"Point","coordinates":[53.53,9.83,13]},"properties":{"stationId":"EDHI","rawText":"EDHI 210320Z AUTO 04010KT 9999 // FEW035/// 02/M04 Q1031","observationTime":"2020-03-21T03:20:00Z","temp":2,"dewpoint":-4,"windDirection":40,"windSpeed":18.52,"visibility":6.21,"altim":30.442913,"flightCategory":"VFR","metarType":"METAR","geometry_esri":{"x":53.53,"y":9.83,"z":13}}}