{"type":"Feature","geometry":{"type":"Point","coordinates":[53.53,9.83,13]},"properties":{"stationId":"EDHI","rawText":"EDHI 130050Z AUTO 25004KT 220V280 5000 // SCT006/// OVC008/// 16/15 Q1011","observationTime":"2019-07-13T00:50:00Z","temp":16,"dewpoint":15,"windDirection":250,"windSpeed":7.408,"visibility":3.11,"altim":29.852362,"flightCategory":"IFR","metarType":"METAR","geometry_esri":{"x":53.53,"y":9.83,"z":13}}}