{"type":"Feature","geometry":{"type":"Point","coordinates":[53.53,9.83,13]},"properties":{"stationId":"EDHI","rawText":"EDHI 281950Z AUTO VRB04KT 9000 // FEW087/// OVC110/// 22/17 Q1014","observationTime":"2019-08-28T19:50:00Z","temp":22,"dewpoint":17,"windDirection":0,"windSpeed":7.408,"visibility":5.59,"altim":29.940945,"flightCategory":"VFR","metarType":"METAR","geometry_esri":{"x":53.53,"y":9.83,"z":13}}}