{"type":"Feature","geometry":{"type":"Point","coordinates":[53.53,9.83,13]},"properties":{"stationId":"EDHI","rawText":"EDHI 221550Z AUTO 11009G19KT 050V180 9999 // NCD 20/M01 Q1013","observationTime":"2019-04-22T15:50:00Z","temp":20,"dewpoint":-1,"windDirection":110,"windSpeed":16.668,"visibility":6.21,"altim":29.911417,"flightCategory":"VFR","metarType":"METAR","geometry_esri":{"x":53.53,"y":9.83,"z":13}}}