{"type":"Feature","geometry":{"type":"Point","coordinates":[53.53,9.83,13]},"properties":{"stationId":"EDHI","rawText":"EDHI 051050Z AUTO 36005KT 330V040 9999 // FEW037/// BKN050/// BKN061/// 09/04 Q1017","observationTime":"2019-05-05T10:50:00Z","temp":9,"dewpoint":4,"windDirection":360,"windSpeed":9.26,"visibility":6.21,"altim":30.029528,"flightCategory":"VFR","metarType":"METAR","geometry_esri":{"x":53.53,"y":9.83,"z":13}}}