{"type":"Feature","geometry":{"type":"Point","coordinates":[53.53,9.83,13]},"properties":{"stationId":"EDHI","rawText":"EDHI 111120Z 25027G38KT 9999 BKN027 06/01 Q0992","observationTime":"2020-02-11T11:20:00Z","temp":6,"dewpoint":1,"windDirection":250,"windSpeed":50.004000000000005,"visibility":6.21,"altim":29.291338,"flightCategory":"MVFR","metarType":"METAR","geometry_esri":{"x":53.53,"y":9.83,"z":13}}}