{"type":"Feature","geometry":{"type":"Point","coordinates":[53.53,9.83,13]},"properties":{"stationId":"EDHI","rawText":"EDHI 191120Z AUTO 05006KT 010V110 9999 // NCD 21/13 Q1006","observationTime":"2019-05-19T11:20:00Z","temp":21,"dewpoint":13,"windDirection":50,"windSpeed":11.112,"visibility":6.21,"altim":29.704725,"flightCategory":"VFR","metarType":"METAR","geometry_esri":{"x":53.53,"y":9.83,"z":13}}}