{"type":"Feature","geometry":{"type":"Point","coordinates":[53.53,9.83,13]},"properties":{"stationId":"EDHI","rawText":"EDHI 161620Z AUTO 21024G41KT 9999 // BKN038/// OVC054/// 16/08 Q0993","observationTime":"2020-02-16T16:20:00Z","temp":16,"dewpoint":8,"windDirection":210,"windSpeed":44.448,"visibility":6.21,"altim":29.320866,"flightCategory":"VFR","metarType":"METAR","geometry_esri":{"x":53.53,"y":9.83,"z":13}}}