{"type":"Feature","geometry":{"type":"Point","coordinates":[53.53,9.83,13]},"properties":{"stationId":"EDHI","rawText":"EDHI 250220Z AUTO 28025KT 9999 1300 R23/P2000N // SCT017/// BKN042/// 07/04 Q0995","observationTime":"2020-02-25T02:20:00Z","temp":7,"dewpoint":4,"windDirection":280,"windSpeed":46.300000000000004,"visibility":6.21,"altim":29.379921,"flightCategory":"VFR","metarType":"METAR","geometry_esri":{"x":53.53,"y":9.83,"z":13}}}