{"type":"Feature","geometry":{"type":"Point","coordinates":[53.53,9.83,13]},"properties":{"stationId":"EDHI","rawText":"EDHI 050720Z 24012KT 9000 BKN009 03/01 Q1022","observationTime":"2019-02-05T07:20:00Z","temp":3,"dewpoint":1,"windDirection":240,"windSpeed":22.224,"visibility":5.59,"altim":30.177166,"flightCategory":"IFR","metarType":"METAR","geometry_esri":{"x":53.53,"y":9.83,"z":13}}}