{"type":"Feature","geometry":{"type":"Point","coordinates":[53.53,9.83,13]},"properties":{"stationId":"EDHI","rawText":"EDHI 201220Z 19007KT 7000 -RA FEW010 BKN029 OVC035 07/05 Q1010","observationTime":"2018-12-20T12:20:00Z","temp":7,"dewpoint":5,"windDirection":190,"windSpeed":12.964,"visibility":4.35,"altim":29.822834,"flightCategory":"MVFR","metarType":"METAR","geometry_esri":{"x":53.53,"y":9.83,"z":13}}}