{"type":"Feature","geometry":{"type":"Point","coordinates":[53.53,9.83,13]},"properties":{"stationId":"EDHI","rawText":"EDHI 062050Z AUTO 21005KT 3800 // OVC005/// 05/05 Q1017","observationTime":"2019-02-06T20:50:00Z","temp":5,"dewpoint":5,"windDirection":210,"windSpeed":9.26,"visibility":2.36,"altim":30.029528,"flightCategory":"IFR","metarType":"METAR","geometry_esri":{"x":53.53,"y":9.83,"z":13}}}