{"type":"Feature","geometry":{"type":"Point","coordinates":[53.53,9.83,13]},"properties":{"stationId":"EDHI","rawText":"EDHI 311850Z AUTO 34006KT 9999 // FEW048/// 17/13 Q1022","observationTime":"2019-05-31T18:50:00Z","temp":17,"dewpoint":13,"windDirection":340,"windSpeed":11.112,"visibility":6.21,"altim":30.177166,"flightCategory":"VFR","metarType":"METAR","geometry_esri":{"x":53.53,"y":9.83,"z":13}}}