{"type":"Feature","geometry":{"type":"Point","coordinates":[53.53,9.83,13]},"properties":{"stationId":"EDHI","rawText":"EDHI 062220Z AUTO 06005KT 7000 // NCD 11/08 Q1007","observationTime":"2019-04-06T22:20:00Z","temp":11,"dewpoint":8,"windDirection":60,"windSpeed":9.26,"visibility":4.35,"altim":29.734253,"flightCategory":"MVFR","metarType":"METAR","geometry_esri":{"x":53.53,"y":9.83,"z":13}}}