{"type":"Feature","geometry":{"type":"Point","coordinates":[53.53,9.83,13]},"properties":{"stationId":"EDHI","rawText":"EDHI 170350Z AUTO 20011KT 9999 // OVC008/// 14/13 Q1007","observationTime":"2019-10-17T03:50:00Z","temp":14,"dewpoint":13,"windDirection":200,"windSpeed":20.372,"visibility":6.21,"altim":29.734253,"flightCategory":"IFR","metarType":"METAR","geometry_esri":{"x":53.53,"y":9.83,"z":13}}}