{"type":"Feature","geometry":{"type":"Point","coordinates":[53.53,9.83,13]},"properties":{"stationId":"EDHI","rawText":"EDHI 202350Z AUTO 00000KT 4100 // FEW004/// M06/M07 Q1023","observationTime":"2019-01-20T23:50:00Z","temp":-6,"dewpoint":-7,"windDirection":0,"windSpeed":0,"visibility":2.55,"altim":30.206694,"flightCategory":"IFR","metarType":"METAR","geometry_esri":{"x":53.53,"y":9.83,"z":13}}}