{"type":"Feature","geometry":{"type":"Point","coordinates":[53.53,9.83,13]},"properties":{"stationId":"EDHI","rawText":"EDHI 301420Z 25007KT 210V290 CAVOK 18/06 Q1018","observationTime":"2019-03-30T14:20:00Z","temp":18,"dewpoint":6,"windDirection":250,"windSpeed":12.964,"visibility":6.21,"altim":30.059055,"flightCategory":"VFR","metarType":"METAR","geometry_esri":{"x":53.53,"y":9.83,"z":13}}}