{"type":"Feature","geometry":{"type":"Point","coordinates":[53.53,9.83,13]},"properties":{"stationId":"EDHI","rawText":"EDHI 110920Z 22010KT 9999 -RA SCT009 SCT046 05/04 Q1008","observationTime":"2019-12-11T09:20:00Z","temp":5,"dewpoint":4,"windDirection":220,"windSpeed":18.52,"visibility":6.21,"altim":29.763779,"flightCategory":"VFR","metarType":"METAR","geometry_esri":{"x":53.53,"y":9.83,"z":13}}}