{"type":"Feature","geometry":{"type":"Point","coordinates":[53.53,9.83,13]},"properties":{"stationId":"EDHI","rawText":"EDHI 020620Z 19003KT 120V250 CAVOK 03/01 Q0991","observationTime":"2020-03-02T06:20:00Z","temp":3,"dewpoint":1,"windDirection":190,"windSpeed":5.556,"visibility":6.21,"altim":29.26181,"flightCategory":"VFR","metarType":"METAR","geometry_esri":{"x":53.53,"y":9.83,"z":13}}}