{"type":"Feature","geometry":{"type":"Point","coordinates":[53.53,9.83,13]},"properties":{"stationId":"EDHI","rawText":"EDHI 240350Z 10006KT 050V150 CAVOK 17/10 Q1024","observationTime":"2019-06-24T03:50:00Z","temp":17,"dewpoint":10,"windDirection":100,"windSpeed":11.112,"visibility":6.21,"altim":30.236221,"flightCategory":"VFR","metarType":"METAR","geometry_esri":{"x":53.53,"y":9.83,"z":13}}}