{"type":"Feature","geometry":{"type":"Point","coordinates":[53.53,9.83,13]},"properties":{"stationId":"EDHI","rawText":"EDHI 290850Z AUTO 20011KT 3800 // BKN006/// OVC016/// 13/12 Q1002","observationTime":"2019-09-29T08:50:00Z","temp":13,"dewpoint":12,"windDirection":200,"windSpeed":20.372,"visibility":2.36,"altim":29.586615,"flightCategory":"IFR","metarType":"METAR","geometry_esri":{"x":53.53,"y":9.83,"z":13}}}