{"type":"Feature","geometry":{"type":"Point","coordinates":[53.53,9.83,13]},"properties":{"stationId":"EDHI","rawText":"EDHI 011520Z AUTO 22005KT 180V240 0400 0350 R23/0450N // VV002 M01/M01 Q1031","observationTime":"2020-01-01T15:20:00Z","temp":-1,"dewpoint":-1,"windDirection":220,"windSpeed":9.26,"visibility":0.25,"altim":30.442913,"flightCategory":"LIFR","metarType":"METAR","geometry_esri":{"x":53.53,"y":9.83,"z":13}}}