{"type":"Feature","geometry":{"type":"Point","coordinates":[53.53,9.83,13]},"properties":{"stationId":"EDHI","rawText":"EDHI 312050Z AUTO 27003KT 240V300 9999 // BKN023/// 03/02 Q1034","observationTime":"2019-12-31T20:50:00Z","temp":3,"dewpoint":2,"windDirection":270,"windSpeed":5.556,"visibility":6.21,"altim":30.531496,"flightCategory":"MVFR","metarType":"METAR","geometry_esri":{"x":53.53,"y":9.83,"z":13}}}