{"type":"Feature","geometry":{"type":"Point","coordinates":[53.53,9.83,13]},"properties":{"stationId":"EDHI","rawText":"EDHI 131950Z AUTO 27021G38KT 240V300 3600 // SCT009/// BKN017/// OVC027/// 06/04 Q0994","observationTime":"2019-03-13T19:50:00Z","temp":6,"dewpoint":4,"windDirection":270,"windSpeed":38.892,"visibility":2.24,"altim":29.350393,"flightCategory":"IFR","metarType":"METAR","geometry_esri":{"x":53.53,"y":9.83,"z":13}}}