{"type":"Feature","geometry":{"type":"Point","coordinates":[53.53,9.83,13]},"properties":{"stationId":"EDHI","rawText":"EDHI 142220Z AUTO 30014KT 9999 // BKN100/// 04/M02 Q1012","observationTime":"2019-01-14T22:20:00Z","temp":4,"dewpoint":-2,"windDirection":300,"windSpeed":25.928,"visibility":6.21,"altim":29.88189,"flightCategory":"VFR","metarType":"METAR","geometry_esri":{"x":53.53,"y":9.83,"z":13}}}