{"type":"Feature","geometry":{"type":"Point","coordinates":[53.53,9.83,13]},"properties":{"stationId":"EDHI","rawText":"EDHI 051950Z AUTO 22010KT 7000 // OVC032/// 06/04 Q1029","observationTime":"2020-01-05T19:50:00Z","temp":6,"dewpoint":4,"windDirection":220,"windSpeed":18.52,"visibility":4.35,"altim":30.383858,"flightCategory":"MVFR","metarType":"METAR","geometry_esri":{"x":53.53,"y":9.83,"z":13}}}