{"type":"Feature","geometry":{"type":"Point","coordinates":[53.53,9.83,13]},"properties":{"stationId":"EDHI","rawText":"EDHI 050020Z AUTO 23004KT 4100 // FEW097/// SCT180/// 03/02 Q1007","observationTime":"2020-03-05T00:20:00Z","temp":3,"dewpoint":2,"windDirection":230,"windSpeed":7.408,"visibility":2.55,"altim":29.734253,"flightCategory":"IFR","metarType":"METAR","geometry_esri":{"x":53.53,"y":9.83,"z":13}}}