{"type":"Feature","geometry":{"type":"Point","coordinates":[53.53,9.83,13]},"properties":{"stationId":"EDHI","rawText":"EDHI 160220Z AUTO 27018KT 9999 // BKN025/// BKN031/// OVC041/// 07/03 Q1003","observationTime":"2019-03-16T02:20:00Z","temp":7,"dewpoint":3,"windDirection":270,"windSpeed":33.336,"visibility":6.21,"altim":29.616142,"flightCategory":"MVFR","metarType":"SPECI","geometry_esri":{"x":53.53,"y":9.83,"z":13}}}