{"type":"Feature","geometry":{"type":"Point","coordinates":[53.53,9.83,13]},"properties":{"stationId":"EDHI","rawText":"EDHI 220220Z AUTO 10007KT 060V140 9999 // NCD 01/M05 Q1035","observationTime":"2020-03-22T02:20:00Z","temp":1,"dewpoint":-5,"windDirection":100,"windSpeed":12.964,"visibility":6.21,"altim":30.561024,"flightCategory":"VFR","metarType":"METAR","geometry_esri":{"x":53.53,"y":9.83,"z":13}}}