{"type":"Feature","geometry":{"type":"Point","coordinates":[53.53,9.83,13]},"properties":{"stationId":"EDHI","rawText":"EDHI 260520Z 29006KT 9999 -SHRA NSC 13/09 Q1007","observationTime":"2019-04-26T05:20:00Z","temp":13,"dewpoint":9,"windDirection":290,"windSpeed":11.112,"visibility":6.21,"altim":29.734253,"flightCategory":"VFR","metarType":"METAR","geometry_esri":{"x":53.53,"y":9.83,"z":13}}}