{"type":"Feature","geometry":{"type":"Point","coordinates":[53.53,9.83,13]},"properties":{"stationId":"EDHI","rawText":"EDHI 121720Z 22006KT 9999 FEW026 SCT038 05/02 Q1030","observationTime":"2019-02-12T17:20:00Z","temp":5,"dewpoint":2,"windDirection":220,"windSpeed":11.112,"visibility":6.21,"altim":30.413385,"flightCategory":"VFR","metarType":"METAR","geometry_esri":{"x":53.53,"y":9.83,"z":13}}}