{"type":"Feature","geometry":{"type":"Point","coordinates":[53.53,9.83,13]},"properties":{"stationId":"EDHI","rawText":"EDHI 041520Z 31013KT 270V350 9999 FEW047 13/03 Q1018","observationTime":"2020-05-04T15:20:00Z","temp":13,"dewpoint":3,"windDirection":310,"windSpeed":24.076,"visibility":6.21,"altim":30.059055,"flightCategory":"VFR","metarType":"METAR","geometry_esri":{"x":53.53,"y":9.83,"z":13}}}