{"type":"Feature","geometry":{"type":"Point","coordinates":[53.53,9.83,13]},"properties":{"stationId":"EDHI","rawText":"EDHI 290350Z AUTO VRB02KT 1900 0750 R23/P2000N // FEW003/// 01/01 Q1022","observationTime":"2019-10-29T03:50:00Z","temp":1,"dewpoint":1,"windDirection":0,"windSpeed":3.704,"visibility":1.18,"altim":30.177166,"flightCategory":"IFR","metarType":"METAR","geometry_esri":{"x":53.53,"y":9.83,"z":13}}}