{"type":"Feature","geometry":{"type":"Point","coordinates":[53.53,9.83,13]},"properties":{"stationId":"EDHI","rawText":"EDHI 051420Z 22008KT CAVOK 04/01 Q1016","observationTime":"2019-12-05T14:20:00Z","temp":4,"dewpoint":1,"windDirection":220,"windSpeed":14.816,"visibility":6.21,"altim":30,"flightCategory":"VFR","metarType":"METAR","geometry_esri":{"x":53.53,"y":9.83,"z":13}}}