{"type":"Feature","geometry":{"type":"Point","coordinates":[53.53,9.83,13]},"properties":{"stationId":"EDHI","rawText":"EDHI 111250Z 14008KT CAVOK 06/03 Q1006","observationTime":"2019-11-11T12:50:00Z","temp":6,"dewpoint":3,"windDirection":140,"windSpeed":14.816,"visibility":6.21,"altim":29.704725,"flightCategory":"VFR","metarType":"METAR","geometry_esri":{"x":53.53,"y":9.83,"z":13}}}