{"type":"Feature","geometry":{"type":"Point","coordinates":[53.53,9.83,13]},"properties":{"stationId":"EDHI","rawText":"EDHI 200920Z 01007KT 320V050 9999 SCT019 07/03 Q1028","observationTime":"2020-03-20T09:20:00Z","temp":7,"dewpoint":3,"windDirection":10,"windSpeed":12.964,"visibility":6.21,"altim":30.35433,"flightCategory":"VFR","metarType":"METAR","geometry_esri":{"x":53.53,"y":9.83,"z":13}}}