{"type":"Feature","geometry":{"type":"Point","coordinates":[53.53,9.83,13]},"properties":{"stationId":"EDHI","rawText":"EDHI 010920Z AUTO 26003KT 190V280 0150 R23/0200N // VV001 M02/M02 Q1033","observationTime":"2020-01-01T09:20:00Z","temp":-2,"dewpoint":-2,"windDirection":260,"windSpeed":5.556,"visibility":0.09,"altim":30.501968,"flightCategory":"LIFR","metarType":"METAR","geometry_esri":{"x":53.53,"y":9.83,"z":13}}}