{"type":"Feature","geometry":{"type":"Point","coordinates":[53.53,9.83,13]},"properties":{"stationId":"EDHI","rawText":"EDHI 220850Z 27008KT 9000 SCT003 BKN004 BKN026 06/06 Q1032","observationTime":"2020-01-22T08:50:00Z","temp":6,"dewpoint":6,"windDirection":270,"windSpeed":14.816,"visibility":5.59,"altim":30.47244,"flightCategory":"LIFR","metarType":"METAR","geometry_esri":{"x":53.53,"y":9.83,"z":13}}}