{"type":"Feature","geometry":{"type":"Point","coordinates":[53.53,9.83,13]},"properties":{"stationId":"EDHI","rawText":"EDHI 081620Z AUTO 21012KT 160V240 9999 // OVC060/// 18/07 Q1017","observationTime":"2019-06-08T16:20:00Z","temp":18,"dewpoint":7,"windDirection":210,"windSpeed":22.224,"visibility":6.21,"altim":30.029528,"flightCategory":"VFR","metarType":"METAR","geometry_esri":{"x":53.53,"y":9.83,"z":13}}}