{"type":"Feature","geometry":{"type":"Point","coordinates":[53.53,9.83,13]},"properties":{"stationId":"EDHI","rawText":"EDHI 252020Z AUTO 27014KT 9999 // OVC031/// 06/03 Q1028","observationTime":"2018-12-25T20:20:00Z","temp":6,"dewpoint":3,"windDirection":270,"windSpeed":25.928,"visibility":6.21,"altim":30.35433,"flightCategory":"VFR","metarType":"METAR","geometry_esri":{"x":53.53,"y":9.83,"z":13}}}