{"type":"Feature","geometry":{"type":"Point","coordinates":[53.53,9.83,13]},"properties":{"stationId":"EDHI","rawText":"EDHI 081020Z AUTO 21016G26KT 180V240 9999 // BKN047/// OVC060/// 17/07 Q1015","observationTime":"2019-06-08T10:20:00Z","temp":17,"dewpoint":7,"windDirection":210,"windSpeed":29.632,"visibility":6.21,"altim":29.970472,"flightCategory":"VFR","metarType":"METAR","geometry_esri":{"x":53.53,"y":9.83,"z":13}}}