{"type":"Feature","geometry":{"type":"Point","coordinates":[53.53,9.83,13]},"properties":{"stationId":"EDHI","rawText":"EDHI 201820Z AUTO VRB02KT 3200 // BKN001/// OVC004/// M05/M05 Q1021","observationTime":"2019-01-20T18:20:00Z","temp":-5,"dewpoint":-5,"windDirection":0,"windSpeed":3.704,"visibility":1.99,"altim":30.147638,"flightCategory":"LIFR","metarType":"METAR","geometry_esri":{"x":53.53,"y":9.83,"z":13}}}