{"type":"Feature","geometry":{"type":"Point","coordinates":[53.53,9.83,13]},"properties":{"stationId":"EDHI","rawText":"EDHI 230650Z AUTO 27012KT //// R23/P2000N // FEW011/// SCT027/// OVC034/// 05/03 Q1010","observationTime":"2020-02-23T06:50:00Z","temp":5,"dewpoint":3,"windDirection":270,"windSpeed":22.224,"visibility":1.24,"altim":29.822834,"flightCategory":"IFR","metarType":"METAR","geometry_esri":{"x":53.53,"y":9.83,"z":13}}}