{"type":"Feature","geometry":{"type":"Point","coordinates":[53.53,9.83,13]},"properties":{"stationId":"EDHI","rawText":"EDHI 231420Z AUTO 27011KT 9999 // FEW013/// BKN025/// OVC046/// 07/05 Q1013","observationTime":"2018-12-23T14:20:00Z","temp":7,"dewpoint":5,"windDirection":270,"windSpeed":20.372,"visibility":6.21,"altim":29.911417,"flightCategory":"MVFR","metarType":"METAR","geometry_esri":{"x":53.53,"y":9.83,"z":13}}}