{"type":"Feature","geometry":{"type":"Point","coordinates":[53.53,9.83,13]},"properties":{"stationId":"EDHI","rawText":"EDHI 200650Z 23006KT CAVOK 09/07 Q1028","observationTime":"2019-09-20T06:50:00Z","temp":9,"dewpoint":7,"windDirection":230,"windSpeed":11.112,"visibility":6.21,"altim":30.35433,"flightCategory":"VFR","metarType":"METAR","geometry_esri":{"x":53.53,"y":9.83,"z":13}}}