{"type":"Feature","geometry":{"type":"Point","coordinates":[53.53,9.83,13]},"properties":{"stationId":"EDHI","rawText":"EDHI 050420Z 19003KT 110V250 CAVOK 19/15 Q1006","observationTime":"2019-06-05T04:20:00Z","temp":19,"dewpoint":15,"windDirection":190,"windSpeed":5.556,"visibility":6.21,"altim":29.704725,"flightCategory":"VFR","metarType":"METAR","geometry_esri":{"x":53.53,"y":9.83,"z":13}}}