{"type":"Feature","geometry":{"type":"Point","coordinates":[53.53,9.83,13]},"properties":{"stationId":"EDHI","rawText":"EDHI 061020Z 24013KT CAVOK 21/16 Q1008","observationTime":"2019-06-06T10:20:00Z","temp":21,"dewpoint":16,"windDirection":240,"windSpeed":24.076,"visibility":6.21,"altim":29.763779,"flightCategory":"VFR","metarType":"METAR","geometry_esri":{"x":53.53,"y":9.83,"z":13}}}