{"type":"Feature","geometry":{"type":"Point","coordinates":[53.53,9.83,13]},"properties":{"stationId":"EDHI","rawText":"EDHI 151720Z 27013KT 9999 BKN025 15/11 Q1016","observationTime":"2019-07-15T17:20:00Z","temp":15,"dewpoint":11,"windDirection":270,"windSpeed":24.076,"visibility":6.21,"altim":30,"flightCategory":"MVFR","metarType":"METAR","geometry_esri":{"x":53.53,"y":9.83,"z":13}}}