{"type":"Feature","geometry":{"type":"Point","coordinates":[53.53,9.83,13]},"properties":{"stationId":"EDHI","rawText":"EDHI 071250Z AUTO 07008KT 030V140 9999 // NCD 20/03 Q1008","observationTime":"2019-04-07T12:50:00Z","temp":20,"dewpoint":3,"windDirection":70,"windSpeed":14.816,"visibility":6.21,"altim":29.763779,"flightCategory":"VFR","metarType":"METAR","geometry_esri":{"x":53.53,"y":9.83,"z":13}}}