{"type":"Feature","geometry":{"type":"Point","coordinates":[53.53,9.83,13]},"properties":{"stationId":"EDHI","rawText":"EDHI 211520Z VRB04KT CAVOK 21/11 Q1019","observationTime":"2019-09-21T15:20:00Z","temp":21,"dewpoint":11,"windDirection":0,"windSpeed":7.408,"visibility":6.21,"altim":30.088583,"flightCategory":"VFR","metarType":"METAR","geometry_esri":{"x":53.53,"y":9.83,"z":13}}}