{"type":"Feature","geometry":{"type":"Point","coordinates":[53.53,9.83,13]},"properties":{"stationId":"EDHI","rawText":"EDHI 091450Z AUTO 04005KT 010V070 9999 // FEW065/// 23/06 Q1012","observationTime":"2020-05-09T14:50:00Z","temp":23,"dewpoint":6,"windDirection":40,"windSpeed":9.26,"visibility":6.21,"altim":29.88189,"flightCategory":"VFR","metarType":"METAR","geometry_esri":{"x":53.53,"y":9.83,"z":13}}}