{"type":"Feature","geometry":{"type":"Point","coordinates":[53.53,9.83,13]},"properties":{"stationId":"EDHI","rawText":"EDHI 251320Z 12009KT 070V160 CAVOK 33/15 Q1018","observationTime":"2019-06-25T13:20:00Z","temp":33,"dewpoint":15,"windDirection":120,"windSpeed":16.668,"visibility":6.21,"altim":30.059055,"flightCategory":"VFR","metarType":"METAR","geometry_esri":{"x":53.53,"y":9.83,"z":13}}}