{"type":"Feature","geometry":{"type":"Point","coordinates":[53.53,9.83,13]},"properties":{"stationId":"EDHI","rawText":"EDHI 021250Z 25010KT 1200 R23/1700U BR OVC002 M01/M01 Q1024","observationTime":"2020-01-02T12:50:00Z","temp":-1,"dewpoint":-1,"windDirection":250,"windSpeed":18.52,"visibility":0.75,"altim":30.236221,"flightCategory":"LIFR","metarType":"METAR","geometry_esri":{"x":53.53,"y":9.83,"z":13}}}