{"type":"Feature","geometry":{"type":"Point","coordinates":[53.53,9.83,13]},"properties":{"stationId":"EDHI","rawText":"EDHI 151520Z 28033G48KT 9999 SCT035 10/04 Q0993","observationTime":"2019-03-15T15:20:00Z","temp":10,"dewpoint":4,"windDirection":280,"windSpeed":61.116,"visibility":6.21,"altim":29.320866,"flightCategory":"VFR","metarType":"METAR","geometry_esri":{"x":53.53,"y":9.83,"z":13}}}