{"type":"Feature","geometry":{"type":"Point","coordinates":[53.53,9.83,13]},"properties":{"stationId":"EDHI","rawText":"EDHI 191520Z 20007KT 9999 TS SCT068CB 30/13 Q1005 RETS","observationTime":"2019-06-19T15:20:00Z","temp":30,"dewpoint":13,"windDirection":200,"windSpeed":12.964,"visibility":6.21,"altim":29.675198,"flightCategory":"VFR","metarType":"METAR","geometry_esri":{"x":53.53,"y":9.83,"z":13}}}