{"type":"Feature","geometry":{"type":"Point","coordinates":[53.53,9.83,13]},"properties":{"stationId":"EDHI","rawText":"EDHI 242350Z AUTO 13006KT 100V180 5000 // OVC007/// 05/04 Q1011","observationTime":"2019-11-24T23:50:00Z","temp":5,"dewpoint":4,"windDirection":130,"windSpeed":11.112,"visibility":3.11,"altim":29.852362,"flightCategory":"IFR","metarType":"METAR","geometry_esri":{"x":53.53,"y":9.83,"z":13}}}