{"type":"Feature","geometry":{"type":"Point","coordinates":[53.53,9.83,13]},"properties":{"stationId":"EDHI","rawText":"EDHI 291020Z 30014KT 9999 FEW020 06/01 Q1003","observationTime":"2019-11-29T10:20:00Z","temp":6,"dewpoint":1,"windDirection":300,"windSpeed":25.928,"visibility":6.21,"altim":29.616142,"flightCategory":"VFR","metarType":"METAR","geometry_esri":{"x":53.53,"y":9.83,"z":13}}}