{"type":"Feature","geometry":{"type":"Point","coordinates":[53.53,9.83,13]},"properties":{"stationId":"EDHI","rawText":"EDHI 151320Z AUTO 27015KT 9000 // OVC020/// 17/14 Q1018","observationTime":"2019-09-15T13:20:00Z","temp":17,"dewpoint":14,"windDirection":270,"windSpeed":27.78,"visibility":5.59,"altim":30.059055,"flightCategory":"MVFR","metarType":"METAR","geometry_esri":{"x":53.53,"y":9.83,"z":13}}}