{"type":"Feature","geometry":{"type":"Point","coordinates":[53.53,9.83,13]},"properties":{"stationId":"EDHI","rawText":"EDHI 261850Z AUTO 22012KT 9999 // FEW140/// SCT190/// BKN220/// 17/10 Q1008","observationTime":"2019-10-26T18:50:00Z","temp":17,"dewpoint":10,"windDirection":220,"windSpeed":22.224,"visibility":6.21,"altim":29.763779,"flightCategory":"VFR","metarType":"METAR","geometry_esri":{"x":53.53,"y":9.83,"z":13}}}