{"type":"Feature","geometry":{"type":"Point","coordinates":[53.53,9.83,13]},"properties":{"stationId":"EDHI","rawText":"EDHI 070020Z AUTO VRB01KT 9999 // BKN120/// 11/10 Q1015","observationTime":"2019-06-07T00:20:00Z","temp":11,"dewpoint":10,"windDirection":0,"windSpeed":1.852,"visibility":6.21,"altim":29.970472,"flightCategory":"VFR","metarType":"METAR","geometry_esri":{"x":53.53,"y":9.83,"z":13}}}