{"type":"Feature","geometry":{"type":"Point","coordinates":[53.53,9.83,13]},"properties":{"stationId":"EDHI","rawText":"EDHI 100420Z AUTO 21008KT 9999 // BKN027/// 20/18 Q1005","observationTime":"2019-08-10T04:20:00Z","temp":20,"dewpoint":18,"windDirection":210,"windSpeed":14.816,"visibility":6.21,"altim":29.675198,"flightCategory":"MVFR","metarType":"METAR","geometry_esri":{"x":53.53,"y":9.83,"z":13}}}