{"type":"Feature","geometry":{"type":"Point","coordinates":[53.53,9.83,13]},"properties":{"stationId":"EDHI","rawText":"EDHI 090750Z 15007KT 7000 BKN007 OVC021 09/08 Q1013","observationTime":"2020-01-09T07:50:00Z","temp":9,"dewpoint":8,"windDirection":150,"windSpeed":12.964,"visibility":4.35,"altim":29.911417,"flightCategory":"IFR","metarType":"METAR","geometry_esri":{"x":53.53,"y":9.83,"z":13}}}