{"type":"Feature","geometry":{"type":"Point","coordinates":[53.53,9.83,13]},"properties":{"stationId":"EDHI","rawText":"EDHI 080550Z 26008KT 9999 FEW008 SCT017 BKN048 11/10 Q1014","observationTime":"2019-07-08T05:50:00Z","temp":11,"dewpoint":10,"windDirection":260,"windSpeed":14.816,"visibility":6.21,"altim":29.940945,"flightCategory":"VFR","metarType":"METAR","geometry_esri":{"x":53.53,"y":9.83,"z":13}}}