{"type":"Feature","geometry":{"type":"Point","coordinates":[53.53,9.83,13]},"properties":{"stationId":"EDHI","rawText":"EDHI 251320Z 13003KT 090V160 5000 -RA BR BKN004 OVC010 14/14 Q1005","observationTime":"2019-09-25T13:20:00Z","temp":14,"dewpoint":14,"windDirection":130,"windSpeed":5.556,"visibility":3.11,"altim":29.675198,"flightCategory":"LIFR","metarType":"METAR","geometry_esri":{"x":53.53,"y":9.83,"z":13}}}