{"type":"Feature","geometry":{"type":"Point","coordinates":[53.53,9.83,13]},"properties":{"stationId":"EDHI","rawText":"EDHI 260050Z AUTO 26013KT 5000 // SCT009/// OVC011/// 05/04 Q1027","observationTime":"2018-12-26T00:50:00Z","temp":5,"dewpoint":4,"windDirection":260,"windSpeed":24.076,"visibility":3.11,"altim":30.324802,"flightCategory":"MVFR","metarType":"METAR","geometry_esri":{"x":53.53,"y":9.83,"z":13}}}