{"type":"Feature","geometry":{"type":"Point","coordinates":[53.53,9.83,13]},"properties":{"stationId":"EDHI","rawText":"EDHI 020020Z AUTO VRB02KT 9999 // FEW047/// OVC120/// 05/01 Q0991","observationTime":"2020-03-02T00:20:00Z","temp":5,"dewpoint":1,"windDirection":0,"windSpeed":3.704,"visibility":6.21,"altim":29.26181,"flightCategory":"VFR","metarType":"METAR","geometry_esri":{"x":53.53,"y":9.83,"z":13}}}