{"type":"Feature","geometry":{"type":"Point","coordinates":[53.53,9.83,13]},"properties":{"stationId":"EDHI","rawText":"EDHI 110050Z AUTO VRB01KT 8000 3000 // SCT100/// 03/03 Q1012","observationTime":"2019-05-11T00:50:00Z","temp":3,"dewpoint":3,"windDirection":0,"windSpeed":1.852,"visibility":4.97,"altim":29.88189,"flightCategory":"MVFR","metarType":"METAR","geometry_esri":{"x":53.53,"y":9.83,"z":13}}}