{"type":"Feature","geometry":{"type":"Point","coordinates":[53.53,9.83,13]},"properties":{"stationId":"EDHI","rawText":"EDHI 031250Z AUTO 35004KT 280V020 9999 // FEW030/// SCT039/// BKN094/// 23/14 Q1015","observationTime":"2019-08-03T12:50:00Z","temp":23,"dewpoint":14,"windDirection":350,"windSpeed":7.408,"visibility":6.21,"altim":29.970472,"flightCategory":"VFR","metarType":"METAR","geometry_esri":{"x":53.53,"y":9.83,"z":13}}}