{"type":"Feature","geometry":{"type":"Point","coordinates":[53.53,9.83,13]},"properties":{"stationId":"EDHI","rawText":"EDHI 090650Z AUTO 25013KT 9999 // SCT013/// BKN016/// BKN043/// 07/05 Q0987","observationTime":"2018-12-09T06:50:00Z","temp":7,"dewpoint":5,"windDirection":250,"windSpeed":24.076,"visibility":6.21,"altim":29.143702,"skyCondition1a":"SCT","skyCondition1b":1300,"skyCondition2a":"BKN","skyCondition2b":1600,"flightCategory":"MVFR","metarType":"METAR","geometry_esri":{"x":53.53,"y":9.83,"z":13}}}