{"type":"Feature","geometry":{"type":"Point","coordinates":[51.48,-0.45,24]},"properties":{"stationId":"EGLL","rawText":"EGLL 270650Z AUTO 27003KT 9999 BKN041 06/02 Q1035","observationTime":"2019-03-27T06:50:00Z","temp":6,"dewpoint":2,"windDirection":270,"windSpeed":5.556,"visibility":6.21,"altim":30.561024,"flightCategory":"VFR","metarType":"METAR","geometry_esri":{"x":51.48,"y":-0.45,"z":24}}}