{"type":"Feature","geometry":{"type":"Point","coordinates":[51.48,-0.45,24]},"properties":{"stationId":"EGLL","rawText":"EGLL 250850Z AUTO 30007KT 270V330 9999 FEW024 BKN048 17/11 Q1020","observationTime":"2019-05-25T08:50:00Z","temp":17,"dewpoint":11,"windDirection":300,"windSpeed":12.964,"visibility":6.21,"altim":30.11811,"flightCategory":"VFR","metarType":"METAR","geometry_esri":{"x":51.48,"y":-0.45,"z":24}}}