{"type":"Feature","geometry":{"type":"Point","coordinates":[48.35,11.82,447]},"properties":{"stationId":"EDDM","rawText":"EDDM 180450Z 27010KT 9999 -SN SCT025 BKN045 00/M03 Q1014 NOSIG","observationTime":"2019-01-18T04:50:00Z","temp":0,"dewpoint":-3,"windDirection":270,"windSpeed":18.52,"visibility":6.21,"altim":29.940945,"flightCategory":"VFR","metarType":"METAR","geometry_esri":{"x":48.35,"y":11.82,"z":447}}}