{"type":"Feature","geometry":{"type":"Point","coordinates":[51.48,-0.45,24]},"properties":{"stationId":"EGLL","rawText":"EGLL 200550Z AUTO 26006KT 9999 OVC010 09/07 Q1031 TEMPO BKN008","observationTime":"2019-03-20T05:50:00Z","temp":9,"dewpoint":7,"windDirection":260,"windSpeed":11.112,"visibility":6.21,"altim":30.442913,"flightCategory":"MVFR","metarType":"METAR","geometry_esri":{"x":51.48,"y":-0.45,"z":24}}}