{"type":"Feature","geometry":{"type":"Point","coordinates":[49.02,2.52,109]},"properties":{"stationId":"LFPG","rawText":"LFPG 150130Z 25014KT 6000 -RA BKN005 10/10 Q1013 NOSIG","observationTime":"2019-03-15T01:30:00Z","temp":10,"dewpoint":10,"windDirection":250,"windSpeed":25.928,"visibility":3.73,"altim":29.911417,"flightCategory":"IFR","metarType":"METAR","geometry_esri":{"x":49.02,"y":2.52,"z":109}}}