{"type":"Feature","geometry":{"type":"Point","coordinates":[47.78,13.02,430]},"properties":{"stationId":"LOWS","rawText":"LOWS 300350Z 17004KT 130V200 9999 FEW070 BKN090 14/11 Q1008 TEMPO 29020G30KT","observationTime":"2019-09-30T03:50:00Z","temp":14,"dewpoint":11,"windDirection":170,"windSpeed":7.408,"visibility":6.21,"altim":29.763779,"flightCategory":"VFR","metarType":"METAR","geometry_esri":{"x":47.78,"y":13.02,"z":430}}}