{"type":"Feature","geometry":{"type":"Point","coordinates":[51.48,-0.45,24]},"properties":{"stationId":"EGLL","rawText":"EGLL 270650Z 03002KT 4000 HZ NSC 05/03 Q1026 NOSIG","observationTime":"2019-02-27T06:50:00Z","temp":5,"dewpoint":3,"windDirection":30,"windSpeed":3.704,"visibility":2.49,"altim":30.295275,"flightCategory":"IFR","metarType":"METAR","geometry_esri":{"x":51.48,"y":-0.45,"z":24}}}