{"type":"Feature","geometry":{"type":"Point","coordinates":[49.02,2.52,109]},"properties":{"stationId":"LFPG","rawText":"LFPG 012030Z 36005KT 7000 NSC 13/08 Q1016 NOSIG","observationTime":"2019-05-01T20:30:00Z","temp":13,"dewpoint":8,"windDirection":360,"windSpeed":9.26,"visibility":4.35,"altim":30,"flightCategory":"MVFR","metarType":"METAR","geometry_esri":{"x":49.02,"y":2.52,"z":109}}}