{"type":"Feature","geometry":{"type":"Point","coordinates":[47.78,13.02,430]},"properties":{"stationId":"LOWS","rawText":"LOWS 212250Z AUTO 12003KT 080V140 9999 NSC 11/02 Q1015","observationTime":"2019-04-21T22:50:00Z","temp":11,"dewpoint":2,"windDirection":120,"windSpeed":5.556,"visibility":6.21,"altim":29.970472,"flightCategory":"VFR","metarType":"METAR","geometry_esri":{"x":47.78,"y":13.02,"z":430}}}