{"type":"Feature","geometry":{"type":"Point","coordinates":[53.42,-6.25,85]},"properties":{"stationId":"EIDW","rawText":"EIDW 151830Z 13009KT 100V160 CAVOK 16/04 Q1022 NOSIG","observationTime":"2019-05-15T18:30:00Z","temp":16,"dewpoint":4,"windDirection":130,"windSpeed":16.668,"visibility":6.21,"altim":30.177166,"flightCategory":"VFR","metarType":"METAR","geometry_esri":{"x":53.42,"y":-6.25,"z":85}}}