{"type":"Feature","geometry":{"type":"Point","coordinates":[40.48,-3.57,582]},"properties":{"stationId":"LEMD","rawText":"LEMD 121430Z 20006KT 160V290 9999 FEW070 18/M01 Q1017 NOSIG","observationTime":"2019-04-12T14:30:00Z","temp":18,"dewpoint":-1,"windDirection":200,"windSpeed":11.112,"visibility":6.21,"altim":30.029528,"flightCategory":"VFR","metarType":"METAR","geometry_esri":{"x":40.48,"y":-3.57,"z":582}}}