{"type":"Feature","geometry":{"type":"Point","coordinates":[51.48,-0.45,24]},"properties":{"stationId":"EGLL","rawText":"EGLL 141850Z AUTO 28006KT 9999 NCD 08/03 Q1023 NOSIG","observationTime":"2019-01-14T18:50:00Z","temp":8,"dewpoint":3,"windDirection":280,"windSpeed":11.112,"visibility":6.21,"altim":30.206694,"flightCategory":"VFR","metarType":"METAR","geometry_esri":{"x":51.48,"y":-0.45,"z":24}}}