{"type":"Feature","geometry":{"type":"Point","coordinates":[47.78,13.02,430]},"properties":{"stationId":"LOWS","rawText":"LOWS 110650Z VRB02KT 2200 0800SW R15/P1500U R33/P1500U FZBCFG BKN002 M01/M02 Q1014 TEMPO 3000 SCT002","observationTime":"2019-11-11T06:50:00Z","temp":-1,"dewpoint":-2,"windDirection":0,"windSpeed":3.704,"visibility":1.37,"altim":29.940945,"flightCategory":"LIFR","metarType":"SPECI","geometry_esri":{"x":47.78,"y":13.02,"z":430}}}