{"type":"Feature","geometry":{"type":"Point","coordinates":[48.35,11.82,447]},"properties":{"stationId":"EDDM","rawText":"EDDM 241350Z 31007KT 230V340 CAVOK 17/03 Q1020 NOSIG","observationTime":"2019-03-24T13:50:00Z","temp":17,"dewpoint":3,"windDirection":310,"windSpeed":12.964,"visibility":6.21,"altim":30.11811,"flightCategory":"VFR","metarType":"METAR","geometry_esri":{"x":48.35,"y":11.82,"z":447}}}