{"type":"Feature","geometry":{"type":"Point","coordinates":[40.48,-3.57,582]},"properties":{"stationId":"LEMD","rawText":"LEMD 151830Z 25017KT 220V280 9999 FEW075 20/06 Q1012 NOSIG","observationTime":"2019-04-15T18:30:00Z","temp":20,"dewpoint":6,"windDirection":250,"windSpeed":31.484,"visibility":6.21,"altim":29.88189,"flightCategory":"VFR","metarType":"METAR","geometry_esri":{"x":40.48,"y":-3.57,"z":582}}}