{"type":"Feature","geometry":{"type":"Point","coordinates":[47.78,13.02,430]},"properties":{"stationId":"LOWS","rawText":"LOWS 212350Z AUTO 31002KT 9999 FEW014 SCT044 BKN140 14/12 Q1026","observationTime":"2019-08-21T23:50:00Z","temp":14,"dewpoint":12,"windDirection":310,"windSpeed":3.704,"visibility":6.21,"altim":30.295275,"flightCategory":"VFR","metarType":"METAR","geometry_esri":{"x":47.78,"y":13.02,"z":430}}}