{"type":"Feature","geometry":{"type":"Point","coordinates":[53.42,-6.25,85]},"properties":{"stationId":"EIDW","rawText":"EIDW 282230Z 23008KT 160V260 9999 FEW015 BKN140 03/00 Q1007 NOSIG","observationTime":"2019-01-28T22:30:00Z","temp":3,"dewpoint":0,"windDirection":230,"windSpeed":14.816,"visibility":6.21,"altim":29.734253,"flightCategory":"VFR","metarType":"METAR","geometry_esri":{"x":53.42,"y":-6.25,"z":85}}}