{"type":"Feature","geometry":{"type":"Point","coordinates":[40.48,-3.57,582]},"properties":{"stationId":"LEMD","rawText":"LEMD 191130Z 21006KT 170V250 9999 FEW015 09/06 Q1024 NOSIG","observationTime":"2018-12-19T11:30:00Z","temp":9,"dewpoint":6,"windDirection":210,"windSpeed":11.112,"visibility":6.21,"altim":30.236221,"flightCategory":"VFR","metarType":"METAR","geometry_esri":{"x":40.48,"y":-3.57,"z":582}}}