{"type":"Feature","geometry":{"type":"Point","coordinates":[48.35,11.82,447]},"properties":{"stationId":"EDDM","rawText":"EDDM 130950Z 25005KT 190V310 9999 SCT032 19/11 Q1020 NOSIG","observationTime":"2019-08-13T09:50:00Z","temp":19,"dewpoint":11,"windDirection":250,"windSpeed":9.26,"visibility":6.21,"altim":30.11811,"flightCategory":"VFR","metarType":"METAR","geometry_esri":{"x":48.35,"y":11.82,"z":447}}}