{"type":"Feature","geometry":{"type":"Point","coordinates":[53.42,-6.25,85]},"properties":{"stationId":"EIDW","rawText":"EIDW 261130Z 14007KT 090V180 9999 FEW022 20/13 Q1018 NOSIG","observationTime":"2019-08-26T11:30:00Z","temp":20,"dewpoint":13,"windDirection":140,"windSpeed":12.964,"visibility":6.21,"altim":30.059055,"flightCategory":"VFR","metarType":"METAR","geometry_esri":{"x":53.42,"y":-6.25,"z":85}}}