{"type":"Feature","geometry":{"type":"Point","coordinates":[53.42,-6.25,85]},"properties":{"stationId":"EIDW","rawText":"EIDW 151530Z 14005KT 110V170 9999 FEW018 SCT028 BKN230 22/15 Q1020 NOSIG","observationTime":"2019-07-15T15:30:00Z","temp":22,"dewpoint":15,"windDirection":140,"windSpeed":9.26,"visibility":6.21,"altim":30.11811,"flightCategory":"VFR","metarType":"METAR","geometry_esri":{"x":53.42,"y":-6.25,"z":85}}}