{"type":"Feature","geometry":{"type":"Point","coordinates":[40.48,-3.57,582]},"properties":{"stationId":"LEMD","rawText":"LEMD 111730Z 31004KT CAVOK 05/M05 Q1025 NOSIG","observationTime":"2019-01-11T17:30:00Z","temp":5,"dewpoint":-5,"windDirection":310,"windSpeed":7.408,"visibility":6.21,"altim":30.265747,"flightCategory":"VFR","metarType":"METAR","geometry_esri":{"x":40.48,"y":-3.57,"z":582}}}