{"type":"Feature","geometry":{"type":"Point","coordinates":[48.35,11.82,447]},"properties":{"stationId":"EDDM","rawText":"EDDM 051150Z 08004KT 350V130 CAVOK 27/14 Q1009 NOSIG","observationTime":"2019-06-05T11:50:00Z","temp":27,"dewpoint":14,"windDirection":80,"windSpeed":7.408,"visibility":6.21,"altim":29.793306,"flightCategory":"VFR","metarType":"METAR","geometry_esri":{"x":48.35,"y":11.82,"z":447}}}