{"type":"Feature","geometry":{"type":"Point","coordinates":[49.02,2.52,109]},"properties":{"stationId":"LFPG","rawText":"LFPG 162130Z 12004KT 9999 BKN033 06/03 Q1009 NOSIG","observationTime":"2019-11-16T21:30:00Z","temp":6,"dewpoint":3,"windDirection":120,"windSpeed":7.408,"visibility":6.21,"altim":29.793306,"flightCategory":"VFR","metarType":"METAR","geometry_esri":{"x":49.02,"y":2.52,"z":109}}}