{"type":"Feature","geometry":{"type":"Point","coordinates":[49.02,2.52,109]},"properties":{"stationId":"LFPG","rawText":"LFPG 201330Z 10013KT CAVOK 07/00 Q1011 NOSIG","observationTime":"2019-11-20T13:30:00Z","temp":7,"dewpoint":0,"windDirection":100,"windSpeed":24.076,"visibility":6.21,"altim":29.852362,"flightCategory":"VFR","metarType":"METAR","geometry_esri":{"x":49.02,"y":2.52,"z":109}}}