{"type":"Feature","geometry":{"type":"Point","coordinates":[51.48,-0.45,24]},"properties":{"stationId":"EGLL","rawText":"EGLL 010950Z AUTO 30006KT 9999 FEW016 OVC036 09/07 Q1020 NOSIG","observationTime":"2019-03-01T09:50:00Z","temp":9,"dewpoint":7,"windDirection":300,"windSpeed":11.112,"visibility":6.21,"altim":30.11811,"flightCategory":"VFR","metarType":"METAR","geometry_esri":{"x":51.48,"y":-0.45,"z":24}}}