{"type":"Feature","geometry":{"type":"Point","coordinates":[49.02,2.52,109]},"properties":{"stationId":"LFPG","rawText":"LFPG 211130Z 33004KT 240V050 9999 FEW046 20/08 Q1020 NOSIG","observationTime":"2019-06-21T11:30:00Z","temp":20,"dewpoint":8,"windDirection":330,"windSpeed":7.408,"visibility":6.21,"altim":30.11811,"flightCategory":"VFR","metarType":"METAR","geometry_esri":{"x":49.02,"y":2.52,"z":109}}}