{"type":"Feature","geometry":{"type":"Point","coordinates":[49.02,2.52,109]},"properties":{"stationId":"LFPG","rawText":"LFPG 200330Z 34002KT CAVOK 14/10 Q1022 NOSIG","observationTime":"2019-08-20T03:30:00Z","temp":14,"dewpoint":10,"windDirection":340,"windSpeed":3.704,"visibility":6.21,"altim":30.177166,"flightCategory":"VFR","metarType":"METAR","geometry_esri":{"x":49.02,"y":2.52,"z":109}}}