{"type":"Feature","geometry":{"type":"Point","coordinates":[48.35,11.82,447]},"properties":{"stationId":"EDDM","rawText":"EDDM 091250Z VRB05KT CAVOK 30/16 Q1013 NOSIG","observationTime":"2019-08-09T12:50:00Z","temp":30,"dewpoint":16,"windDirection":0,"windSpeed":9.26,"visibility":6.21,"altim":29.911417,"flightCategory":"VFR","metarType":"METAR","geometry_esri":{"x":48.35,"y":11.82,"z":447}}}