{"type":"Feature","geometry":{"type":"Point","coordinates":[40.48,-3.57,582]},"properties":{"stationId":"LEMD","rawText":"LEMD 201530Z 03003KT CAVOK 16/M04 Q1025 NOSIG","observationTime":"2019-03-20T15:30:00Z","temp":16,"dewpoint":-4,"windDirection":30,"windSpeed":5.556,"visibility":6.21,"altim":30.265747,"flightCategory":"VFR","metarType":"METAR","geometry_esri":{"x":40.48,"y":-3.57,"z":582}}}