{"type":"Feature","geometry":{"type":"Point","coordinates":[47.78,13.02,430]},"properties":{"stationId":"LOWS","rawText":"LOWS 021150Z 29016G26KT 260V320 9999 FEW010 BKN040 BKN100 01/M03 Q1025 R15/2///95 NOSIG","observationTime":"2019-01-02T11:50:00Z","temp":1,"dewpoint":-3,"windDirection":290,"windSpeed":29.632,"visibility":6.21,"altim":30.265747,"flightCategory":"VFR","metarType":"METAR","geometry_esri":{"x":47.78,"y":13.02,"z":430}}}