{"type":"Feature","geometry":{"type":"Point","coordinates":[40.48,-3.57,582]},"properties":{"stationId":"LEMD","rawText":"LEMD 241630Z 23007KT 200V260 CAVOK 11/02 Q1014 NOSIG","observationTime":"2019-11-24T16:30:00Z","temp":11,"dewpoint":2,"windDirection":230,"windSpeed":12.964,"visibility":6.21,"altim":29.940945,"flightCategory":"VFR","metarType":"METAR","geometry_esri":{"x":40.48,"y":-3.57,"z":582}}}