{"type":"Feature","geometry":{"type":"Point","coordinates":[48.35,11.82,447]},"properties":{"stationId":"EDDM","rawText":"EDDM 030850Z 18003KT 130V240 CAVOK 14/04 Q1004 BECMG 13008KT","observationTime":"2019-04-03T08:50:00Z","temp":14,"dewpoint":4,"windDirection":180,"windSpeed":5.556,"visibility":6.21,"altim":29.64567,"flightCategory":"VFR","metarType":"METAR","geometry_esri":{"x":48.35,"y":11.82,"z":447}}}