{"type":"Feature","geometry":{"type":"Point","coordinates":[49.02,2.52,109]},"properties":{"stationId":"LFPG","rawText":"LFPG 020130Z 36008KT 5000 BR BKN034 BKN150 10/08 Q1014 NOSIG","observationTime":"2019-05-02T01:30:00Z","temp":10,"dewpoint":8,"windDirection":360,"windSpeed":14.816,"visibility":3.11,"altim":29.940945,"flightCategory":"MVFR","metarType":"METAR","geometry_esri":{"x":49.02,"y":2.52,"z":109}}}