{"type":"Feature","geometry":{"type":"Point","coordinates":[48.35,11.82,447]},"properties":{"stationId":"EDDM","rawText":"EDDM 210250Z 05006KT CAVOK 02/01 Q1023 NOSIG","observationTime":"2019-09-21T02:50:00Z","temp":2,"dewpoint":1,"windDirection":50,"windSpeed":11.112,"visibility":6.21,"altim":30.206694,"flightCategory":"VFR","metarType":"METAR","geometry_esri":{"x":48.35,"y":11.82,"z":447}}}