{"type":"Feature","geometry":{"type":"Point","coordinates":[48.35,11.82,447]},"properties":{"stationId":"EDDM","rawText":"EDDM 021150Z 20008KT CAVOK 14/11 Q1000 NOSIG","observationTime":"2019-11-02T11:50:00Z","temp":14,"dewpoint":11,"windDirection":200,"windSpeed":14.816,"visibility":6.21,"altim":29.52756,"flightCategory":"VFR","metarType":"METAR","geometry_esri":{"x":48.35,"y":11.82,"z":447}}}