{"type":"Feature","geometry":{"type":"Point","coordinates":[40.48,-3.57,582]},"properties":{"stationId":"LEMD","rawText":"LEMD 061530Z 23008KT 190V350 CAVOK 34/02 Q1013 NOSIG","observationTime":"2019-07-06T15:30:00Z","temp":34,"dewpoint":2,"windDirection":230,"windSpeed":14.816,"visibility":6.21,"altim":29.911417,"flightCategory":"VFR","metarType":"METAR","geometry_esri":{"x":40.48,"y":-3.57,"z":582}}}