{"type":"Feature","geometry":{"type":"Point","coordinates":[47.78,13.02,430]},"properties":{"stationId":"LOWS","rawText":"LOWS 061950Z 02005KT CAVOK 08/05 Q1002 NOSIG","observationTime":"2019-04-06T19:50:00Z","temp":8,"dewpoint":5,"windDirection":20,"windSpeed":9.26,"visibility":6.21,"altim":29.586615,"flightCategory":"VFR","metarType":"METAR","geometry_esri":{"x":47.78,"y":13.02,"z":430}}}