{"type":"Feature","geometry":{"type":"Point","coordinates":[49.02,2.52,109]},"properties":{"stationId":"LFPG","rawText":"LFPG 311530Z VRB03KT 9999 FEW046 23/12 Q1024 NOSIG","observationTime":"2019-05-31T15:30:00Z","temp":23,"dewpoint":12,"windDirection":0,"windSpeed":5.556,"visibility":6.21,"altim":30.236221,"flightCategory":"VFR","metarType":"METAR","geometry_esri":{"x":49.02,"y":2.52,"z":109}}}