{"type":"Feature","geometry":{"type":"Point","coordinates":[48.35,11.82,447]},"properties":{"stationId":"EDDM","rawText":"EDDM 031250Z 01003KT 300V110 CAVOK 23/10 Q1021 NOSIG","observationTime":"2019-07-03T12:50:00Z","temp":23,"dewpoint":10,"windDirection":10,"windSpeed":5.556,"visibility":6.21,"altim":30.147638,"flightCategory":"VFR","metarType":"METAR","geometry_esri":{"x":48.35,"y":11.82,"z":447}}}