{"type":"Feature","geometry":{"type":"Point","coordinates":[53.42,-6.25,85]},"properties":{"stationId":"EIDW","rawText":"EIDW 050530Z 28013KT 9999 OVC006 09/08 Q0999 NOSIG","observationTime":"2019-06-05T05:30:00Z","temp":9,"dewpoint":8,"windDirection":280,"windSpeed":24.076,"visibility":6.21,"altim":29.498032,"flightCategory":"IFR","metarType":"METAR","geometry_esri":{"x":53.42,"y":-6.25,"z":85}}}