{"type":"Feature","geometry":{"type":"Point","coordinates":[48.35,11.82,447]},"properties":{"stationId":"EDDM","rawText":"EDDM 010550Z 29003KT 250V320 9999 FEW012 15/14 Q1019 NOSIG","observationTime":"2019-08-01T05:50:00Z","temp":15,"dewpoint":14,"windDirection":290,"windSpeed":5.556,"visibility":6.21,"altim":30.088583,"flightCategory":"VFR","metarType":"METAR","geometry_esri":{"x":48.35,"y":11.82,"z":447}}}