{"type":"Feature","geometry":{"type":"Point","coordinates":[48.35,11.82,447]},"properties":{"stationId":"EDDM","rawText":"EDDM 242050Z 21004KT 7000 NSC 11/10 Q1016 NOSIG","observationTime":"2019-10-24T20:50:00Z","temp":11,"dewpoint":10,"windDirection":210,"windSpeed":7.408,"visibility":4.35,"altim":30,"flightCategory":"MVFR","metarType":"METAR","geometry_esri":{"x":48.35,"y":11.82,"z":447}}}