{"type":"Feature","geometry":{"type":"Point","coordinates":[53.42,-6.25,85]},"properties":{"stationId":"EIDW","rawText":"EIDW 031630Z 36001KT 9999 FEW022 07/03 Q1020 NOSIG","observationTime":"2019-12-03T16:30:00Z","temp":7,"dewpoint":3,"windDirection":360,"windSpeed":1.852,"visibility":6.21,"altim":30.11811,"flightCategory":"VFR","metarType":"METAR","geometry_esri":{"x":53.42,"y":-6.25,"z":85}}}