{"type":"Feature","geometry":{"type":"Point","coordinates":[51.48,-0.45,24]},"properties":{"stationId":"EGLL","rawText":"EGLL 252050Z AUTO 21019G29KT 9999 -RA SCT014 BKN018 OVC025 15/14 Q1008 TEMPO 4000 -RADZ BKN014","observationTime":"2019-10-25T20:50:00Z","temp":15,"dewpoint":14,"windDirection":210,"windSpeed":35.188,"visibility":6.21,"altim":29.763779,"flightCategory":"MVFR","metarType":"SPECI","geometry_esri":{"x":51.48,"y":-0.45,"z":24}}}