{"type":"Feature","geometry":{"type":"Point","coordinates":[49.02,2.52,109]},"properties":{"stationId":"LFPG","rawText":"LFPG 071130Z 22004KT 180V270 9999 FEW028TCU SCT033 23/14 Q1010 NOSIG","observationTime":"2019-08-07T11:30:00Z","temp":23,"dewpoint":14,"windDirection":220,"windSpeed":7.408,"visibility":6.21,"altim":29.822834,"flightCategory":"VFR","metarType":"METAR","geometry_esri":{"x":49.02,"y":2.52,"z":109}}}