{"type":"Feature","geometry":{"type":"Point","coordinates":[49.02,2.52,109]},"properties":{"stationId":"LFPG","rawText":"LFPG 211330Z VRB03KT CAVOK 02/M03 Q1022 NOSIG","observationTime":"2019-01-21T13:30:00Z","temp":2,"dewpoint":-3,"windDirection":0,"windSpeed":5.556,"visibility":6.21,"altim":30.177166,"flightCategory":"VFR","metarType":"METAR","geometry_esri":{"x":49.02,"y":2.52,"z":109}}}