{"type":"Feature","geometry":{"type":"Point","coordinates":[40.48,-3.57,582]},"properties":{"stationId":"LEMD","rawText":"LEMD 080430Z 21012KT 9999 FEW020 16/12 Q1013 NOSIG","observationTime":"2019-05-08T04:30:00Z","temp":16,"dewpoint":12,"windDirection":210,"windSpeed":22.224,"visibility":6.21,"altim":29.911417,"flightCategory":"VFR","metarType":"METAR","geometry_esri":{"x":40.48,"y":-3.57,"z":582}}}