{"type":"Feature","geometry":{"type":"Point","coordinates":[51.48,-0.45,24]},"properties":{"stationId":"EGLL","rawText":"EGLL 121250Z AUTO 26021KT 6000 -RA BKN022/// OVC030/// //////TCU 07/03 Q0997","observationTime":"2019-11-12T12:50:00Z","temp":7,"dewpoint":3,"windDirection":260,"windSpeed":38.892,"visibility":3.73,"altim":29.438976,"flightCategory":"MVFR","metarType":"METAR","geometry_esri":{"x":51.48,"y":-0.45,"z":24}}}