{"type":"Feature","geometry":{"type":"Point","coordinates":[49.02,2.52,109]},"properties":{"stationId":"LFPG","rawText":"LFPG 041130Z 19012KT 9999 SCT040 BKN063 03/M01 Q1026 NOSIG","observationTime":"2019-02-04T11:30:00Z","temp":3,"dewpoint":-1,"windDirection":190,"windSpeed":22.224,"visibility":6.21,"altim":30.295275,"flightCategory":"VFR","metarType":"METAR","geometry_esri":{"x":49.02,"y":2.52,"z":109}}}