{"type":"Feature","geometry":{"type":"Point","coordinates":[40.48,-3.57,582]},"properties":{"stationId":"LEMD","rawText":"LEMD 010930Z 19003KT 130V260 CAVOK 24/07 Q1023 NOSIG","observationTime":"2019-06-01T09:30:00Z","temp":24,"dewpoint":7,"windDirection":190,"windSpeed":5.556,"visibility":6.21,"altim":30.206694,"flightCategory":"VFR","metarType":"METAR","geometry_esri":{"x":40.48,"y":-3.57,"z":582}}}