{"type":"Feature","geometry":{"type":"Point","coordinates":[49.02,2.52,109]},"properties":{"stationId":"LFPG","rawText":"LFPG 241430Z AUTO 20009G20KT 170V270 9999 BKN008 BKN012 OVC020 17/16 Q1005 TEMPO 4000 -SHRA SCT012TCU BKN020","observationTime":"2019-09-24T14:30:00Z","temp":17,"dewpoint":16,"windDirection":200,"windSpeed":16.668,"visibility":6.21,"altim":29.675198,"flightCategory":"IFR","metarType":"SPECI","geometry_esri":{"x":49.02,"y":2.52,"z":109}}}