{"type":"Feature","geometry":{"type":"Point","coordinates":[40.48,-3.57,582]},"properties":{"stationId":"LEMD","rawText":"LEMD 091830Z 27013KT 250V310 CAVOK 28/01 Q1013 NOSIG","observationTime":"2019-09-09T18:30:00Z","temp":28,"dewpoint":1,"windDirection":270,"windSpeed":24.076,"visibility":6.21,"altim":29.911417,"flightCategory":"VFR","metarType":"METAR","geometry_esri":{"x":40.48,"y":-3.57,"z":582}}}