{"type":"Feature","geometry":{"type":"Point","coordinates":[51.48,-0.45,24]},"properties":{"stationId":"EGLL","rawText":"EGLL 051350Z AUTO 24009KT 9999 SCT047 18/06 Q1006 NOSIG","observationTime":"2019-06-05T13:50:00Z","temp":18,"dewpoint":6,"windDirection":240,"windSpeed":16.668,"visibility":6.21,"altim":29.704725,"flightCategory":"VFR","metarType":"METAR","geometry_esri":{"x":51.48,"y":-0.45,"z":24}}}