{"type":"Feature","geometry":{"type":"Point","coordinates":[40.48,-3.57,582]},"properties":{"stationId":"LEMD","rawText":"LEMD 211330Z 23004KT 180V290 9999 FEW070 14/M04 Q1026 NOSIG","observationTime":"2019-03-21T13:30:00Z","temp":14,"dewpoint":-4,"windDirection":230,"windSpeed":7.408,"visibility":6.21,"altim":30.295275,"flightCategory":"VFR","metarType":"METAR","geometry_esri":{"x":40.48,"y":-3.57,"z":582}}}