{"type":"Feature","geometry":{"type":"Point","coordinates":[48.35,11.82,447]},"properties":{"stationId":"EDDM","rawText":"EDDM 190250Z 17001KT CAVOK 02/01 Q1025 NOSIG","observationTime":"2019-09-19T02:50:00Z","temp":2,"dewpoint":1,"windDirection":170,"windSpeed":1.852,"visibility":6.21,"altim":30.265747,"flightCategory":"VFR","metarType":"METAR","geometry_esri":{"x":48.35,"y":11.82,"z":447}}}