{"type":"Feature","geometry":{"type":"Point","coordinates":[51.48,-0.45,24]},"properties":{"stationId":"EGLL","rawText":"EGLL 040850Z AUTO 03011KT 340V060 9999 SCT035 09/00 Q1018 NOSIG","observationTime":"2019-05-04T08:50:00Z","temp":9,"dewpoint":0,"windDirection":30,"windSpeed":20.372,"visibility":6.21,"altim":30.059055,"flightCategory":"VFR","metarType":"METAR","geometry_esri":{"x":51.48,"y":-0.45,"z":24}}}