{"type":"Feature","geometry":{"type":"Point","coordinates":[49.02,2.52,109]},"properties":{"stationId":"LFPG","rawText":"LFPG 161130Z 19018G29KT 9999 BKN019 15/11 Q1009 NOSIG","observationTime":"2019-10-16T11:30:00Z","temp":15,"dewpoint":11,"windDirection":190,"windSpeed":33.336,"visibility":6.21,"altim":29.793306,"flightCategory":"MVFR","metarType":"METAR","geometry_esri":{"x":49.02,"y":2.52,"z":109}}}