{"type":"Feature","geometry":{"type":"Point","coordinates":[48.35,11.82,447]},"properties":{"stationId":"EDDM","rawText":"EDDM 100250Z 10007KT 0500 R08L/0450N R08R/0550N FZFG VV/// M01/M01 Q1009 NOSIG","observationTime":"2019-11-10T02:50:00Z","temp":-1,"dewpoint":-1,"windDirection":100,"windSpeed":12.964,"visibility":0.31,"altim":29.793306,"flightCategory":"LIFR","metarType":"METAR","geometry_esri":{"x":48.35,"y":11.82,"z":447}}}