{"type":"Feature","geometry":{"type":"Point","coordinates":[48.35,11.82,447]},"properties":{"stationId":"EDDM","rawText":"EDDM 082050Z VRB01KT CAVOK 16/14 Q1016 NOSIG","observationTime":"2019-08-08T20:50:00Z","temp":16,"dewpoint":14,"windDirection":0,"windSpeed":1.852,"visibility":6.21,"altim":30,"flightCategory":"VFR","metarType":"METAR","geometry_esri":{"x":48.35,"y":11.82,"z":447}}}