{"type":"Feature","geometry":{"type":"Point","coordinates":[49.02,2.52,109]},"properties":{"stationId":"LFPG","rawText":"LFPG 160230Z 36006KT 340V070 CAVOK 13/09 Q1020 NOSIG","observationTime":"2019-07-16T02:30:00Z","temp":13,"dewpoint":9,"windDirection":360,"windSpeed":11.112,"visibility":6.21,"altim":30.11811,"flightCategory":"VFR","metarType":"METAR","geometry_esri":{"x":49.02,"y":2.52,"z":109}}}