{"type":"Feature","geometry":{"type":"Point","coordinates":[48.35,11.82,447]},"properties":{"stationId":"EDDM","rawText":"EDDM 240950Z VRB07G18KT CAVOK 24/03 Q1004 NOSIG","observationTime":"2019-04-24T09:50:00Z","temp":24,"dewpoint":3,"windDirection":0,"windSpeed":12.964,"visibility":6.21,"altim":29.64567,"flightCategory":"VFR","metarType":"METAR","geometry_esri":{"x":48.35,"y":11.82,"z":447}}}