{"type":"Feature","geometry":{"type":"Point","coordinates":[49.02,2.52,109]},"properties":{"stationId":"LFPG","rawText":"LFPG 121030Z 36013KT 340V050 9999 SCT041 09/M02 Q1023 NOSIG","observationTime":"2019-04-12T10:30:00Z","temp":9,"dewpoint":-2,"windDirection":360,"windSpeed":24.076,"visibility":6.21,"altim":30.206694,"flightCategory":"VFR","metarType":"METAR","geometry_esri":{"x":49.02,"y":2.52,"z":109}}}