{"type":"Feature","geometry":{"type":"Point","coordinates":[47.78,13.02,430]},"properties":{"stationId":"LOWS","rawText":"LOWS 091750Z 30007KT 9999 FEW080 SCT160 BKN300 24/15 Q1018 NOSIG","observationTime":"2019-06-09T17:50:00Z","temp":24,"dewpoint":15,"windDirection":300,"windSpeed":12.964,"visibility":6.21,"altim":30.059055,"flightCategory":"VFR","metarType":"METAR","geometry_esri":{"x":47.78,"y":13.02,"z":430}}}