{"type":"Feature","geometry":{"type":"Point","coordinates":[49.02,2.52,109]},"properties":{"stationId":"LFPG","rawText":"LFPG 050530Z 18004KT 9999 BKN017 03/00 Q1026 NOSIG","observationTime":"2019-02-05T05:30:00Z","temp":3,"dewpoint":0,"windDirection":180,"windSpeed":7.408,"visibility":6.21,"altim":30.295275,"flightCategory":"MVFR","metarType":"METAR","geometry_esri":{"x":49.02,"y":2.52,"z":109}}}