{"type":"Feature","geometry":{"type":"Point","coordinates":[40.48,-3.57,582]},"properties":{"stationId":"LEMD","rawText":"LEMD 171930Z 23009KT 9999 -SHRA SCT065TCU SCT080 19/08 Q1011 NOSIG","observationTime":"2019-04-17T19:30:00Z","temp":19,"dewpoint":8,"windDirection":230,"windSpeed":16.668,"visibility":6.21,"altim":29.852362,"flightCategory":"VFR","metarType":"METAR","geometry_esri":{"x":40.48,"y":-3.57,"z":582}}}