{"type":"Feature","geometry":{"type":"Point","coordinates":[40.48,-3.57,582]},"properties":{"stationId":"LEMD","rawText":"LEMD 212030Z 36010KT CAVOK 05/M04 Q1021 NOSIG","observationTime":"2019-01-21T20:30:00Z","temp":5,"dewpoint":-4,"windDirection":360,"windSpeed":18.52,"visibility":6.21,"altim":30.147638,"flightCategory":"VFR","metarType":"METAR","geometry_esri":{"x":40.48,"y":-3.57,"z":582}}}