{"type":"Feature","geometry":{"type":"Point","coordinates":[49.02,2.52,109]},"properties":{"stationId":"LFPG","rawText":"LFPG 241730Z 19005KT 5000 BR NSC 02/M01 Q1014 NOSIG","observationTime":"2019-01-24T17:30:00Z","temp":2,"dewpoint":-1,"windDirection":190,"windSpeed":9.26,"visibility":3.11,"altim":29.940945,"flightCategory":"MVFR","metarType":"METAR","geometry_esri":{"x":49.02,"y":2.52,"z":109}}}