{"type":"Feature","geometry":{"type":"Point","coordinates":[49.02,2.52,109]},"properties":{"stationId":"LFPG","rawText":"LFPG 072330Z 16006KT CAVOK 05/03 Q1001 NOSIG","observationTime":"2019-11-07T23:30:00Z","temp":5,"dewpoint":3,"windDirection":160,"windSpeed":11.112,"visibility":6.21,"altim":29.557087,"flightCategory":"VFR","metarType":"METAR","geometry_esri":{"x":49.02,"y":2.52,"z":109}}}