{"type":"Feature","geometry":{"type":"Point","coordinates":[51.48,-0.45,24]},"properties":{"stationId":"EGLL","rawText":"EGLL 291150Z AUTO 19006KT 130V230 9999 NCD 05/M00 Q0998 NOSIG","observationTime":"2019-01-29T11:50:00Z","temp":5,"dewpoint":0,"windDirection":190,"windSpeed":11.112,"visibility":6.21,"altim":29.468504,"flightCategory":"VFR","metarType":"METAR","geometry_esri":{"x":51.48,"y":-0.45,"z":24}}}