{"type":"Feature","geometry":{"type":"Point","coordinates":[49.02,2.52,109]},"properties":{"stationId":"LFPG","rawText":"LFPG 302130Z 29005KT 6000 SCT004 OVC008 09/08 Q1036 NOSIG","observationTime":"2018-12-30T21:30:00Z","temp":9,"dewpoint":8,"windDirection":290,"windSpeed":9.26,"visibility":3.73,"altim":30.590551,"flightCategory":"IFR","metarType":"METAR","geometry_esri":{"x":49.02,"y":2.52,"z":109}}}