{"type":"Feature","geometry":{"type":"Point","coordinates":[48.35,11.82,447]},"properties":{"stationId":"EDDM","rawText":"EDDM 112050Z 25018KT 1000 R26R/P2000N R26L/P2000N SN SCT005 BKN008 M02/M03 Q1021 R26R/290095 TEMPO 0700","observationTime":"2019-01-11T20:50:00Z","temp":-2,"dewpoint":-3,"windDirection":250,"windSpeed":33.336,"visibility":0.62,"altim":30.147638,"flightCategory":"LIFR","metarType":"METAR","geometry_esri":{"x":48.35,"y":11.82,"z":447}}}