{"type":"Feature","geometry":{"type":"Point","coordinates":[49.02,2.52,109]},"properties":{"stationId":"LFPG","rawText":"LFPG 160930Z 14011KT 9999 FEW008 BKN011 05/03 Q1005 NOSIG","observationTime":"2019-11-16T09:30:00Z","temp":5,"dewpoint":3,"windDirection":140,"windSpeed":20.372,"visibility":6.21,"altim":29.675198,"flightCategory":"MVFR","metarType":"METAR","geometry_esri":{"x":49.02,"y":2.52,"z":109}}}