{"type":"Feature","geometry":{"type":"Point","coordinates":[53.42,-6.25,85]},"properties":{"stationId":"EIDW","rawText":"EIDW 110330Z 28010KT 9999 -RADZ BKN019 BKN110 BKN130 13/12 Q1005 NOSIG","observationTime":"2019-08-11T03:30:00Z","temp":13,"dewpoint":12,"windDirection":280,"windSpeed":18.52,"visibility":6.21,"altim":29.675198,"flightCategory":"MVFR","metarType":"METAR","geometry_esri":{"x":53.42,"y":-6.25,"z":85}}}