{"type":"Feature","geometry":{"type":"Point","coordinates":[47.78,13.02,430]},"properties":{"stationId":"LOWS","rawText":"LOWS 031150Z 29011G21KT 250V310 9999 FEW024 BKN060 BKN090 M01/M07 Q1032 R15/29//95 NOSIG","observationTime":"2019-01-03T11:50:00Z","temp":-1,"dewpoint":-7,"windDirection":290,"windSpeed":20.372,"visibility":6.21,"altim":30.47244,"flightCategory":"VFR","metarType":"METAR","geometry_esri":{"x":47.78,"y":13.02,"z":430}}}