{"type":"Feature","geometry":{"type":"Point","coordinates":[51.48,-0.45,24]},"properties":{"stationId":"EGLL","rawText":"EGLL 290950Z AUTO 20009KT 140V250 9999 NCD 22/12 Q1010 NOSIG","observationTime":"2019-07-29T09:50:00Z","temp":22,"dewpoint":12,"windDirection":200,"windSpeed":16.668,"visibility":6.21,"altim":29.822834,"flightCategory":"VFR","metarType":"METAR","geometry_esri":{"x":51.48,"y":-0.45,"z":24}}}