{"type":"Feature","geometry":{"type":"Point","coordinates":[51.48,-0.45,24]},"properties":{"stationId":"EGLL","rawText":"EGLL 190450Z AUTO 19007KT 160V220 9999 NCD 10/09 Q0998 NOSIG","observationTime":"2019-10-19T04:50:00Z","temp":10,"dewpoint":9,"windDirection":190,"windSpeed":12.964,"visibility":6.21,"altim":29.468504,"flightCategory":"VFR","metarType":"METAR","geometry_esri":{"x":51.48,"y":-0.45,"z":24}}}