{"type":"Feature","geometry":{"type":"Point","coordinates":[48.35,11.82,447]},"properties":{"stationId":"EDDM","rawText":"EDDM 070050Z 03004KT 360V060 CAVOK 06/02 Q1002 NOSIG","observationTime":"2019-04-07T00:50:00Z","temp":6,"dewpoint":2,"windDirection":30,"windSpeed":7.408,"visibility":6.21,"altim":29.586615,"flightCategory":"VFR","metarType":"METAR","geometry_esri":{"x":48.35,"y":11.82,"z":447}}}