{"type":"Feature","geometry":{"type":"Point","coordinates":[49.02,2.52,109]},"properties":{"stationId":"LFPG","rawText":"LFPG 291830Z 11013KT 6000 -SNRA BKN005 SCT026 01/00 Q0993 NOSIG","observationTime":"2019-01-29T18:30:00Z","temp":1,"dewpoint":0,"windDirection":110,"windSpeed":24.076,"visibility":3.73,"altim":29.320866,"flightCategory":"IFR","metarType":"METAR","geometry_esri":{"x":49.02,"y":2.52,"z":109}}}