{"type":"Feature","geometry":{"type":"Point","coordinates":[47.78,13.02,430]},"properties":{"stationId":"LOWS","rawText":"LOWS 070750Z VRB04KT 8000 SHRA VCTS FEW005 SCT024 FEW035CB BKN040 16/15 Q1015 RETS TEMPO 29015G25KT -SHRA","observationTime":"2019-07-07T07:50:00Z","temp":16,"dewpoint":15,"windDirection":0,"windSpeed":7.408,"visibility":4.97,"altim":29.970472,"flightCategory":"MVFR","metarType":"METAR","geometry_esri":{"x":47.78,"y":13.02,"z":430}}}