{"type":"Feature","geometry":{"type":"Point","coordinates":[40.48,-3.57,582]},"properties":{"stationId":"LEMD","rawText":"LEMD 191430Z 22008G23KT 170V280 CAVOK 33/09 Q1014 NOSIG","observationTime":"2019-08-19T14:30:00Z","temp":33,"dewpoint":9,"windDirection":220,"windSpeed":14.816,"visibility":6.21,"altim":29.940945,"flightCategory":"VFR","metarType":"METAR","geometry_esri":{"x":40.48,"y":-3.57,"z":582}}}