{"type":"Feature","geometry":{"type":"Point","coordinates":[47.78,13.02,430]},"properties":{"stationId":"LOWS","rawText":"LOWS 220450Z 26003KT 8000 MIFG FEW001 SCT300 07/07 Q1024 TEMPO 2000","observationTime":"2019-10-22T04:50:00Z","temp":7,"dewpoint":7,"windDirection":260,"windSpeed":5.556,"visibility":4.97,"altim":30.236221,"flightCategory":"MVFR","metarType":"METAR","geometry_esri":{"x":47.78,"y":13.02,"z":430}}}