{"type":"Feature","geometry":{"type":"Point","coordinates":[47.78,13.02,430]},"properties":{"stationId":"LOWS","rawText":"LOWS 161750Z 14003KT 090V160 CAVOK 19/13 Q1018 NOSIG","observationTime":"2019-08-16T17:50:00Z","temp":19,"dewpoint":13,"windDirection":140,"windSpeed":5.556,"visibility":6.21,"altim":30.059055,"flightCategory":"VFR","metarType":"METAR","geometry_esri":{"x":47.78,"y":13.02,"z":430}}}