{"type":"Feature","geometry":{"type":"Point","coordinates":[51.48,-0.45,24]},"properties":{"stationId":"EGLL","rawText":"EGLL 292350Z 04003KT 6000 NSC 01/01 Q1022 BECMG 3000 BR","observationTime":"2019-11-29T23:50:00Z","temp":1,"dewpoint":1,"windDirection":40,"windSpeed":5.556,"visibility":3.73,"altim":30.177166,"flightCategory":"MVFR","metarType":"METAR","geometry_esri":{"x":51.48,"y":-0.45,"z":24}}}