{"type":"Feature","geometry":{"type":"Point","coordinates":[48.35,11.82,447]},"properties":{"stationId":"EDDM","rawText":"EDDM 311050Z 26006KT 220V300 9999 -SHRA SCT026TCU BKN045 17/12 Q1027 NOSIG","observationTime":"2019-05-31T10:50:00Z","temp":17,"dewpoint":12,"windDirection":260,"windSpeed":11.112,"visibility":6.21,"altim":30.324802,"flightCategory":"VFR","metarType":"METAR","geometry_esri":{"x":48.35,"y":11.82,"z":447}}}