{"type":"Feature","geometry":{"type":"Point","coordinates":[48.35,11.82,447]},"properties":{"stationId":"EDDM","rawText":"EDDM 302350Z 08009KT 9999 SCT028 04/00 Q1023 NOSIG","observationTime":"2019-10-30T23:50:00Z","temp":4,"dewpoint":0,"windDirection":80,"windSpeed":16.668,"visibility":6.21,"altim":30.206694,"flightCategory":"VFR","metarType":"METAR","geometry_esri":{"x":48.35,"y":11.82,"z":447}}}