{"type":"Feature","geometry":{"type":"Point","coordinates":[47.78,13.02,430]},"properties":{"stationId":"LOWS","rawText":"LOWS 290150Z AUTO 15004KT 9999 NSC 14/10 Q1022","observationTime":"2019-06-29T01:50:00Z","temp":14,"dewpoint":10,"windDirection":150,"windSpeed":7.408,"visibility":6.21,"altim":30.177166,"flightCategory":"VFR","metarType":"METAR","geometry_esri":{"x":47.78,"y":13.02,"z":430}}}