{"type":"Feature","geometry":{"type":"Point","coordinates":[49.02,2.52,109]},"properties":{"stationId":"LFPG","rawText":"LFPG 012330Z 13007KT CAVOK 21/15 Q1017 NOSIG","observationTime":"2019-06-01T23:30:00Z","temp":21,"dewpoint":15,"windDirection":130,"windSpeed":12.964,"visibility":6.21,"altim":30.029528,"flightCategory":"VFR","metarType":"METAR","geometry_esri":{"x":49.02,"y":2.52,"z":109}}}