{"type":"Feature","geometry":{"type":"Point","coordinates":[51.48,-0.45,24]},"properties":{"stationId":"EGLL","rawText":"EGLL 261250Z AUTO 22006KT 170V250 9999 FEW012 OVC026 09/08 Q1030 NOSIG","observationTime":"2018-12-26T12:50:00Z","temp":9,"dewpoint":8,"windDirection":220,"windSpeed":11.112,"visibility":6.21,"altim":30.413385,"flightCategory":"MVFR","metarType":"METAR","geometry_esri":{"x":51.48,"y":-0.45,"z":24}}}