{"type":"Feature","geometry":{"type":"Point","coordinates":[49.02,2.52,109]},"properties":{"stationId":"LFPG","rawText":"LFPG 211430Z 07005KT 360V140 CAVOK 23/08 Q1026 NOSIG","observationTime":"2019-08-21T14:30:00Z","temp":23,"dewpoint":8,"windDirection":70,"windSpeed":9.26,"visibility":6.21,"altim":30.295275,"flightCategory":"VFR","metarType":"METAR","geometry_esri":{"x":49.02,"y":2.52,"z":109}}}