{"type":"Feature","geometry":{"type":"Point","coordinates":[48.35,11.82,447]},"properties":{"stationId":"EDDM","rawText":"EDDM 210750Z 34003KT 270V030 9999 FEW012 19/15 Q1018 NOSIG","observationTime":"2019-06-21T07:50:00Z","temp":19,"dewpoint":15,"windDirection":340,"windSpeed":5.556,"visibility":6.21,"altim":30.059055,"flightCategory":"VFR","metarType":"METAR","geometry_esri":{"x":48.35,"y":11.82,"z":447}}}