{"type":"Feature","geometry":{"type":"Point","coordinates":[51.48,-0.45,24]},"properties":{"stationId":"EGLL","rawText":"EGLL 280850Z AUTO 21007KT 180V240 4700 HZ BKN009 BKN022 BKN046 09/08 Q1016 BECMG 5000 SCT009 BKN022","observationTime":"2019-02-28T08:50:00Z","temp":9,"dewpoint":8,"windDirection":210,"windSpeed":12.964,"visibility":2.92,"altim":30,"flightCategory":"IFR","metarType":"METAR","geometry_esri":{"x":51.48,"y":-0.45,"z":24}}}