{"type":"Feature","geometry":{"type":"Point","coordinates":[49.02,2.52,109]},"properties":{"stationId":"LFPG","rawText":"LFPG 301330Z 10010KT CAVOK 08/02 Q1019 NOSIG","observationTime":"2019-11-30T13:30:00Z","temp":8,"dewpoint":2,"windDirection":100,"windSpeed":18.52,"visibility":6.21,"altim":30.088583,"flightCategory":"VFR","metarType":"METAR","geometry_esri":{"x":49.02,"y":2.52,"z":109}}}