{"type":"Feature","geometry":{"type":"Point","coordinates":[48.35,11.82,447]},"properties":{"stationId":"EDDM","rawText":"EDDM 230850Z 12007KT 080V160 7000 OVC004 11/10 Q1018 BECMG OVC005","observationTime":"2019-10-23T08:50:00Z","temp":11,"dewpoint":10,"windDirection":120,"windSpeed":12.964,"visibility":4.35,"altim":30.059055,"flightCategory":"LIFR","metarType":"METAR","geometry_esri":{"x":48.35,"y":11.82,"z":447}}}