{"type":"Feature","geometry":{"type":"Point","coordinates":[51.48,-0.45,24]},"properties":{"stationId":"EGLL","rawText":"EGLL 150550Z 15002KT 2000 BR NSC 01/01 Q1028 NOSIG","observationTime":"2019-02-15T05:50:00Z","temp":1,"dewpoint":1,"windDirection":150,"windSpeed":3.704,"visibility":1.24,"altim":30.35433,"flightCategory":"IFR","metarType":"METAR","geometry_esri":{"x":51.48,"y":-0.45,"z":24}}}