{"type":"Feature","geometry":{"type":"Point","coordinates":[49.02,2.52,109]},"properties":{"stationId":"LFPG","rawText":"LFPG 281030Z 25016KT 230V320 9999 BKN021 12/07 Q1022 NOSIG","observationTime":"2019-02-28T10:30:00Z","temp":12,"dewpoint":7,"windDirection":250,"windSpeed":29.632,"visibility":6.21,"altim":30.177166,"flightCategory":"MVFR","metarType":"METAR","geometry_esri":{"x":49.02,"y":2.52,"z":109}}}