{"type":"Feature","geometry":{"type":"Point","coordinates":[51.48,-0.45,24]},"properties":{"stationId":"EGLL","rawText":"EGLL 220950Z AUTO 24009KT 190V270 9999 NCD 20/11 Q1025","observationTime":"2019-08-22T09:50:00Z","temp":20,"dewpoint":11,"windDirection":240,"windSpeed":16.668,"visibility":6.21,"altim":30.265747,"flightCategory":"VFR","metarType":"METAR","geometry_esri":{"x":51.48,"y":-0.45,"z":24}}}