{"type":"Feature","geometry":{"type":"Point","coordinates":[40.48,-3.57,582]},"properties":{"stationId":"LEMD","rawText":"LEMD 241230Z 15007KT CAVOK 30/08 Q1014 NOSIG","observationTime":"2019-06-24T12:30:00Z","temp":30,"dewpoint":8,"windDirection":150,"windSpeed":12.964,"visibility":6.21,"altim":29.940945,"flightCategory":"VFR","metarType":"METAR","geometry_esri":{"x":40.48,"y":-3.57,"z":582}}}