{"type":"Feature","geometry":{"type":"Point","coordinates":[49.02,2.52,109]},"properties":{"stationId":"LFPG","rawText":"LFPG 080330Z 27011KT 9999 FEW006 BKN009 BKN047 08/08 Q1026 NOSIG","observationTime":"2019-01-08T03:30:00Z","temp":8,"dewpoint":8,"windDirection":270,"windSpeed":20.372,"visibility":6.21,"altim":30.295275,"flightCategory":"IFR","metarType":"METAR","geometry_esri":{"x":49.02,"y":2.52,"z":109}}}