{"type":"Feature","geometry":{"type":"Point","coordinates":[40.48,-3.57,582]},"properties":{"stationId":"LEMD","rawText":"LEMD 281530Z 01002KT CAVOK 20/M01 Q1026 NOSIG","observationTime":"2019-02-28T15:30:00Z","temp":20,"dewpoint":-1,"windDirection":10,"windSpeed":3.704,"visibility":6.21,"altim":30.295275,"flightCategory":"VFR","metarType":"METAR","geometry_esri":{"x":40.48,"y":-3.57,"z":582}}}