{"type":"Feature","geometry":{"type":"Point","coordinates":[49.02,2.52,109]},"properties":{"stationId":"LFPG","rawText":"LFPG 111030Z 22015KT 190V270 9999 BKN015 15/11 Q1016 NOSIG","observationTime":"2019-10-11T10:30:00Z","temp":15,"dewpoint":11,"windDirection":220,"windSpeed":27.78,"visibility":6.21,"altim":30,"flightCategory":"MVFR","metarType":"METAR","geometry_esri":{"x":49.02,"y":2.52,"z":109}}}