{"type":"Feature","geometry":{"type":"Point","coordinates":[40.48,-3.57,582]},"properties":{"stationId":"LEMD","rawText":"LEMD 282230Z 22008KT CAVOK 28/09 Q1011 NOSIG","observationTime":"2019-07-28T22:30:00Z","temp":28,"dewpoint":9,"windDirection":220,"windSpeed":14.816,"visibility":6.21,"altim":29.852362,"flightCategory":"VFR","metarType":"METAR","geometry_esri":{"x":40.48,"y":-3.57,"z":582}}}