{"type":"Feature","geometry":{"type":"Point","coordinates":[40.48,-3.57,582]},"properties":{"stationId":"LEMD","rawText":"LEMD 081430Z 22001KT CAVOK 14/M04 Q1026 NOSIG","observationTime":"2019-01-08T14:30:00Z","temp":14,"dewpoint":-4,"windDirection":220,"windSpeed":1.852,"visibility":6.21,"altim":30.295275,"flightCategory":"VFR","metarType":"METAR","geometry_esri":{"x":40.48,"y":-3.57,"z":582}}}