{"type":"Feature","geometry":{"type":"Point","coordinates":[53.42,-6.25,85]},"properties":{"stationId":"EIDW","rawText":"EIDW 222330Z VRB03KT 9999 FEW025 BKN160 BKN230 11/08 Q1018 NOSIG","observationTime":"2019-06-22T23:30:00Z","temp":11,"dewpoint":8,"windDirection":0,"windSpeed":5.556,"visibility":6.21,"altim":30.059055,"flightCategory":"VFR","metarType":"METAR","geometry_esri":{"x":53.42,"y":-6.25,"z":85}}}