{"type":"Feature","geometry":{"type":"Point","coordinates":[40.48,-3.57,582]},"properties":{"stationId":"LEMD","rawText":"LEMD 071130Z 27001KT CAVOK 24/08 Q1021 NOSIG","observationTime":"2019-10-07T11:30:00Z","temp":24,"dewpoint":8,"windDirection":270,"windSpeed":1.852,"visibility":6.21,"altim":30.147638,"flightCategory":"VFR","metarType":"METAR","geometry_esri":{"x":40.48,"y":-3.57,"z":582}}}