{"type":"Feature","geometry":{"type":"Point","coordinates":[47.78,13.02,430]},"properties":{"stationId":"LOWS","rawText":"LOWS 032350Z AUTO 12003KT 9999 FEW250 M03/M05 Q1026","observationTime":"2019-12-03T23:50:00Z","temp":-3,"dewpoint":-5,"windDirection":120,"windSpeed":5.556,"visibility":6.21,"altim":30.295275,"flightCategory":"VFR","metarType":"METAR","geometry_esri":{"x":47.78,"y":13.02,"z":430}}}