{"type":"Feature","geometry":{"type":"Point","coordinates":[53.42,-6.25,85]},"properties":{"stationId":"EIDW","rawText":"EIDW 301630Z 27010KT 9999 FEW018 02/M01 Q0996 NOSIG","observationTime":"2019-01-30T16:30:00Z","temp":2,"dewpoint":-1,"windDirection":270,"windSpeed":18.52,"visibility":6.21,"altim":29.409449,"flightCategory":"VFR","metarType":"METAR","geometry_esri":{"x":53.42,"y":-6.25,"z":85}}}