{"type":"Feature","geometry":{"type":"Point","coordinates":[49.02,2.52,109]},"properties":{"stationId":"LFPG","rawText":"LFPG 052330Z 21007KT 9000 -RA FEW008 BKN026 11/10 Q1011 NOSIG","observationTime":"2019-06-05T23:30:00Z","temp":11,"dewpoint":10,"windDirection":210,"windSpeed":12.964,"visibility":5.59,"altim":29.852362,"flightCategory":"MVFR","metarType":"METAR","geometry_esri":{"x":49.02,"y":2.52,"z":109}}}