{"type":"Feature","geometry":{"type":"Point","coordinates":[40.48,-3.57,582]},"properties":{"stationId":"LEMD","rawText":"LEMD 051230Z 24011G26KT 9999 SCT030 14/07 Q1011 NOSIG","observationTime":"2019-11-05T12:30:00Z","temp":14,"dewpoint":7,"windDirection":240,"windSpeed":20.372,"visibility":6.21,"altim":29.852362,"flightCategory":"VFR","metarType":"METAR","geometry_esri":{"x":40.48,"y":-3.57,"z":582}}}