{"type":"Feature","geometry":{"type":"Point","coordinates":[51.48,-0.45,24]},"properties":{"stationId":"EGLL","rawText":"EGLL 270350Z AUTO 12006KT 8000 -RA BKN036/// BKN047/// //////CB 10/10 Q0984 NOSIG","observationTime":"2019-11-27T03:50:00Z","temp":10,"dewpoint":10,"windDirection":120,"windSpeed":11.112,"visibility":4.97,"altim":29.055119,"flightCategory":"MVFR","metarType":"METAR","geometry_esri":{"x":51.48,"y":-0.45,"z":24}}}