{"type":"Feature","geometry":{"type":"Point","coordinates":[53.42,-6.25,85]},"properties":{"stationId":"EIDW","rawText":"EIDW 281630Z 20005KT 160V230 7000 -DZ SCT007 BKN015 11/10 Q1029 NOSIG","observationTime":"2018-12-28T16:30:00Z","temp":11,"dewpoint":10,"windDirection":200,"windSpeed":9.26,"visibility":4.35,"altim":30.383858,"flightCategory":"MVFR","metarType":"METAR","geometry_esri":{"x":53.42,"y":-6.25,"z":85}}}