{"type":"Feature","geometry":{"type":"Point","coordinates":[49.02,2.52,109]},"properties":{"stationId":"LFPG","rawText":"LFPG 100730Z 24006KT 190V280 9999 FEW016 SCT086 16/12 Q1013 NOSIG","observationTime":"2019-06-10T07:30:00Z","temp":16,"dewpoint":12,"windDirection":240,"windSpeed":11.112,"visibility":6.21,"altim":29.911417,"flightCategory":"VFR","metarType":"METAR","geometry_esri":{"x":49.02,"y":2.52,"z":109}}}