{"type":"Feature","geometry":{"type":"Point","coordinates":[48.35,11.82,447]},"properties":{"stationId":"EDDM","rawText":"EDDM 170950Z 11010KT 080V140 9999 FEW026 15/08 Q1007 NOSIG","observationTime":"2019-05-17T09:50:00Z","temp":15,"dewpoint":8,"windDirection":110,"windSpeed":18.52,"visibility":6.21,"altim":29.734253,"flightCategory":"VFR","metarType":"METAR","geometry_esri":{"x":48.35,"y":11.82,"z":447}}}