{"type":"Feature","geometry":{"type":"Point","coordinates":[49.02,2.52,109]},"properties":{"stationId":"LFPG","rawText":"LFPG 191930Z 15006KT 9999 BKN046 05/01 Q1018 NOSIG","observationTime":"2019-11-19T19:30:00Z","temp":5,"dewpoint":1,"windDirection":150,"windSpeed":11.112,"visibility":6.21,"altim":30.059055,"flightCategory":"VFR","metarType":"METAR","geometry_esri":{"x":49.02,"y":2.52,"z":109}}}