{"type":"Feature","geometry":{"type":"Point","coordinates":[47.78,13.02,430]},"properties":{"stationId":"LOWS","rawText":"LOWS 090950Z 24003KT 180V310 9999 FEW022 SCT300 14/06 Q1009 NOSIG","observationTime":"2019-04-09T09:50:00Z","temp":14,"dewpoint":6,"windDirection":240,"windSpeed":5.556,"visibility":6.21,"altim":29.793306,"flightCategory":"VFR","metarType":"METAR","geometry_esri":{"x":47.78,"y":13.02,"z":430}}}