{"type":"Feature","geometry":{"type":"Point","coordinates":[47.78,13.02,430]},"properties":{"stationId":"LOWS","rawText":"LOWS 060950Z 33004KT 6000 FEW004 M05/M06 Q1029 TEMPO 4000","observationTime":"2019-02-06T09:50:00Z","temp":-5,"dewpoint":-6,"windDirection":330,"windSpeed":7.408,"visibility":3.73,"altim":30.383858,"flightCategory":"MVFR","metarType":"SPECI","geometry_esri":{"x":47.78,"y":13.02,"z":430}}}