{"type":"Feature","geometry":{"type":"Point","coordinates":[48.35,11.82,447]},"properties":{"stationId":"EDDM","rawText":"EDDM 130950Z 25006KT 9999 -RADZ BKN007 BKN018 03/02 Q1004 BECMG BKN010","observationTime":"2019-11-13T09:50:00Z","temp":3,"dewpoint":2,"windDirection":250,"windSpeed":11.112,"visibility":6.21,"altim":29.64567,"flightCategory":"IFR","metarType":"METAR","geometry_esri":{"x":48.35,"y":11.82,"z":447}}}