{"type":"Feature","geometry":{"type":"Point","coordinates":[40.48,-3.57,582]},"properties":{"stationId":"LEMD","rawText":"LEMD 271830Z 35011KT 310V020 CAVOK 26/07 Q1012 NOSIG","observationTime":"2019-05-27T18:30:00Z","temp":26,"dewpoint":7,"windDirection":350,"windSpeed":20.372,"visibility":6.21,"altim":29.88189,"flightCategory":"VFR","metarType":"METAR","geometry_esri":{"x":40.48,"y":-3.57,"z":582}}}