{"type":"Feature","geometry":{"type":"Point","coordinates":[47.78,13.02,430]},"properties":{"stationId":"LOWS","rawText":"LOWS 040050Z AUTO 16005KT 9999 SCT250 M04/M05 Q1025","observationTime":"2019-12-04T00:50:00Z","temp":-4,"dewpoint":-5,"windDirection":160,"windSpeed":9.26,"visibility":6.21,"altim":30.265747,"flightCategory":"VFR","metarType":"METAR","geometry_esri":{"x":47.78,"y":13.02,"z":430}}}