{"type":"Feature","geometry":{"type":"Point","coordinates":[40.48,-3.57,582]},"properties":{"stationId":"LEMD","rawText":"LEMD 221930Z 28008KT CAVOK 20/07 Q1017 NOSIG","observationTime":"2019-09-22T19:30:00Z","temp":20,"dewpoint":7,"windDirection":280,"windSpeed":14.816,"visibility":6.21,"altim":30.029528,"flightCategory":"VFR","metarType":"METAR","geometry_esri":{"x":40.48,"y":-3.57,"z":582}}}