{"type":"Feature","geometry":{"type":"Point","coordinates":[53.42,-6.25,85]},"properties":{"stationId":"EIDW","rawText":"EIDW 080630Z 26005KT 230V290 9999 FEW018 BKN035 10/09 Q1025 NOSIG","observationTime":"2019-09-08T06:30:00Z","temp":10,"dewpoint":9,"windDirection":260,"windSpeed":9.26,"visibility":6.21,"altim":30.265747,"flightCategory":"VFR","metarType":"METAR","geometry_esri":{"x":53.42,"y":-6.25,"z":85}}}