{"type":"Feature","geometry":{"type":"Point","coordinates":[51.48,-0.45,24]},"properties":{"stationId":"EGLL","rawText":"EGLL 110850Z AUTO 22011KT 9999 -RA SCT011 BKN017 15/15 Q1007 TEMPO RA BKN011","observationTime":"2019-10-11T08:50:00Z","temp":15,"dewpoint":15,"windDirection":220,"windSpeed":20.372,"visibility":6.21,"altim":29.734253,"flightCategory":"MVFR","metarType":"SPECI","geometry_esri":{"x":51.48,"y":-0.45,"z":24}}}