{"type":"Feature","geometry":{"type":"Point","coordinates":[49.02,2.52,109]},"properties":{"stationId":"LFPG","rawText":"LFPG 181230Z 18006KT 150V210 9999 FEW021 BKN160 05/M01 Q1019 NOSIG","observationTime":"2019-01-18T12:30:00Z","temp":5,"dewpoint":-1,"windDirection":180,"windSpeed":11.112,"visibility":6.21,"altim":30.088583,"flightCategory":"VFR","metarType":"METAR","geometry_esri":{"x":49.02,"y":2.52,"z":109}}}