{"type":"Feature","geometry":{"type":"Point","coordinates":[48.35,11.82,447]},"properties":{"stationId":"EDDM","rawText":"EDDM 311550Z VRB01KT CAVOK 02/M04 Q0997 NOSIG","observationTime":"2019-01-31T15:50:00Z","temp":2,"dewpoint":-4,"windDirection":0,"windSpeed":1.852,"visibility":6.21,"altim":29.438976,"flightCategory":"VFR","metarType":"METAR","geometry_esri":{"x":48.35,"y":11.82,"z":447}}}