{"type":"Feature","geometry":{"type":"Point","coordinates":[51.48,-0.45,24]},"properties":{"stationId":"EGLL","rawText":"EGLL 070250Z AUTO 11015KT 9999 -RA FEW015/// SCT028/// BKN046/// //////CB 08/08 Q0990 RERA BECMG 27009KT","observationTime":"2019-11-07T02:50:00Z","temp":8,"dewpoint":8,"windDirection":110,"windSpeed":27.78,"visibility":6.21,"altim":29.232283,"flightCategory":"VFR","metarType":"METAR","geometry_esri":{"x":51.48,"y":-0.45,"z":24}}}