{"type":"Feature","geometry":{"type":"Point","coordinates":[40.48,-3.57,582]},"properties":{"stationId":"LEMD","rawText":"LEMD 241930Z 20011KT 8000 -RA SCT060 BKN070 11/09 Q1005 R88/29//95 NOSIG","observationTime":"2019-04-24T19:30:00Z","temp":11,"dewpoint":9,"windDirection":200,"windSpeed":20.372,"visibility":4.97,"altim":29.675198,"flightCategory":"MVFR","metarType":"SPECI","geometry_esri":{"x":40.48,"y":-3.57,"z":582}}}