{"type":"Feature","geometry":{"type":"Point","coordinates":[40.48,-3.57,582]},"properties":{"stationId":"LEMD","rawText":"LEMD 301230Z 32001KT CAVOK 25/08 Q1016 NOSIG","observationTime":"2019-04-30T12:30:00Z","temp":25,"dewpoint":8,"windDirection":320,"windSpeed":1.852,"visibility":6.21,"altim":30,"flightCategory":"VFR","metarType":"METAR","geometry_esri":{"x":40.48,"y":-3.57,"z":582}}}