{"type":"Feature","geometry":{"type":"Point","coordinates":[48.35,11.82,447]},"properties":{"stationId":"EDDM","rawText":"EDDM 222050Z 11007KT 3500 BR OVC005 M05/M06 Q1003 TEMPO OVC004","observationTime":"2019-01-22T20:50:00Z","temp":-5,"dewpoint":-6,"windDirection":110,"windSpeed":12.964,"visibility":2.17,"altim":29.616142,"flightCategory":"IFR","metarType":"METAR","geometry_esri":{"x":48.35,"y":11.82,"z":447}}}