{"type":"Feature","geometry":{"type":"Point","coordinates":[51.48,-0.45,24]},"properties":{"stationId":"EGLL","rawText":"EGLL 240950Z 21006KT 140V320 1400 R27L/P1500 R27R/P1500 BR SCT001 BKN002 09/09 Q1004 TEMPO 1800 BKN003","observationTime":"2019-11-24T09:50:00Z","temp":9,"dewpoint":9,"windDirection":210,"windSpeed":11.112,"visibility":0.87,"altim":29.64567,"flightCategory":"LIFR","metarType":"METAR","geometry_esri":{"x":51.48,"y":-0.45,"z":24}}}