{"type":"Feature","geometry":{"type":"Point","coordinates":[49.02,2.52,109]},"properties":{"stationId":"LFPG","rawText":"LFPG 291630Z 25004KT 200V310 CAVOK 24/10 Q1021 NOSIG","observationTime":"2019-08-29T16:30:00Z","temp":24,"dewpoint":10,"windDirection":250,"windSpeed":7.408,"visibility":6.21,"altim":30.147638,"flightCategory":"VFR","metarType":"METAR","geometry_esri":{"x":49.02,"y":2.52,"z":109}}}