{"type":"Feature","geometry":{"type":"Point","coordinates":[48.35,11.82,447]},"properties":{"stationId":"EDDM","rawText":"EDDM 221550Z 08017KT CAVOK 21/M01 Q1005 NOSIG","observationTime":"2019-04-22T15:50:00Z","temp":21,"dewpoint":-1,"windDirection":80,"windSpeed":31.484,"visibility":6.21,"altim":29.675198,"flightCategory":"VFR","metarType":"METAR","geometry_esri":{"x":48.35,"y":11.82,"z":447}}}