{"type":"Feature","geometry":{"type":"Point","coordinates":[53.42,-6.25,85]},"properties":{"stationId":"EIDW","rawText":"EIDW 281230Z 24011KT 200V280 9999 SCT024 BKN036 16/11 Q1004 NOSIG","observationTime":"2019-09-28T12:30:00Z","temp":16,"dewpoint":11,"windDirection":240,"windSpeed":20.372,"visibility":6.21,"altim":29.64567,"flightCategory":"VFR","metarType":"METAR","geometry_esri":{"x":53.42,"y":-6.25,"z":85}}}