{"type":"Feature","geometry":{"type":"Point","coordinates":[40.48,-3.57,582]},"properties":{"stationId":"LEMD","rawText":"LEMD 252030Z 25009KT 220V280 9999 FEW080 33/07 Q1013 NOSIG","observationTime":"2019-07-25T20:30:00Z","temp":33,"dewpoint":7,"windDirection":250,"windSpeed":16.668,"visibility":6.21,"altim":29.911417,"flightCategory":"VFR","metarType":"METAR","geometry_esri":{"x":40.48,"y":-3.57,"z":582}}}