{"type":"Feature","geometry":{"type":"Point","coordinates":[48.35,11.82,447]},"properties":{"stationId":"EDDM","rawText":"EDDM 051350Z 25022KT 220V280 CAVOK 09/M02 Q1010 NOSIG","observationTime":"2019-03-05T13:50:00Z","temp":9,"dewpoint":-2,"windDirection":250,"windSpeed":40.744,"visibility":6.21,"altim":29.822834,"flightCategory":"VFR","metarType":"METAR","geometry_esri":{"x":48.35,"y":11.82,"z":447}}}