{"type":"Feature","geometry":{"type":"Point","coordinates":[47.78,13.02,430]},"properties":{"stationId":"LOWS","rawText":"LOWS 250650Z 16006KT CAVOK 24/17 Q1019 NOSIG","observationTime":"2019-07-25T06:50:00Z","temp":24,"dewpoint":17,"windDirection":160,"windSpeed":11.112,"visibility":6.21,"altim":30.088583,"flightCategory":"VFR","metarType":"METAR","geometry_esri":{"x":47.78,"y":13.02,"z":430}}}