{"type":"Feature","geometry":{"type":"Point","coordinates":[40.48,-3.57,582]},"properties":{"stationId":"LEMD","rawText":"LEMD 181330Z 17005KT 100V210 9999 FEW080 34/10 Q1015 NOSIG","observationTime":"2019-07-18T13:30:00Z","temp":34,"dewpoint":10,"windDirection":170,"windSpeed":9.26,"visibility":6.21,"altim":29.970472,"flightCategory":"VFR","metarType":"METAR","geometry_esri":{"x":40.48,"y":-3.57,"z":582}}}