{"type":"Feature","geometry":{"type":"Point","coordinates":[49.02,2.52,109]},"properties":{"stationId":"LFPG","rawText":"LFPG 241230Z AUTO 17012KT 130V190 5000 1000 R27L/P2000 R09R/1700D R26R/P2000 R08L/2000D R26L/P2000 R08R/P2000 R27R/P2000 R09L/1400D RA BR OVC006 16/15 Q1006 TEMPO 22015G25KT BECMG NSW BKN016","observationTime":"2019-09-24T12:30:00Z","temp":16,"dewpoint":15,"windDirection":170,"windSpeed":22.224,"visibility":3.11,"altim":29.704725,"flightCategory":"IFR","metarType":"METAR","geometry_esri":{"x":49.02,"y":2.52,"z":109}}}