{"type":"Feature","geometry":{"type":"Point","coordinates":[40.48,-3.57,582]},"properties":{"stationId":"LEMD","rawText":"LEMD 200630Z 33005KT CAVOK 09/03 Q1014 NOSIG","observationTime":"2019-05-20T06:30:00Z","temp":9,"dewpoint":3,"windDirection":330,"windSpeed":9.26,"visibility":6.21,"altim":29.940945,"flightCategory":"VFR","metarType":"METAR","geometry_esri":{"x":40.48,"y":-3.57,"z":582}}}