{"type":"Feature","geometry":{"type":"Point","coordinates":[47.78,13.02,430]},"properties":{"stationId":"LOWS","rawText":"LOWS 161150Z 32009KT 290V350 9999 FEW030 SCT042 BKN050 20/12 Q1022 NOSIG","observationTime":"2019-06-16T11:50:00Z","temp":20,"dewpoint":12,"windDirection":320,"windSpeed":16.668,"visibility":6.21,"altim":30.177166,"flightCategory":"VFR","metarType":"METAR","geometry_esri":{"x":47.78,"y":13.02,"z":430}}}