{"type":"Feature","geometry":{"type":"Point","coordinates":[49.02,2.52,109]},"properties":{"stationId":"LFPG","rawText":"LFPG 240630Z 03005KT 360V120 9999 -RA FEW009 BKN110 07/06 Q1028 NOSIG","observationTime":"2018-12-24T06:30:00Z","temp":7,"dewpoint":6,"windDirection":30,"windSpeed":9.26,"visibility":6.21,"altim":30.35433,"flightCategory":"VFR","metarType":"METAR","geometry_esri":{"x":49.02,"y":2.52,"z":109}}}