{"type":"Feature","geometry":{"type":"Point","coordinates":[53.42,-6.25,85]},"properties":{"stationId":"EIDW","rawText":"EIDW 031930Z 35010KT 9999 FEW024 SCT040 08/01 Q1018 NOSIG","observationTime":"2019-05-03T19:30:00Z","temp":8,"dewpoint":1,"windDirection":350,"windSpeed":18.52,"visibility":6.21,"altim":30.059055,"flightCategory":"VFR","metarType":"METAR","geometry_esri":{"x":53.42,"y":-6.25,"z":85}}}