{"type":"Feature","geometry":{"type":"Point","coordinates":[40.48,-3.57,582]},"properties":{"stationId":"LEMD","rawText":"LEMD 240530Z 16009KT 130V190 9999 -DZ FEW020 SCT070 06/03 Q1004 NOSIG","observationTime":"2019-04-24T05:30:00Z","temp":6,"dewpoint":3,"windDirection":160,"windSpeed":16.668,"visibility":6.21,"altim":29.64567,"flightCategory":"VFR","metarType":"METAR","geometry_esri":{"x":40.48,"y":-3.57,"z":582}}}