{"type":"Feature","geometry":{"type":"Point","coordinates":[53.42,-6.25,85]},"properties":{"stationId":"EIDW","rawText":"EIDW 040230Z 24008KT 190V280 9999 BKN016 BKN028 09/07 Q1007 NOSIG","observationTime":"2019-02-04T02:30:00Z","temp":9,"dewpoint":7,"windDirection":240,"windSpeed":14.816,"visibility":6.21,"altim":29.734253,"flightCategory":"MVFR","metarType":"METAR","geometry_esri":{"x":53.42,"y":-6.25,"z":85}}}