{"type":"Feature","geometry":{"type":"Point","coordinates":[53.42,-6.25,85]},"properties":{"stationId":"EIDW","rawText":"EIDW 181830Z 14006KT 100V170 9999 FEW022 SCT048 BKN070 15/11 Q1010 NOSIG","observationTime":"2019-06-18T18:30:00Z","temp":15,"dewpoint":11,"windDirection":140,"windSpeed":11.112,"visibility":6.21,"altim":29.822834,"flightCategory":"VFR","metarType":"METAR","geometry_esri":{"x":53.42,"y":-6.25,"z":85}}}