{"type":"Feature","geometry":{"type":"Point","coordinates":[51.48,-0.45,24]},"properties":{"stationId":"EGLL","rawText":"EGLL 220550Z AUTO 21007KT 9999 OVC013 09/06 Q1029 TEMPO BKN015","observationTime":"2019-03-22T05:50:00Z","temp":9,"dewpoint":6,"windDirection":210,"windSpeed":12.964,"visibility":6.21,"altim":30.383858,"flightCategory":"MVFR","metarType":"METAR","geometry_esri":{"x":51.48,"y":-0.45,"z":24}}}