{"type":"Feature","geometry":{"type":"Point","coordinates":[49.02,2.52,109]},"properties":{"stationId":"LFPG","rawText":"LFPG 040830Z 13004KT 100V180 CAVOK 23/13 Q1016 NOSIG","observationTime":"2019-08-04T08:30:00Z","temp":23,"dewpoint":13,"windDirection":130,"windSpeed":7.408,"visibility":6.21,"altim":30,"flightCategory":"VFR","metarType":"METAR","geometry_esri":{"x":49.02,"y":2.52,"z":109}}}