{"type":"Feature","geometry":{"type":"Point","coordinates":[40.48,-3.57,582]},"properties":{"stationId":"LEMD","rawText":"LEMD 231630Z 21020KT 180V240 9999 FEW050TCU SCT070 11/04 Q0998 NOSIG","observationTime":"2019-04-23T16:30:00Z","temp":11,"dewpoint":4,"windDirection":210,"windSpeed":37.04,"visibility":6.21,"altim":29.468504,"flightCategory":"VFR","metarType":"METAR","geometry_esri":{"x":40.48,"y":-3.57,"z":582}}}