{"type":"Feature","geometry":{"type":"Point","coordinates":[49.02,2.52,109]},"properties":{"stationId":"LFPG","rawText":"LFPG 031730Z 20009KT 180V250 9999 FEW020 SCT053 11/09 Q0988 NOSIG","observationTime":"2019-11-03T17:30:00Z","temp":11,"dewpoint":9,"windDirection":200,"windSpeed":16.668,"visibility":6.21,"altim":29.17323,"flightCategory":"VFR","metarType":"METAR","geometry_esri":{"x":49.02,"y":2.52,"z":109}}}