{"type":"Feature","geometry":{"type":"Point","coordinates":[51.48,-0.45,24]},"properties":{"stationId":"EGLL","rawText":"EGLL 080250Z AUTO VRB03KT 2600 BR BKN005 OVC008 08/07 Q1010 RERA REDZ TEMPO BKN004","observationTime":"2019-04-08T02:50:00Z","temp":8,"dewpoint":7,"windDirection":0,"windSpeed":5.556,"visibility":1.62,"altim":29.822834,"flightCategory":"IFR","metarType":"SPECI","geometry_esri":{"x":51.48,"y":-0.45,"z":24}}}