{"type":"Feature","geometry":{"type":"Point","coordinates":[51.48,-0.45,24]},"properties":{"stationId":"EGLL","rawText":"EGLL 280150Z 26002KT 5000 BR OVC029 05/05 Q1028","observationTime":"2018-12-28T01:50:00Z","temp":5,"dewpoint":5,"windDirection":260,"windSpeed":3.704,"visibility":3.11,"altim":30.35433,"flightCategory":"MVFR","metarType":"METAR","geometry_esri":{"x":51.48,"y":-0.45,"z":24}}}