{"type":"Feature","geometry":{"type":"Point","coordinates":[49.02,2.52,109]},"properties":{"stationId":"LFPG","rawText":"LFPG 032130Z 06007KT 0800 R27L/0900U R09R/0800D R26R/P2000 R08L/P2000 R26L/P2000 R08R/P2000 R27R/1400D R09L/0600N FG BKN001 02/02 Q1025 NOSIG","observationTime":"2019-12-03T21:30:00Z","temp":2,"dewpoint":2,"windDirection":60,"windSpeed":12.964,"visibility":0.5,"altim":30.265747,"flightCategory":"LIFR","metarType":"METAR","geometry_esri":{"x":49.02,"y":2.52,"z":109}}}