{"type":"Feature","geometry":{"type":"Point","coordinates":[49.02,2.52,109]},"properties":{"stationId":"LFPG","rawText":"LFPG 251030Z 23004KT 210V010 3000 BR OVC006 03/02 Q1017 NOSIG","observationTime":"2019-01-25T10:30:00Z","temp":3,"dewpoint":2,"windDirection":230,"windSpeed":7.408,"visibility":1.86,"altim":30.029528,"flightCategory":"IFR","metarType":"METAR","geometry_esri":{"x":49.02,"y":2.52,"z":109}}}