{"type":"Feature","geometry":{"type":"Point","coordinates":[51.48,-0.45,24]},"properties":{"stationId":"EGLL","rawText":"EGLL 041450Z 12007KT 7000 -SHRA BKN010TCU OVC017 15/14 Q1003 RESHRA","observationTime":"2019-06-04T14:50:00Z","temp":15,"dewpoint":14,"windDirection":120,"windSpeed":12.964,"visibility":4.35,"altim":29.616142,"flightCategory":"MVFR","metarType":"METAR","geometry_esri":{"x":51.48,"y":-0.45,"z":24}}}