{"type":"Feature","geometry":{"type":"Point","coordinates":[47.78,13.02,430]},"properties":{"stationId":"LOWS","rawText":"LOWS 091050Z 14011KT 9999 FEW020 SCT045 BKN300 13/06 Q1004 NOSIG","observationTime":"2019-05-09T10:50:00Z","temp":13,"dewpoint":6,"windDirection":140,"windSpeed":20.372,"visibility":6.21,"altim":29.64567,"flightCategory":"VFR","metarType":"METAR","geometry_esri":{"x":47.78,"y":13.02,"z":430}}}