{"type":"Feature","geometry":{"type":"Point","coordinates":[40.48,-3.57,582]},"properties":{"stationId":"LEMD","rawText":"LEMD 121230Z 36009KT 300V040 CAVOK 26/00 Q1019 NOSIG","observationTime":"2019-08-12T12:30:00Z","temp":26,"dewpoint":0,"windDirection":360,"windSpeed":16.668,"visibility":6.21,"altim":30.088583,"flightCategory":"VFR","metarType":"METAR","geometry_esri":{"x":40.48,"y":-3.57,"z":582}}}