{"type":"Feature","geometry":{"type":"Point","coordinates":[48.35,11.82,447]},"properties":{"stationId":"EDDM","rawText":"EDDM 120950Z 33005KT 290V030 9999 -RA SCT013 BKN045 16/13 Q1019 TEMPO 4000 SHRA BKN014CB","observationTime":"2019-08-12T09:50:00Z","temp":16,"dewpoint":13,"windDirection":330,"windSpeed":9.26,"visibility":6.21,"altim":30.088583,"flightCategory":"VFR","metarType":"METAR","geometry_esri":{"x":48.35,"y":11.82,"z":447}}}