{"type":"Feature","geometry":{"type":"Point","coordinates":[53.42,-6.25,85]},"properties":{"stationId":"EIDW","rawText":"EIDW 260630Z 25013KT 210V280 9999 FEW008 BKN010 BKN035 14/13 Q1011 BECMG SCT010","observationTime":"2019-05-26T06:30:00Z","temp":14,"dewpoint":13,"windDirection":250,"windSpeed":24.076,"visibility":6.21,"altim":29.852362,"flightCategory":"MVFR","metarType":"SPECI","geometry_esri":{"x":53.42,"y":-6.25,"z":85}}}