{"type":"Feature","geometry":{"type":"Point","coordinates":[51.48,-0.45,24]},"properties":{"stationId":"EGLL","rawText":"EGLL 161550Z AUTO 20012KT 160V230 9999 BKN013 17/15 Q1009 TEMPO RA SCT013 BKN017","observationTime":"2019-08-16T15:50:00Z","temp":17,"dewpoint":15,"windDirection":200,"windSpeed":22.224,"visibility":6.21,"altim":29.793306,"flightCategory":"MVFR","metarType":"SPECI","geometry_esri":{"x":51.48,"y":-0.45,"z":24}}}