{"type":"Feature","geometry":{"type":"Point","coordinates":[48.35,11.82,447]},"properties":{"stationId":"EDDM","rawText":"EDDM 230250Z 05004KT 0150 R08L/0700N R08R/0600N FG BKN001 BKN003 02/01 Q1003 BECMG 2000 BR SCT001","observationTime":"2019-11-23T02:50:00Z","temp":2,"dewpoint":1,"windDirection":50,"windSpeed":7.408,"visibility":0.09,"altim":29.616142,"flightCategory":"LIFR","metarType":"METAR","geometry_esri":{"x":48.35,"y":11.82,"z":447}}}