{"type":"Feature","geometry":{"type":"Point","coordinates":[40.48,-3.57,582]},"properties":{"stationId":"LEMD","rawText":"LEMD 190230Z 06006KT 010V120 9999 SCT075 07/M02 Q1025 NOSIG","observationTime":"2019-03-19T02:30:00Z","temp":7,"dewpoint":-2,"windDirection":60,"windSpeed":11.112,"visibility":6.21,"altim":30.265747,"flightCategory":"VFR","metarType":"METAR","geometry_esri":{"x":40.48,"y":-3.57,"z":582}}}