{"type":"Feature","geometry":{"type":"Point","coordinates":[40.48,-3.57,582]},"properties":{"stationId":"LEMD","rawText":"LEMD 071230Z 19009KT 140V220 9999 FEW048 11/M00 Q1016 NOSIG","observationTime":"2019-03-07T12:30:00Z","temp":11,"dewpoint":0,"windDirection":190,"windSpeed":16.668,"visibility":6.21,"altim":30,"flightCategory":"VFR","metarType":"METAR","geometry_esri":{"x":40.48,"y":-3.57,"z":582}}}