{"type":"Feature","geometry":{"type":"Point","coordinates":[49.02,2.52,109]},"properties":{"stationId":"LFPG","rawText":"LFPG 111430Z 01013KT 340V060 CAVOK 13/M00 Q1020 NOSIG","observationTime":"2019-04-11T14:30:00Z","temp":13,"dewpoint":0,"windDirection":10,"windSpeed":24.076,"visibility":6.21,"altim":30.11811,"flightCategory":"VFR","metarType":"METAR","geometry_esri":{"x":49.02,"y":2.52,"z":109}}}