{"type":"Feature","geometry":{"type":"Point","coordinates":[40.48,-3.57,582]},"properties":{"stationId":"LEMD","rawText":"LEMD 210430Z 35008KT CAVOK 04/00 Q1019 NOSIG","observationTime":"2019-01-21T04:30:00Z","temp":4,"dewpoint":0,"windDirection":350,"windSpeed":14.816,"visibility":6.21,"altim":30.088583,"flightCategory":"VFR","metarType":"METAR","geometry_esri":{"x":40.48,"y":-3.57,"z":582}}}