{"type":"Feature","geometry":{"type":"Point","coordinates":[40.48,-3.57,582]},"properties":{"stationId":"LEMD","rawText":"LEMD 231830Z 27014KT 240V310 9999 FEW060 10/01 Q1008 NOSIG","observationTime":"2019-11-23T18:30:00Z","temp":10,"dewpoint":1,"windDirection":270,"windSpeed":25.928,"visibility":6.21,"altim":29.763779,"flightCategory":"VFR","metarType":"METAR","geometry_esri":{"x":40.48,"y":-3.57,"z":582}}}