{"type":"Feature","geometry":{"type":"Point","coordinates":[40.48,-3.57,582]},"properties":{"stationId":"LEMD","rawText":"LEMD 060230Z 33004KT CAVOK M03/M04 Q1032 NOSIG","observationTime":"2019-01-06T02:30:00Z","temp":-3,"dewpoint":-4,"windDirection":330,"windSpeed":7.408,"visibility":6.21,"altim":30.47244,"flightCategory":"VFR","metarType":"METAR","geometry_esri":{"x":40.48,"y":-3.57,"z":582}}}