{"type":"Feature","geometry":{"type":"Point","coordinates":[40.48,-3.57,582]},"properties":{"stationId":"LEMD","rawText":"LEMD 301430Z 23013KT 9999 FEW065 11/M04 Q1009 NOSIG","observationTime":"2019-01-30T14:30:00Z","temp":11,"dewpoint":-4,"windDirection":230,"windSpeed":24.076,"visibility":6.21,"altim":29.793306,"flightCategory":"VFR","metarType":"METAR","geometry_esri":{"x":40.48,"y":-3.57,"z":582}}}