{"type":"Feature","geometry":{"type":"Point","coordinates":[53.42,-6.25,85]},"properties":{"stationId":"EIDW","rawText":"EIDW 230130Z 19006KT 150V230 9999 FEW017 SCT120 BKN180 11/08 Q1014 NOSIG","observationTime":"2019-10-23T01:30:00Z","temp":11,"dewpoint":8,"windDirection":190,"windSpeed":11.112,"visibility":6.21,"altim":29.940945,"flightCategory":"VFR","metarType":"METAR","geometry_esri":{"x":53.42,"y":-6.25,"z":85}}}