{"type":"Feature","geometry":{"type":"Point","coordinates":[53.42,-6.25,85]},"properties":{"stationId":"EIDW","rawText":"EIDW 061930Z 11006KT 090V150 9999 FEW016 SCT040 15/12 Q1016 NOSIG","observationTime":"2019-07-06T19:30:00Z","temp":15,"dewpoint":12,"windDirection":110,"windSpeed":11.112,"visibility":6.21,"altim":30,"flightCategory":"VFR","metarType":"METAR","geometry_esri":{"x":53.42,"y":-6.25,"z":85}}}