{"type":"Feature","geometry":{"type":"Point","coordinates":[48.35,11.82,447]},"properties":{"stationId":"EDDM","rawText":"EDDM 101050Z VRB03KT 9999 FEW030 23/16 Q1014 NOSIG","observationTime":"2019-06-10T10:50:00Z","temp":23,"dewpoint":16,"windDirection":0,"windSpeed":5.556,"visibility":6.21,"altim":29.940945,"flightCategory":"VFR","metarType":"METAR","geometry_esri":{"x":48.35,"y":11.82,"z":447}}}