{"type":"Feature","geometry":{"type":"Point","coordinates":[51.48,-0.45,24]},"properties":{"stationId":"EGLL","rawText":"EGLL 240150Z AUTO 04002KT 9999 NCD 05/02 Q1032 NOSIG","observationTime":"2019-03-24T01:50:00Z","temp":5,"dewpoint":2,"windDirection":40,"windSpeed":3.704,"visibility":6.21,"altim":30.47244,"flightCategory":"VFR","metarType":"METAR","geometry_esri":{"x":51.48,"y":-0.45,"z":24}}}