{"type":"Feature","geometry":{"type":"Point","coordinates":[53.42,-6.25,85]},"properties":{"stationId":"EIDW","rawText":"EIDW 060430Z 24008KT 190V270 9000 FEW005 BKN007 08/06 Q1005 NOSIG","observationTime":"2019-06-06T04:30:00Z","temp":8,"dewpoint":6,"windDirection":240,"windSpeed":14.816,"visibility":5.59,"altim":29.675198,"flightCategory":"IFR","metarType":"METAR","geometry_esri":{"x":53.42,"y":-6.25,"z":85}}}