{"type":"Feature","geometry":{"type":"Point","coordinates":[40.48,-3.57,582]},"properties":{"stationId":"LEMD","rawText":"LEMD 141630Z 18004KT 130V230 CAVOK 18/M03 Q1026 NOSIG","observationTime":"2019-03-14T16:30:00Z","temp":18,"dewpoint":-3,"windDirection":180,"windSpeed":7.408,"visibility":6.21,"altim":30.295275,"flightCategory":"VFR","metarType":"METAR","geometry_esri":{"x":40.48,"y":-3.57,"z":582}}}