{"type":"Feature","geometry":{"type":"Point","coordinates":[47.78,13.02,430]},"properties":{"stationId":"LOWS","rawText":"LOWS 161350Z 33009KT 9999 FEW050 BKN200 26/15 Q1018 NOSIG","observationTime":"2019-09-16T13:50:00Z","temp":26,"dewpoint":15,"windDirection":330,"windSpeed":16.668,"visibility":6.21,"altim":30.059055,"flightCategory":"VFR","metarType":"METAR","geometry_esri":{"x":47.78,"y":13.02,"z":430}}}