{"type":"Feature","geometry":{"type":"Point","coordinates":[53.42,-6.25,85]},"properties":{"stationId":"EIDW","rawText":"EIDW 140730Z 27013KT 9999 FEW016 BKN040 06/03 Q1022 NOSIG","observationTime":"2019-01-14T07:30:00Z","temp":6,"dewpoint":3,"windDirection":270,"windSpeed":24.076,"visibility":6.21,"altim":30.177166,"flightCategory":"VFR","metarType":"METAR","geometry_esri":{"x":53.42,"y":-6.25,"z":85}}}