{"type":"Feature","geometry":{"type":"Point","coordinates":[49.02,2.52,109]},"properties":{"stationId":"LFPG","rawText":"LFPG 091630Z 17011KT 9999 BKN018 SCT230 07/03 Q1007 NOSIG","observationTime":"2019-11-09T16:30:00Z","temp":7,"dewpoint":3,"windDirection":170,"windSpeed":20.372,"visibility":6.21,"altim":29.734253,"flightCategory":"MVFR","metarType":"METAR","geometry_esri":{"x":49.02,"y":2.52,"z":109}}}