{"type":"Feature","geometry":{"type":"Point","coordinates":[53.42,-6.25,85]},"properties":{"stationId":"EIDW","rawText":"EIDW 130730Z 25006KT 9999 FEW018 SCT220 09/08 Q1036 NOSIG","observationTime":"2019-09-13T07:30:00Z","temp":9,"dewpoint":8,"windDirection":250,"windSpeed":11.112,"visibility":6.21,"altim":30.590551,"flightCategory":"VFR","metarType":"METAR","geometry_esri":{"x":53.42,"y":-6.25,"z":85}}}