{"type":"Feature","geometry":{"type":"Point","coordinates":[53.42,-6.25,85]},"properties":{"stationId":"EIDW","rawText":"EIDW 252030Z 17008KT 9000 -RA FEW014 SCT019 BKN026 15/14 Q0995 TEMPO 5000","observationTime":"2019-09-25T20:30:00Z","temp":15,"dewpoint":14,"windDirection":170,"windSpeed":14.816,"visibility":5.59,"altim":29.379921,"flightCategory":"MVFR","metarType":"SPECI","geometry_esri":{"x":53.42,"y":-6.25,"z":85}}}