{"type":"Feature","geometry":{"type":"Point","coordinates":[51.48,-0.45,24]},"properties":{"stationId":"EGLL","rawText":"EGLL 081050Z AUTO 23012KT 190V260 5000 -RA FEW016/// SCT023/// BKN034/// //////CB 11/10 Q0992 TEMPO SHRA","observationTime":"2019-05-08T10:50:00Z","temp":11,"dewpoint":10,"windDirection":230,"windSpeed":22.224,"visibility":3.11,"altim":29.291338,"flightCategory":"MVFR","metarType":"METAR","geometry_esri":{"x":51.48,"y":-0.45,"z":24}}}