{"type":"Feature","geometry":{"type":"Point","coordinates":[48.35,11.82,447]},"properties":{"stationId":"EDDM","rawText":"EDDM 030950Z 28008KT 240V330 9999 VCSH FEW022CB SCT025TCU 21/14 Q1016 TEMPO 32015G25KT 4000 TSRA","observationTime":"2019-08-03T09:50:00Z","temp":21,"dewpoint":14,"windDirection":280,"windSpeed":14.816,"visibility":6.21,"altim":30,"flightCategory":"VFR","metarType":"METAR","geometry_esri":{"x":48.35,"y":11.82,"z":447}}}