{"type":"Feature","geometry":{"type":"Point","coordinates":[51.48,-0.45,24]},"properties":{"stationId":"EGLL","rawText":"EGLL 051150Z AUTO 14015KT 9999 FEW049 13/03 Q1002 NOSIG","observationTime":"2019-04-05T11:50:00Z","temp":13,"dewpoint":3,"windDirection":140,"windSpeed":27.78,"visibility":6.21,"altim":29.586615,"flightCategory":"VFR","metarType":"METAR","geometry_esri":{"x":51.48,"y":-0.45,"z":24}}}