{"type":"Feature","geometry":{"type":"Point","coordinates":[40.48,-3.57,582]},"properties":{"stationId":"LEMD","rawText":"LEMD 021330Z 18006KT 150V240 9999 FEW080 33/10 Q1014 NOSIG","observationTime":"2019-07-02T13:30:00Z","temp":33,"dewpoint":10,"windDirection":180,"windSpeed":11.112,"visibility":6.21,"altim":29.940945,"flightCategory":"VFR","metarType":"METAR","geometry_esri":{"x":40.48,"y":-3.57,"z":582}}}