{"type":"Feature","geometry":{"type":"Point","coordinates":[51.48,-0.45,24]},"properties":{"stationId":"EGLL","rawText":"EGLL 072150Z AUTO 28012KT 9999 -RA SCT029 BKN037 08/05 Q1002","observationTime":"2019-03-07T21:50:00Z","temp":8,"dewpoint":5,"windDirection":280,"windSpeed":22.224,"visibility":6.21,"altim":29.586615,"flightCategory":"VFR","metarType":"METAR","geometry_esri":{"x":51.48,"y":-0.45,"z":24}}}