{"type":"Feature","geometry":{"type":"Point","coordinates":[40.48,-3.57,582]},"properties":{"stationId":"LEMD","rawText":"LEMD 230630Z 35003KT 320V020 CAVOK 17/07 Q1022 NOSIG","observationTime":"2019-08-23T06:30:00Z","temp":17,"dewpoint":7,"windDirection":350,"windSpeed":5.556,"visibility":6.21,"altim":30.177166,"flightCategory":"VFR","metarType":"METAR","geometry_esri":{"x":40.48,"y":-3.57,"z":582}}}