{"type":"Feature","geometry":{"type":"Point","coordinates":[49.02,2.52,109]},"properties":{"stationId":"LFPG","rawText":"LFPG 121130Z 02013KT 350V060 9999 SCT036 13/02 Q1034 NOSIG","observationTime":"2019-05-12T11:30:00Z","temp":13,"dewpoint":2,"windDirection":20,"windSpeed":24.076,"visibility":6.21,"altim":30.531496,"flightCategory":"VFR","metarType":"METAR","geometry_esri":{"x":49.02,"y":2.52,"z":109}}}