{"type":"Feature","geometry":{"type":"Point","coordinates":[40.48,-3.57,582]},"properties":{"stationId":"LEMD","rawText":"LEMD 201430Z 03004KT CAVOK 14/M03 Q1025 NOSIG","observationTime":"2019-03-20T14:30:00Z","temp":14,"dewpoint":-3,"windDirection":30,"windSpeed":7.408,"visibility":6.21,"altim":30.265747,"flightCategory":"VFR","metarType":"METAR","geometry_esri":{"x":40.48,"y":-3.57,"z":582}}}