{"type":"Feature","geometry":{"type":"Point","coordinates":[40.48,-3.57,582]},"properties":{"stationId":"LEMD","rawText":"LEMD 220630Z 01004KT CAVOK M01/M02 Q1032 NOSIG","observationTime":"2019-02-22T06:30:00Z","temp":-1,"dewpoint":-2,"windDirection":10,"windSpeed":7.408,"visibility":6.21,"altim":30.47244,"flightCategory":"VFR","metarType":"METAR","geometry_esri":{"x":40.48,"y":-3.57,"z":582}}}