{"type":"Feature","geometry":{"type":"Point","coordinates":[51.48,-0.45,24]},"properties":{"stationId":"EGLL","rawText":"EGLL 292350Z AUTO 05005KT 9999 NCD 08/05 Q1026 NOSIG","observationTime":"2019-10-29T23:50:00Z","temp":8,"dewpoint":5,"windDirection":50,"windSpeed":9.26,"visibility":6.21,"altim":30.295275,"flightCategory":"VFR","metarType":"METAR","geometry_esri":{"x":51.48,"y":-0.45,"z":24}}}