{"type":"Feature","geometry":{"type":"Point","coordinates":[51.48,-0.45,24]},"properties":{"stationId":"EGLL","rawText":"EGLL 260650Z 21006KT 6000 BKN017 OVC029 08/07 Q1031 TEMPO 4500 BR BKN012","observationTime":"2018-12-26T06:50:00Z","temp":8,"dewpoint":7,"windDirection":210,"windSpeed":11.112,"visibility":3.73,"altim":30.442913,"flightCategory":"MVFR","metarType":"METAR","geometry_esri":{"x":51.48,"y":-0.45,"z":24}}}