{"type":"Feature","geometry":{"type":"Point","coordinates":[49.02,2.52,109]},"properties":{"stationId":"LFPG","rawText":"LFPG 010630Z 19013KT 9999 BKN011 18/15 Q1005 NOSIG","observationTime":"2019-10-01T06:30:00Z","temp":18,"dewpoint":15,"windDirection":190,"windSpeed":24.076,"visibility":6.21,"altim":29.675198,"flightCategory":"MVFR","metarType":"METAR","geometry_esri":{"x":49.02,"y":2.52,"z":109}}}