{"type":"Feature","geometry":{"type":"Point","coordinates":[53.42,-6.25,85]},"properties":{"stationId":"EIDW","rawText":"EIDW 050830Z 23016G26KT 200V260 9999 FEW022 06/02 Q0993 NOSIG","observationTime":"2019-03-05T08:30:00Z","temp":6,"dewpoint":2,"windDirection":230,"windSpeed":29.632,"visibility":6.21,"altim":29.320866,"flightCategory":"VFR","metarType":"METAR","geometry_esri":{"x":53.42,"y":-6.25,"z":85}}}