{"type":"Feature","geometry":{"type":"Point","coordinates":[53.42,-6.25,85]},"properties":{"stationId":"EIDW","rawText":"EIDW 080530Z 08007KT 2500 BR SCT003 BKN004 BKN020 08/08 Q1010 NOSIG","observationTime":"2019-04-08T05:30:00Z","temp":8,"dewpoint":8,"windDirection":80,"windSpeed":12.964,"visibility":1.55,"altim":29.822834,"flightCategory":"LIFR","metarType":"METAR","geometry_esri":{"x":53.42,"y":-6.25,"z":85}}}