{"type":"Feature","geometry":{"type":"Point","coordinates":[40.48,-3.57,582]},"properties":{"stationId":"LEMD","rawText":"LEMD 131430Z 21011G22KT CAVOK 29/02 Q1009 NOSIG","observationTime":"2019-06-13T14:30:00Z","temp":29,"dewpoint":2,"windDirection":210,"windSpeed":20.372,"visibility":6.21,"altim":29.793306,"flightCategory":"VFR","metarType":"METAR","geometry_esri":{"x":40.48,"y":-3.57,"z":582}}}