{"type":"Feature","geometry":{"type":"Point","coordinates":[47.78,13.02,430]},"properties":{"stationId":"LOWS","rawText":"LOWS 201550Z 29011KT 260V320 9999 TSRA FEW012 SCT050 SCT060CB BKN080 18/14 Q1015 TEMPO -SHRA","observationTime":"2019-06-20T15:50:00Z","temp":18,"dewpoint":14,"windDirection":290,"windSpeed":20.372,"visibility":6.21,"altim":29.970472,"flightCategory":"VFR","metarType":"METAR","geometry_esri":{"x":47.78,"y":13.02,"z":430}}}