{"type":"Feature","geometry":{"type":"Point","coordinates":[48.35,11.82,447]},"properties":{"stationId":"EDDM","rawText":"EDDM 260350Z VRB01KT 9999 R08R/0500VP2000D BCFG NSC 16/16 Q1023 NOSIG","observationTime":"2019-06-26T03:50:00Z","temp":16,"dewpoint":16,"windDirection":0,"windSpeed":1.852,"visibility":6.21,"altim":30.206694,"flightCategory":"VFR","metarType":"METAR","geometry_esri":{"x":48.35,"y":11.82,"z":447}}}