{"type":"Feature","geometry":{"type":"Point","coordinates":[40.48,-3.57,582]},"properties":{"stationId":"LEMD","rawText":"LEMD 020730Z 02007KT 340V060 CAVOK 06/02 Q1015 NOSIG","observationTime":"2019-12-02T07:30:00Z","temp":6,"dewpoint":2,"windDirection":20,"windSpeed":12.964,"visibility":6.21,"altim":29.970472,"flightCategory":"VFR","metarType":"METAR","geometry_esri":{"x":40.48,"y":-3.57,"z":582}}}