{"type":"Feature","geometry":{"type":"Point","coordinates":[48.35,11.82,447]},"properties":{"stationId":"EDDM","rawText":"EDDM 222050Z 20004KT 170V230 9999 BKN044 17/14 Q1027 NOSIG","observationTime":"2019-08-22T20:50:00Z","temp":17,"dewpoint":14,"windDirection":200,"windSpeed":7.408,"visibility":6.21,"altim":30.324802,"flightCategory":"VFR","metarType":"METAR","geometry_esri":{"x":48.35,"y":11.82,"z":447}}}