{"type":"Feature","geometry":{"type":"Point","coordinates":[40.48,-3.57,582]},"properties":{"stationId":"LEMD","rawText":"LEMD 281630Z 20003KT CAVOK 19/M08 Q1023 NOSIG","observationTime":"2019-03-28T16:30:00Z","temp":19,"dewpoint":-8,"windDirection":200,"windSpeed":5.556,"visibility":6.21,"altim":30.206694,"flightCategory":"VFR","metarType":"METAR","geometry_esri":{"x":40.48,"y":-3.57,"z":582}}}