{"type":"Feature","geometry":{"type":"Point","coordinates":[47.78,13.02,430]},"properties":{"stationId":"LOWS","rawText":"LOWS 110950Z 36003KT 320V030 9999 FEW030 BKN140 BKN300 16/12 Q1024 NOSIG","observationTime":"2019-09-11T09:50:00Z","temp":16,"dewpoint":12,"windDirection":360,"windSpeed":5.556,"visibility":6.21,"altim":30.236221,"flightCategory":"VFR","metarType":"METAR","geometry_esri":{"x":47.78,"y":13.02,"z":430}}}