{"type":"Feature","geometry":{"type":"Point","coordinates":[48.35,11.82,447]},"properties":{"stationId":"EDDM","rawText":"EDDM 061350Z 31007KT CAVOK 09/M04 Q1019 NOSIG","observationTime":"2019-05-06T13:50:00Z","temp":9,"dewpoint":-4,"windDirection":310,"windSpeed":12.964,"visibility":6.21,"altim":30.088583,"flightCategory":"VFR","metarType":"METAR","geometry_esri":{"x":48.35,"y":11.82,"z":447}}}