{"type":"Feature","geometry":{"type":"Point","coordinates":[49.02,2.52,109]},"properties":{"stationId":"LFPG","rawText":"LFPG 261030Z 19013KT 6000 -RA BKN006 11/10 Q1004 BECMG BKN012","observationTime":"2019-11-26T10:30:00Z","temp":11,"dewpoint":10,"windDirection":190,"windSpeed":24.076,"visibility":3.73,"altim":29.64567,"flightCategory":"IFR","metarType":"SPECI","geometry_esri":{"x":49.02,"y":2.52,"z":109}}}