{"type":"Feature","geometry":{"type":"Point","coordinates":[40.48,-3.57,582]},"properties":{"stationId":"LEMD","rawText":"LEMD 191030Z 21011KT 180V240 CAVOK 29/12 Q1016 NOSIG","observationTime":"2019-08-19T10:30:00Z","temp":29,"dewpoint":12,"windDirection":210,"windSpeed":20.372,"visibility":6.21,"altim":30,"flightCategory":"VFR","metarType":"METAR","geometry_esri":{"x":40.48,"y":-3.57,"z":582}}}