{"type":"Feature","geometry":{"type":"Point","coordinates":[47.78,13.02,430]},"properties":{"stationId":"LOWS","rawText":"LOWS 070850Z 09003KT 060V120 9999 -RA FEW006 SCT025 BKN045 17/15 Q1015 RERA TEMPO 29012KT RA","observationTime":"2019-07-07T08:50:00Z","temp":17,"dewpoint":15,"windDirection":90,"windSpeed":5.556,"visibility":6.21,"altim":29.970472,"flightCategory":"VFR","metarType":"METAR","geometry_esri":{"x":47.78,"y":13.02,"z":430}}}