{"type":"Feature","geometry":{"type":"Point","coordinates":[51.48,-0.45,24]},"properties":{"stationId":"EGLL","rawText":"EGLL 241750Z AUTO 18006KT 120V240 9999 NCD 23/14 Q1017 NOSIG","observationTime":"2019-06-24T17:50:00Z","temp":23,"dewpoint":14,"windDirection":180,"windSpeed":11.112,"visibility":6.21,"altim":30.029528,"flightCategory":"VFR","metarType":"METAR","geometry_esri":{"x":51.48,"y":-0.45,"z":24}}}