{"type":"Feature","geometry":{"type":"Point","coordinates":[40.48,-3.57,582]},"properties":{"stationId":"LEMD","rawText":"LEMD 222330Z 36003KT CAVOK 21/09 Q1020 NOSIG","observationTime":"2019-08-22T23:30:00Z","temp":21,"dewpoint":9,"windDirection":360,"windSpeed":5.556,"visibility":6.21,"altim":30.11811,"flightCategory":"VFR","metarType":"METAR","geometry_esri":{"x":40.48,"y":-3.57,"z":582}}}