{"type":"Feature","geometry":{"type":"Point","coordinates":[51.48,-0.45,24]},"properties":{"stationId":"EGLL","rawText":"EGLL 130150Z AUTO 23003KT 6000 OVC029 06/06 Q1034 TEMPO BKN006","observationTime":"2019-02-13T01:50:00Z","temp":6,"dewpoint":6,"windDirection":230,"windSpeed":5.556,"visibility":3.73,"altim":30.531496,"flightCategory":"MVFR","metarType":"METAR","geometry_esri":{"x":51.48,"y":-0.45,"z":24}}}