{"type":"Feature","geometry":{"type":"Point","coordinates":[40.48,-3.57,582]},"properties":{"stationId":"LEMD","rawText":"LEMD 152330Z 36003KT 330V040 CAVOK 17/01 Q1019 NOSIG","observationTime":"2019-06-15T23:30:00Z","temp":17,"dewpoint":1,"windDirection":360,"windSpeed":5.556,"visibility":6.21,"altim":30.088583,"flightCategory":"VFR","metarType":"METAR","geometry_esri":{"x":40.48,"y":-3.57,"z":582}}}