{"type":"Feature","geometry":{"type":"Point","coordinates":[51.48,-0.45,24]},"properties":{"stationId":"EGLL","rawText":"EGLL 230550Z AUTO 32007KT 300V010 9000 OVC007 01/M00 Q0998 NOSIG","observationTime":"2019-01-23T05:50:00Z","temp":1,"dewpoint":0,"windDirection":320,"windSpeed":12.964,"visibility":5.59,"altim":29.468504,"flightCategory":"IFR","metarType":"METAR","geometry_esri":{"x":51.48,"y":-0.45,"z":24}}}