{"type":"Feature","geometry":{"type":"Point","coordinates":[48.35,11.82,447]},"properties":{"stationId":"EDDM","rawText":"EDDM 251150Z VRB02KT 1500 0700N R26R/1300U R26L/1900N BCFG SCT001 BKN002 04/04 Q1010 NOSIG","observationTime":"2019-11-25T11:50:00Z","temp":4,"dewpoint":4,"windDirection":0,"windSpeed":3.704,"visibility":0.93,"altim":29.822834,"flightCategory":"LIFR","metarType":"METAR","geometry_esri":{"x":48.35,"y":11.82,"z":447}}}