{"type":"Feature","geometry":{"type":"Point","coordinates":[48.35,11.82,447]},"properties":{"stationId":"EDDM","rawText":"EDDM 302350Z 30001KT CAVOK 15/15 Q1021 NOSIG","observationTime":"2019-08-30T23:50:00Z","temp":15,"dewpoint":15,"windDirection":300,"windSpeed":1.852,"visibility":6.21,"altim":30.147638,"flightCategory":"VFR","metarType":"METAR","geometry_esri":{"x":48.35,"y":11.82,"z":447}}}