{"type":"Feature","geometry":{"type":"Point","coordinates":[51.48,-0.45,24]},"properties":{"stationId":"EGLL","rawText":"EGLL 021150Z AUTO 27010KT 230V300 9999 SCT046 21/07 Q1024 NOSIG","observationTime":"2019-09-02T11:50:00Z","temp":21,"dewpoint":7,"windDirection":270,"windSpeed":18.52,"visibility":6.21,"altim":30.236221,"flightCategory":"VFR","metarType":"METAR","geometry_esri":{"x":51.48,"y":-0.45,"z":24}}}