{"type":"Feature","geometry":{"type":"Point","coordinates":[47.78,13.02,430]},"properties":{"stationId":"LOWS","rawText":"LOWS 141450Z 27010KT 210V320 9999 FEW030 SCT045 BKN050 08/M02 Q1007 NOSIG","observationTime":"2019-03-14T14:50:00Z","temp":8,"dewpoint":-2,"windDirection":270,"windSpeed":18.52,"visibility":6.21,"altim":29.734253,"flightCategory":"VFR","metarType":"METAR","geometry_esri":{"x":47.78,"y":13.02,"z":430}}}