{"type":"Feature","geometry":{"type":"Point","coordinates":[49.02,2.52,109]},"properties":{"stationId":"LFPG","rawText":"LFPG 100330Z 36007KT CAVOK 11/06 Q1014 NOSIG","observationTime":"2019-09-10T03:30:00Z","temp":11,"dewpoint":6,"windDirection":360,"windSpeed":12.964,"visibility":6.21,"altim":29.940945,"flightCategory":"VFR","metarType":"METAR","geometry_esri":{"x":49.02,"y":2.52,"z":109}}}