{"type":"Feature","geometry":{"type":"Point","coordinates":[40.48,-3.57,582]},"properties":{"stationId":"LEMD","rawText":"LEMD 101830Z 27007KT 230V310 CAVOK 31/06 Q1016 NOSIG","observationTime":"2019-08-10T18:30:00Z","temp":31,"dewpoint":6,"windDirection":270,"windSpeed":12.964,"visibility":6.21,"altim":30,"flightCategory":"VFR","metarType":"METAR","geometry_esri":{"x":40.48,"y":-3.57,"z":582}}}