{"type":"Feature","geometry":{"type":"Point","coordinates":[48.35,11.82,447]},"properties":{"stationId":"EDDM","rawText":"EDDM 251150Z 12005KT 080V150 CAVOK 28/19 Q1022 NOSIG","observationTime":"2019-06-25T11:50:00Z","temp":28,"dewpoint":19,"windDirection":120,"windSpeed":9.26,"visibility":6.21,"altim":30.177166,"flightCategory":"VFR","metarType":"METAR","geometry_esri":{"x":48.35,"y":11.82,"z":447}}}