{"type":"Feature","geometry":{"type":"Point","coordinates":[48.35,11.82,447]},"properties":{"stationId":"EDDM","rawText":"EDDM 100250Z 27007KT 240V300 9999 -RA FEW014 BKN020 09/07 Q1015 NOSIG","observationTime":"2019-10-10T02:50:00Z","temp":9,"dewpoint":7,"windDirection":270,"windSpeed":12.964,"visibility":6.21,"altim":29.970472,"flightCategory":"MVFR","metarType":"METAR","geometry_esri":{"x":48.35,"y":11.82,"z":447}}}