{"type":"Feature","geometry":{"type":"Point","coordinates":[51.48,-0.45,24]},"properties":{"stationId":"EGLL","rawText":"EGLL 232250Z AUTO VRB02KT 5000 HZ BKN008 OVC014 13/12 Q1006 BECMG 3500 BR","observationTime":"2019-10-23T22:50:00Z","temp":13,"dewpoint":12,"windDirection":0,"windSpeed":3.704,"visibility":3.11,"altim":29.704725,"flightCategory":"IFR","metarType":"METAR","geometry_esri":{"x":51.48,"y":-0.45,"z":24}}}