{"type":"Feature","geometry":{"type":"Point","coordinates":[40.48,-3.57,582]},"properties":{"stationId":"LEMD","rawText":"LEMD 120830Z 35004KT CAVOK 01/M01 Q1031 NOSIG","observationTime":"2019-02-12T08:30:00Z","temp":1,"dewpoint":-1,"windDirection":350,"windSpeed":7.408,"visibility":6.21,"altim":30.442913,"flightCategory":"VFR","metarType":"METAR","geometry_esri":{"x":40.48,"y":-3.57,"z":582}}}