{"type":"Feature","geometry":{"type":"Point","coordinates":[48.35,11.82,447]},"properties":{"stationId":"EDDM","rawText":"EDDM 281950Z 31002KT 9999 SCT017 BKN045 08/05 Q1019 NOSIG","observationTime":"2019-10-28T19:50:00Z","temp":8,"dewpoint":5,"windDirection":310,"windSpeed":3.704,"visibility":6.21,"altim":30.088583,"flightCategory":"VFR","metarType":"METAR","geometry_esri":{"x":48.35,"y":11.82,"z":447}}}