{"type":"Feature","geometry":{"type":"Point","coordinates":[53.42,-6.25,85]},"properties":{"stationId":"EIDW","rawText":"EIDW 101830Z 26015KT 9000 -SHRASN FEW014 BKN018CB BKN150 02/M01 Q1013 TEMPO 4000 -SHRASNGS","observationTime":"2019-03-10T18:30:00Z","temp":2,"dewpoint":-1,"windDirection":260,"windSpeed":27.78,"visibility":5.59,"altim":29.911417,"flightCategory":"MVFR","metarType":"SPECI","geometry_esri":{"x":53.42,"y":-6.25,"z":85}}}