{"type":"Feature","geometry":{"type":"Point","coordinates":[48.35,11.82,447]},"properties":{"stationId":"EDDM","rawText":"EDDM 281550Z 09004KT 070V140 CAVOK 28/15 Q1017 NOSIG","observationTime":"2019-08-28T15:50:00Z","temp":28,"dewpoint":15,"windDirection":90,"windSpeed":7.408,"visibility":6.21,"altim":30.029528,"flightCategory":"VFR","metarType":"METAR","geometry_esri":{"x":48.35,"y":11.82,"z":447}}}