{"type":"Feature","geometry":{"type":"Point","coordinates":[40.48,-3.57,582]},"properties":{"stationId":"LEMD","rawText":"LEMD 080830Z 21007KT 180V240 9999 FEW001 SCT011 BKN024 10/09 Q1013 R88/29//95 NOSIG","observationTime":"2019-04-08T08:30:00Z","temp":10,"dewpoint":9,"windDirection":210,"windSpeed":12.964,"visibility":6.21,"altim":29.911417,"flightCategory":"MVFR","metarType":"SPECI","geometry_esri":{"x":40.48,"y":-3.57,"z":582}}}