{"type":"Feature","geometry":{"type":"Point","coordinates":[48.35,11.82,447]},"properties":{"stationId":"EDDM","rawText":"EDDM 191450Z 01007KT CAVOK 15/03 Q1027 NOSIG","observationTime":"2019-09-19T14:50:00Z","temp":15,"dewpoint":3,"windDirection":10,"windSpeed":12.964,"visibility":6.21,"altim":30.324802,"flightCategory":"VFR","metarType":"METAR","geometry_esri":{"x":48.35,"y":11.82,"z":447}}}