{"type":"Feature","geometry":{"type":"Point","coordinates":[51.48,-0.45,24]},"properties":{"stationId":"EGLL","rawText":"EGLL 041150Z AUTO 01010KT 330V050 9999 NCD 10/M02 Q1019 TEMPO SHRA","observationTime":"2019-05-04T11:50:00Z","temp":10,"dewpoint":-2,"windDirection":10,"windSpeed":18.52,"visibility":6.21,"altim":30.088583,"flightCategory":"VFR","metarType":"METAR","geometry_esri":{"x":51.48,"y":-0.45,"z":24}}}