{"type":"Feature","geometry":{"type":"Point","coordinates":[53.42,-6.25,85]},"properties":{"stationId":"EIDW","rawText":"EIDW 040730Z 27019KT 9999 SCT018 SCT026 06/03 Q1011 NOSIG","observationTime":"2019-02-04T07:30:00Z","temp":6,"dewpoint":3,"windDirection":270,"windSpeed":35.188,"visibility":6.21,"altim":29.852362,"flightCategory":"VFR","metarType":"METAR","geometry_esri":{"x":53.42,"y":-6.25,"z":85}}}