{"type":"Feature","geometry":{"type":"Point","coordinates":[48.35,11.82,447]},"properties":{"stationId":"EDDM","rawText":"EDDM 230250Z 10001KT 5000 BR BKN042 12/12 Q1026 TEMPO 3000","observationTime":"2019-08-23T02:50:00Z","temp":12,"dewpoint":12,"windDirection":100,"windSpeed":1.852,"visibility":3.11,"altim":30.295275,"flightCategory":"MVFR","metarType":"SPECI","geometry_esri":{"x":48.35,"y":11.82,"z":447}}}