{"type":"Feature","geometry":{"type":"Point","coordinates":[51.48,-0.45,24]},"properties":{"stationId":"EGLL","rawText":"EGLL 061350Z AUTO 35007KT 310V050 9999 NCD 22/14 Q1013 NOSIG","observationTime":"2019-07-06T13:50:00Z","temp":22,"dewpoint":14,"windDirection":350,"windSpeed":12.964,"visibility":6.21,"altim":29.911417,"flightCategory":"VFR","metarType":"METAR","geometry_esri":{"x":51.48,"y":-0.45,"z":24}}}