{"type":"Feature","geometry":{"type":"Point","coordinates":[53.42,-6.25,85]},"properties":{"stationId":"EIDW","rawText":"EIDW 161430Z 19008KT 170V230 5000 SHRA FEW015 SCT019CB BKN032 19/16 Q0996 NOSIG","observationTime":"2019-08-16T14:30:00Z","temp":19,"dewpoint":16,"windDirection":190,"windSpeed":14.816,"visibility":3.11,"altim":29.409449,"flightCategory":"MVFR","metarType":"METAR","geometry_esri":{"x":53.42,"y":-6.25,"z":85}}}