{"type":"Feature","geometry":{"type":"Point","coordinates":[49.02,2.52,109]},"properties":{"stationId":"LFPG","rawText":"LFPG 192130Z 13008KT 4000 BR BKN006 SCT029 BKN039 02/01 Q1009 NOSIG","observationTime":"2019-01-19T21:30:00Z","temp":2,"dewpoint":1,"windDirection":130,"windSpeed":14.816,"visibility":2.49,"altim":29.793306,"flightCategory":"IFR","metarType":"METAR","geometry_esri":{"x":49.02,"y":2.52,"z":109}}}