{"type":"Feature","geometry":{"type":"Point","coordinates":[49.02,2.52,109]},"properties":{"stationId":"LFPG","rawText":"LFPG 201330Z 07015KT CAVOK 22/M02 Q1022 NOSIG","observationTime":"2019-09-20T13:30:00Z","temp":22,"dewpoint":-2,"windDirection":70,"windSpeed":27.78,"visibility":6.21,"altim":30.177166,"flightCategory":"VFR","metarType":"METAR","geometry_esri":{"x":49.02,"y":2.52,"z":109}}}