{"type":"Feature","geometry":{"type":"Point","coordinates":[51.48,-0.45,24]},"properties":{"stationId":"EGLL","rawText":"EGLL 011650Z AUTO 20008KT 170V240 9999 NCD 26/11 Q1017 NOSIG","observationTime":"2019-06-01T16:50:00Z","temp":26,"dewpoint":11,"windDirection":200,"windSpeed":14.816,"visibility":6.21,"altim":30.029528,"flightCategory":"VFR","metarType":"METAR","geometry_esri":{"x":51.48,"y":-0.45,"z":24}}}