{"type":"Feature","geometry":{"type":"Point","coordinates":[53.42,-6.25,85]},"properties":{"stationId":"EIDW","rawText":"EIDW 290130Z 26006KT CAVOK 06/03 Q1029 NOSIG","observationTime":"2019-03-29T01:30:00Z","temp":6,"dewpoint":3,"windDirection":260,"windSpeed":11.112,"visibility":6.21,"altim":30.383858,"flightCategory":"VFR","metarType":"METAR","geometry_esri":{"x":53.42,"y":-6.25,"z":85}}}