{"type":"Feature","geometry":{"type":"Point","coordinates":[53.42,-6.25,85]},"properties":{"stationId":"EIDW","rawText":"EIDW 052030Z 24008KT 190V260 9999 FEW020 SCT050 08/05 Q1011 NOSIG","observationTime":"2019-02-05T20:30:00Z","temp":8,"dewpoint":5,"windDirection":240,"windSpeed":14.816,"visibility":6.21,"altim":29.852362,"flightCategory":"VFR","metarType":"METAR","geometry_esri":{"x":53.42,"y":-6.25,"z":85}}}