{"type":"Feature","geometry":{"type":"Point","coordinates":[53.42,-6.25,85]},"properties":{"stationId":"EIDW","rawText":"EIDW 222030Z 20007KT 9999 FEW017 SCT140 BKN160 10/06 Q1017 NOSIG","observationTime":"2019-10-22T20:30:00Z","temp":10,"dewpoint":6,"windDirection":200,"windSpeed":12.964,"visibility":6.21,"altim":30.029528,"flightCategory":"VFR","metarType":"METAR","geometry_esri":{"x":53.42,"y":-6.25,"z":85}}}