{"type":"Feature","geometry":{"type":"Point","coordinates":[47.78,13.02,430]},"properties":{"stationId":"LOWS","rawText":"LOWS 122050Z VRB02KT 5000 -RASN FEW003 SCT006 BKN010 00/00 Q1006 TEMPO BKN009","observationTime":"2019-11-12T20:50:00Z","temp":0,"dewpoint":0,"windDirection":0,"windSpeed":3.704,"visibility":3.11,"altim":29.704725,"flightCategory":"MVFR","metarType":"METAR","geometry_esri":{"x":47.78,"y":13.02,"z":430}}}