{"type":"Feature","geometry":{"type":"Point","coordinates":[40.48,-3.57,582]},"properties":{"stationId":"LEMD","rawText":"LEMD 010230Z 34003KT CAVOK 13/05 Q1015 NOSIG","observationTime":"2019-10-01T02:30:00Z","temp":13,"dewpoint":5,"windDirection":340,"windSpeed":5.556,"visibility":6.21,"altim":29.970472,"flightCategory":"VFR","metarType":"METAR","geometry_esri":{"x":40.48,"y":-3.57,"z":582}}}