{"type":"Feature","geometry":{"type":"Point","coordinates":[49.02,2.52,109]},"properties":{"stationId":"LFPG","rawText":"LFPG 252230Z 01009KT 360V100 CAVOK 22/18 Q1021 NOSIG","observationTime":"2019-06-25T22:30:00Z","temp":22,"dewpoint":18,"windDirection":10,"windSpeed":16.668,"visibility":6.21,"altim":30.147638,"flightCategory":"VFR","metarType":"METAR","geometry_esri":{"x":49.02,"y":2.52,"z":109}}}