{"type":"Feature","geometry":{"type":"Point","coordinates":[48.35,11.82,447]},"properties":{"stationId":"EDDM","rawText":"EDDM 281750Z 26005KT CAVOK 01/M02 Q1028 NOSIG","observationTime":"2018-12-28T17:50:00Z","temp":1,"dewpoint":-2,"windDirection":260,"windSpeed":9.26,"visibility":6.21,"altim":30.35433,"flightCategory":"VFR","metarType":"METAR","geometry_esri":{"x":48.35,"y":11.82,"z":447}}}