{"type":"Feature","geometry":{"type":"Point","coordinates":[47.78,13.02,430]},"properties":{"stationId":"LOWS","rawText":"LOWS 210850Z 31003KT 270V350 8000 SCT012 BKN035 M02/M05 Q1019 NOSIG","observationTime":"2019-01-21T08:50:00Z","temp":-2,"dewpoint":-5,"windDirection":310,"windSpeed":5.556,"visibility":4.97,"altim":30.088583,"flightCategory":"MVFR","metarType":"METAR","geometry_esri":{"x":47.78,"y":13.02,"z":430}}}