{"type":"Feature","geometry":{"type":"Point","coordinates":[53.42,-6.25,85]},"properties":{"stationId":"EIDW","rawText":"EIDW 261030Z 24005KT 160V340 9999 FEW018 18/13 Q1018 NOSIG","observationTime":"2019-08-26T10:30:00Z","temp":18,"dewpoint":13,"windDirection":240,"windSpeed":9.26,"visibility":6.21,"altim":30.059055,"flightCategory":"VFR","metarType":"METAR","geometry_esri":{"x":53.42,"y":-6.25,"z":85}}}