{"type":"Feature","geometry":{"type":"Point","coordinates":[40.48,-3.57,582]},"properties":{"stationId":"LEMD","rawText":"LEMD 052130Z 33005KT CAVOK 14/M02 Q1017 NOSIG","observationTime":"2019-05-05T21:30:00Z","temp":14,"dewpoint":-2,"windDirection":330,"windSpeed":9.26,"visibility":6.21,"altim":30.029528,"flightCategory":"VFR","metarType":"METAR","geometry_esri":{"x":40.48,"y":-3.57,"z":582}}}