{"type":"Feature","geometry":{"type":"Point","coordinates":[40.48,-3.57,582]},"properties":{"stationId":"LEMD","rawText":"LEMD 010830Z 22013KT 200V260 9999 FEW015 SCT018 07/05 Q0994 R88/29//95 NOSIG","observationTime":"2019-02-01T08:30:00Z","temp":7,"dewpoint":5,"windDirection":220,"windSpeed":24.076,"visibility":6.21,"altim":29.350393,"flightCategory":"VFR","metarType":"SPECI","geometry_esri":{"x":40.48,"y":-3.57,"z":582}}}