{"type":"Feature","geometry":{"type":"Point","coordinates":[53.42,-6.25,85]},"properties":{"stationId":"EIDW","rawText":"EIDW 101130Z 27021G32KT 230V290 9999 FEW005 FEW018CB 03/01 Q1010 RERASN NOSIG","observationTime":"2019-03-10T11:30:00Z","temp":3,"dewpoint":1,"windDirection":270,"windSpeed":38.892,"visibility":6.21,"altim":29.822834,"flightCategory":"VFR","metarType":"METAR","geometry_esri":{"x":53.42,"y":-6.25,"z":85}}}