{"type":"Feature","geometry":{"type":"Point","coordinates":[51.48,-0.45,24]},"properties":{"stationId":"EGLL","rawText":"EGLL 021750Z AUTO 36004KT 320V040 9999 FEW030/// SCT042/// BKN049/// //////TCU 06/01 Q1002 NOSIG","observationTime":"2019-04-02T17:50:00Z","temp":6,"dewpoint":1,"windDirection":360,"windSpeed":7.408,"visibility":6.21,"altim":29.586615,"flightCategory":"VFR","metarType":"METAR","geometry_esri":{"x":51.48,"y":-0.45,"z":24}}}