{"type":"Feature","geometry":{"type":"Point","coordinates":[40.48,-3.57,582]},"properties":{"stationId":"LEMD","rawText":"LEMD 010730Z VRB02KT 9999 SCT010 BKN035 BKN055 09/07 Q1014 R88/CLRD// NOSIG","observationTime":"2019-04-01T07:30:00Z","temp":9,"dewpoint":7,"windDirection":0,"windSpeed":3.704,"visibility":6.21,"altim":29.940945,"flightCategory":"VFR","metarType":"METAR","geometry_esri":{"x":40.48,"y":-3.57,"z":582}}}