{"type":"Feature","geometry":{"type":"Point","coordinates":[40.48,-3.57,582]},"properties":{"stationId":"LEMD","rawText":"LEMD 111030Z 06006KT 010V120 CAVOK 10/03 Q1029 NOSIG","observationTime":"2019-02-11T10:30:00Z","temp":10,"dewpoint":3,"windDirection":60,"windSpeed":11.112,"visibility":6.21,"altim":30.383858,"flightCategory":"VFR","metarType":"METAR","geometry_esri":{"x":40.48,"y":-3.57,"z":582}}}