{"type":"Feature","geometry":{"type":"Point","coordinates":[49.02,2.52,109]},"properties":{"stationId":"LFPG","rawText":"LFPG 280030Z 18005KT CAVOK 22/15 Q1015 NOSIG","observationTime":"2019-08-28T00:30:00Z","temp":22,"dewpoint":15,"windDirection":180,"windSpeed":9.26,"visibility":6.21,"altim":29.970472,"flightCategory":"VFR","metarType":"METAR","geometry_esri":{"x":49.02,"y":2.52,"z":109}}}