{"type":"Feature","geometry":{"type":"Point","coordinates":[48.35,11.82,447]},"properties":{"stationId":"EDDM","rawText":"EDDM 250650Z 25007KT 5000 -SN SCT013 BKN030 M04/M07 Q1014 TEMPO 4000 -SN","observationTime":"2019-01-25T06:50:00Z","temp":-4,"dewpoint":-7,"windDirection":250,"windSpeed":12.964,"visibility":3.11,"altim":29.940945,"flightCategory":"MVFR","metarType":"METAR","geometry_esri":{"x":48.35,"y":11.82,"z":447}}}