{"type":"Feature","geometry":{"type":"Point","coordinates":[48.35,11.82,447]},"properties":{"stationId":"EDDM","rawText":"EDDM 180250Z 27010KT 240V300 9999 FEW020 00/M03 Q1013 NOSIG","observationTime":"2019-01-18T02:50:00Z","temp":0,"dewpoint":-3,"windDirection":270,"windSpeed":18.52,"visibility":6.21,"altim":29.911417,"flightCategory":"VFR","metarType":"METAR","geometry_esri":{"x":48.35,"y":11.82,"z":447}}}