{"type":"Feature","geometry":{"type":"Point","coordinates":[53.42,-6.25,85]},"properties":{"stationId":"EIDW","rawText":"EIDW 051230Z 10009KT 9999 FEW012 BKN014 BKN024 07/05 Q0997 NOSIG","observationTime":"2019-04-05T12:30:00Z","temp":7,"dewpoint":5,"windDirection":100,"windSpeed":16.668,"visibility":6.21,"altim":29.438976,"flightCategory":"MVFR","metarType":"METAR","geometry_esri":{"x":53.42,"y":-6.25,"z":85}}}