{"type":"Feature","geometry":{"type":"Point","coordinates":[51.48,-0.45,24]},"properties":{"stationId":"EGLL","rawText":"EGLL 131450Z AUTO 30008KT 260V340 9999 NCD 22/05 Q1017 NOSIG","observationTime":"2019-08-13T14:50:00Z","temp":22,"dewpoint":5,"windDirection":300,"windSpeed":14.816,"visibility":6.21,"altim":30.029528,"flightCategory":"VFR","metarType":"METAR","geometry_esri":{"x":51.48,"y":-0.45,"z":24}}}