{"type":"Feature","geometry":{"type":"Point","coordinates":[48.35,11.82,447]},"properties":{"stationId":"EDDM","rawText":"EDDM 192150Z 04005KT 360V060 CAVOK 11/01 Q1028 NOSIG","observationTime":"2019-04-19T21:50:00Z","temp":11,"dewpoint":1,"windDirection":40,"windSpeed":9.26,"visibility":6.21,"altim":30.35433,"flightCategory":"VFR","metarType":"METAR","geometry_esri":{"x":48.35,"y":11.82,"z":447}}}