{"type":"Feature","geometry":{"type":"Point","coordinates":[47.78,13.02,430]},"properties":{"stationId":"LOWS","rawText":"LOWS 061850Z 15006KT 9999 FEW030 BKN060 07/06 Q1006 NOSIG","observationTime":"2019-11-06T18:50:00Z","temp":7,"dewpoint":6,"windDirection":150,"windSpeed":11.112,"visibility":6.21,"altim":29.704725,"flightCategory":"VFR","metarType":"METAR","geometry_esri":{"x":47.78,"y":13.02,"z":430}}}