{"type":"Feature","geometry":{"type":"Point","coordinates":[48.35,11.82,447]},"properties":{"stationId":"EDDM","rawText":"EDDM 161250Z 33008KT 270V020 9999 FEW047 21/09 Q1019 NOSIG","observationTime":"2019-08-16T12:50:00Z","temp":21,"dewpoint":9,"windDirection":330,"windSpeed":14.816,"visibility":6.21,"altim":30.088583,"flightCategory":"VFR","metarType":"METAR","geometry_esri":{"x":48.35,"y":11.82,"z":447}}}