{"type":"Feature","geometry":{"type":"Point","coordinates":[49.02,2.52,109]},"properties":{"stationId":"LFPG","rawText":"LFPG 141130Z 15011KT 100V170 CAVOK 22/13 Q1007 NOSIG","observationTime":"2019-10-14T11:30:00Z","temp":22,"dewpoint":13,"windDirection":150,"windSpeed":20.372,"visibility":6.21,"altim":29.734253,"flightCategory":"VFR","metarType":"METAR","geometry_esri":{"x":49.02,"y":2.52,"z":109}}}