{"type":"Feature","geometry":{"type":"Point","coordinates":[51.48,-0.45,24]},"properties":{"stationId":"EGLL","rawText":"EGLL 151150Z AUTO 25013KT 9999 FEW019 OVC033 09/05 Q1020 NOSIG","observationTime":"2019-01-15T11:50:00Z","temp":9,"dewpoint":5,"windDirection":250,"windSpeed":24.076,"visibility":6.21,"altim":30.11811,"flightCategory":"VFR","metarType":"METAR","geometry_esri":{"x":51.48,"y":-0.45,"z":24}}}