{"type":"Feature","geometry":{"type":"Point","coordinates":[40.48,-3.57,582]},"properties":{"stationId":"LEMD","rawText":"LEMD 020230Z 36012KT CAVOK 20/13 Q1018 NOSIG","observationTime":"2019-09-02T02:30:00Z","temp":20,"dewpoint":13,"windDirection":360,"windSpeed":22.224,"visibility":6.21,"altim":30.059055,"flightCategory":"VFR","metarType":"METAR","geometry_esri":{"x":40.48,"y":-3.57,"z":582}}}