{"type":"Feature","geometry":{"type":"Point","coordinates":[48.35,11.82,447]},"properties":{"stationId":"EDDM","rawText":"EDDM 121150Z 28011KT 240V300 9999 FEW032 02/M03 Q1032 R88/190095 NOSIG","observationTime":"2019-02-12T11:50:00Z","temp":2,"dewpoint":-3,"windDirection":280,"windSpeed":20.372,"visibility":6.21,"altim":30.47244,"flightCategory":"VFR","metarType":"METAR","geometry_esri":{"x":48.35,"y":11.82,"z":447}}}