{"type":"Feature","geometry":{"type":"Point","coordinates":[47.78,13.02,430]},"properties":{"stationId":"LOWS","rawText":"LOWS 180450Z 34003KT 300V030 9999 SCT030 BKN045 11/07 Q1023 NOSIG","observationTime":"2019-09-18T04:50:00Z","temp":11,"dewpoint":7,"windDirection":340,"windSpeed":5.556,"visibility":6.21,"altim":30.206694,"flightCategory":"VFR","metarType":"METAR","geometry_esri":{"x":47.78,"y":13.02,"z":430}}}