{"type":"Feature","geometry":{"type":"Point","coordinates":[51.48,-0.45,24]},"properties":{"stationId":"EGLL","rawText":"EGLL 290550Z AUTO 01004KT 330V040 9999 NCD 04/03 Q1011 NOSIG","observationTime":"2019-11-29T05:50:00Z","temp":4,"dewpoint":3,"windDirection":10,"windSpeed":7.408,"visibility":6.21,"altim":29.852362,"flightCategory":"VFR","metarType":"METAR","geometry_esri":{"x":51.48,"y":-0.45,"z":24}}}