{"type":"Feature","geometry":{"type":"Point","coordinates":[53.42,-6.25,85]},"properties":{"stationId":"EIDW","rawText":"EIDW 041830Z 07006KT 020V100 9999 -RA FEW007 BKN020 05/03 Q0987 NOSIG","observationTime":"2019-04-04T18:30:00Z","temp":5,"dewpoint":3,"windDirection":70,"windSpeed":11.112,"visibility":6.21,"altim":29.143702,"flightCategory":"MVFR","metarType":"METAR","geometry_esri":{"x":53.42,"y":-6.25,"z":85}}}