{"type":"Feature","geometry":{"type":"Point","coordinates":[48.35,11.82,447]},"properties":{"stationId":"EDDM","rawText":"EDDM 121650Z 11004KT 080V150 9999 -RA FEW020 SCT045 05/02 Q1006 NOSIG","observationTime":"2019-11-12T16:50:00Z","temp":5,"dewpoint":2,"windDirection":110,"windSpeed":7.408,"visibility":6.21,"altim":29.704725,"flightCategory":"VFR","metarType":"METAR","geometry_esri":{"x":48.35,"y":11.82,"z":447}}}