{"type":"Feature","geometry":{"type":"Point","coordinates":[48.35,11.82,447]},"properties":{"stationId":"EDDM","rawText":"EDDM 281750Z 35002KT 9999 OVC030 08/05 Q1020 NOSIG","observationTime":"2019-10-28T17:50:00Z","temp":8,"dewpoint":5,"windDirection":350,"windSpeed":3.704,"visibility":6.21,"altim":30.11811,"flightCategory":"MVFR","metarType":"METAR","geometry_esri":{"x":48.35,"y":11.82,"z":447}}}