{"type":"Feature","geometry":{"type":"Point","coordinates":[53.42,-6.25,85]},"properties":{"stationId":"EIDW","rawText":"EIDW 090030Z 24020G35KT 190V270 9999 FEW021 SCT060 06/M00 Q0982 NOSIG","observationTime":"2019-02-09T00:30:00Z","temp":6,"dewpoint":0,"windDirection":240,"windSpeed":37.04,"visibility":6.21,"altim":28.996063,"flightCategory":"VFR","metarType":"METAR","geometry_esri":{"x":53.42,"y":-6.25,"z":85}}}