{"type":"Feature","geometry":{"type":"Point","coordinates":[48.35,11.82,447]},"properties":{"stationId":"EDDM","rawText":"EDDM 290950Z 09014KT 9999 SCT025 11/05 Q1030 NOSIG","observationTime":"2019-03-29T09:50:00Z","temp":11,"dewpoint":5,"windDirection":90,"windSpeed":25.928,"visibility":6.21,"altim":30.413385,"flightCategory":"VFR","metarType":"METAR","geometry_esri":{"x":48.35,"y":11.82,"z":447}}}