{"type":"Feature","geometry":{"type":"Point","coordinates":[40.48,-3.57,582]},"properties":{"stationId":"LEMD","rawText":"LEMD 021930Z 16005KT 120V190 9999 FEW080TCU 34/06 Q1012 NOSIG","observationTime":"2019-07-02T19:30:00Z","temp":34,"dewpoint":6,"windDirection":160,"windSpeed":9.26,"visibility":6.21,"altim":29.88189,"flightCategory":"VFR","metarType":"METAR","geometry_esri":{"x":40.48,"y":-3.57,"z":582}}}