{"type":"Feature","geometry":{"type":"Point","coordinates":[51.48,-0.45,24]},"properties":{"stationId":"EGLL","rawText":"EGLL 140750Z AUTO 21011KT 170V230 9999 FEW019 SCT028 15/12 Q1010","observationTime":"2019-06-14T07:50:00Z","temp":15,"dewpoint":12,"windDirection":210,"windSpeed":20.372,"visibility":6.21,"altim":29.822834,"flightCategory":"VFR","metarType":"METAR","geometry_esri":{"x":51.48,"y":-0.45,"z":24}}}