{"type":"Feature","geometry":{"type":"Point","coordinates":[40.48,-3.57,582]},"properties":{"stationId":"LEMD","rawText":"LEMD 241830Z 19007KT 130V210 CAVOK 14/08 Q1022 NOSIG","observationTime":"2019-10-24T18:30:00Z","temp":14,"dewpoint":8,"windDirection":190,"windSpeed":12.964,"visibility":6.21,"altim":30.177166,"flightCategory":"VFR","metarType":"METAR","geometry_esri":{"x":40.48,"y":-3.57,"z":582}}}