{"type":"Feature","geometry":{"type":"Point","coordinates":[48.35,11.82,447]},"properties":{"stationId":"EDDM","rawText":"EDDM 302350Z 26005KT CAVOK 18/16 Q1015 NOSIG","observationTime":"2019-07-30T23:50:00Z","temp":18,"dewpoint":16,"windDirection":260,"windSpeed":9.26,"visibility":6.21,"altim":29.970472,"flightCategory":"VFR","metarType":"METAR","geometry_esri":{"x":48.35,"y":11.82,"z":447}}}