{"type":"Feature","geometry":{"type":"Point","coordinates":[51.48,-0.45,24]},"properties":{"stationId":"EGLL","rawText":"EGLL 051150Z AUTO 20010KT 170V230 9999 BKN007 OVC018 08/07 Q1024 NOSIG","observationTime":"2019-02-05T11:50:00Z","temp":8,"dewpoint":7,"windDirection":200,"windSpeed":18.52,"visibility":6.21,"altim":30.236221,"flightCategory":"IFR","metarType":"METAR","geometry_esri":{"x":51.48,"y":-0.45,"z":24}}}