{"type":"Feature","geometry":{"type":"Point","coordinates":[48.35,11.82,447]},"properties":{"stationId":"EDDM","rawText":"EDDM 072350Z VRB01KT CAVOK 03/M00 Q1014 NOSIG","observationTime":"2019-05-07T23:50:00Z","temp":3,"dewpoint":0,"windDirection":0,"windSpeed":1.852,"visibility":6.21,"altim":29.940945,"flightCategory":"VFR","metarType":"METAR","geometry_esri":{"x":48.35,"y":11.82,"z":447}}}