{"type":"Feature","geometry":{"type":"Point","coordinates":[47.78,13.02,430]},"properties":{"stationId":"LOWS","rawText":"LOWS 071650Z 04008KT CAVOK 28/16 Q1010 NOSIG","observationTime":"2019-06-07T16:50:00Z","temp":28,"dewpoint":16,"windDirection":40,"windSpeed":14.816,"visibility":6.21,"altim":29.822834,"flightCategory":"VFR","metarType":"METAR","geometry_esri":{"x":47.78,"y":13.02,"z":430}}}