{"type":"Feature","geometry":{"type":"Point","coordinates":[47.78,13.02,430]},"properties":{"stationId":"LOWS","rawText":"LOWS 172150Z AUTO 14004KT 9999 NSC 11/06 Q1005","observationTime":"2019-05-17T21:50:00Z","temp":11,"dewpoint":6,"windDirection":140,"windSpeed":7.408,"visibility":6.21,"altim":29.675198,"flightCategory":"VFR","metarType":"METAR","geometry_esri":{"x":47.78,"y":13.02,"z":430}}}