{"type":"Feature","geometry":{"type":"Point","coordinates":[47.78,13.02,430]},"properties":{"stationId":"LOWS","rawText":"LOWS 081050Z VRB04KT 9999 FEW040 BKN050 10/04 Q1016 BECMG 30010KT","observationTime":"2019-03-08T10:50:00Z","temp":10,"dewpoint":4,"windDirection":0,"windSpeed":7.408,"visibility":6.21,"altim":30,"flightCategory":"VFR","metarType":"METAR","geometry_esri":{"x":47.78,"y":13.02,"z":430}}}