{"type":"Feature","geometry":{"type":"Point","coordinates":[51.48,-0.45,24]},"properties":{"stationId":"EGLL","rawText":"EGLL 191850Z AUTO 27006KT 9999 BKN042/// //////CB 18/15 Q1008 NOSIG","observationTime":"2019-06-19T18:50:00Z","temp":18,"dewpoint":15,"windDirection":270,"windSpeed":11.112,"visibility":6.21,"altim":29.763779,"flightCategory":"VFR","metarType":"METAR","geometry_esri":{"x":51.48,"y":-0.45,"z":24}}}