{"type":"Feature","geometry":{"type":"Point","coordinates":[40.48,-3.57,582]},"properties":{"stationId":"LEMD","rawText":"LEMD 171630Z 30006KT 260V340 9999 SCT070 17/00 Q1010 NOSIG","observationTime":"2019-05-17T16:30:00Z","temp":17,"dewpoint":0,"windDirection":300,"windSpeed":11.112,"visibility":6.21,"altim":29.822834,"flightCategory":"VFR","metarType":"METAR","geometry_esri":{"x":40.48,"y":-3.57,"z":582}}}