{"type":"Feature","geometry":{"type":"Point","coordinates":[49.02,2.52,109]},"properties":{"stationId":"LFPG","rawText":"LFPG 242130Z 22009KT 9999 SCT014 BKN016 BKN023 14/11 Q1015 NOSIG","observationTime":"2019-10-24T21:30:00Z","temp":14,"dewpoint":11,"windDirection":220,"windSpeed":16.668,"visibility":6.21,"altim":29.970472,"flightCategory":"MVFR","metarType":"METAR","geometry_esri":{"x":49.02,"y":2.52,"z":109}}}