{"type":"Feature","geometry":{"type":"Point","coordinates":[51.48,-0.45,24]},"properties":{"stationId":"EGLL","rawText":"EGLL 041350Z AUTO 11006KT 7000 SHRA OVC014TCU 15/14 Q1003 RERA TEMPO -SHRA BKN016","observationTime":"2019-06-04T13:50:00Z","temp":15,"dewpoint":14,"windDirection":110,"windSpeed":11.112,"visibility":4.35,"altim":29.616142,"flightCategory":"MVFR","metarType":"METAR","geometry_esri":{"x":51.48,"y":-0.45,"z":24}}}