{"type":"Feature","geometry":{"type":"Point","coordinates":[51.48,-0.45,24]},"properties":{"stationId":"EGLL","rawText":"EGLL 142050Z AUTO 19009KT 140V250 9999 NCD 15/10 Q1012 NOSIG","observationTime":"2019-06-14T20:50:00Z","temp":15,"dewpoint":10,"windDirection":190,"windSpeed":16.668,"visibility":6.21,"altim":29.88189,"flightCategory":"VFR","metarType":"METAR","geometry_esri":{"x":51.48,"y":-0.45,"z":24}}}