{"type":"Feature","geometry":{"type":"Point","coordinates":[40.48,-3.57,582]},"properties":{"stationId":"LEMD","rawText":"LEMD 171430Z 23011G28KT 190V260 CAVOK 31/M02 Q1015 NOSIG","observationTime":"2019-06-17T14:30:00Z","temp":31,"dewpoint":-2,"windDirection":230,"windSpeed":20.372,"visibility":6.21,"altim":29.970472,"flightCategory":"VFR","metarType":"METAR","geometry_esri":{"x":40.48,"y":-3.57,"z":582}}}