{"type":"Feature","geometry":{"type":"Point","coordinates":[51.48,-0.45,24]},"properties":{"stationId":"EGLL","rawText":"EGLL 122350Z AUTO 20005KT 9000 BKN027 06/06 Q1034 NOSIG","observationTime":"2019-02-12T23:50:00Z","temp":6,"dewpoint":6,"windDirection":200,"windSpeed":9.26,"visibility":5.59,"altim":30.531496,"flightCategory":"MVFR","metarType":"METAR","geometry_esri":{"x":51.48,"y":-0.45,"z":24}}}