{"type":"Feature","geometry":{"type":"Point","coordinates":[48.35,11.82,447]},"properties":{"stationId":"EDDM","rawText":"EDDM 110350Z 20004KT CAVOK 06/05 Q1022 NOSIG","observationTime":"2019-10-11T03:50:00Z","temp":6,"dewpoint":5,"windDirection":200,"windSpeed":7.408,"visibility":6.21,"altim":30.177166,"flightCategory":"VFR","metarType":"METAR","geometry_esri":{"x":48.35,"y":11.82,"z":447}}}