{"type":"Feature","geometry":{"type":"Point","coordinates":[48.35,11.82,447]},"properties":{"stationId":"EDDM","rawText":"EDDM 141750Z VRB02KT CAVOK 14/13 Q1013 NOSIG","observationTime":"2019-10-14T17:50:00Z","temp":14,"dewpoint":13,"windDirection":0,"windSpeed":3.704,"visibility":6.21,"altim":29.911417,"flightCategory":"VFR","metarType":"METAR","geometry_esri":{"x":48.35,"y":11.82,"z":447}}}