{"type":"Feature","geometry":{"type":"Point","coordinates":[40.48,-3.57,582]},"properties":{"stationId":"LEMD","rawText":"LEMD 291230Z 18012KT 150V210 CAVOK 32/09 Q1012 NOSIG","observationTime":"2019-07-29T12:30:00Z","temp":32,"dewpoint":9,"windDirection":180,"windSpeed":22.224,"visibility":6.21,"altim":29.88189,"flightCategory":"VFR","metarType":"METAR","geometry_esri":{"x":40.48,"y":-3.57,"z":582}}}