{"type":"Feature","geometry":{"type":"Point","coordinates":[53.42,-6.25,85]},"properties":{"stationId":"EIDW","rawText":"EIDW 091830Z 06010KT 9999 FEW014 BKN200 08/04 Q1018","observationTime":"2019-04-09T18:30:00Z","temp":8,"dewpoint":4,"windDirection":60,"windSpeed":18.52,"visibility":6.21,"altim":30.059055,"flightCategory":"VFR","metarType":"METAR","geometry_esri":{"x":53.42,"y":-6.25,"z":85}}}