{"type":"Feature","geometry":{"type":"Point","coordinates":[49.02,2.52,109]},"properties":{"stationId":"LFPG","rawText":"LFPG 131630Z 04015KT 010V070 CAVOK 17/M00 Q1033 NOSIG","observationTime":"2019-05-13T16:30:00Z","temp":17,"dewpoint":0,"windDirection":40,"windSpeed":27.78,"visibility":6.21,"altim":30.501968,"flightCategory":"VFR","metarType":"METAR","geometry_esri":{"x":49.02,"y":2.52,"z":109}}}