{"type":"Feature","geometry":{"type":"Point","coordinates":[49.02,2.52,109]},"properties":{"stationId":"LFPG","rawText":"LFPG 271030Z 19014KT 9999 -RA OVC009 10/09 Q0991 TEMPO 21015G30KT","observationTime":"2019-11-27T10:30:00Z","temp":10,"dewpoint":9,"windDirection":190,"windSpeed":25.928,"visibility":6.21,"altim":29.26181,"flightCategory":"IFR","metarType":"METAR","geometry_esri":{"x":49.02,"y":2.52,"z":109}}}