{"type":"Feature","geometry":{"type":"Point","coordinates":[40.48,-3.57,582]},"properties":{"stationId":"LEMD","rawText":"LEMD 062030Z 23009KT 200V260 CAVOK 21/03 Q1017 NOSIG","observationTime":"2019-05-06T20:30:00Z","temp":21,"dewpoint":3,"windDirection":230,"windSpeed":16.668,"visibility":6.21,"altim":30.029528,"flightCategory":"VFR","metarType":"METAR","geometry_esri":{"x":40.48,"y":-3.57,"z":582}}}