{"type":"Feature","geometry":{"type":"Point","coordinates":[49.02,2.52,109]},"properties":{"stationId":"LFPG","rawText":"LFPG 021830Z 21009KT CAVOK 11/05 Q1016 NOSIG","observationTime":"2019-03-02T18:30:00Z","temp":11,"dewpoint":5,"windDirection":210,"windSpeed":16.668,"visibility":6.21,"altim":30,"flightCategory":"VFR","metarType":"METAR","geometry_esri":{"x":49.02,"y":2.52,"z":109}}}