{"type":"Feature","geometry":{"type":"Point","coordinates":[49.02,2.52,109]},"properties":{"stationId":"LFPG","rawText":"LFPG 031230Z 13006KT 090V190 CAVOK 13/02 Q1019 NOSIG","observationTime":"2019-10-03T12:30:00Z","temp":13,"dewpoint":2,"windDirection":130,"windSpeed":11.112,"visibility":6.21,"altim":30.088583,"flightCategory":"VFR","metarType":"METAR","geometry_esri":{"x":49.02,"y":2.52,"z":109}}}