{"type":"Feature","geometry":{"type":"Point","coordinates":[47.78,13.02,430]},"properties":{"stationId":"LOWS","rawText":"LOWS 210050Z AUTO VRB02KT 6000 -RA SCT004 BKN011 02/02 Q1011","observationTime":"2019-11-21T00:50:00Z","temp":2,"dewpoint":2,"windDirection":0,"windSpeed":3.704,"visibility":3.73,"altim":29.852362,"flightCategory":"MVFR","metarType":"METAR","geometry_esri":{"x":47.78,"y":13.02,"z":430}}}