{"type":"Feature","geometry":{"type":"Point","coordinates":[49.02,2.52,109]},"properties":{"stationId":"LFPG","rawText":"LFPG 251530Z 10007KT CAVOK 05/M00 Q1034 NOSIG","observationTime":"2018-12-25T15:30:00Z","temp":5,"dewpoint":0,"windDirection":100,"windSpeed":12.964,"visibility":6.21,"altim":30.531496,"flightCategory":"VFR","metarType":"METAR","geometry_esri":{"x":49.02,"y":2.52,"z":109}}}