{"type":"Feature","geometry":{"type":"Point","coordinates":[48.35,11.82,447]},"properties":{"stationId":"EDDM","rawText":"EDDM 041050Z VRB04KT CAVOK 23/09 Q1022 NOSIG","observationTime":"2019-07-04T10:50:00Z","temp":23,"dewpoint":9,"windDirection":0,"windSpeed":7.408,"visibility":6.21,"altim":30.177166,"flightCategory":"VFR","metarType":"METAR","geometry_esri":{"x":48.35,"y":11.82,"z":447}}}