{"type":"Feature","geometry":{"type":"Point","coordinates":[40.48,-3.57,582]},"properties":{"stationId":"LEMD","rawText":"LEMD 071430Z 28006KT 220V320 CAVOK 28/12 Q1015 NOSIG","observationTime":"2019-08-07T14:30:00Z","temp":28,"dewpoint":12,"windDirection":280,"windSpeed":11.112,"visibility":6.21,"altim":29.970472,"flightCategory":"VFR","metarType":"METAR","geometry_esri":{"x":40.48,"y":-3.57,"z":582}}}