{"type":"Feature","geometry":{"type":"Point","coordinates":[51.48,-0.45,24]},"properties":{"stationId":"EGLL","rawText":"EGLL 110450Z AUTO 13006KT 080V150 7000 -RA BKN005 BKN011 OVC044 12/12 Q1010","observationTime":"2019-06-11T04:50:00Z","temp":12,"dewpoint":12,"windDirection":130,"windSpeed":11.112,"visibility":4.35,"altim":29.822834,"flightCategory":"IFR","metarType":"METAR","geometry_esri":{"x":51.48,"y":-0.45,"z":24}}}