{"type":"Feature","geometry":{"type":"Point","coordinates":[40.48,-3.57,582]},"properties":{"stationId":"LEMD","rawText":"LEMD 132130Z 00000KT CAVOK 21/M02 Q1018 NOSIG","observationTime":"2019-05-13T21:30:00Z","temp":21,"dewpoint":-2,"windDirection":0,"windSpeed":0,"visibility":6.21,"altim":30.059055,"flightCategory":"VFR","metarType":"METAR","geometry_esri":{"x":40.48,"y":-3.57,"z":582}}}