{"type":"Feature","geometry":{"type":"Point","coordinates":[47.78,13.02,430]},"properties":{"stationId":"LOWS","rawText":"LOWS 061450Z 30006KT 270V330 9999 FEW040 BKN060 FEW060CB 23/13 Q1011 TEMPO 25015G25KT SHRA","observationTime":"2019-06-06T14:50:00Z","temp":23,"dewpoint":13,"windDirection":300,"windSpeed":11.112,"visibility":6.21,"altim":29.852362,"flightCategory":"VFR","metarType":"METAR","geometry_esri":{"x":47.78,"y":13.02,"z":430}}}