{"type":"Feature","geometry":{"type":"Point","coordinates":[51.48,-0.45,24]},"properties":{"stationId":"EGLL","rawText":"EGLL 241450Z AUTO 28005KT 250V320 9999 NCD 24/18 Q1016 NOSIG","observationTime":"2019-06-24T14:50:00Z","temp":24,"dewpoint":18,"windDirection":280,"windSpeed":9.26,"visibility":6.21,"altim":30,"flightCategory":"VFR","metarType":"METAR","geometry_esri":{"x":51.48,"y":-0.45,"z":24}}}