{"type":"Feature","geometry":{"type":"Point","coordinates":[51.48,-0.45,24]},"properties":{"stationId":"EGLL","rawText":"EGLL 291550Z 19012KT 160V250 4000 RADZ BKN007 OVC025 12/11 Q1018 TEMPO 9999 -RADZ","observationTime":"2019-05-29T15:50:00Z","temp":12,"dewpoint":11,"windDirection":190,"windSpeed":22.224,"visibility":2.49,"altim":30.059055,"flightCategory":"IFR","metarType":"METAR","geometry_esri":{"x":51.48,"y":-0.45,"z":24}}}