{"type":"Feature","geometry":{"type":"Point","coordinates":[48.35,11.82,447]},"properties":{"stationId":"EDDM","rawText":"EDDM 212350Z 30004KT 240V340 7000 OVC010 M03/M05 Q1017 BECMG OVC009","observationTime":"2019-01-21T23:50:00Z","temp":-3,"dewpoint":-5,"windDirection":300,"windSpeed":7.408,"visibility":4.35,"altim":30.029528,"flightCategory":"MVFR","metarType":"METAR","geometry_esri":{"x":48.35,"y":11.82,"z":447}}}