{"type":"Feature","geometry":{"type":"Point","coordinates":[49.02,2.52,109]},"properties":{"stationId":"LFPG","rawText":"LFPG 141730Z 04014KT CAVOK 16/01 Q1026 NOSIG","observationTime":"2019-05-14T17:30:00Z","temp":16,"dewpoint":1,"windDirection":40,"windSpeed":25.928,"visibility":6.21,"altim":30.295275,"flightCategory":"VFR","metarType":"METAR","geometry_esri":{"x":49.02,"y":2.52,"z":109}}}