{"type":"Feature","geometry":{"type":"Point","coordinates":[47.78,13.02,430]},"properties":{"stationId":"LOWS","rawText":"LOWS 190950Z 32005KT 270V020 9999 FEW045 13/06 Q1027 NOSIG","observationTime":"2019-09-19T09:50:00Z","temp":13,"dewpoint":6,"windDirection":320,"windSpeed":9.26,"visibility":6.21,"altim":30.324802,"flightCategory":"VFR","metarType":"METAR","geometry_esri":{"x":47.78,"y":13.02,"z":430}}}