{"type":"Feature","geometry":{"type":"Point","coordinates":[47.78,13.02,430]},"properties":{"stationId":"LOWS","rawText":"LOWS 220350Z VRB01KT 9999 VCFG FEW002 SCT140 15/15 Q1018 TEMPO 1500 MIFG","observationTime":"2019-06-22T03:50:00Z","temp":15,"dewpoint":15,"windDirection":0,"windSpeed":1.852,"visibility":6.21,"altim":30.059055,"flightCategory":"VFR","metarType":"METAR","geometry_esri":{"x":47.78,"y":13.02,"z":430}}}