{"type":"Feature","geometry":{"type":"Point","coordinates":[51.48,-0.45,24]},"properties":{"stationId":"EGLL","rawText":"EGLL 261750Z AUTO 17005KT 140V220 9999 BKN021 08/07 Q1029 NOSIG","observationTime":"2018-12-26T17:50:00Z","temp":8,"dewpoint":7,"windDirection":170,"windSpeed":9.26,"visibility":6.21,"altim":30.383858,"flightCategory":"MVFR","metarType":"METAR","geometry_esri":{"x":51.48,"y":-0.45,"z":24}}}