{"type":"Feature","geometry":{"type":"Point","coordinates":[48.35,11.82,447]},"properties":{"stationId":"EDDM","rawText":"EDDM 031550Z 02004KT 330V060 CAVOK 28/08 Q1014 NOSIG","observationTime":"2019-06-03T15:50:00Z","temp":28,"dewpoint":8,"windDirection":20,"windSpeed":7.408,"visibility":6.21,"altim":29.940945,"flightCategory":"VFR","metarType":"METAR","geometry_esri":{"x":48.35,"y":11.82,"z":447}}}