{"type":"Feature","geometry":{"type":"Point","coordinates":[48.35,11.82,447]},"properties":{"stationId":"EDDM","rawText":"EDDM 210850Z 18008KT CAVOK 05/M01 Q1016 NOSIG","observationTime":"2018-12-21T08:50:00Z","temp":5,"dewpoint":-1,"windDirection":180,"windSpeed":14.816,"visibility":6.21,"altim":30,"flightCategory":"VFR","metarType":"METAR","geometry_esri":{"x":48.35,"y":11.82,"z":447}}}