{"type":"Feature","geometry":{"type":"Point","coordinates":[47.78,13.02,430]},"properties":{"stationId":"LOWS","rawText":"LOWS 201250Z 14003KT 090V220 9999 FEW055 BKN060 07/M06 Q1033 NOSIG","observationTime":"2019-03-20T12:50:00Z","temp":7,"dewpoint":-6,"windDirection":140,"windSpeed":5.556,"visibility":6.21,"altim":30.501968,"flightCategory":"VFR","metarType":"METAR","geometry_esri":{"x":47.78,"y":13.02,"z":430}}}