{"type":"Feature","geometry":{"type":"Point","coordinates":[47.78,13.02,430]},"properties":{"stationId":"LOWS","rawText":"LOWS 112150Z AUTO 13002KT 7000 -RA FEW003 BKN046 15/14 Q1016","observationTime":"2019-07-11T21:50:00Z","temp":15,"dewpoint":14,"windDirection":130,"windSpeed":3.704,"visibility":4.35,"altim":30,"flightCategory":"MVFR","metarType":"METAR","geometry_esri":{"x":47.78,"y":13.02,"z":430}}}