{"type":"Feature","geometry":{"type":"Point","coordinates":[47.78,13.02,430]},"properties":{"stationId":"LOWS","rawText":"LOWS 071650Z 26005KT 210V300 9999 FEW040 FEW050TCU SCT060 BKN090 19/14 Q1013 TEMPO SHRA","observationTime":"2019-07-07T16:50:00Z","temp":19,"dewpoint":14,"windDirection":260,"windSpeed":9.26,"visibility":6.21,"altim":29.911417,"flightCategory":"VFR","metarType":"METAR","geometry_esri":{"x":47.78,"y":13.02,"z":430}}}