{"type":"Feature","geometry":{"type":"Point","coordinates":[51.48,-0.45,24]},"properties":{"stationId":"EGLL","rawText":"EGLL 300850Z AUTO 26009KT 220V290 9999 OVC005 09/09 Q1035 TEMPO BKN004","observationTime":"2018-12-30T08:50:00Z","temp":9,"dewpoint":9,"windDirection":260,"windSpeed":16.668,"visibility":6.21,"altim":30.561024,"flightCategory":"IFR","metarType":"METAR","geometry_esri":{"x":51.48,"y":-0.45,"z":24}}}