{"type":"Feature","geometry":{"type":"Point","coordinates":[48.35,11.82,447]},"properties":{"stationId":"EDDM","rawText":"EDDM 102050Z VRB01KT CAVOK 07/06 Q1013 NOSIG","observationTime":"2019-05-10T20:50:00Z","temp":7,"dewpoint":6,"windDirection":0,"windSpeed":1.852,"visibility":6.21,"altim":29.911417,"flightCategory":"VFR","metarType":"METAR","geometry_esri":{"x":48.35,"y":11.82,"z":447}}}