{"type":"Feature","geometry":{"type":"Point","coordinates":[47.78,13.02,430]},"properties":{"stationId":"LOWS","rawText":"LOWS 050150Z AUTO 28008KT 250V310 9999 -RA FEW006 SCT009 BKN018 02/00 Q1011","observationTime":"2019-05-05T01:50:00Z","temp":2,"dewpoint":0,"windDirection":280,"windSpeed":14.816,"visibility":6.21,"altim":29.852362,"flightCategory":"MVFR","metarType":"METAR","geometry_esri":{"x":47.78,"y":13.02,"z":430}}}