{"type":"Feature","geometry":{"type":"Point","coordinates":[51.48,-0.45,24]},"properties":{"stationId":"EGLL","rawText":"EGLL 271550Z AUTO 24005KT 210V270 9999 NCD 19/06 Q1022 NOSIG","observationTime":"2019-02-27T15:50:00Z","temp":19,"dewpoint":6,"windDirection":240,"windSpeed":9.26,"visibility":6.21,"altim":30.177166,"flightCategory":"VFR","metarType":"METAR","geometry_esri":{"x":51.48,"y":-0.45,"z":24}}}