{"type":"Feature","geometry":{"type":"Point","coordinates":[49.02,2.52,109]},"properties":{"stationId":"LFPG","rawText":"LFPG 172330Z 30003KT CAVOK 00/M02 Q1018 NOSIG","observationTime":"2019-01-17T23:30:00Z","temp":0,"dewpoint":-2,"windDirection":300,"windSpeed":5.556,"visibility":6.21,"altim":30.059055,"flightCategory":"VFR","metarType":"METAR","geometry_esri":{"x":49.02,"y":2.52,"z":109}}}