{"type":"Feature","geometry":{"type":"Point","coordinates":[53.42,-6.25,85]},"properties":{"stationId":"EIDW","rawText":"EIDW 131330Z 14019G29KT 9999 FEW024 BKN230 08/M01 Q1024 NOSIG","observationTime":"2019-04-13T13:30:00Z","temp":8,"dewpoint":-1,"windDirection":140,"windSpeed":35.188,"visibility":6.21,"altim":30.236221,"flightCategory":"VFR","metarType":"METAR","geometry_esri":{"x":53.42,"y":-6.25,"z":85}}}