{"type":"Feature","geometry":{"type":"Point","coordinates":[49.02,2.52,109]},"properties":{"stationId":"LFPG","rawText":"LFPG 251530Z 13013KT CAVOK 41/08 Q1009 TEMPO 14015G25KT FEW100CB","observationTime":"2019-07-25T15:30:00Z","temp":41,"dewpoint":8,"windDirection":130,"windSpeed":24.076,"visibility":6.21,"altim":29.793306,"flightCategory":"VFR","metarType":"METAR","geometry_esri":{"x":49.02,"y":2.52,"z":109}}}