{"type":"Feature","geometry":{"type":"Point","coordinates":[49.02,2.52,109]},"properties":{"stationId":"LFPG","rawText":"LFPG 010030Z 13004KT 4000 BR SCT002 SCT007 BKN013 09/08 Q1015 TEMPO 0500 FG BKN002","observationTime":"2019-11-01T00:30:00Z","temp":9,"dewpoint":8,"windDirection":130,"windSpeed":7.408,"visibility":2.49,"altim":29.970472,"flightCategory":"IFR","metarType":"SPECI","geometry_esri":{"x":49.02,"y":2.52,"z":109}}}