{"type":"Feature","geometry":{"type":"Point","coordinates":[51.48,-0.45,24]},"properties":{"stationId":"EGLL","rawText":"EGLL 231450Z AUTO 33006KT 300V020 9999 BKN016 BKN024 04/M00 Q1004 NOSIG","observationTime":"2019-01-23T14:50:00Z","temp":4,"dewpoint":0,"windDirection":330,"windSpeed":11.112,"visibility":6.21,"altim":29.64567,"flightCategory":"MVFR","metarType":"METAR","geometry_esri":{"x":51.48,"y":-0.45,"z":24}}}