{"type":"Feature","geometry":{"type":"Point","coordinates":[53.42,-6.25,85]},"properties":{"stationId":"EIDW","rawText":"EIDW 070430Z 26015G27KT 230V290 9999 FEW022 SCT190 04/01 Q0984 NOSIG","observationTime":"2019-03-07T04:30:00Z","temp":4,"dewpoint":1,"windDirection":260,"windSpeed":27.78,"visibility":6.21,"altim":29.055119,"flightCategory":"VFR","metarType":"METAR","geometry_esri":{"x":53.42,"y":-6.25,"z":85}}}