{"type":"Feature","geometry":{"type":"Point","coordinates":[48.35,11.82,447]},"properties":{"stationId":"EDDM","rawText":"EDDM 181050Z 08016KT 040V100 CAVOK 16/03 Q1024 TEMPO 10015G25KT","observationTime":"2019-04-18T10:50:00Z","temp":16,"dewpoint":3,"windDirection":80,"windSpeed":29.632,"visibility":6.21,"altim":30.236221,"flightCategory":"VFR","metarType":"METAR","geometry_esri":{"x":48.35,"y":11.82,"z":447}}}