{"type":"Feature","geometry":{"type":"Point","coordinates":[48.35,11.82,447]},"properties":{"stationId":"EDDM","rawText":"EDDM 180750Z 27008KT 9999 -SHSN FEW010 SCT025TCU BKN040 M00/M03 Q1017 NOSIG","observationTime":"2019-01-18T07:50:00Z","temp":0,"dewpoint":-3,"windDirection":270,"windSpeed":14.816,"visibility":6.21,"altim":30.029528,"flightCategory":"VFR","metarType":"METAR","geometry_esri":{"x":48.35,"y":11.82,"z":447}}}