{"type":"Feature","geometry":{"type":"Point","coordinates":[51.48,-0.45,24]},"properties":{"stationId":"EGLL","rawText":"EGLL 131450Z AUTO 29019G29KT 9999 SCT045 11/02 Q1010 NOSIG","observationTime":"2019-03-13T14:50:00Z","temp":11,"dewpoint":2,"windDirection":290,"windSpeed":35.188,"visibility":6.21,"altim":29.822834,"flightCategory":"VFR","metarType":"METAR","geometry_esri":{"x":51.48,"y":-0.45,"z":24}}}