{"type":"Feature","geometry":{"type":"Point","coordinates":[49.02,2.52,109]},"properties":{"stationId":"LFPG","rawText":"LFPG 211130Z 04005KT 320V100 CAVOK 22/09 Q1027 NOSIG","observationTime":"2019-08-21T11:30:00Z","temp":22,"dewpoint":9,"windDirection":40,"windSpeed":9.26,"visibility":6.21,"altim":30.324802,"flightCategory":"VFR","metarType":"METAR","geometry_esri":{"x":49.02,"y":2.52,"z":109}}}