{"type":"Feature","geometry":{"type":"Point","coordinates":[49.02,2.52,109]},"properties":{"stationId":"LFPG","rawText":"LFPG 111630Z 31003KT 280V350 9999 FEW038TCU SCT060 BKN093 17/08 Q1011 TEMPO 3500 SHRA SCT030CB","observationTime":"2019-06-11T16:30:00Z","temp":17,"dewpoint":8,"windDirection":310,"windSpeed":5.556,"visibility":6.21,"altim":29.852362,"flightCategory":"VFR","metarType":"METAR","geometry_esri":{"x":49.02,"y":2.52,"z":109}}}