{"type":"Feature","geometry":{"type":"Point","coordinates":[51.48,-0.45,24]},"properties":{"stationId":"EGLL","rawText":"EGLL 112050Z AUTO 01007KT 320V040 9999 OVC008 12/10 Q1013 NOSIG","observationTime":"2019-06-11T20:50:00Z","temp":12,"dewpoint":10,"windDirection":10,"windSpeed":12.964,"visibility":6.21,"altim":29.911417,"flightCategory":"IFR","metarType":"METAR","geometry_esri":{"x":51.48,"y":-0.45,"z":24}}}