{"type":"Feature","geometry":{"type":"Point","coordinates":[53.42,-6.25,85]},"properties":{"stationId":"EIDW","rawText":"EIDW 270130Z 22008KT 180V280 9999 FEW016 SCT160 11/10 Q0996 NOSIG","observationTime":"2019-09-27T01:30:00Z","temp":11,"dewpoint":10,"windDirection":220,"windSpeed":14.816,"visibility":6.21,"altim":29.409449,"flightCategory":"VFR","metarType":"METAR","geometry_esri":{"x":53.42,"y":-6.25,"z":85}}}