{"type":"Feature","geometry":{"type":"Point","coordinates":[49.02,2.52,109]},"properties":{"stationId":"LFPG","rawText":"LFPG 110130Z 29004KT CAVOK 12/07 Q1023 NOSIG","observationTime":"2019-09-11T01:30:00Z","temp":12,"dewpoint":7,"windDirection":290,"windSpeed":7.408,"visibility":6.21,"altim":30.206694,"flightCategory":"VFR","metarType":"METAR","geometry_esri":{"x":49.02,"y":2.52,"z":109}}}