{"type":"Feature","geometry":{"type":"Point","coordinates":[49.02,2.52,109]},"properties":{"stationId":"LFPG","rawText":"LFPG 121630Z 30016KT 260V330 CAVOK 26/12 Q1015 NOSIG","observationTime":"2019-07-12T16:30:00Z","temp":26,"dewpoint":12,"windDirection":300,"windSpeed":29.632,"visibility":6.21,"altim":29.970472,"flightCategory":"VFR","metarType":"METAR","geometry_esri":{"x":49.02,"y":2.52,"z":109}}}