{"type":"Feature","geometry":{"type":"Point","coordinates":[48.35,11.82,447]},"properties":{"stationId":"EDDM","rawText":"EDDM 141550Z 27006KT 220V320 CAVOK 21/07 Q1019 NOSIG","observationTime":"2019-08-14T15:50:00Z","temp":21,"dewpoint":7,"windDirection":270,"windSpeed":11.112,"visibility":6.21,"altim":30.088583,"flightCategory":"VFR","metarType":"METAR","geometry_esri":{"x":48.35,"y":11.82,"z":447}}}