{"type":"Feature","geometry":{"type":"Point","coordinates":[40.48,-3.57,582]},"properties":{"stationId":"LEMD","rawText":"LEMD 241530Z 15007KT 100V180 9999 FEW075 21/M03 Q1021 NOSIG","observationTime":"2019-03-24T15:30:00Z","temp":21,"dewpoint":-3,"windDirection":150,"windSpeed":12.964,"visibility":6.21,"altim":30.147638,"flightCategory":"VFR","metarType":"METAR","geometry_esri":{"x":40.48,"y":-3.57,"z":582}}}