{"type":"Feature","geometry":{"type":"Point","coordinates":[51.48,-0.45,24]},"properties":{"stationId":"EGLL","rawText":"EGLL 031750Z AUTO 16009KT 110V220 9999 -RA BKN042 12/07 Q1012","observationTime":"2019-10-03T17:50:00Z","temp":12,"dewpoint":7,"windDirection":160,"windSpeed":16.668,"visibility":6.21,"altim":29.88189,"flightCategory":"VFR","metarType":"METAR","geometry_esri":{"x":51.48,"y":-0.45,"z":24}}}