{"type":"Feature","geometry":{"type":"Point","coordinates":[40.48,-3.57,582]},"properties":{"stationId":"LEMD","rawText":"LEMD 191430Z 19014KT 9999 BKN035 BKN050 18/08 Q1008 NOSIG","observationTime":"2019-10-19T14:30:00Z","temp":18,"dewpoint":8,"windDirection":190,"windSpeed":25.928,"visibility":6.21,"altim":29.763779,"flightCategory":"VFR","metarType":"METAR","geometry_esri":{"x":40.48,"y":-3.57,"z":582}}}