{"type":"Feature","geometry":{"type":"Point","coordinates":[49.02,2.52,109]},"properties":{"stationId":"LFPG","rawText":"LFPG 230030Z 11004KT CAVOK 14/07 Q1019 NOSIG","observationTime":"2019-05-23T00:30:00Z","temp":14,"dewpoint":7,"windDirection":110,"windSpeed":7.408,"visibility":6.21,"altim":30.088583,"flightCategory":"VFR","metarType":"METAR","geometry_esri":{"x":49.02,"y":2.52,"z":109}}}