{"type":"Feature","geometry":{"type":"Point","coordinates":[51.48,-0.45,24]},"properties":{"stationId":"EGLL","rawText":"EGLL 081250Z AUTO 22016KT 9999 FEW030/// SCT037/// //////CB 14/10 Q0991 TEMPO 4000 +SHRA","observationTime":"2019-05-08T12:50:00Z","temp":14,"dewpoint":10,"windDirection":220,"windSpeed":29.632,"visibility":6.21,"altim":29.26181,"flightCategory":"VFR","metarType":"METAR","geometry_esri":{"x":51.48,"y":-0.45,"z":24}}}