{"type":"Feature","geometry":{"type":"Point","coordinates":[49.02,2.52,109]},"properties":{"stationId":"LFPG","rawText":"LFPG 251730Z 20010KT 180V260 2000 -DZ BR BKN002 05/04 Q1016 NOSIG","observationTime":"2019-01-25T17:30:00Z","temp":5,"dewpoint":4,"windDirection":200,"windSpeed":18.52,"visibility":1.24,"altim":30,"flightCategory":"LIFR","metarType":"METAR","geometry_esri":{"x":49.02,"y":2.52,"z":109}}}