{"type":"Feature","geometry":{"type":"Point","coordinates":[48.35,11.82,447]},"properties":{"stationId":"EDDM","rawText":"EDDM 090550Z 07003KT 050V110 CAVOK 16/14 Q1015 NOSIG","observationTime":"2019-08-09T05:50:00Z","temp":16,"dewpoint":14,"windDirection":70,"windSpeed":5.556,"visibility":6.21,"altim":29.970472,"flightCategory":"VFR","metarType":"METAR","geometry_esri":{"x":48.35,"y":11.82,"z":447}}}