{"type":"Feature","geometry":{"type":"Point","coordinates":[49.02,2.52,109]},"properties":{"stationId":"LFPG","rawText":"LFPG 130930Z 33004KT 9999 OVC016 18/14 Q1034 NOSIG","observationTime":"2019-09-13T09:30:00Z","temp":18,"dewpoint":14,"windDirection":330,"windSpeed":7.408,"visibility":6.21,"altim":30.531496,"flightCategory":"MVFR","metarType":"METAR","geometry_esri":{"x":49.02,"y":2.52,"z":109}}}