{"type":"Feature","geometry":{"type":"Point","coordinates":[49.02,2.52,109]},"properties":{"stationId":"LFPG","rawText":"LFPG 050830Z 20006KT 180V240 9999 FEW026 BKN034 22/14 Q1014 NOSIG","observationTime":"2019-08-05T08:30:00Z","temp":22,"dewpoint":14,"windDirection":200,"windSpeed":11.112,"visibility":6.21,"altim":29.940945,"flightCategory":"VFR","metarType":"METAR","geometry_esri":{"x":49.02,"y":2.52,"z":109}}}