{"type":"Feature","geometry":{"type":"Point","coordinates":[48.35,11.82,447]},"properties":{"stationId":"EDDM","rawText":"EDDM 300050Z 24023G35KT CAVOK 18/10 Q1006 NOSIG","observationTime":"2019-09-30T00:50:00Z","temp":18,"dewpoint":10,"windDirection":240,"windSpeed":42.596000000000004,"visibility":6.21,"altim":29.704725,"flightCategory":"VFR","metarType":"METAR","geometry_esri":{"x":48.35,"y":11.82,"z":447}}}