{"type":"Feature","geometry":{"type":"Point","coordinates":[49.02,2.52,109]},"properties":{"stationId":"LFPG","rawText":"LFPG 201030Z 07015KT 040V100 CAVOK 19/01 Q1024 NOSIG","observationTime":"2019-09-20T10:30:00Z","temp":19,"dewpoint":1,"windDirection":70,"windSpeed":27.78,"visibility":6.21,"altim":30.236221,"flightCategory":"VFR","metarType":"METAR","geometry_esri":{"x":49.02,"y":2.52,"z":109}}}