{"type":"Feature","geometry":{"type":"Point","coordinates":[49.02,2.52,109]},"properties":{"stationId":"LFPG","rawText":"LFPG 272030Z 21013KT CAVOK 16/11 Q1012 TEMPO 24015G25KT","observationTime":"2019-09-27T20:30:00Z","temp":16,"dewpoint":11,"windDirection":210,"windSpeed":24.076,"visibility":6.21,"altim":29.88189,"flightCategory":"VFR","metarType":"METAR","geometry_esri":{"x":49.02,"y":2.52,"z":109}}}