{"type":"Feature","geometry":{"type":"Point","coordinates":[49.02,2.52,109]},"properties":{"stationId":"LFPG","rawText":"LFPG 120630Z 19006KT 160V260 9999 FEW030TCU 16/12 Q1016 NOSIG","observationTime":"2019-08-12T06:30:00Z","temp":16,"dewpoint":12,"windDirection":190,"windSpeed":11.112,"visibility":6.21,"altim":30,"flightCategory":"VFR","metarType":"METAR","geometry_esri":{"x":49.02,"y":2.52,"z":109}}}