{"type":"Feature","geometry":{"type":"Point","coordinates":[53.42,-6.25,85]},"properties":{"stationId":"EIDW","rawText":"EIDW 190730Z 36001KT CAVOK 10/10 Q1031 NOSIG","observationTime":"2019-09-19T07:30:00Z","temp":10,"dewpoint":10,"windDirection":360,"windSpeed":1.852,"visibility":6.21,"altim":30.442913,"flightCategory":"VFR","metarType":"METAR","geometry_esri":{"x":53.42,"y":-6.25,"z":85}}}