{"type":"Feature","geometry":{"type":"Point","coordinates":[51.48,-0.45,24]},"properties":{"stationId":"EGLL","rawText":"EGLL 310750Z 23007KT 9999 FEW007 16/14 Q1012 NOSIG","observationTime":"2019-08-31T07:50:00Z","temp":16,"dewpoint":14,"windDirection":230,"windSpeed":12.964,"visibility":6.21,"altim":29.88189,"flightCategory":"VFR","metarType":"METAR","geometry_esri":{"x":51.48,"y":-0.45,"z":24}}}