{"type":"Feature","geometry":{"type":"Point","coordinates":[49.02,2.52,109]},"properties":{"stationId":"LFPG","rawText":"LFPG 052230Z 25007KT 9999 -RA FEW007 BKN066 11/10 Q1011 NOSIG","observationTime":"2019-06-05T22:30:00Z","temp":11,"dewpoint":10,"windDirection":250,"windSpeed":12.964,"visibility":6.21,"altim":29.852362,"flightCategory":"VFR","metarType":"METAR","geometry_esri":{"x":49.02,"y":2.52,"z":109}}}