{"type":"Feature","geometry":{"type":"Point","coordinates":[47.78,13.02,430]},"properties":{"stationId":"LOWS","rawText":"LOWS 280450Z 24003KT 200V300 9999 FEW100 SCT250 03/02 Q1001 NOSIG","observationTime":"2019-11-28T04:50:00Z","temp":3,"dewpoint":2,"windDirection":240,"windSpeed":5.556,"visibility":6.21,"altim":29.557087,"flightCategory":"VFR","metarType":"METAR","geometry_esri":{"x":47.78,"y":13.02,"z":430}}}