{"type":"Feature","geometry":{"type":"Point","coordinates":[48.35,11.82,447]},"properties":{"stationId":"EDDM","rawText":"EDDM 192350Z 27003KT 240V300 9999 OVC038 05/03 Q1022 NOSIG","observationTime":"2019-02-19T23:50:00Z","temp":5,"dewpoint":3,"windDirection":270,"windSpeed":5.556,"visibility":6.21,"altim":30.177166,"flightCategory":"VFR","metarType":"METAR","geometry_esri":{"x":48.35,"y":11.82,"z":447}}}