{"type":"Feature","geometry":{"type":"Point","coordinates":[49.02,2.52,109]},"properties":{"stationId":"LFPG","rawText":"LFPG 100430Z 33007KT CAVOK M00/M01 Q1026 NOSIG","observationTime":"2019-01-10T04:30:00Z","temp":0,"dewpoint":-1,"windDirection":330,"windSpeed":12.964,"visibility":6.21,"altim":30.295275,"flightCategory":"VFR","metarType":"METAR","geometry_esri":{"x":49.02,"y":2.52,"z":109}}}