{"type":"Feature","geometry":{"type":"Point","coordinates":[53.42,-6.25,85]},"properties":{"stationId":"EIDW","rawText":"EIDW 021630Z 11006KT 070V150 9999 FEW025 BKN045 16/10 Q1028 WS RWY28 NOSIG","observationTime":"2019-07-02T16:30:00Z","temp":16,"dewpoint":10,"windDirection":110,"windSpeed":11.112,"visibility":6.21,"altim":30.35433,"flightCategory":"VFR","metarType":"METAR","geometry_esri":{"x":53.42,"y":-6.25,"z":85}}}