{"type":"Feature","geometry":{"type":"Point","coordinates":[51.48,-0.45,24]},"properties":{"stationId":"EGLL","rawText":"EGLL 281650Z AUTO 04005KT 010V080 9999 NCD 09/06 Q1024 NOSIG","observationTime":"2019-10-28T16:50:00Z","temp":9,"dewpoint":6,"windDirection":40,"windSpeed":9.26,"visibility":6.21,"altim":30.236221,"flightCategory":"VFR","metarType":"SPECI","geometry_esri":{"x":51.48,"y":-0.45,"z":24}}}