{"type":"Feature","geometry":{"type":"Point","coordinates":[47.78,13.02,430]},"properties":{"stationId":"LOWS","rawText":"LOWS 271650Z 28002KT 9999 FEW040 SCT090 BKN250 18/14 Q1014 NOSIG","observationTime":"2019-09-27T16:50:00Z","temp":18,"dewpoint":14,"windDirection":280,"windSpeed":3.704,"visibility":6.21,"altim":29.940945,"flightCategory":"VFR","metarType":"METAR","geometry_esri":{"x":47.78,"y":13.02,"z":430}}}