{"type":"Feature","geometry":{"type":"Point","coordinates":[51.48,-0.45,24]},"properties":{"stationId":"EGLL","rawText":"EGLL 141750Z AUTO 10006KT 9999 NCD 06/04 Q1000","observationTime":"2019-11-14T17:50:00Z","temp":6,"dewpoint":4,"windDirection":100,"windSpeed":11.112,"visibility":6.21,"altim":29.52756,"flightCategory":"VFR","metarType":"METAR","geometry_esri":{"x":51.48,"y":-0.45,"z":24}}}