{"type":"Feature","geometry":{"type":"Point","coordinates":[53.42,-6.25,85]},"properties":{"stationId":"EIDW","rawText":"EIDW 050830Z 28016KT 9999 -DZ BKN010 OVC013 10/08 Q1001 NOSIG","observationTime":"2019-06-05T08:30:00Z","temp":10,"dewpoint":8,"windDirection":280,"windSpeed":29.632,"visibility":6.21,"altim":29.557087,"flightCategory":"MVFR","metarType":"METAR","geometry_esri":{"x":53.42,"y":-6.25,"z":85}}}