{"type":"Feature","geometry":{"type":"Point","coordinates":[48.35,11.82,447]},"properties":{"stationId":"EDDM","rawText":"EDDM 151550Z 10010KT 050V130 CAVOK 13/00 Q1019 NOSIG","observationTime":"2019-04-15T15:50:00Z","temp":13,"dewpoint":0,"windDirection":100,"windSpeed":18.52,"visibility":6.21,"altim":30.088583,"flightCategory":"VFR","metarType":"METAR","geometry_esri":{"x":48.35,"y":11.82,"z":447}}}