{"type":"Feature","geometry":{"type":"Point","coordinates":[49.02,2.52,109]},"properties":{"stationId":"LFPG","rawText":"LFPG 290630Z 18016KT 9999 -RA NSC 14/10 Q1006 NOSIG","observationTime":"2019-09-29T06:30:00Z","temp":14,"dewpoint":10,"windDirection":180,"windSpeed":29.632,"visibility":6.21,"altim":29.704725,"flightCategory":"VFR","metarType":"METAR","geometry_esri":{"x":49.02,"y":2.52,"z":109}}}