{"type":"Feature","geometry":{"type":"Point","coordinates":[53.42,-6.25,85]},"properties":{"stationId":"EIDW","rawText":"EIDW 220930Z 05005KT 330V100 9999 FEW010 SCT015 BKN020 12/08 Q1019 NOSIG","observationTime":"2019-05-22T09:30:00Z","temp":12,"dewpoint":8,"windDirection":50,"windSpeed":9.26,"visibility":6.21,"altim":30.088583,"flightCategory":"MVFR","metarType":"METAR","geometry_esri":{"x":53.42,"y":-6.25,"z":85}}}