{"type":"Feature","geometry":{"type":"Point","coordinates":[53.42,-6.25,85]},"properties":{"stationId":"EIDW","rawText":"EIDW 280830Z VRB02KT 2500 BR FEW003 SCT008 BKN013 07/06 Q1013 NOSIG","observationTime":"2019-02-28T08:30:00Z","temp":7,"dewpoint":6,"windDirection":0,"windSpeed":3.704,"visibility":1.55,"altim":29.911417,"flightCategory":"IFR","metarType":"METAR","geometry_esri":{"x":53.42,"y":-6.25,"z":85}}}