{"type":"Feature","geometry":{"type":"Point","coordinates":[49.02,2.52,109]},"properties":{"stationId":"LFPG","rawText":"LFPG 300930Z 05003KT 360V110 CAVOK 21/09 Q1024 NOSIG","observationTime":"2019-08-30T09:30:00Z","temp":21,"dewpoint":9,"windDirection":50,"windSpeed":5.556,"visibility":6.21,"altim":30.236221,"flightCategory":"VFR","metarType":"METAR","geometry_esri":{"x":49.02,"y":2.52,"z":109}}}