{"type":"Feature","geometry":{"type":"Point","coordinates":[49.02,2.52,109]},"properties":{"stationId":"LFPG","rawText":"LFPG 211730Z 04009KT 020V100 CAVOK 14/06 Q1031 NOSIG","observationTime":"2019-03-21T17:30:00Z","temp":14,"dewpoint":6,"windDirection":40,"windSpeed":16.668,"visibility":6.21,"altim":30.442913,"flightCategory":"VFR","metarType":"METAR","geometry_esri":{"x":49.02,"y":2.52,"z":109}}}