{"type":"Feature","geometry":{"type":"Point","coordinates":[49.02,2.52,109]},"properties":{"stationId":"LFPG","rawText":"LFPG 170030Z 23006KT 8000 NSC 09/08 Q1019 NOSIG","observationTime":"2019-04-17T00:30:00Z","temp":9,"dewpoint":8,"windDirection":230,"windSpeed":11.112,"visibility":4.97,"altim":30.088583,"flightCategory":"MVFR","metarType":"METAR","geometry_esri":{"x":49.02,"y":2.52,"z":109}}}