{"type":"Feature","geometry":{"type":"Point","coordinates":[40.48,-3.57,582]},"properties":{"stationId":"LEMD","rawText":"LEMD 171830Z 23009KT 170V290 9999 VCSH FEW045TCU SCT070 21/06 Q1010 NOSIG","observationTime":"2019-04-17T18:30:00Z","temp":21,"dewpoint":6,"windDirection":230,"windSpeed":16.668,"visibility":6.21,"altim":29.822834,"flightCategory":"VFR","metarType":"METAR","geometry_esri":{"x":40.48,"y":-3.57,"z":582}}}