{"type":"Feature","geometry":{"type":"Point","coordinates":[48.35,11.82,447]},"properties":{"stationId":"EDDM","rawText":"EDDM 121550Z 28008KT 240V310 9999 FEW045 02/M03 Q1033 R88/190095 NOSIG","observationTime":"2019-02-12T15:50:00Z","temp":2,"dewpoint":-3,"windDirection":280,"windSpeed":14.816,"visibility":6.21,"altim":30.501968,"flightCategory":"VFR","metarType":"METAR","geometry_esri":{"x":48.35,"y":11.82,"z":447}}}