{"type":"Feature","geometry":{"type":"Point","coordinates":[51.48,-0.45,24]},"properties":{"stationId":"EGLL","rawText":"EGLL 051050Z AUTO 28010KT 240V300 9999 NCD 24/11 Q1020 NOSIG","observationTime":"2019-07-05T10:50:00Z","temp":24,"dewpoint":11,"windDirection":280,"windSpeed":18.52,"visibility":6.21,"altim":30.11811,"flightCategory":"VFR","metarType":"METAR","geometry_esri":{"x":51.48,"y":-0.45,"z":24}}}