{"type":"Feature","geometry":{"type":"Point","coordinates":[48.35,11.82,447]},"properties":{"stationId":"EDDM","rawText":"EDDM 082050Z 24011KT 9999 -RA SCT007 BKN018 09/08 Q1015 BECMG BKN007","observationTime":"2019-09-08T20:50:00Z","temp":9,"dewpoint":8,"windDirection":240,"windSpeed":20.372,"visibility":6.21,"altim":29.970472,"flightCategory":"MVFR","metarType":"METAR","geometry_esri":{"x":48.35,"y":11.82,"z":447}}}