{"type":"Feature","geometry":{"type":"Point","coordinates":[51.48,-0.45,24]},"properties":{"stationId":"EGLL","rawText":"EGLL 021050Z AUTO 29010KT 260V330 9999 SCT037 15/05 Q1014 TEMPO 8000 SHRA","observationTime":"2019-05-02T10:50:00Z","temp":15,"dewpoint":5,"windDirection":290,"windSpeed":18.52,"visibility":6.21,"altim":29.940945,"flightCategory":"VFR","metarType":"SPECI","geometry_esri":{"x":51.48,"y":-0.45,"z":24}}}