{"type":"Feature","geometry":{"type":"Point","coordinates":[48.35,11.82,447]},"properties":{"stationId":"EDDM","rawText":"EDDM 190750Z 06006KT 360V090 CAVOK 10/05 Q1027 NOSIG","observationTime":"2019-09-19T07:50:00Z","temp":10,"dewpoint":5,"windDirection":60,"windSpeed":11.112,"visibility":6.21,"altim":30.324802,"flightCategory":"VFR","metarType":"METAR","geometry_esri":{"x":48.35,"y":11.82,"z":447}}}