{"type":"Feature","geometry":{"type":"Point","coordinates":[53.42,-6.25,85]},"properties":{"stationId":"EIDW","rawText":"EIDW 041630Z 23010KT 200V280 9999 FEW018CB SCT035 BKN220 05/01 Q0993 WS RWY28 NOSIG","observationTime":"2019-03-04T16:30:00Z","temp":5,"dewpoint":1,"windDirection":230,"windSpeed":18.52,"visibility":6.21,"altim":29.320866,"flightCategory":"VFR","metarType":"SPECI","geometry_esri":{"x":53.42,"y":-6.25,"z":85}}}