{"type":"Feature","geometry":{"type":"Point","coordinates":[40.48,-3.57,582]},"properties":{"stationId":"LEMD","rawText":"LEMD 090830Z 21015KT 180V250 CAVOK 26/16 Q1017 NOSIG","observationTime":"2019-08-09T08:30:00Z","temp":26,"dewpoint":16,"windDirection":210,"windSpeed":27.78,"visibility":6.21,"altim":30.029528,"flightCategory":"VFR","metarType":"METAR","geometry_esri":{"x":40.48,"y":-3.57,"z":582}}}