{"type":"Feature","geometry":{"type":"Point","coordinates":[47.78,13.02,430]},"properties":{"stationId":"LOWS","rawText":"LOWS 111150Z 04008KT 010V070 9999 FEW022 BKN070 09/04 Q1015 NOSIG","observationTime":"2019-04-11T11:50:00Z","temp":9,"dewpoint":4,"windDirection":40,"windSpeed":14.816,"visibility":6.21,"altim":29.970472,"flightCategory":"VFR","metarType":"METAR","geometry_esri":{"x":47.78,"y":13.02,"z":430}}}