{"type":"Feature","geometry":{"type":"Point","coordinates":[49.02,2.52,109]},"properties":{"stationId":"LFPG","rawText":"LFPG 292230Z 36007KT CAVOK 16/08 Q1023 NOSIG","observationTime":"2019-08-29T22:30:00Z","temp":16,"dewpoint":8,"windDirection":360,"windSpeed":12.964,"visibility":6.21,"altim":30.206694,"flightCategory":"VFR","metarType":"METAR","geometry_esri":{"x":49.02,"y":2.52,"z":109}}}