{"type":"Feature","geometry":{"type":"Point","coordinates":[49.02,2.52,109]},"properties":{"stationId":"LFPG","rawText":"LFPG 310530Z 07009KT 6000 BKN008 SCT021 08/07 Q1017 NOSIG","observationTime":"2019-10-31T05:30:00Z","temp":8,"dewpoint":7,"windDirection":70,"windSpeed":16.668,"visibility":3.73,"altim":30.029528,"flightCategory":"IFR","metarType":"METAR","geometry_esri":{"x":49.02,"y":2.52,"z":109}}}