{"type":"Feature","geometry":{"type":"Point","coordinates":[49.02,2.52,109]},"properties":{"stationId":"LFPG","rawText":"LFPG 291230Z 07008KT 030V130 CAVOK 32/13 Q1016 NOSIG","observationTime":"2019-06-29T12:30:00Z","temp":32,"dewpoint":13,"windDirection":70,"windSpeed":14.816,"visibility":6.21,"altim":30,"flightCategory":"VFR","metarType":"METAR","geometry_esri":{"x":49.02,"y":2.52,"z":109}}}