{"type":"Feature","geometry":{"type":"Point","coordinates":[49.02,2.52,109]},"properties":{"stationId":"LFPG","rawText":"LFPG 241030Z AUTO 16010G21KT 4000 -RA BR OVC005 15/14 Q1007 TEMPO 22015G25KT 2000 RA","observationTime":"2019-09-24T10:30:00Z","temp":15,"dewpoint":14,"windDirection":160,"windSpeed":18.52,"visibility":2.49,"altim":29.734253,"flightCategory":"IFR","metarType":"METAR","geometry_esri":{"x":49.02,"y":2.52,"z":109}}}