{"type":"Feature","geometry":{"type":"Point","coordinates":[49.02,2.52,109]},"properties":{"stationId":"LFPG","rawText":"LFPG 062030Z 26012KT CAVOK 13/09 Q1014 NOSIG","observationTime":"2019-10-06T20:30:00Z","temp":13,"dewpoint":9,"windDirection":260,"windSpeed":22.224,"visibility":6.21,"altim":29.940945,"flightCategory":"VFR","metarType":"METAR","geometry_esri":{"x":49.02,"y":2.52,"z":109}}}