{"type":"Feature","geometry":{"type":"Point","coordinates":[47.78,13.02,430]},"properties":{"stationId":"LOWS","rawText":"LOWS 240850Z 31006KT CAVOK 09/05 Q1005 NOSIG","observationTime":"2019-11-24T08:50:00Z","temp":9,"dewpoint":5,"windDirection":310,"windSpeed":11.112,"visibility":6.21,"altim":29.675198,"flightCategory":"VFR","metarType":"METAR","geometry_esri":{"x":47.78,"y":13.02,"z":430}}}