{"type":"Feature","geometry":{"type":"Point","coordinates":[51.48,-0.45,24]},"properties":{"stationId":"EGLL","rawText":"EGLL 241150Z AUTO 20008KT 160V240 9999 NCD 23/18 Q1016","observationTime":"2019-06-24T11:50:00Z","temp":23,"dewpoint":18,"windDirection":200,"windSpeed":14.816,"visibility":6.21,"altim":30,"flightCategory":"VFR","metarType":"METAR","geometry_esri":{"x":51.48,"y":-0.45,"z":24}}}