{"type":"Feature","geometry":{"type":"Point","coordinates":[47.78,13.02,430]},"properties":{"stationId":"LOWS","rawText":"LOWS 280250Z AUTO 35005KT 9999 NSC 18/12 Q1022","observationTime":"2019-06-28T02:50:00Z","temp":18,"dewpoint":12,"windDirection":350,"windSpeed":9.26,"visibility":6.21,"altim":30.177166,"flightCategory":"VFR","metarType":"METAR","geometry_esri":{"x":47.78,"y":13.02,"z":430}}}