{"type":"Feature","geometry":{"type":"Point","coordinates":[48.35,11.82,447]},"properties":{"stationId":"EDDM","rawText":"EDDM 240250Z 05005KT CAVOK 08/04 Q1002 NOSIG","observationTime":"2019-04-24T02:50:00Z","temp":8,"dewpoint":4,"windDirection":50,"windSpeed":9.26,"visibility":6.21,"altim":29.586615,"flightCategory":"VFR","metarType":"METAR","geometry_esri":{"x":48.35,"y":11.82,"z":447}}}