{"type":"Feature","geometry":{"type":"Point","coordinates":[48.35,11.82,447]},"properties":{"stationId":"EDDM","rawText":"EDDM 011550Z 27005KT 250V310 CAVOK 22/11 Q1006 NOSIG","observationTime":"2019-10-01T15:50:00Z","temp":22,"dewpoint":11,"windDirection":270,"windSpeed":9.26,"visibility":6.21,"altim":29.704725,"flightCategory":"VFR","metarType":"METAR","geometry_esri":{"x":48.35,"y":11.82,"z":447}}}