{"type":"Feature","geometry":{"type":"Point","coordinates":[48.35,11.82,447]},"properties":{"stationId":"EDDM","rawText":"EDDM 231550Z 08008KT 050V110 9999 FEW033 23/15 Q1024 NOSIG","observationTime":"2019-08-23T15:50:00Z","temp":23,"dewpoint":15,"windDirection":80,"windSpeed":14.816,"visibility":6.21,"altim":30.236221,"flightCategory":"VFR","metarType":"METAR","geometry_esri":{"x":48.35,"y":11.82,"z":447}}}