{"type":"Feature","geometry":{"type":"Point","coordinates":[47.78,13.02,430]},"properties":{"stationId":"LOWS","rawText":"LOWS 221150Z 29010KT 5000 -RA BR FEW007 SCT018 BKN030 07/05 Q1032 TEMPO 4000","observationTime":"2019-02-22T11:50:00Z","temp":7,"dewpoint":5,"windDirection":290,"windSpeed":18.52,"visibility":3.11,"altim":30.47244,"flightCategory":"MVFR","metarType":"METAR","geometry_esri":{"x":47.78,"y":13.02,"z":430}}}