{"type":"Feature","geometry":{"type":"Point","coordinates":[48.35,11.82,447]},"properties":{"stationId":"EDDM","rawText":"EDDM 120750Z 25012KT CAVOK 03/M01 Q1026 NOSIG","observationTime":"2019-03-12T07:50:00Z","temp":3,"dewpoint":-1,"windDirection":250,"windSpeed":22.224,"visibility":6.21,"altim":30.295275,"flightCategory":"VFR","metarType":"METAR","geometry_esri":{"x":48.35,"y":11.82,"z":447}}}