{"type":"Feature","geometry":{"type":"Point","coordinates":[40.48,-3.57,582]},"properties":{"stationId":"LEMD","rawText":"LEMD 251530Z 06006KT 010V120 CAVOK 22/M05 Q1018 NOSIG","observationTime":"2019-03-25T15:30:00Z","temp":22,"dewpoint":-5,"windDirection":60,"windSpeed":11.112,"visibility":6.21,"altim":30.059055,"flightCategory":"VFR","metarType":"METAR","geometry_esri":{"x":40.48,"y":-3.57,"z":582}}}