{"type":"Feature","geometry":{"type":"Point","coordinates":[40.48,-3.57,582]},"properties":{"stationId":"LEMD","rawText":"LEMD 162330Z 10001KT CAVOK 12/M01 Q1017 NOSIG","observationTime":"2019-03-16T23:30:00Z","temp":12,"dewpoint":-1,"windDirection":100,"windSpeed":1.852,"visibility":6.21,"altim":30.029528,"flightCategory":"VFR","metarType":"METAR","geometry_esri":{"x":40.48,"y":-3.57,"z":582}}}