{"type":"Feature","geometry":{"type":"Point","coordinates":[49.02,2.52,109]},"properties":{"stationId":"LFPG","rawText":"LFPG 122330Z 21010KT CAVOK 12/09 Q1011 NOSIG","observationTime":"2019-06-12T23:30:00Z","temp":12,"dewpoint":9,"windDirection":210,"windSpeed":18.52,"visibility":6.21,"altim":29.852362,"flightCategory":"VFR","metarType":"METAR","geometry_esri":{"x":49.02,"y":2.52,"z":109}}}