{"type":"Feature","geometry":{"type":"Point","coordinates":[40.48,-3.57,582]},"properties":{"stationId":"LEMD","rawText":"LEMD 021230Z 28003KT CAVOK 34/07 Q1016 NOSIG","observationTime":"2019-08-02T12:30:00Z","temp":34,"dewpoint":7,"windDirection":280,"windSpeed":5.556,"visibility":6.21,"altim":30,"flightCategory":"VFR","metarType":"METAR","geometry_esri":{"x":40.48,"y":-3.57,"z":582}}}