{"type":"Feature","geometry":{"type":"Point","coordinates":[49.02,2.52,109]},"properties":{"stationId":"LFPG","rawText":"LFPG 122330Z 32005KT CAVOK 17/11 Q1018 NOSIG","observationTime":"2019-07-12T23:30:00Z","temp":17,"dewpoint":11,"windDirection":320,"windSpeed":9.26,"visibility":6.21,"altim":30.059055,"flightCategory":"VFR","metarType":"METAR","geometry_esri":{"x":49.02,"y":2.52,"z":109}}}