{"type":"Feature","geometry":{"type":"Point","coordinates":[49.02,2.52,109]},"properties":{"stationId":"LFPG","rawText":"LFPG 241430Z VRB02KT CAVOK 30/12 Q1018 NOSIG","observationTime":"2019-08-24T14:30:00Z","temp":30,"dewpoint":12,"windDirection":0,"windSpeed":3.704,"visibility":6.21,"altim":30.059055,"flightCategory":"VFR","metarType":"METAR","geometry_esri":{"x":49.02,"y":2.52,"z":109}}}