{"type":"Feature","geometry":{"type":"Point","coordinates":[49.02,2.52,109]},"properties":{"stationId":"LFPG","rawText":"LFPG 121930Z 04006KT 010V120 CAVOK 11/02 Q1035 NOSIG","observationTime":"2019-05-12T19:30:00Z","temp":11,"dewpoint":2,"windDirection":40,"windSpeed":11.112,"visibility":6.21,"altim":30.561024,"flightCategory":"VFR","metarType":"METAR","geometry_esri":{"x":49.02,"y":2.52,"z":109}}}