{"type":"Feature","geometry":{"type":"Point","coordinates":[40.48,-3.57,582]},"properties":{"stationId":"LEMD","rawText":"LEMD 260830Z 13006KT 080V160 9999 SCT070 23/13 Q1017 NOSIG","observationTime":"2019-08-26T08:30:00Z","temp":23,"dewpoint":13,"windDirection":130,"windSpeed":11.112,"visibility":6.21,"altim":30.029528,"flightCategory":"VFR","metarType":"METAR","geometry_esri":{"x":40.48,"y":-3.57,"z":582}}}