{"type":"Feature","geometry":{"type":"Point","coordinates":[47.78,13.02,430]},"properties":{"stationId":"LOWS","rawText":"LOWS 301950Z 15004KT 9999 FEW050 BKN060 13/10 Q1016 NOSIG","observationTime":"2019-09-30T19:50:00Z","temp":13,"dewpoint":10,"windDirection":150,"windSpeed":7.408,"visibility":6.21,"altim":30,"flightCategory":"VFR","metarType":"METAR","geometry_esri":{"x":47.78,"y":13.02,"z":430}}}