{"type":"Feature","geometry":{"type":"Point","coordinates":[48.35,11.82,447]},"properties":{"stationId":"EDDM","rawText":"EDDM 251350Z 10007KT 050V160 CAVOK 34/13 Q1016 NOSIG","observationTime":"2019-07-25T13:50:00Z","temp":34,"dewpoint":13,"windDirection":100,"windSpeed":12.964,"visibility":6.21,"altim":30,"flightCategory":"VFR","metarType":"METAR","geometry_esri":{"x":48.35,"y":11.82,"z":447}}}