{"type":"Feature","geometry":{"type":"Point","coordinates":[49.02,2.52,109]},"properties":{"stationId":"LFPG","rawText":"LFPG 230830Z 05008KT 9999 FEW011 BKN100 12/10 Q1013 TEMPO BKN010","observationTime":"2019-10-23T08:30:00Z","temp":12,"dewpoint":10,"windDirection":50,"windSpeed":14.816,"visibility":6.21,"altim":29.911417,"flightCategory":"VFR","metarType":"SPECI","geometry_esri":{"x":49.02,"y":2.52,"z":109}}}