{"type":"Feature","geometry":{"type":"Point","coordinates":[49.02,2.52,109]},"properties":{"stationId":"LFPG","rawText":"LFPG 250430Z 06003KT CAVOK 25/15 Q1013 NOSIG","observationTime":"2019-07-25T04:30:00Z","temp":25,"dewpoint":15,"windDirection":60,"windSpeed":5.556,"visibility":6.21,"altim":29.911417,"flightCategory":"VFR","metarType":"METAR","geometry_esri":{"x":49.02,"y":2.52,"z":109}}}