{"type":"Feature","geometry":{"type":"Point","coordinates":[49.02,2.52,109]},"properties":{"stationId":"LFPG","rawText":"LFPG 281030Z 18010G22KT 150V220 CAVOK 27/16 Q1016 NOSIG","observationTime":"2019-08-28T10:30:00Z","temp":27,"dewpoint":16,"windDirection":180,"windSpeed":18.52,"visibility":6.21,"altim":30,"flightCategory":"VFR","metarType":"METAR","geometry_esri":{"x":49.02,"y":2.52,"z":109}}}