{"type":"Feature","geometry":{"type":"Point","coordinates":[53.42,-6.25,85]},"properties":{"stationId":"EIDW","rawText":"EIDW 021630Z 29010KT 9999 FEW016CB BKN030 06/02 Q1002 WS RWY28 RESHGS NOSIG","observationTime":"2019-04-02T16:30:00Z","temp":6,"dewpoint":2,"windDirection":290,"windSpeed":18.52,"visibility":6.21,"altim":29.586615,"flightCategory":"MVFR","metarType":"METAR","geometry_esri":{"x":53.42,"y":-6.25,"z":85}}}