{"type":"Feature","geometry":{"type":"Point","coordinates":[49.02,2.52,109]},"properties":{"stationId":"LFPG","rawText":"LFPG 250630Z 16009KT 9999 BKN006 08/07 Q1008 NOSIG","observationTime":"2019-11-25T06:30:00Z","temp":8,"dewpoint":7,"windDirection":160,"windSpeed":16.668,"visibility":6.21,"altim":29.763779,"flightCategory":"IFR","metarType":"METAR","geometry_esri":{"x":49.02,"y":2.52,"z":109}}}