{"type":"Feature","geometry":{"type":"Point","coordinates":[51.48,-0.45,24]},"properties":{"stationId":"EGLL","rawText":"EGLL 161350Z AUTO 22009KT 190V260 7000 -RA BKN007 BKN011 OVC030 09/08 Q1002 RERA REDZ TEMPO BKN011","observationTime":"2019-01-16T13:50:00Z","temp":9,"dewpoint":8,"windDirection":220,"windSpeed":16.668,"visibility":4.35,"altim":29.586615,"flightCategory":"IFR","metarType":"METAR","geometry_esri":{"x":51.48,"y":-0.45,"z":24}}}