{"type":"Feature","geometry":{"type":"Point","coordinates":[47.78,13.02,430]},"properties":{"stationId":"LOWS","rawText":"LOWS 110850Z 29015G33KT 230V320 6000 4000N -SHRASN FEW014 SCT025 BKN045 06/M03 Q1016 TEMPO 2000 SHRASN","observationTime":"2019-03-11T08:50:00Z","temp":6,"dewpoint":-3,"windDirection":290,"windSpeed":27.78,"visibility":3.73,"altim":30,"flightCategory":"MVFR","metarType":"METAR","geometry_esri":{"x":47.78,"y":13.02,"z":430}}}