{"type":"Feature","geometry":{"type":"Point","coordinates":[51.48,-0.45,24]},"properties":{"stationId":"EGLL","rawText":"EGLL 290550Z AUTO 22013KT 9999 SCT015 SCT032 BKN041 16/15 Q0995 TEMPO 4000 + SHRA BKN012CB","observationTime":"2019-09-29T05:50:00Z","temp":16,"dewpoint":15,"windDirection":220,"windSpeed":24.076,"visibility":6.21,"altim":29.379921,"flightCategory":"VFR","metarType":"SPECI","geometry_esri":{"x":51.48,"y":-0.45,"z":24}}}