{"type":"Feature","geometry":{"type":"Point","coordinates":[49.02,2.52,109]},"properties":{"stationId":"LFPG","rawText":"LFPG 221930Z 18011KT 0900 R27L/1100U R09R/0900U R26R/1600U R08L/1600D R26L/1400U R08R/1100U R27R/0900U R09L/1000U FG VV/// 01/00 Q1001 NOSIG","observationTime":"2019-01-22T19:30:00Z","temp":1,"dewpoint":0,"windDirection":180,"windSpeed":20.372,"visibility":0.56,"altim":29.557087,"flightCategory":"LIFR","metarType":"METAR","geometry_esri":{"x":49.02,"y":2.52,"z":109}}}