{"type":"Feature","geometry":{"type":"Point","coordinates":[48.35,11.82,447]},"properties":{"stationId":"EDDM","rawText":"EDDM 200950Z 04005KT 350V080 9999 FEW040 07/M04 Q1034 NOSIG","observationTime":"2019-03-20T09:50:00Z","temp":7,"dewpoint":-4,"windDirection":40,"windSpeed":9.26,"visibility":6.21,"altim":30.531496,"flightCategory":"VFR","metarType":"METAR","geometry_esri":{"x":48.35,"y":11.82,"z":447}}}