{"type":"Feature","geometry":{"type":"Point","coordinates":[40.48,-3.57,582]},"properties":{"stationId":"LEMD","rawText":"LEMD 271430Z 25003G13KT 9999 FEW045 26/12 Q1017 NOSIG","observationTime":"2019-08-27T14:30:00Z","temp":26,"dewpoint":12,"windDirection":250,"windSpeed":5.556,"visibility":6.21,"altim":30.029528,"flightCategory":"VFR","metarType":"METAR","geometry_esri":{"x":40.48,"y":-3.57,"z":582}}}