{"type":"Feature","geometry":{"type":"Point","coordinates":[49.02,2.52,109]},"properties":{"stationId":"LFPG","rawText":"LFPG 171830Z 29009KT CAVOK 25/08 Q1013 NOSIG","observationTime":"2019-07-17T18:30:00Z","temp":25,"dewpoint":8,"windDirection":290,"windSpeed":16.668,"visibility":6.21,"altim":29.911417,"flightCategory":"VFR","metarType":"METAR","geometry_esri":{"x":49.02,"y":2.52,"z":109}}}