{"type":"Feature","geometry":{"type":"Point","coordinates":[40.48,-3.57,582]},"properties":{"stationId":"LEMD","rawText":"LEMD 012230Z 05007KT 010V100 CAVOK 18/08 Q1013 NOSIG","observationTime":"2019-05-01T22:30:00Z","temp":18,"dewpoint":8,"windDirection":50,"windSpeed":12.964,"visibility":6.21,"altim":29.911417,"flightCategory":"VFR","metarType":"METAR","geometry_esri":{"x":40.48,"y":-3.57,"z":582}}}