{"type":"Feature","geometry":{"type":"Point","coordinates":[48.35,11.82,447]},"properties":{"stationId":"EDDM","rawText":"EDDM 211450Z 11010KT 080V140 CAVOK 21/07 Q1019 NOSIG","observationTime":"2019-09-21T14:50:00Z","temp":21,"dewpoint":7,"windDirection":110,"windSpeed":18.52,"visibility":6.21,"altim":30.088583,"flightCategory":"VFR","metarType":"METAR","geometry_esri":{"x":48.35,"y":11.82,"z":447}}}