{"type":"Feature","geometry":{"type":"Point","coordinates":[51.48,-0.45,24]},"properties":{"stationId":"EGLL","rawText":"EGLL 251050Z AUTO 16008KT 110V220 9999 NCD 33/17 Q1010 NOSIG","observationTime":"2019-07-25T10:50:00Z","temp":33,"dewpoint":17,"windDirection":160,"windSpeed":14.816,"visibility":6.21,"altim":29.822834,"flightCategory":"VFR","metarType":"METAR","geometry_esri":{"x":51.48,"y":-0.45,"z":24}}}