{"type":"Feature","geometry":{"type":"Point","coordinates":[49.02,2.52,109]},"properties":{"stationId":"LFPG","rawText":"LFPG 141430Z 20013KT 180V240 CAVOK 24/10 Q1016 NOSIG","observationTime":"2019-08-14T14:30:00Z","temp":24,"dewpoint":10,"windDirection":200,"windSpeed":24.076,"visibility":6.21,"altim":30,"flightCategory":"VFR","metarType":"METAR","geometry_esri":{"x":49.02,"y":2.52,"z":109}}}