{"type":"Feature","geometry":{"type":"Point","coordinates":[40.48,-3.57,582]},"properties":{"stationId":"LEMD","rawText":"LEMD 211530Z 28006KT 240V010 CAVOK 26/01 Q1014 NOSIG","observationTime":"2019-05-21T15:30:00Z","temp":26,"dewpoint":1,"windDirection":280,"windSpeed":11.112,"visibility":6.21,"altim":29.940945,"flightCategory":"VFR","metarType":"METAR","geometry_esri":{"x":40.48,"y":-3.57,"z":582}}}