{"type":"Feature","geometry":{"type":"Point","coordinates":[40.48,-3.57,582]},"properties":{"stationId":"LEMD","rawText":"LEMD 301930Z 36008KT 330V030 9999 FEW070TCU 22/05 Q1014 NOSIG","observationTime":"2019-04-30T19:30:00Z","temp":22,"dewpoint":5,"windDirection":360,"windSpeed":14.816,"visibility":6.21,"altim":29.940945,"flightCategory":"VFR","metarType":"METAR","geometry_esri":{"x":40.48,"y":-3.57,"z":582}}}