{"type":"Feature","geometry":{"type":"Point","coordinates":[40.48,-3.57,582]},"properties":{"stationId":"LEMD","rawText":"LEMD 311930Z 16004KT 120V200 CAVOK 30/01 Q1020 NOSIG","observationTime":"2019-05-31T19:30:00Z","temp":30,"dewpoint":1,"windDirection":160,"windSpeed":7.408,"visibility":6.21,"altim":30.11811,"flightCategory":"VFR","metarType":"METAR","geometry_esri":{"x":40.48,"y":-3.57,"z":582}}}