{"type":"Feature","geometry":{"type":"Point","coordinates":[47.78,13.02,430]},"properties":{"stationId":"LOWS","rawText":"LOWS 261550Z 29010KT 260V320 9999 -RA FEW020 BKN035 07/04 Q1018 TEMPO RA","observationTime":"2019-04-26T15:50:00Z","temp":7,"dewpoint":4,"windDirection":290,"windSpeed":18.52,"visibility":6.21,"altim":30.059055,"flightCategory":"VFR","metarType":"METAR","geometry_esri":{"x":47.78,"y":13.02,"z":430}}}