{"type":"Feature","geometry":{"type":"Point","coordinates":[51.48,-0.45,24]},"properties":{"stationId":"EGLL","rawText":"EGLL 292250Z AUTO VRB01KT 5000 HZ NCD 02/01 Q1022 BECMG 3000 BR","observationTime":"2019-11-29T22:50:00Z","temp":2,"dewpoint":1,"windDirection":0,"windSpeed":1.852,"visibility":3.11,"altim":30.177166,"flightCategory":"MVFR","metarType":"METAR","geometry_esri":{"x":51.48,"y":-0.45,"z":24}}}