{"type":"Feature","geometry":{"type":"Point","coordinates":[53.42,-6.25,85]},"properties":{"stationId":"EIDW","rawText":"EIDW 032230Z 21004KT 170V240 9999 FEW020 BKN035 07/02 Q1041 NOSIG","observationTime":"2019-01-03T22:30:00Z","temp":7,"dewpoint":2,"windDirection":210,"windSpeed":7.408,"visibility":6.21,"altim":30.73819,"flightCategory":"VFR","metarType":"METAR","geometry_esri":{"x":53.42,"y":-6.25,"z":85}}}