{"type":"Feature","geometry":{"type":"Point","coordinates":[53.42,-6.25,85]},"properties":{"stationId":"EIDW","rawText":"EIDW 190430Z 24008KT 190V280 CAVOK 11/10 Q1008 NOSIG","observationTime":"2019-08-19T04:30:00Z","temp":11,"dewpoint":10,"windDirection":240,"windSpeed":14.816,"visibility":6.21,"altim":29.763779,"flightCategory":"VFR","metarType":"METAR","geometry_esri":{"x":53.42,"y":-6.25,"z":85}}}