{"type":"Feature","geometry":{"type":"Point","coordinates":[48.35,11.82,447]},"properties":{"stationId":"EDDM","rawText":"EDDM 181950Z 31003KT CAVOK 19/15 Q1014 NOSIG","observationTime":"2019-06-18T19:50:00Z","temp":19,"dewpoint":15,"windDirection":310,"windSpeed":5.556,"visibility":6.21,"altim":29.940945,"flightCategory":"VFR","metarType":"METAR","geometry_esri":{"x":48.35,"y":11.82,"z":447}}}