{"type":"Feature","geometry":{"type":"Point","coordinates":[40.48,-3.57,582]},"properties":{"stationId":"LEMD","rawText":"LEMD 110730Z 16003KT 110V220 9999 BKN055 05/03 Q1017 NOSIG","observationTime":"2019-11-11T07:30:00Z","temp":5,"dewpoint":3,"windDirection":160,"windSpeed":5.556,"visibility":6.21,"altim":30.029528,"flightCategory":"VFR","metarType":"METAR","geometry_esri":{"x":40.48,"y":-3.57,"z":582}}}