{"type":"Feature","geometry":{"type":"Point","coordinates":[49.02,2.52,109]},"properties":{"stationId":"LFPG","rawText":"LFPG 091630Z 32007KT 9999 FEW021 SCT230 03/01 Q1024 NOSIG","observationTime":"2019-01-09T16:30:00Z","temp":3,"dewpoint":1,"windDirection":320,"windSpeed":12.964,"visibility":6.21,"altim":30.236221,"flightCategory":"VFR","metarType":"METAR","geometry_esri":{"x":49.02,"y":2.52,"z":109}}}