{"type":"Feature","geometry":{"type":"Point","coordinates":[49.02,2.52,109]},"properties":{"stationId":"LFPG","rawText":"LFPG 100330Z 01005KT 3500 BR BKN005 10/09 Q1010 TEMPO 2000 BR BKN003","observationTime":"2019-04-10T03:30:00Z","temp":10,"dewpoint":9,"windDirection":10,"windSpeed":9.26,"visibility":2.17,"altim":29.822834,"flightCategory":"IFR","metarType":"SPECI","geometry_esri":{"x":49.02,"y":2.52,"z":109}}}