{"type":"Feature","geometry":{"type":"Point","coordinates":[40.48,-3.57,582]},"properties":{"stationId":"LEMD","rawText":"LEMD 271530Z 30013KT 260V350 9999 SCT070 28/08 Q1008 NOSIG","observationTime":"2019-07-27T15:30:00Z","temp":28,"dewpoint":8,"windDirection":300,"windSpeed":24.076,"visibility":6.21,"altim":29.763779,"flightCategory":"VFR","metarType":"METAR","geometry_esri":{"x":40.48,"y":-3.57,"z":582}}}