{"type":"Feature","geometry":{"type":"Point","coordinates":[48.35,11.82,447]},"properties":{"stationId":"EDDM","rawText":"EDDM 101450Z 33007KT 300V360 9999 FEW010 SCT035 M00/M02 Q1019 R88/290095 TEMPO 4000 -SN BKN010","observationTime":"2019-01-10T14:50:00Z","temp":0,"dewpoint":-2,"windDirection":330,"windSpeed":12.964,"visibility":6.21,"altim":30.088583,"flightCategory":"VFR","metarType":"METAR","geometry_esri":{"x":48.35,"y":11.82,"z":447}}}