{"type":"Feature","geometry":{"type":"Point","coordinates":[51.48,-0.45,24]},"properties":{"stationId":"EGLL","rawText":"EGLL 212150Z AUTO 09009KT 3300 -RADZ SCT011 BKN026 BKN037 06/05 Q0998 REDZ TEMPO RADZ BKN008","observationTime":"2019-11-21T21:50:00Z","temp":6,"dewpoint":5,"windDirection":90,"windSpeed":16.668,"visibility":2.05,"altim":29.468504,"flightCategory":"IFR","metarType":"METAR","geometry_esri":{"x":51.48,"y":-0.45,"z":24}}}