{"type":"Feature","geometry":{"type":"Point","coordinates":[49.02,2.52,109]},"properties":{"stationId":"LFPG","rawText":"LFPG 231630Z 36010KT 6000 -SN BKN006 01/M01 Q1001 R26/59//50 TEMPO 3000 -SN BKN004","observationTime":"2019-01-23T16:30:00Z","temp":1,"dewpoint":-1,"windDirection":360,"windSpeed":18.52,"visibility":3.73,"altim":29.557087,"flightCategory":"IFR","metarType":"METAR","geometry_esri":{"x":49.02,"y":2.52,"z":109}}}