{"type":"Feature","geometry":{"type":"Point","coordinates":[49.02,2.52,109]},"properties":{"stationId":"LFPG","rawText":"LFPG 261230Z 02003KT 310V090 9999 FEW046 SCT100 30/17 Q1010 NOSIG","observationTime":"2019-07-26T12:30:00Z","temp":30,"dewpoint":17,"windDirection":20,"windSpeed":5.556,"visibility":6.21,"altim":29.822834,"flightCategory":"VFR","metarType":"METAR","geometry_esri":{"x":49.02,"y":2.52,"z":109}}}