{"type":"Feature","geometry":{"type":"Point","coordinates":[47.78,13.02,430]},"properties":{"stationId":"LOWS","rawText":"LOWS 230150Z AUTO 34003KT 290V020 9999 SCT024 BKN026 16/14 Q1026","observationTime":"2019-08-23T01:50:00Z","temp":16,"dewpoint":14,"windDirection":340,"windSpeed":5.556,"visibility":6.21,"altim":30.295275,"flightCategory":"MVFR","metarType":"METAR","geometry_esri":{"x":47.78,"y":13.02,"z":430}}}