{"type":"Feature","geometry":{"type":"Point","coordinates":[53.42,-6.25,85]},"properties":{"stationId":"EIDW","rawText":"EIDW 022030Z 24004KT 9999 FEW018 02/M01 Q1018 NOSIG","observationTime":"2019-02-02T20:30:00Z","temp":2,"dewpoint":-1,"windDirection":240,"windSpeed":7.408,"visibility":6.21,"altim":30.059055,"flightCategory":"VFR","metarType":"METAR","geometry_esri":{"x":53.42,"y":-6.25,"z":85}}}