{"type":"Feature","geometry":{"type":"Point","coordinates":[40.48,-3.57,582]},"properties":{"stationId":"LEMD","rawText":"LEMD 300330Z 27010KT CAVOK 07/M00 Q1012 NOSIG","observationTime":"2019-01-30T03:30:00Z","temp":7,"dewpoint":0,"windDirection":270,"windSpeed":18.52,"visibility":6.21,"altim":29.88189,"flightCategory":"VFR","metarType":"METAR","geometry_esri":{"x":40.48,"y":-3.57,"z":582}}}