{"type":"Feature","geometry":{"type":"Point","coordinates":[47.78,13.02,430]},"properties":{"stationId":"LOWS","rawText":"LOWS 230150Z AUTO 00000KT 9999 FEW010 BKN044 16/15 Q1017","observationTime":"2019-06-23T01:50:00Z","temp":16,"dewpoint":15,"windDirection":0,"windSpeed":0,"visibility":6.21,"altim":30.029528,"flightCategory":"VFR","metarType":"METAR","geometry_esri":{"x":47.78,"y":13.02,"z":430}}}