{"type":"Feature","geometry":{"type":"Point","coordinates":[49.02,2.52,109]},"properties":{"stationId":"LFPG","rawText":"LFPG 051830Z 24010KT CAVOK 25/14 Q1012 NOSIG","observationTime":"2019-08-05T18:30:00Z","temp":25,"dewpoint":14,"windDirection":240,"windSpeed":18.52,"visibility":6.21,"altim":29.88189,"flightCategory":"VFR","metarType":"METAR","geometry_esri":{"x":49.02,"y":2.52,"z":109}}}