{"type":"Feature","geometry":{"type":"Point","coordinates":[48.35,11.82,447]},"properties":{"stationId":"EDDM","rawText":"EDDM 121450Z 28010KT 9999 FEW025 03/M03 Q1033 R88/190095 NOSIG","observationTime":"2019-02-12T14:50:00Z","temp":3,"dewpoint":-3,"windDirection":280,"windSpeed":18.52,"visibility":6.21,"altim":30.501968,"flightCategory":"VFR","metarType":"METAR","geometry_esri":{"x":48.35,"y":11.82,"z":447}}}