{"type":"Feature","geometry":{"type":"Point","coordinates":[49.02,2.52,109]},"properties":{"stationId":"LFPG","rawText":"LFPG 290430Z 26003KT 9999 FEW008 BKN260 09/07 Q1020 NOSIG","observationTime":"2019-05-29T04:30:00Z","temp":9,"dewpoint":7,"windDirection":260,"windSpeed":5.556,"visibility":6.21,"altim":30.11811,"flightCategory":"VFR","metarType":"METAR","geometry_esri":{"x":49.02,"y":2.52,"z":109}}}