{"type":"Feature","geometry":{"type":"Point","coordinates":[49.02,2.52,109]},"properties":{"stationId":"LFPG","rawText":"LFPG 170630Z 04003KT 350V090 CAVOK 19/10 Q1016 NOSIG","observationTime":"2019-07-17T06:30:00Z","temp":19,"dewpoint":10,"windDirection":40,"windSpeed":5.556,"visibility":6.21,"altim":30,"flightCategory":"VFR","metarType":"METAR","geometry_esri":{"x":49.02,"y":2.52,"z":109}}}