{"type":"Feature","geometry":{"type":"Point","coordinates":[48.35,11.82,447]},"properties":{"stationId":"EDDM","rawText":"EDDM 110950Z 21008KT CAVOK 15/07 Q1022 NOSIG","observationTime":"2019-10-11T09:50:00Z","temp":15,"dewpoint":7,"windDirection":210,"windSpeed":14.816,"visibility":6.21,"altim":30.177166,"flightCategory":"VFR","metarType":"METAR","geometry_esri":{"x":48.35,"y":11.82,"z":447}}}