{"type":"Feature","geometry":{"type":"Point","coordinates":[47.78,13.02,430]},"properties":{"stationId":"LOWS","rawText":"LOWS 140850Z 24010KT 210V290 9999 -SHRA FEW012 BKN027 04/01 Q1014 NOSIG","observationTime":"2019-03-14T08:50:00Z","temp":4,"dewpoint":1,"windDirection":240,"windSpeed":18.52,"visibility":6.21,"altim":29.940945,"flightCategory":"MVFR","metarType":"METAR","geometry_esri":{"x":47.78,"y":13.02,"z":430}}}