{"type":"Feature","geometry":{"type":"Point","coordinates":[48.35,11.82,447]},"properties":{"stationId":"EDDM","rawText":"EDDM 221050Z 08012KT 050V110 9999 BKN024 21/16 Q1017 NOSIG","observationTime":"2019-06-22T10:50:00Z","temp":21,"dewpoint":16,"windDirection":80,"windSpeed":22.224,"visibility":6.21,"altim":30.029528,"flightCategory":"MVFR","metarType":"METAR","geometry_esri":{"x":48.35,"y":11.82,"z":447}}}