{"type":"Feature","geometry":{"type":"Point","coordinates":[47.78,13.02,430]},"properties":{"stationId":"LOWS","rawText":"LOWS 210650Z 31003KT 280V340 8000 -RA FEW004 BKN010 BKN025 FEW030TCU 13/13 Q1030 TEMPO 4000 RA","observationTime":"2019-08-21T06:50:00Z","temp":13,"dewpoint":13,"windDirection":310,"windSpeed":5.556,"visibility":4.97,"altim":30.413385,"flightCategory":"MVFR","metarType":"METAR","geometry_esri":{"x":47.78,"y":13.02,"z":430}}}