{"type":"Feature","geometry":{"type":"Point","coordinates":[51.48,-0.45,24]},"properties":{"stationId":"EGLL","rawText":"EGLL 240250Z AUTO VRB01KT 7000 NCD 06/04 Q1034 TEMPO 4000 BR","observationTime":"2019-02-24T02:50:00Z","temp":6,"dewpoint":4,"windDirection":0,"windSpeed":1.852,"visibility":4.35,"altim":30.531496,"flightCategory":"MVFR","metarType":"SPECI","geometry_esri":{"x":51.48,"y":-0.45,"z":24}}}