{"type":"Feature","geometry":{"type":"Point","coordinates":[51.48,-0.45,24]},"properties":{"stationId":"EGLL","rawText":"EGLL 120750Z AUTO 07004KT 9999 FEW030 BKN041 15/10 Q1014 NOSIG","observationTime":"2019-08-12T07:50:00Z","temp":15,"dewpoint":10,"windDirection":70,"windSpeed":7.408,"visibility":6.21,"altim":29.940945,"flightCategory":"VFR","metarType":"METAR","geometry_esri":{"x":51.48,"y":-0.45,"z":24}}}