{"type":"Feature","geometry":{"type":"Point","coordinates":[51.48,-0.45,24]},"properties":{"stationId":"EGLL","rawText":"EGLL 031550Z AUTO 20016KT 5000 -RADZ BKN011 OVC030 11/09 Q0994 TEMPO 4000 RA","observationTime":"2019-03-03T15:50:00Z","temp":11,"dewpoint":9,"windDirection":200,"windSpeed":29.632,"visibility":3.11,"altim":29.350393,"flightCategory":"MVFR","metarType":"METAR","geometry_esri":{"x":51.48,"y":-0.45,"z":24}}}