{"type":"Feature","geometry":{"type":"Point","coordinates":[49.02,2.52,109]},"properties":{"stationId":"LFPG","rawText":"LFPG 212230Z 17007KT 6000 NSC M02/M03 Q1018 NOSIG","observationTime":"2019-01-21T22:30:00Z","temp":-2,"dewpoint":-3,"windDirection":170,"windSpeed":12.964,"visibility":3.73,"altim":30.059055,"flightCategory":"MVFR","metarType":"METAR","geometry_esri":{"x":49.02,"y":2.52,"z":109}}}