{"type":"Feature","geometry":{"type":"Point","coordinates":[40.48,-3.57,582]},"properties":{"stationId":"LEMD","rawText":"LEMD 220630Z 10003KT 070V130 CAVOK M01/M03 Q1018 NOSIG","observationTime":"2019-01-22T06:30:00Z","temp":-1,"dewpoint":-3,"windDirection":100,"windSpeed":5.556,"visibility":6.21,"altim":30.059055,"flightCategory":"VFR","metarType":"METAR","geometry_esri":{"x":40.48,"y":-3.57,"z":582}}}