{"type":"Feature","geometry":{"type":"Point","coordinates":[49.02,2.52,109]},"properties":{"stationId":"LFPG","rawText":"LFPG 130230Z 14004KT 0400 R27L/0225N R09R/0300N R26R/0250N R08L/0325N R26L/0400N R08R/0225N R27R/0250N R09L/0400D FZFG VV/// M00/M01 Q1036 TEMPO 0300 FZFG VV///","observationTime":"2019-02-13T02:30:00Z","temp":0,"dewpoint":-1,"windDirection":140,"windSpeed":7.408,"visibility":0.25,"altim":30.590551,"flightCategory":"LIFR","metarType":"SPECI","geometry_esri":{"x":49.02,"y":2.52,"z":109}}}