{"type":"Feature","geometry":{"type":"Point","coordinates":[40.48,-3.57,582]},"properties":{"stationId":"LEMD","rawText":"LEMD 271430Z 19004KT 110V270 CAVOK 17/M06 Q1022 NOSIG","observationTime":"2019-03-27T14:30:00Z","temp":17,"dewpoint":-6,"windDirection":190,"windSpeed":7.408,"visibility":6.21,"altim":30.177166,"flightCategory":"VFR","metarType":"METAR","geometry_esri":{"x":40.48,"y":-3.57,"z":582}}}