{"type":"Feature","geometry":{"type":"Point","coordinates":[48.35,11.82,447]},"properties":{"stationId":"EDDM","rawText":"EDDM 130650Z 23005KT 210V270 CAVOK M01/M03 Q1037 NOSIG","observationTime":"2019-02-13T06:50:00Z","temp":-1,"dewpoint":-3,"windDirection":230,"windSpeed":9.26,"visibility":6.21,"altim":30.620079,"flightCategory":"VFR","metarType":"METAR","geometry_esri":{"x":48.35,"y":11.82,"z":447}}}