{"type":"Feature","geometry":{"type":"Point","coordinates":[40.48,-3.57,582]},"properties":{"stationId":"LEMD","rawText":"LEMD 191630Z 19005KT 140V240 CAVOK 10/01 Q1014 NOSIG","observationTime":"2019-11-19T16:30:00Z","temp":10,"dewpoint":1,"windDirection":190,"windSpeed":9.26,"visibility":6.21,"altim":29.940945,"flightCategory":"VFR","metarType":"METAR","geometry_esri":{"x":40.48,"y":-3.57,"z":582}}}