{"type":"Feature","geometry":{"type":"Point","coordinates":[51.48,-0.45,24]},"properties":{"stationId":"EGLL","rawText":"EGLL 070650Z AUTO 23009KT 9999 NCD 17/14 Q1006 NOSIG","observationTime":"2019-08-07T06:50:00Z","temp":17,"dewpoint":14,"windDirection":230,"windSpeed":16.668,"visibility":6.21,"altim":29.704725,"flightCategory":"VFR","metarType":"METAR","geometry_esri":{"x":51.48,"y":-0.45,"z":24}}}