{"type":"Feature","geometry":{"type":"Point","coordinates":[40.48,-3.57,582]},"properties":{"stationId":"LEMD","rawText":"LEMD 272230Z 01004KT 320V080 CAVOK 11/M08 Q1024 NOSIG","observationTime":"2019-03-27T22:30:00Z","temp":11,"dewpoint":-8,"windDirection":10,"windSpeed":7.408,"visibility":6.21,"altim":30.236221,"flightCategory":"VFR","metarType":"METAR","geometry_esri":{"x":40.48,"y":-3.57,"z":582}}}