{"type":"Feature","geometry":{"type":"Point","coordinates":[40.48,-3.57,582]},"properties":{"stationId":"LEMD","rawText":"LEMD 262030Z VRB01KT CAVOK 21/09 Q1020 NOSIG","observationTime":"2019-09-26T20:30:00Z","temp":21,"dewpoint":9,"windDirection":0,"windSpeed":1.852,"visibility":6.21,"altim":30.11811,"flightCategory":"VFR","metarType":"METAR","geometry_esri":{"x":40.48,"y":-3.57,"z":582}}}