{"type":"Feature","geometry":{"type":"Point","coordinates":[51.48,-0.45,24]},"properties":{"stationId":"EGLL","rawText":"EGLL 081150Z AUTO VRB03KT 5000 HZ OVC010 10/08 Q1011 NOSIG","observationTime":"2019-04-08T11:50:00Z","temp":10,"dewpoint":8,"windDirection":0,"windSpeed":5.556,"visibility":3.11,"altim":29.852362,"flightCategory":"MVFR","metarType":"METAR","geometry_esri":{"x":51.48,"y":-0.45,"z":24}}}