{"type":"Feature","geometry":{"type":"Point","coordinates":[40.48,-3.57,582]},"properties":{"stationId":"LEMD","rawText":"LEMD 200830Z 04006KT 320V130 CAVOK 08/M01 Q1028 NOSIG","observationTime":"2019-03-20T08:30:00Z","temp":8,"dewpoint":-1,"windDirection":40,"windSpeed":11.112,"visibility":6.21,"altim":30.35433,"flightCategory":"VFR","metarType":"METAR","geometry_esri":{"x":40.48,"y":-3.57,"z":582}}}