{"type":"Feature","geometry":{"type":"Point","coordinates":[40.48,-3.57,582]},"properties":{"stationId":"LEMD","rawText":"LEMD 131030Z 29003KT 260V330 CAVOK 07/01 Q1031 NOSIG","observationTime":"2019-02-13T10:30:00Z","temp":7,"dewpoint":1,"windDirection":290,"windSpeed":5.556,"visibility":6.21,"altim":30.442913,"flightCategory":"VFR","metarType":"METAR","geometry_esri":{"x":40.48,"y":-3.57,"z":582}}}