{"type":"Feature","geometry":{"type":"Point","coordinates":[40.48,-3.57,582]},"properties":{"stationId":"LEMD","rawText":"LEMD 280830Z 05006KT 340V110 CAVOK 17/04 Q1017 NOSIG","observationTime":"2019-05-28T08:30:00Z","temp":17,"dewpoint":4,"windDirection":50,"windSpeed":11.112,"visibility":6.21,"altim":30.029528,"flightCategory":"VFR","metarType":"METAR","geometry_esri":{"x":40.48,"y":-3.57,"z":582}}}