{"type":"Feature","geometry":{"type":"Point","coordinates":[48.35,11.82,447]},"properties":{"stationId":"EDDM","rawText":"EDDM 180950Z 22008KT 180V260 CAVOK 28/14 Q1013 NOSIG","observationTime":"2019-08-18T09:50:00Z","temp":28,"dewpoint":14,"windDirection":220,"windSpeed":14.816,"visibility":6.21,"altim":29.911417,"flightCategory":"VFR","metarType":"METAR","geometry_esri":{"x":48.35,"y":11.82,"z":447}}}