{"type":"Feature","geometry":{"type":"Point","coordinates":[47.78,13.02,430]},"properties":{"stationId":"LOWS","rawText":"LOWS 050150Z AUTO 28004KT 240V310 9999 -DZ FEW017 BKN024 05/02 Q1004","observationTime":"2019-04-05T01:50:00Z","temp":5,"dewpoint":2,"windDirection":280,"windSpeed":7.408,"visibility":6.21,"altim":29.64567,"flightCategory":"MVFR","metarType":"METAR","geometry_esri":{"x":47.78,"y":13.02,"z":430}}}