{"type":"Feature","geometry":{"type":"Point","coordinates":[49.02,2.52,109]},"properties":{"stationId":"LFPG","rawText":"LFPG 081930Z 11008KT CAVOK 27/15 Q1009 NOSIG","observationTime":"2019-08-08T19:30:00Z","temp":27,"dewpoint":15,"windDirection":110,"windSpeed":14.816,"visibility":6.21,"altim":29.793306,"flightCategory":"VFR","metarType":"METAR","geometry_esri":{"x":49.02,"y":2.52,"z":109}}}