{"type":"Feature","geometry":{"type":"Point","coordinates":[48.35,11.82,447]},"properties":{"stationId":"EDDM","rawText":"EDDM 111250Z 24020KT 9999 VCSH FEW023 BKN040 04/M01 Q1018 TEMPO 28025G35KT 4000 SHSN BKN020CB","observationTime":"2019-03-11T12:50:00Z","temp":4,"dewpoint":-1,"windDirection":240,"windSpeed":37.04,"visibility":6.21,"altim":30.059055,"flightCategory":"VFR","metarType":"METAR","geometry_esri":{"x":48.35,"y":11.82,"z":447}}}