{"type":"Feature","geometry":{"type":"Point","coordinates":[53.42,-6.25,85]},"properties":{"stationId":"EIDW","rawText":"EIDW 231430Z 23009KT 150V260 9999 FEW023 SCT030 BKN200 21/14 Q1020 NOSIG","observationTime":"2019-08-23T14:30:00Z","temp":21,"dewpoint":14,"windDirection":230,"windSpeed":16.668,"visibility":6.21,"altim":30.11811,"flightCategory":"VFR","metarType":"METAR","geometry_esri":{"x":53.42,"y":-6.25,"z":85}}}