{"type":"Feature","geometry":{"type":"Point","coordinates":[48.35,11.82,447]},"properties":{"stationId":"EDDM","rawText":"EDDM 211850Z 25029KT 9999 FEW043 11/06 Q1012 NOSIG","observationTime":"2018-12-21T18:50:00Z","temp":11,"dewpoint":6,"windDirection":250,"windSpeed":53.708000000000006,"visibility":6.21,"altim":29.88189,"flightCategory":"VFR","metarType":"METAR","geometry_esri":{"x":48.35,"y":11.82,"z":447}}}