{"type":"Feature","geometry":{"type":"Point","coordinates":[51.48,-0.45,24]},"properties":{"stationId":"EGLL","rawText":"EGLL 121450Z AUTO 32006KT 280V050 9999 -RA FEW018/// SCT032/// BKN042/// //////CB 15/11 Q1015 RERA","observationTime":"2019-08-12T14:50:00Z","temp":15,"dewpoint":11,"windDirection":320,"windSpeed":11.112,"visibility":6.21,"altim":29.970472,"flightCategory":"VFR","metarType":"METAR","geometry_esri":{"x":51.48,"y":-0.45,"z":24}}}