{"type":"Feature","geometry":{"type":"Point","coordinates":[49.02,2.52,109]},"properties":{"stationId":"LFPG","rawText":"LFPG 310930Z 25008KT 210V290 9999 BKN026 SCT066 18/12 Q1018 NOSIG","observationTime":"2019-07-31T09:30:00Z","temp":18,"dewpoint":12,"windDirection":250,"windSpeed":14.816,"visibility":6.21,"altim":30.059055,"flightCategory":"MVFR","metarType":"METAR","geometry_esri":{"x":49.02,"y":2.52,"z":109}}}