{"type":"Feature","geometry":{"type":"Point","coordinates":[53.42,-6.25,85]},"properties":{"stationId":"EIDW","rawText":"EIDW 232130Z 21011KT 170V250 9999 FEW015 SCT021 BKN026 13/10 Q1001 NOSIG","observationTime":"2019-10-23T21:30:00Z","temp":13,"dewpoint":10,"windDirection":210,"windSpeed":20.372,"visibility":6.21,"altim":29.557087,"flightCategory":"MVFR","metarType":"METAR","geometry_esri":{"x":53.42,"y":-6.25,"z":85}}}