{"type":"Feature","geometry":{"type":"Point","coordinates":[49.02,2.52,109]},"properties":{"stationId":"LFPG","rawText":"LFPG 190830Z 04013KT CAVOK 14/07 Q1029 NOSIG","observationTime":"2019-09-19T08:30:00Z","temp":14,"dewpoint":7,"windDirection":40,"windSpeed":24.076,"visibility":6.21,"altim":30.383858,"flightCategory":"VFR","metarType":"METAR","geometry_esri":{"x":49.02,"y":2.52,"z":109}}}