{"type":"Feature","geometry":{"type":"Point","coordinates":[48.35,11.82,447]},"properties":{"stationId":"EDDM","rawText":"EDDM 261350Z 08005KT 040V110 9999 FEW042 27/17 Q1019 NOSIG","observationTime":"2019-08-26T13:50:00Z","temp":27,"dewpoint":17,"windDirection":80,"windSpeed":9.26,"visibility":6.21,"altim":30.088583,"flightCategory":"VFR","metarType":"METAR","geometry_esri":{"x":48.35,"y":11.82,"z":447}}}