{"type":"Feature","geometry":{"type":"Point","coordinates":[40.48,-3.57,582]},"properties":{"stationId":"LEMD","rawText":"LEMD 120830Z 31002KT CAVOK 09/02 Q1020 NOSIG","observationTime":"2019-04-12T08:30:00Z","temp":9,"dewpoint":2,"windDirection":310,"windSpeed":3.704,"visibility":6.21,"altim":30.11811,"flightCategory":"VFR","metarType":"METAR","geometry_esri":{"x":40.48,"y":-3.57,"z":582}}}