{"type":"Feature","geometry":{"type":"Point","coordinates":[48.35,11.82,447]},"properties":{"stationId":"EDDM","rawText":"EDDM 170050Z 21002KT CAVOK M02/M03 Q1008 NOSIG","observationTime":"2019-01-17T00:50:00Z","temp":-2,"dewpoint":-3,"windDirection":210,"windSpeed":3.704,"visibility":6.21,"altim":29.763779,"flightCategory":"VFR","metarType":"METAR","geometry_esri":{"x":48.35,"y":11.82,"z":447}}}