{"type":"Feature","geometry":{"type":"Point","coordinates":[40.48,-3.57,582]},"properties":{"stationId":"LEMD","rawText":"LEMD 310030Z 36005KT 320V030 CAVOK 09/M00 Q1016 NOSIG","observationTime":"2019-03-31T00:30:00Z","temp":9,"dewpoint":0,"windDirection":360,"windSpeed":9.26,"visibility":6.21,"altim":30,"flightCategory":"VFR","metarType":"METAR","geometry_esri":{"x":40.48,"y":-3.57,"z":582}}}