{"type":"Feature","geometry":{"type":"Point","coordinates":[53.42,-6.25,85]},"properties":{"stationId":"EIDW","rawText":"EIDW 072130Z 12003KT 9999 FEW022 BKN140 12/07 Q1020 NOSIG","observationTime":"2019-07-07T21:30:00Z","temp":12,"dewpoint":7,"windDirection":120,"windSpeed":5.556,"visibility":6.21,"altim":30.11811,"flightCategory":"VFR","metarType":"METAR","geometry_esri":{"x":53.42,"y":-6.25,"z":85}}}