{"type":"Feature","geometry":{"type":"Point","coordinates":[47.78,13.02,430]},"properties":{"stationId":"LOWS","rawText":"LOWS 260750Z 15003KT 100V190 CAVOK 28/17 Q1025 NOSIG","observationTime":"2019-06-26T07:50:00Z","temp":28,"dewpoint":17,"windDirection":150,"windSpeed":5.556,"visibility":6.21,"altim":30.265747,"flightCategory":"VFR","metarType":"METAR","geometry_esri":{"x":47.78,"y":13.02,"z":430}}}