{"type":"Feature","geometry":{"type":"Point","coordinates":[40.48,-3.57,582]},"properties":{"stationId":"LEMD","rawText":"LEMD 051430Z 26013G29KT CAVOK 36/03 Q1014 NOSIG","observationTime":"2019-08-05T14:30:00Z","temp":36,"dewpoint":3,"windDirection":260,"windSpeed":24.076,"visibility":6.21,"altim":29.940945,"flightCategory":"VFR","metarType":"METAR","geometry_esri":{"x":40.48,"y":-3.57,"z":582}}}