{"type":"Feature","geometry":{"type":"Point","coordinates":[48.35,11.82,447]},"properties":{"stationId":"EDDM","rawText":"EDDM 211150Z 19003KT 090V230 5000 BR OVC008 04/02 Q1009 TEMPO BKN010","observationTime":"2019-11-21T11:50:00Z","temp":4,"dewpoint":2,"windDirection":190,"windSpeed":5.556,"visibility":3.11,"altim":29.793306,"flightCategory":"IFR","metarType":"METAR","geometry_esri":{"x":48.35,"y":11.82,"z":447}}}