{"type":"Feature","geometry":{"type":"Point","coordinates":[49.02,2.52,109]},"properties":{"stationId":"LFPG","rawText":"LFPG 050230Z 19010KT 9000 -RA FEW025 BKN095 14/12 Q1008 TEMPO 25010G20KT 4000 RA FEW080TCU","observationTime":"2019-06-05T02:30:00Z","temp":14,"dewpoint":12,"windDirection":190,"windSpeed":18.52,"visibility":5.59,"altim":29.763779,"flightCategory":"VFR","metarType":"METAR","geometry_esri":{"x":49.02,"y":2.52,"z":109}}}