{"type":"Feature","geometry":{"type":"Point","coordinates":[53.42,-6.25,85]},"properties":{"stationId":"EIDW","rawText":"EIDW 011830Z 10005KT 9999 FEW028 BKN250 19/13 Q1020 NOSIG","observationTime":"2019-08-01T18:30:00Z","temp":19,"dewpoint":13,"windDirection":100,"windSpeed":9.26,"visibility":6.21,"altim":30.11811,"flightCategory":"VFR","metarType":"METAR","geometry_esri":{"x":53.42,"y":-6.25,"z":85}}}