{"type":"Feature","geometry":{"type":"Point","coordinates":[49.02,2.52,109]},"properties":{"stationId":"LFPG","rawText":"LFPG 221030Z VRB05KT CAVOK 27/12 Q1024 NOSIG","observationTime":"2019-07-22T10:30:00Z","temp":27,"dewpoint":12,"windDirection":0,"windSpeed":9.26,"visibility":6.21,"altim":30.236221,"flightCategory":"VFR","metarType":"METAR","geometry_esri":{"x":49.02,"y":2.52,"z":109}}}