{"type":"Feature","geometry":{"type":"Point","coordinates":[51.48,-0.45,24]},"properties":{"stationId":"EGLL","rawText":"EGLL 020550Z AUTO 32004KT 290V350 9999 NCD 12/09 Q1025","observationTime":"2019-07-02T05:50:00Z","temp":12,"dewpoint":9,"windDirection":320,"windSpeed":7.408,"visibility":6.21,"altim":30.265747,"flightCategory":"VFR","metarType":"METAR","geometry_esri":{"x":51.48,"y":-0.45,"z":24}}}