{"type":"Feature","geometry":{"type":"Point","coordinates":[51.48,-0.45,24]},"properties":{"stationId":"EGLL","rawText":"EGLL 160850Z AUTO VRB03KT 4600 HZ NCD 11/07 Q1015 BECMG 5000","observationTime":"2019-04-16T08:50:00Z","temp":11,"dewpoint":7,"windDirection":0,"windSpeed":5.556,"visibility":2.86,"altim":29.970472,"flightCategory":"IFR","metarType":"METAR","geometry_esri":{"x":51.48,"y":-0.45,"z":24}}}