{"type":"Feature","geometry":{"type":"Point","coordinates":[51.48,-0.45,24]},"properties":{"stationId":"EGLL","rawText":"EGLL 281250Z AUTO 32009KT 290V010 9999 NCD 05/M02 Q1007 NOSIG","observationTime":"2019-01-28T12:50:00Z","temp":5,"dewpoint":-2,"windDirection":320,"windSpeed":16.668,"visibility":6.21,"altim":29.734253,"flightCategory":"VFR","metarType":"METAR","geometry_esri":{"x":51.48,"y":-0.45,"z":24}}}