{"type":"Feature","geometry":{"type":"Point","coordinates":[51.48,-0.45,24]},"properties":{"stationId":"EGLL","rawText":"EGLL 092150Z AUTO 27004KT 210V320 4500 RA FEW012/// SCT020/// BKN026/// //////CB 10/09 Q1005 TEMPO 6000 NSW BKN012","observationTime":"2019-05-09T21:50:00Z","temp":10,"dewpoint":9,"windDirection":270,"windSpeed":7.408,"visibility":2.8,"altim":29.675198,"flightCategory":"IFR","metarType":"METAR","geometry_esri":{"x":51.48,"y":-0.45,"z":24}}}