{"type":"Feature","geometry":{"type":"Point","coordinates":[48.35,11.82,447]},"properties":{"stationId":"EDDM","rawText":"EDDM 032050Z 26006KT CAVOK 17/14 Q1018 NOSIG","observationTime":"2019-08-03T20:50:00Z","temp":17,"dewpoint":14,"windDirection":260,"windSpeed":11.112,"visibility":6.21,"altim":30.059055,"flightCategory":"VFR","metarType":"METAR","geometry_esri":{"x":48.35,"y":11.82,"z":447}}}