{"type":"Feature","geometry":{"type":"Point","coordinates":[49.02,2.52,109]},"properties":{"stationId":"LFPG","rawText":"LFPG 030230Z 36008KT CAVOK 14/08 Q1022 NOSIG","observationTime":"2019-07-03T02:30:00Z","temp":14,"dewpoint":8,"windDirection":360,"windSpeed":14.816,"visibility":6.21,"altim":30.177166,"flightCategory":"VFR","metarType":"METAR","geometry_esri":{"x":49.02,"y":2.52,"z":109}}}