{"type":"Feature","geometry":{"type":"Point","coordinates":[49.02,2.52,109]},"properties":{"stationId":"LFPG","rawText":"LFPG 231330Z 07005KT 040V120 CAVOK 19/08 Q0995 NOSIG","observationTime":"2019-04-23T13:30:00Z","temp":19,"dewpoint":8,"windDirection":70,"windSpeed":9.26,"visibility":6.21,"altim":29.379921,"flightCategory":"VFR","metarType":"METAR","geometry_esri":{"x":49.02,"y":2.52,"z":109}}}