{"type":"Feature","geometry":{"type":"Point","coordinates":[40.48,-3.57,582]},"properties":{"stationId":"LEMD","rawText":"LEMD 221130Z 34003KT CAVOK 14/M02 Q1027 NOSIG","observationTime":"2019-03-22T11:30:00Z","temp":14,"dewpoint":-2,"windDirection":340,"windSpeed":5.556,"visibility":6.21,"altim":30.324802,"flightCategory":"VFR","metarType":"METAR","geometry_esri":{"x":40.48,"y":-3.57,"z":582}}}