{"type":"Feature","geometry":{"type":"Point","coordinates":[47.78,13.02,430]},"properties":{"stationId":"LOWS","rawText":"LOWS 010450Z 13003KT 090V170 9999 0800S VCFG FEW090 14/14 Q1019 TEMPO 1200 BCFG SCT001 BECMG NSW","observationTime":"2019-08-01T04:50:00Z","temp":14,"dewpoint":14,"windDirection":130,"windSpeed":5.556,"visibility":6.21,"altim":30.088583,"flightCategory":"VFR","metarType":"METAR","geometry_esri":{"x":47.78,"y":13.02,"z":430}}}