{"type":"Feature","geometry":{"type":"Point","coordinates":[53.42,-6.25,85]},"properties":{"stationId":"EIDW","rawText":"EIDW 290430Z 24012G25KT 200V270 9999 -DZ FEW007 BKN010 11/10 Q1026 NOSIG","observationTime":"2018-12-29T04:30:00Z","temp":11,"dewpoint":10,"windDirection":240,"windSpeed":22.224,"visibility":6.21,"altim":30.295275,"flightCategory":"MVFR","metarType":"METAR","geometry_esri":{"x":53.42,"y":-6.25,"z":85}}}