{"type":"Feature","geometry":{"type":"Point","coordinates":[49.02,2.52,109]},"properties":{"stationId":"LFPG","rawText":"LFPG 262230Z 21017KT 8000 -RA BKN010 08/06 Q0998 BECMG 21020G35KT 2500 RA","observationTime":"2019-01-26T22:30:00Z","temp":8,"dewpoint":6,"windDirection":210,"windSpeed":31.484,"visibility":4.97,"altim":29.468504,"flightCategory":"MVFR","metarType":"METAR","geometry_esri":{"x":49.02,"y":2.52,"z":109}}}