{"type":"Feature","geometry":{"type":"Point","coordinates":[48.35,11.82,447]},"properties":{"stationId":"EDDM","rawText":"EDDM 181350Z VRB03KT CAVOK 20/10 Q1012 NOSIG","observationTime":"2019-10-18T13:50:00Z","temp":20,"dewpoint":10,"windDirection":0,"windSpeed":5.556,"visibility":6.21,"altim":29.88189,"flightCategory":"VFR","metarType":"METAR","geometry_esri":{"x":48.35,"y":11.82,"z":447}}}