{"type":"Feature","geometry":{"type":"Point","coordinates":[48.35,11.82,447]},"properties":{"stationId":"EDDM","rawText":"EDDM 122150Z VRB02KT CAVOK 04/M03 Q1010 NOSIG","observationTime":"2019-03-12T21:50:00Z","temp":4,"dewpoint":-3,"windDirection":0,"windSpeed":3.704,"visibility":6.21,"altim":29.822834,"flightCategory":"VFR","metarType":"METAR","geometry_esri":{"x":48.35,"y":11.82,"z":447}}}