{"type":"Feature","geometry":{"type":"Point","coordinates":[47.78,13.02,430]},"properties":{"stationId":"LOWS","rawText":"LOWS 151450Z 36003KT 310V030 CAVOK 12/M01 Q1033 NOSIG","observationTime":"2019-02-15T14:50:00Z","temp":12,"dewpoint":-1,"windDirection":360,"windSpeed":5.556,"visibility":6.21,"altim":30.501968,"flightCategory":"VFR","metarType":"METAR","geometry_esri":{"x":47.78,"y":13.02,"z":430}}}