{"type":"Feature","geometry":{"type":"Point","coordinates":[48.35,11.82,447]},"properties":{"stationId":"EDDM","rawText":"EDDM 192050Z 06004KT 360V130 CAVOK 08/08 Q1010 NOSIG","observationTime":"2019-10-19T20:50:00Z","temp":8,"dewpoint":8,"windDirection":60,"windSpeed":7.408,"visibility":6.21,"altim":29.822834,"flightCategory":"VFR","metarType":"METAR","geometry_esri":{"x":48.35,"y":11.82,"z":447}}}