{"type":"Feature","geometry":{"type":"Point","coordinates":[48.35,11.82,447]},"properties":{"stationId":"EDDM","rawText":"EDDM 181250Z 26003KT 200V340 9999 FEW047 27/12 Q1015 NOSIG","observationTime":"2019-06-18T12:50:00Z","temp":27,"dewpoint":12,"windDirection":260,"windSpeed":5.556,"visibility":6.21,"altim":29.970472,"flightCategory":"VFR","metarType":"METAR","geometry_esri":{"x":48.35,"y":11.82,"z":447}}}