{"type":"Feature","geometry":{"type":"Point","coordinates":[48.35,11.82,447]},"properties":{"stationId":"EDDM","rawText":"EDDM 280550Z 27006KT 6000 -RA SCT006TCU BKN009 13/12 Q1005 RERA NOSIG","observationTime":"2019-05-28T05:50:00Z","temp":13,"dewpoint":12,"windDirection":270,"windSpeed":11.112,"visibility":3.73,"altim":29.675198,"flightCategory":"IFR","metarType":"METAR","geometry_esri":{"x":48.35,"y":11.82,"z":447}}}