{"type":"Feature","geometry":{"type":"Point","coordinates":[48.35,11.82,447]},"properties":{"stationId":"EDDM","rawText":"EDDM 251250Z 14017KT CAVOK 25/01 Q1009 TEMPO 16015G25KT","observationTime":"2019-04-25T12:50:00Z","temp":25,"dewpoint":1,"windDirection":140,"windSpeed":31.484,"visibility":6.21,"altim":29.793306,"flightCategory":"VFR","metarType":"METAR","geometry_esri":{"x":48.35,"y":11.82,"z":447}}}