{"type":"Feature","geometry":{"type":"Point","coordinates":[51.48,-0.45,24]},"properties":{"stationId":"EGLL","rawText":"EGLL 121550Z AUTO 23014KT 9999 BKN030 23/15 Q1027 NOSIG","observationTime":"2019-09-12T15:50:00Z","temp":23,"dewpoint":15,"windDirection":230,"windSpeed":25.928,"visibility":6.21,"altim":30.324802,"flightCategory":"MVFR","metarType":"METAR","geometry_esri":{"x":51.48,"y":-0.45,"z":24}}}