{"type":"Feature","geometry":{"type":"Point","coordinates":[51.48,-0.45,24]},"properties":{"stationId":"EGLL","rawText":"EGLL 291650Z AUTO 19013KT 150V230 9999 BKN007 OVC016 12/12 Q1018","observationTime":"2019-05-29T16:50:00Z","temp":12,"dewpoint":12,"windDirection":190,"windSpeed":24.076,"visibility":6.21,"altim":30.059055,"flightCategory":"IFR","metarType":"METAR","geometry_esri":{"x":51.48,"y":-0.45,"z":24}}}