{"type":"Feature","geometry":{"type":"Point","coordinates":[48.35,11.82,447]},"properties":{"stationId":"EDDM","rawText":"EDDM 061050Z 31008KT 270V330 9999 FEW032 21/12 Q1012 NOSIG","observationTime":"2019-06-06T10:50:00Z","temp":21,"dewpoint":12,"windDirection":310,"windSpeed":14.816,"visibility":6.21,"altim":29.88189,"flightCategory":"VFR","metarType":"METAR","geometry_esri":{"x":48.35,"y":11.82,"z":447}}}