{"type":"Feature","geometry":{"type":"Point","coordinates":[51.48,-0.45,24]},"properties":{"stationId":"EGLL","rawText":"EGLL 171950Z AUTO 17007KT 140V230 9999 NCD 11/10 Q1003 NOSIG","observationTime":"2019-10-17T19:50:00Z","temp":11,"dewpoint":10,"windDirection":170,"windSpeed":12.964,"visibility":6.21,"altim":29.616142,"flightCategory":"VFR","metarType":"METAR","geometry_esri":{"x":51.48,"y":-0.45,"z":24}}}