{"type":"Feature","geometry":{"type":"Point","coordinates":[40.48,-3.57,582]},"properties":{"stationId":"LEMD","rawText":"LEMD 221630Z 22006KT 160V330 CAVOK 28/03 Q1016 NOSIG","observationTime":"2019-05-22T16:30:00Z","temp":28,"dewpoint":3,"windDirection":220,"windSpeed":11.112,"visibility":6.21,"altim":30,"flightCategory":"VFR","metarType":"METAR","geometry_esri":{"x":40.48,"y":-3.57,"z":582}}}