{"type":"Feature","geometry":{"type":"Point","coordinates":[47.78,13.02,430]},"properties":{"stationId":"LOWS","rawText":"LOWS 231450Z 33006KT CAVOK 18/13 Q1015 NOSIG","observationTime":"2019-10-23T14:50:00Z","temp":18,"dewpoint":13,"windDirection":330,"windSpeed":11.112,"visibility":6.21,"altim":29.970472,"flightCategory":"VFR","metarType":"METAR","geometry_esri":{"x":47.78,"y":13.02,"z":430}}}