{"type":"Feature","geometry":{"type":"Point","coordinates":[48.35,11.82,447]},"properties":{"stationId":"EDDM","rawText":"EDDM 181350Z 09006KT 060V120 CAVOK 20/07 Q1004 NOSIG","observationTime":"2019-05-18T13:50:00Z","temp":20,"dewpoint":7,"windDirection":90,"windSpeed":11.112,"visibility":6.21,"altim":29.64567,"flightCategory":"VFR","metarType":"METAR","geometry_esri":{"x":48.35,"y":11.82,"z":447}}}