{"type":"Feature","geometry":{"type":"Point","coordinates":[49.02,2.52,109]},"properties":{"stationId":"LFPG","rawText":"LFPG 120430Z 23008KT 9999 BKN017 BKN040 18/14 Q1028 NOSIG","observationTime":"2019-09-12T04:30:00Z","temp":18,"dewpoint":14,"windDirection":230,"windSpeed":14.816,"visibility":6.21,"altim":30.35433,"flightCategory":"MVFR","metarType":"METAR","geometry_esri":{"x":49.02,"y":2.52,"z":109}}}