{"type":"Feature","geometry":{"type":"Point","coordinates":[51.48,-0.45,24]},"properties":{"stationId":"EGLL","rawText":"EGLL 062250Z AUTO VRB03KT 3800 RA BKN005/// OVC011/// //////TCU 08/08 Q1006 RERA REDZ TEMPO BKN004","observationTime":"2019-02-06T22:50:00Z","temp":8,"dewpoint":8,"windDirection":0,"windSpeed":5.556,"visibility":2.36,"altim":29.704725,"flightCategory":"IFR","metarType":"METAR","geometry_esri":{"x":51.48,"y":-0.45,"z":24}}}