{"type":"Feature","geometry":{"type":"Point","coordinates":[40.48,-3.57,582]},"properties":{"stationId":"LEMD","rawText":"LEMD 020030Z 26017G29KT 9999 SCT050 06/M02 Q0998 WS R32R NOSIG","observationTime":"2019-02-02T00:30:00Z","temp":6,"dewpoint":-2,"windDirection":260,"windSpeed":31.484,"visibility":6.21,"altim":29.468504,"flightCategory":"VFR","metarType":"SPECI","geometry_esri":{"x":40.48,"y":-3.57,"z":582}}}