{"type":"Feature","geometry":{"type":"Point","coordinates":[40.48,-3.57,582]},"properties":{"stationId":"LEMD","rawText":"LEMD 100730Z 01014G24KT 340V060 9999 FEW067 15/03 Q1016 NOSIG","observationTime":"2019-09-10T07:30:00Z","temp":15,"dewpoint":3,"windDirection":10,"windSpeed":25.928,"visibility":6.21,"altim":30,"flightCategory":"VFR","metarType":"METAR","geometry_esri":{"x":40.48,"y":-3.57,"z":582}}}