{"type":"Feature","geometry":{"type":"Point","coordinates":[49.02,2.52,109]},"properties":{"stationId":"LFPG","rawText":"LFPG 111330Z 01012KT 340V040 9999 FEW036 12/01 Q1021 NOSIG","observationTime":"2019-04-11T13:30:00Z","temp":12,"dewpoint":1,"windDirection":10,"windSpeed":22.224,"visibility":6.21,"altim":30.147638,"flightCategory":"VFR","metarType":"METAR","geometry_esri":{"x":49.02,"y":2.52,"z":109}}}