{"type":"Feature","geometry":{"type":"Point","coordinates":[49.02,2.52,109]},"properties":{"stationId":"LFPG","rawText":"LFPG 101030Z 35006KT CAVOK 02/M00 Q1028 NOSIG","observationTime":"2019-01-10T10:30:00Z","temp":2,"dewpoint":0,"windDirection":350,"windSpeed":11.112,"visibility":6.21,"altim":30.35433,"flightCategory":"VFR","metarType":"METAR","geometry_esri":{"x":49.02,"y":2.52,"z":109}}}