{"type":"Feature","geometry":{"type":"Point","coordinates":[51.48,-0.45,24]},"properties":{"stationId":"EGLL","rawText":"EGLL 300850Z AUTO 15014KT 9999 -RA SCT027/// BKN035/// BKN041/// //////TCU 18/15 Q1005 TEMPO 4000 SHRA","observationTime":"2019-07-30T08:50:00Z","temp":18,"dewpoint":15,"windDirection":150,"windSpeed":25.928,"visibility":6.21,"altim":29.675198,"flightCategory":"VFR","metarType":"METAR","geometry_esri":{"x":51.48,"y":-0.45,"z":24}}}