{"type":"Feature","geometry":{"type":"Point","coordinates":[51.48,-0.45,24]},"properties":{"stationId":"EGLL","rawText":"EGLL 010050Z AUTO 24005KT 9999 NCD 13/11 Q1022 NOSIG","observationTime":"2019-06-01T00:50:00Z","temp":13,"dewpoint":11,"windDirection":240,"windSpeed":9.26,"visibility":6.21,"altim":30.177166,"flightCategory":"VFR","metarType":"METAR","geometry_esri":{"x":51.48,"y":-0.45,"z":24}}}