{"type":"Feature","geometry":{"type":"Point","coordinates":[49.02,2.52,109]},"properties":{"stationId":"LFPG","rawText":"LFPG 160530Z 33004KT CAVOK 13/09 Q1021 NOSIG","observationTime":"2019-09-16T05:30:00Z","temp":13,"dewpoint":9,"windDirection":330,"windSpeed":7.408,"visibility":6.21,"altim":30.147638,"flightCategory":"VFR","metarType":"METAR","geometry_esri":{"x":49.02,"y":2.52,"z":109}}}