{"type":"Feature","geometry":{"type":"Point","coordinates":[40.48,-3.57,582]},"properties":{"stationId":"LEMD","rawText":"LEMD 232130Z 29009KT CAVOK 24/04 Q1014 NOSIG","observationTime":"2019-05-23T21:30:00Z","temp":24,"dewpoint":4,"windDirection":290,"windSpeed":16.668,"visibility":6.21,"altim":29.940945,"flightCategory":"VFR","metarType":"METAR","geometry_esri":{"x":40.48,"y":-3.57,"z":582}}}