{"type":"Feature","geometry":{"type":"Point","coordinates":[51.48,-0.45,24]},"properties":{"stationId":"EGLL","rawText":"EGLL 061950Z AUTO 17007KT 140V220 9999 -RA SCT041 09/07 Q1011 TEMPO RA","observationTime":"2019-02-06T19:50:00Z","temp":9,"dewpoint":7,"windDirection":170,"windSpeed":12.964,"visibility":6.21,"altim":29.852362,"flightCategory":"VFR","metarType":"METAR","geometry_esri":{"x":51.48,"y":-0.45,"z":24}}}