{"type":"Feature","geometry":{"type":"Point","coordinates":[40.48,-3.57,582]},"properties":{"stationId":"LEMD","rawText":"LEMD 191230Z 21012KT 9999 BKN035 BKN050 17/08 Q1010 NOSIG","observationTime":"2019-10-19T12:30:00Z","temp":17,"dewpoint":8,"windDirection":210,"windSpeed":22.224,"visibility":6.21,"altim":29.822834,"flightCategory":"VFR","metarType":"METAR","geometry_esri":{"x":40.48,"y":-3.57,"z":582}}}