{"type":"Feature","geometry":{"type":"Point","coordinates":[51.48,-0.45,24]},"properties":{"stationId":"EGLL","rawText":"EGLL 121150Z 20018G29KT 4500 -RADZ SCT009 BKN012 OVC018 09/08 Q1000 RERA REDZ TEMPO 3500 +RA","observationTime":"2019-03-12T11:50:00Z","temp":9,"dewpoint":8,"windDirection":200,"windSpeed":33.336,"visibility":2.8,"altim":29.52756,"flightCategory":"IFR","metarType":"METAR","geometry_esri":{"x":51.48,"y":-0.45,"z":24}}}