{"type":"Feature","geometry":{"type":"Point","coordinates":[48.35,11.82,447]},"properties":{"stationId":"EDDM","rawText":"EDDM 281750Z VRB02KT CAVOK 27/09 Q1021 NOSIG","observationTime":"2019-06-28T17:50:00Z","temp":27,"dewpoint":9,"windDirection":0,"windSpeed":3.704,"visibility":6.21,"altim":30.147638,"flightCategory":"VFR","metarType":"METAR","geometry_esri":{"x":48.35,"y":11.82,"z":447}}}