{"type":"Feature","geometry":{"type":"Point","coordinates":[48.35,11.82,447]},"properties":{"stationId":"EDDM","rawText":"EDDM 051150Z VRB02KT 9999 FEW017 BKN020 07/02 Q1004 BECMG 09005KT","observationTime":"2019-04-05T11:50:00Z","temp":7,"dewpoint":2,"windDirection":0,"windSpeed":3.704,"visibility":6.21,"altim":29.64567,"flightCategory":"MVFR","metarType":"SPECI","geometry_esri":{"x":48.35,"y":11.82,"z":447}}}