{"type":"Feature","geometry":{"type":"Point","coordinates":[40.48,-3.57,582]},"properties":{"stationId":"LEMD","rawText":"LEMD 061130Z 21015G28KT 110V240 CAVOK 21/M02 Q1012 NOSIG","observationTime":"2019-06-06T11:30:00Z","temp":21,"dewpoint":-2,"windDirection":210,"windSpeed":27.78,"visibility":6.21,"altim":29.88189,"flightCategory":"VFR","metarType":"METAR","geometry_esri":{"x":40.48,"y":-3.57,"z":582}}}