{"type":"Feature","geometry":{"type":"Point","coordinates":[51.48,-0.45,24]},"properties":{"stationId":"EGLL","rawText":"EGLL 062150Z AUTO 03004KT 340V060 9999 -RA SCT029 OVC034 19/14 Q1015 TEMPO 4000 -RADZ","observationTime":"2019-07-06T21:50:00Z","temp":19,"dewpoint":14,"windDirection":30,"windSpeed":7.408,"visibility":6.21,"altim":29.970472,"flightCategory":"VFR","metarType":"METAR","geometry_esri":{"x":51.48,"y":-0.45,"z":24}}}