{"type":"Feature","geometry":{"type":"Point","coordinates":[51.48,-0.45,24]},"properties":{"stationId":"EGLL","rawText":"EGLL 310950Z AUTO 23010KT 9999 OVC030 18/11 Q1024 NOSIG","observationTime":"2019-05-31T09:50:00Z","temp":18,"dewpoint":11,"windDirection":230,"windSpeed":18.52,"visibility":6.21,"altim":30.236221,"flightCategory":"MVFR","metarType":"METAR","geometry_esri":{"x":51.48,"y":-0.45,"z":24}}}