{"type":"Feature","geometry":{"type":"Point","coordinates":[40.48,-3.57,582]},"properties":{"stationId":"LEMD","rawText":"LEMD 172030Z 08003KT 360V120 9999 FEW070 08/05 Q1009 R88/29//95 NOSIG","observationTime":"2019-11-17T20:30:00Z","temp":8,"dewpoint":5,"windDirection":80,"windSpeed":5.556,"visibility":6.21,"altim":29.793306,"flightCategory":"VFR","metarType":"METAR","geometry_esri":{"x":40.48,"y":-3.57,"z":582}}}