{"type":"Feature","geometry":{"type":"Point","coordinates":[47.78,13.02,430]},"properties":{"stationId":"LOWS","rawText":"LOWS 271350Z 16009KT 9999 FEW050 SCT070 BKN150 03/M01 Q0993 R15/15//95 NOSIG","observationTime":"2019-01-27T13:50:00Z","temp":3,"dewpoint":-1,"windDirection":160,"windSpeed":16.668,"visibility":6.21,"altim":29.320866,"flightCategory":"VFR","metarType":"METAR","geometry_esri":{"x":47.78,"y":13.02,"z":430}}}