{"type":"Feature","geometry":{"type":"Point","coordinates":[51.48,-0.45,24]},"properties":{"stationId":"EGLL","rawText":"EGLL 020650Z AUTO 30004KT 270V360 9999 BKN045 10/07 Q1015","observationTime":"2019-05-02T06:50:00Z","temp":10,"dewpoint":7,"windDirection":300,"windSpeed":7.408,"visibility":6.21,"altim":29.970472,"flightCategory":"VFR","metarType":"METAR","geometry_esri":{"x":51.48,"y":-0.45,"z":24}}}