{"type":"Feature","geometry":{"type":"Point","coordinates":[49.02,2.52,109]},"properties":{"stationId":"LFPG","rawText":"LFPG 030030Z 01006KT CAVOK 16/12 Q1018 NOSIG","observationTime":"2019-08-03T00:30:00Z","temp":16,"dewpoint":12,"windDirection":10,"windSpeed":11.112,"visibility":6.21,"altim":30.059055,"flightCategory":"VFR","metarType":"METAR","geometry_esri":{"x":49.02,"y":2.52,"z":109}}}