{"type":"Feature","geometry":{"type":"Point","coordinates":[48.35,11.82,447]},"properties":{"stationId":"EDDM","rawText":"EDDM 041450Z 22006KT 180V240 9999 VCSH FEW038TCU SCT045 11/08 Q0995 NOSIG","observationTime":"2019-11-04T14:50:00Z","temp":11,"dewpoint":8,"windDirection":220,"windSpeed":11.112,"visibility":6.21,"altim":29.379921,"flightCategory":"VFR","metarType":"METAR","geometry_esri":{"x":48.35,"y":11.82,"z":447}}}