{"type":"Feature","geometry":{"type":"Point","coordinates":[48.35,11.82,447]},"properties":{"stationId":"EDDM","rawText":"EDDM 141550Z 24022G33KT 9999 RA FEW013 BKN015 04/02 Q1004 TEMPO BKN012","observationTime":"2019-03-14T15:50:00Z","temp":4,"dewpoint":2,"windDirection":240,"windSpeed":40.744,"visibility":6.21,"altim":29.64567,"flightCategory":"MVFR","metarType":"METAR","geometry_esri":{"x":48.35,"y":11.82,"z":447}}}