{"type":"Feature","geometry":{"type":"Point","coordinates":[47.78,13.02,430]},"properties":{"stationId":"LOWS","rawText":"LOWS 231750Z VRB01KT 9999 FEW030 BKN036 21/17 Q1023 NOSIG","observationTime":"2019-08-23T17:50:00Z","temp":21,"dewpoint":17,"windDirection":0,"windSpeed":1.852,"visibility":6.21,"altim":30.206694,"flightCategory":"VFR","metarType":"METAR","geometry_esri":{"x":47.78,"y":13.02,"z":430}}}