{"type":"Feature","geometry":{"type":"Point","coordinates":[49.02,2.52,109]},"properties":{"stationId":"LFPG","rawText":"LFPG 011430Z 28006KT 240V340 CAVOK 26/11 Q1016 NOSIG","observationTime":"2019-08-01T14:30:00Z","temp":26,"dewpoint":11,"windDirection":280,"windSpeed":11.112,"visibility":6.21,"altim":30,"flightCategory":"VFR","metarType":"METAR","geometry_esri":{"x":49.02,"y":2.52,"z":109}}}