{"type":"Feature","geometry":{"type":"Point","coordinates":[47.78,13.02,430]},"properties":{"stationId":"LOWS","rawText":"LOWS 112050Z 30011G22KT 9999 FEW080 BKN250 23/18 Q1013","observationTime":"2019-08-11T20:50:00Z","temp":23,"dewpoint":18,"windDirection":300,"windSpeed":20.372,"visibility":6.21,"altim":29.911417,"flightCategory":"VFR","metarType":"METAR","geometry_esri":{"x":47.78,"y":13.02,"z":430}}}