{"type":"Feature","geometry":{"type":"Point","coordinates":[48.35,11.82,447]},"properties":{"stationId":"EDDM","rawText":"EDDM 260950Z 25021KT 9999 -SNRA BKN013 BKN030 01/M00 Q1011 R26L/190095 R26R/290095 TEMPO 4000","observationTime":"2019-01-26T09:50:00Z","temp":1,"dewpoint":0,"windDirection":250,"windSpeed":38.892,"visibility":6.21,"altim":29.852362,"flightCategory":"MVFR","metarType":"METAR","geometry_esri":{"x":48.35,"y":11.82,"z":447}}}