{"type":"Feature","geometry":{"type":"Point","coordinates":[49.02,2.52,109]},"properties":{"stationId":"LFPG","rawText":"LFPG 281530Z 27004KT 200V300 1200 R27L/P2000 R09R/1200D R26R/P2000 R08L/P2000 R26L/P2000 R08R/P2000 R27R/P2000 R09L/1300D BR BKN003 00/M01 Q1032 TEMPO 0800 FG OVC002","observationTime":"2018-12-28T15:30:00Z","temp":0,"dewpoint":-1,"windDirection":270,"windSpeed":7.408,"visibility":0.75,"altim":30.47244,"flightCategory":"LIFR","metarType":"METAR","geometry_esri":{"x":49.02,"y":2.52,"z":109}}}