{"type":"Feature","geometry":{"type":"Point","coordinates":[48.35,11.82,447]},"properties":{"stationId":"EDDM","rawText":"EDDM 221550Z 10005KT CAVOK 18/11 Q1012 NOSIG","observationTime":"2019-09-22T15:50:00Z","temp":18,"dewpoint":11,"windDirection":100,"windSpeed":9.26,"visibility":6.21,"altim":29.88189,"flightCategory":"VFR","metarType":"METAR","geometry_esri":{"x":48.35,"y":11.82,"z":447}}}