{"type":"Feature","geometry":{"type":"Point","coordinates":[51.48,-0.45,24]},"properties":{"stationId":"EGLL","rawText":"EGLL 221550Z AUTO 24011KT 9999 BKN042 24/13 Q1024","observationTime":"2019-08-22T15:50:00Z","temp":24,"dewpoint":13,"windDirection":240,"windSpeed":20.372,"visibility":6.21,"altim":30.236221,"flightCategory":"VFR","metarType":"METAR","geometry_esri":{"x":51.48,"y":-0.45,"z":24}}}