{"type":"Feature","geometry":{"type":"Point","coordinates":[53.42,-6.25,85]},"properties":{"stationId":"EIDW","rawText":"EIDW 091430Z 09007KT 9999 -RA FEW007 SCT016CB BKN030 08/06 Q1002 TEMPO 5000","observationTime":"2019-05-09T14:30:00Z","temp":8,"dewpoint":6,"windDirection":90,"windSpeed":12.964,"visibility":6.21,"altim":29.586615,"flightCategory":"MVFR","metarType":"SPECI","geometry_esri":{"x":53.42,"y":-6.25,"z":85}}}