{"type":"Feature","geometry":{"type":"Point","coordinates":[47.78,13.02,430]},"properties":{"stationId":"LOWS","rawText":"LOWS 150250Z AUTO 14009KT 9999 FEW170 BKN250 26/08 Q1011","observationTime":"2019-06-15T02:50:00Z","temp":26,"dewpoint":8,"windDirection":140,"windSpeed":16.668,"visibility":6.21,"altim":29.852362,"flightCategory":"VFR","metarType":"METAR","geometry_esri":{"x":47.78,"y":13.02,"z":430}}}