{"type":"Feature","geometry":{"type":"Point","coordinates":[49.02,2.52,109]},"properties":{"stationId":"LFPG","rawText":"LFPG 111430Z 01003KT 320V070 9999 FEW066TCU SCT073 BKN130 29/11 Q1012 NOSIG","observationTime":"2019-07-11T14:30:00Z","temp":29,"dewpoint":11,"windDirection":10,"windSpeed":5.556,"visibility":6.21,"altim":29.88189,"flightCategory":"VFR","metarType":"METAR","geometry_esri":{"x":49.02,"y":2.52,"z":109}}}