{"type":"Feature","geometry":{"type":"Point","coordinates":[51.48,-0.45,24]},"properties":{"stationId":"EGLL","rawText":"EGLL 030250Z AUTO 28005KT 9999 NCD M02/M04 Q1021 NOSIG","observationTime":"2019-02-03T02:50:00Z","temp":-2,"dewpoint":-4,"windDirection":280,"windSpeed":9.26,"visibility":6.21,"altim":30.147638,"flightCategory":"VFR","metarType":"METAR","geometry_esri":{"x":51.48,"y":-0.45,"z":24}}}