{"type":"Feature","geometry":{"type":"Point","coordinates":[48.35,11.82,447]},"properties":{"stationId":"EDDM","rawText":"EDDM 031050Z VRB05KT CAVOK 26/15 Q1016 NOSIG","observationTime":"2019-06-03T10:50:00Z","temp":26,"dewpoint":15,"windDirection":0,"windSpeed":9.26,"visibility":6.21,"altim":30,"flightCategory":"VFR","metarType":"METAR","geometry_esri":{"x":48.35,"y":11.82,"z":447}}}