{"type":"Feature","geometry":{"type":"Point","coordinates":[49.02,2.52,109]},"properties":{"stationId":"LFPG","rawText":"LFPG 191430Z 18010KT 140V240 CAVOK 27/12 Q1014 NOSIG","observationTime":"2019-07-19T14:30:00Z","temp":27,"dewpoint":12,"windDirection":180,"windSpeed":18.52,"visibility":6.21,"altim":29.940945,"flightCategory":"VFR","metarType":"METAR","geometry_esri":{"x":49.02,"y":2.52,"z":109}}}