{"type":"Feature","geometry":{"type":"Point","coordinates":[40.48,-3.57,582]},"properties":{"stationId":"LEMD","rawText":"LEMD 061330Z 19016KT 140V220 CAVOK 24/M03 Q1011 NOSIG","observationTime":"2019-06-06T13:30:00Z","temp":24,"dewpoint":-3,"windDirection":190,"windSpeed":29.632,"visibility":6.21,"altim":29.852362,"flightCategory":"VFR","metarType":"METAR","geometry_esri":{"x":40.48,"y":-3.57,"z":582}}}