{"type":"Feature","geometry":{"type":"Point","coordinates":[47.78,13.02,430]},"properties":{"stationId":"LOWS","rawText":"LOWS 030350Z AUTO VRB01KT 1800 1300N R15/1400N R33/P1500U SN FEW001 SCT003 BKN007 M00/M00 Q1001","observationTime":"2019-02-03T03:50:00Z","temp":0,"dewpoint":0,"windDirection":0,"windSpeed":1.852,"visibility":1.12,"altim":29.557087,"flightCategory":"IFR","metarType":"METAR","geometry_esri":{"x":47.78,"y":13.02,"z":430}}}