{"type":"Feature","geometry":{"type":"Point","coordinates":[48.35,11.82,447]},"properties":{"stationId":"EDDM","rawText":"EDDM 151250Z 10012G23KT 060V150 9999 FEW040 13/03 Q1021 NOSIG","observationTime":"2019-04-15T12:50:00Z","temp":13,"dewpoint":3,"windDirection":100,"windSpeed":22.224,"visibility":6.21,"altim":30.147638,"flightCategory":"VFR","metarType":"METAR","geometry_esri":{"x":48.35,"y":11.82,"z":447}}}