{"type":"Feature","geometry":{"type":"Point","coordinates":[51.48,-0.45,24]},"properties":{"stationId":"EGLL","rawText":"EGLL 171750Z AUTO 26014KT 9999 -RA SCT037 BKN044 08/02 Q1009 NOSIG","observationTime":"2019-03-17T17:50:00Z","temp":8,"dewpoint":2,"windDirection":260,"windSpeed":25.928,"visibility":6.21,"altim":29.793306,"flightCategory":"VFR","metarType":"METAR","geometry_esri":{"x":51.48,"y":-0.45,"z":24}}}