{"type":"Feature","geometry":{"type":"Point","coordinates":[49.02,2.52,109]},"properties":{"stationId":"LFPG","rawText":"LFPG 020230Z 34008KT 5000 BR BKN029 BKN120 10/07 Q1014 NOSIG","observationTime":"2019-05-02T02:30:00Z","temp":10,"dewpoint":7,"windDirection":340,"windSpeed":14.816,"visibility":3.11,"altim":29.940945,"flightCategory":"MVFR","metarType":"METAR","geometry_esri":{"x":49.02,"y":2.52,"z":109}}}