{"type":"Feature","geometry":{"type":"Point","coordinates":[49.02,2.52,109]},"properties":{"stationId":"LFPG","rawText":"LFPG 071230Z 17022G33KT 9999 BKN026 BKN031 14/08 Q1006 NOSIG","observationTime":"2019-06-07T12:30:00Z","temp":14,"dewpoint":8,"windDirection":170,"windSpeed":40.744,"visibility":6.21,"altim":29.704725,"flightCategory":"MVFR","metarType":"METAR","geometry_esri":{"x":49.02,"y":2.52,"z":109}}}