{"type":"Feature","geometry":{"type":"Point","coordinates":[53.42,-6.25,85]},"properties":{"stationId":"EIDW","rawText":"EIDW 032130Z 26009KT 230V290 9999 -RADZ SCT009 SCT018 BKN044 15/13 Q1014 TEMPO 4000 BKN008","observationTime":"2019-09-03T21:30:00Z","temp":15,"dewpoint":13,"windDirection":260,"windSpeed":16.668,"visibility":6.21,"altim":29.940945,"flightCategory":"VFR","metarType":"SPECI","geometry_esri":{"x":53.42,"y":-6.25,"z":85}}}