{"type":"Feature","geometry":{"type":"Point","coordinates":[51.48,-0.45,24]},"properties":{"stationId":"EGLL","rawText":"EGLL 040050Z AUTO 10004KT 9999 NCD 16/13 Q1016","observationTime":"2019-08-04T00:50:00Z","temp":16,"dewpoint":13,"windDirection":100,"windSpeed":7.408,"visibility":6.21,"altim":30,"flightCategory":"VFR","metarType":"METAR","geometry_esri":{"x":51.48,"y":-0.45,"z":24}}}