{"type":"Feature","geometry":{"type":"Point","coordinates":[40.48,-3.57,582]},"properties":{"stationId":"LEMD","rawText":"LEMD 211730Z 15004KT 130V190 CAVOK 16/M01 Q1028 NOSIG","observationTime":"2019-02-21T17:30:00Z","temp":16,"dewpoint":-1,"windDirection":150,"windSpeed":7.408,"visibility":6.21,"altim":30.35433,"flightCategory":"VFR","metarType":"METAR","geometry_esri":{"x":40.48,"y":-3.57,"z":582}}}