{"type":"Feature","geometry":{"type":"Point","coordinates":[51.48,-0.45,24]},"properties":{"stationId":"EGLL","rawText":"EGLL 160050Z AUTO 26005KT 9999 SCT030 16/15 Q1022 NOSIG","observationTime":"2019-09-16T00:50:00Z","temp":16,"dewpoint":15,"windDirection":260,"windSpeed":9.26,"visibility":6.21,"altim":30.177166,"flightCategory":"VFR","metarType":"METAR","geometry_esri":{"x":51.48,"y":-0.45,"z":24}}}