{"type":"Feature","geometry":{"type":"Point","coordinates":[48.35,11.82,447]},"properties":{"stationId":"EDDM","rawText":"EDDM 240750Z 31009KT 290V350 9999 FEW009 BKN013 04/02 Q1022 NOSIG","observationTime":"2018-12-24T07:50:00Z","temp":4,"dewpoint":2,"windDirection":310,"windSpeed":16.668,"visibility":6.21,"altim":30.177166,"flightCategory":"MVFR","metarType":"METAR","geometry_esri":{"x":48.35,"y":11.82,"z":447}}}