{"type":"Feature","geometry":{"type":"Point","coordinates":[48.35,11.82,447]},"properties":{"stationId":"EDDM","rawText":"EDDM 261350Z 08006KT 040V120 CAVOK 34/12 Q1010 NOSIG","observationTime":"2019-07-26T13:50:00Z","temp":34,"dewpoint":12,"windDirection":80,"windSpeed":11.112,"visibility":6.21,"altim":29.822834,"flightCategory":"VFR","metarType":"METAR","geometry_esri":{"x":48.35,"y":11.82,"z":447}}}