{"type":"Feature","geometry":{"type":"Point","coordinates":[47.78,13.02,430]},"properties":{"stationId":"LOWS","rawText":"LOWS 030350Z AUTO 17005KT 8000 FEW038 SCT044 BKN048 M01/M02 Q1028","observationTime":"2019-12-03T03:50:00Z","temp":-1,"dewpoint":-2,"windDirection":170,"windSpeed":9.26,"visibility":4.97,"altim":30.35433,"flightCategory":"MVFR","metarType":"METAR","geometry_esri":{"x":47.78,"y":13.02,"z":430}}}