{"type":"Feature","geometry":{"type":"Point","coordinates":[40.48,-3.57,582]},"properties":{"stationId":"LEMD","rawText":"LEMD 281230Z 35007KT 300V060 CAVOK 25/M01 Q1016 NOSIG","observationTime":"2019-05-28T12:30:00Z","temp":25,"dewpoint":-1,"windDirection":350,"windSpeed":12.964,"visibility":6.21,"altim":30,"flightCategory":"VFR","metarType":"METAR","geometry_esri":{"x":40.48,"y":-3.57,"z":582}}}