{"type":"Feature","geometry":{"type":"Point","coordinates":[53.42,-6.25,85]},"properties":{"stationId":"EIDW","rawText":"EIDW 121530Z 25022G36KT 210V280 9999 FEW018 SCT040 07/M01 Q0995 NOSIG","observationTime":"2019-03-12T15:30:00Z","temp":7,"dewpoint":-1,"windDirection":250,"windSpeed":40.744,"visibility":6.21,"altim":29.379921,"flightCategory":"VFR","metarType":"METAR","geometry_esri":{"x":53.42,"y":-6.25,"z":85}}}