{"type":"Feature","geometry":{"type":"Point","coordinates":[47.78,13.02,430]},"properties":{"stationId":"LOWS","rawText":"LOWS 040150Z AUTO 19004KT 9999 -DZ FEW036 SCT044 BKN048 09/07 Q0996","observationTime":"2019-11-04T01:50:00Z","temp":9,"dewpoint":7,"windDirection":190,"windSpeed":7.408,"visibility":6.21,"altim":29.409449,"flightCategory":"VFR","metarType":"METAR","geometry_esri":{"x":47.78,"y":13.02,"z":430}}}