{"type":"Feature","geometry":{"type":"Point","coordinates":[47.78,13.02,430]},"properties":{"stationId":"LOWS","rawText":"LOWS 262350Z AUTO 16009KT 9999 FEW038 BKN042 14/13 Q1017","observationTime":"2019-09-26T23:50:00Z","temp":14,"dewpoint":13,"windDirection":160,"windSpeed":16.668,"visibility":6.21,"altim":30.029528,"flightCategory":"VFR","metarType":"METAR","geometry_esri":{"x":47.78,"y":13.02,"z":430}}}