{"type":"Feature","geometry":{"type":"Point","coordinates":[53.42,-6.25,85]},"properties":{"stationId":"EIDW","rawText":"EIDW 011830Z 14006KT 100V160 3000 -DZ SCT002 BKN003 BKN019 12/12 Q0980 BECMG 7000 BKN010","observationTime":"2019-11-01T18:30:00Z","temp":12,"dewpoint":12,"windDirection":140,"windSpeed":11.112,"visibility":1.86,"altim":28.937008,"flightCategory":"LIFR","metarType":"SPECI","geometry_esri":{"x":53.42,"y":-6.25,"z":85}}}