{"type":"Feature","geometry":{"type":"Point","coordinates":[49.02,2.52,109]},"properties":{"stationId":"LFPG","rawText":"LFPG 202130Z 02009KT 6000 -RADZ SCT005 BKN008 11/10 Q1007 TEMPO 3500 -RADZ BKN004","observationTime":"2019-10-20T21:30:00Z","temp":11,"dewpoint":10,"windDirection":20,"windSpeed":16.668,"visibility":3.73,"altim":29.734253,"flightCategory":"IFR","metarType":"METAR","geometry_esri":{"x":49.02,"y":2.52,"z":109}}}