{"type":"Feature","geometry":{"type":"Point","coordinates":[48.35,11.82,447]},"properties":{"stationId":"EDDM","rawText":"EDDM 021450Z 30010KT 260V340 9999 SHRA FEW007 BKN013TCU 13/11 Q1008 BECMG FM1455 34015G25KT NSW BKN015","observationTime":"2019-10-02T14:50:00Z","temp":13,"dewpoint":11,"windDirection":300,"windSpeed":18.52,"visibility":6.21,"altim":29.763779,"flightCategory":"MVFR","metarType":"METAR","geometry_esri":{"x":48.35,"y":11.82,"z":447}}}