{"type":"Feature","geometry":{"type":"Point","coordinates":[40.48,-3.57,582]},"properties":{"stationId":"LEMD","rawText":"LEMD 051430Z 24007KT 200V290 CAVOK 33/08 Q1016 NOSIG","observationTime":"2019-07-05T14:30:00Z","temp":33,"dewpoint":8,"windDirection":240,"windSpeed":12.964,"visibility":6.21,"altim":30,"flightCategory":"VFR","metarType":"METAR","geometry_esri":{"x":40.48,"y":-3.57,"z":582}}}