{"type":"Feature","geometry":{"type":"Point","coordinates":[51.48,-0.45,24]},"properties":{"stationId":"EGLL","rawText":"EGLL 100750Z VRB03KT 5000 BR BKN004 OVC005 08/08 Q1009 BECMG BKN005","observationTime":"2019-05-10T07:50:00Z","temp":8,"dewpoint":8,"windDirection":0,"windSpeed":5.556,"visibility":3.11,"altim":29.793306,"flightCategory":"LIFR","metarType":"METAR","geometry_esri":{"x":51.48,"y":-0.45,"z":24}}}