{"type":"Feature","geometry":{"type":"Point","coordinates":[51.48,-0.45,24]},"properties":{"stationId":"EGLL","rawText":"EGLL 060450Z AUTO 22005KT 9999 NCD 10/08 Q1025","observationTime":"2019-09-06T04:50:00Z","temp":10,"dewpoint":8,"windDirection":220,"windSpeed":9.26,"visibility":6.21,"altim":30.265747,"flightCategory":"VFR","metarType":"METAR","geometry_esri":{"x":51.48,"y":-0.45,"z":24}}}