{"type":"Feature","geometry":{"type":"Point","coordinates":[51.48,-0.45,24]},"properties":{"stationId":"EGLL","rawText":"EGLL 280750Z AUTO 27004KT 8000 OVC027 07/06 Q1030 NOSIG","observationTime":"2018-12-28T07:50:00Z","temp":7,"dewpoint":6,"windDirection":270,"windSpeed":7.408,"visibility":4.97,"altim":30.413385,"flightCategory":"MVFR","metarType":"METAR","geometry_esri":{"x":51.48,"y":-0.45,"z":24}}}