{"type":"Feature","geometry":{"type":"Point","coordinates":[53.42,-6.25,85]},"properties":{"stationId":"EIDW","rawText":"EIDW 151130Z 28013KT 9999 FEW022 BKN250 18/10 Q1013 NOSIG","observationTime":"2019-08-15T11:30:00Z","temp":18,"dewpoint":10,"windDirection":280,"windSpeed":24.076,"visibility":6.21,"altim":29.911417,"flightCategory":"VFR","metarType":"METAR","geometry_esri":{"x":53.42,"y":-6.25,"z":85}}}