{"type":"Feature","geometry":{"type":"Point","coordinates":[49.02,2.52,109]},"properties":{"stationId":"LFPG","rawText":"LFPG 040330Z 36010G20KT 350V070 CAVOK 13/07 Q1023 NOSIG","observationTime":"2019-07-04T03:30:00Z","temp":13,"dewpoint":7,"windDirection":360,"windSpeed":18.52,"visibility":6.21,"altim":30.206694,"flightCategory":"VFR","metarType":"METAR","geometry_esri":{"x":49.02,"y":2.52,"z":109}}}