{"type":"Feature","geometry":{"type":"Point","coordinates":[51.48,-0.45,24]},"properties":{"stationId":"EGLL","rawText":"EGLL 261450Z AUTO 36006KT 320V050 9999 BKN045 13/03 Q1033 NOSIG","observationTime":"2019-03-26T14:50:00Z","temp":13,"dewpoint":3,"windDirection":360,"windSpeed":11.112,"visibility":6.21,"altim":30.501968,"flightCategory":"VFR","metarType":"METAR","geometry_esri":{"x":51.48,"y":-0.45,"z":24}}}