{"type":"Feature","geometry":{"type":"Point","coordinates":[53.42,-6.25,85]},"properties":{"stationId":"EIDW","rawText":"EIDW 080830Z 21007KT 170V240 9999 FEW030 BKN070 06/02 Q1007 NOSIG","observationTime":"2019-03-08T08:30:00Z","temp":6,"dewpoint":2,"windDirection":210,"windSpeed":12.964,"visibility":6.21,"altim":29.734253,"flightCategory":"VFR","metarType":"METAR","geometry_esri":{"x":53.42,"y":-6.25,"z":85}}}