{"type":"Feature","geometry":{"type":"Point","coordinates":[49.02,2.52,109]},"properties":{"stationId":"LFPG","rawText":"LFPG 041930Z 22011KT 9999 FEW020 BKN090 14/11 Q1010 TEMPO 26015G25KT 4000 SHRA SCT025TCU","observationTime":"2019-10-04T19:30:00Z","temp":14,"dewpoint":11,"windDirection":220,"windSpeed":20.372,"visibility":6.21,"altim":29.822834,"flightCategory":"VFR","metarType":"METAR","geometry_esri":{"x":49.02,"y":2.52,"z":109}}}