{"type":"Feature","geometry":{"type":"Point","coordinates":[40.48,-3.57,582]},"properties":{"stationId":"LEMD","rawText":"LEMD 250130Z 15008KT CAVOK 24/12 Q1018 NOSIG","observationTime":"2019-08-25T01:30:00Z","temp":24,"dewpoint":12,"windDirection":150,"windSpeed":14.816,"visibility":6.21,"altim":30.059055,"flightCategory":"VFR","metarType":"METAR","geometry_esri":{"x":40.48,"y":-3.57,"z":582}}}