{"type":"Feature","geometry":{"type":"Point","coordinates":[40.48,-3.57,582]},"properties":{"stationId":"LEMD","rawText":"LEMD 061630Z 22024G36KT 190V250 9999 FEW030 SCT040 BKN050 12/04 Q1005 R88/29//95 NOSIG","observationTime":"2019-03-06T16:30:00Z","temp":12,"dewpoint":4,"windDirection":220,"windSpeed":44.448,"visibility":6.21,"altim":29.675198,"flightCategory":"VFR","metarType":"SPECI","geometry_esri":{"x":40.48,"y":-3.57,"z":582}}}