{"type":"Feature","geometry":{"type":"Point","coordinates":[51.48,-0.45,24]},"properties":{"stationId":"EGLL","rawText":"EGLL 030350Z VRB01KT 5000 BR NSC 02/01 Q1000 TEMPO 4000","observationTime":"2019-04-03T03:50:00Z","temp":2,"dewpoint":1,"windDirection":0,"windSpeed":1.852,"visibility":3.11,"altim":29.52756,"flightCategory":"MVFR","metarType":"METAR","geometry_esri":{"x":51.48,"y":-0.45,"z":24}}}