{"type":"Feature","geometry":{"type":"Point","coordinates":[53.42,-6.25,85]},"properties":{"stationId":"EIDW","rawText":"EIDW 090530Z 22014G25KT 190V260 9999 -RA FEW012 SCT050 BKN080 07/04 Q1003 NOSIG","observationTime":"2019-03-09T05:30:00Z","temp":7,"dewpoint":4,"windDirection":220,"windSpeed":25.928,"visibility":6.21,"altim":29.616142,"flightCategory":"VFR","metarType":"METAR","geometry_esri":{"x":53.42,"y":-6.25,"z":85}}}