{"type":"Feature","geometry":{"type":"Point","coordinates":[49.02,2.52,109]},"properties":{"stationId":"LFPG","rawText":"LFPG 032130Z 18003KT 160V260 CAVOK M00/M02 Q1028 NOSIG","observationTime":"2019-02-03T21:30:00Z","temp":0,"dewpoint":-2,"windDirection":180,"windSpeed":5.556,"visibility":6.21,"altim":30.35433,"flightCategory":"VFR","metarType":"METAR","geometry_esri":{"x":49.02,"y":2.52,"z":109}}}