{"type":"Feature","geometry":{"type":"Point","coordinates":[51.48,-0.45,24]},"properties":{"stationId":"EGLL","rawText":"EGLL 172350Z AUTO 14006KT 9999 -RA FEW029/// //////CB 11/10 Q1001 TEMPO 4000 +SHRA","observationTime":"2019-10-17T23:50:00Z","temp":11,"dewpoint":10,"windDirection":140,"windSpeed":11.112,"visibility":6.21,"altim":29.557087,"flightCategory":"VFR","metarType":"METAR","geometry_esri":{"x":51.48,"y":-0.45,"z":24}}}