{"type":"Feature","geometry":{"type":"Point","coordinates":[48.35,11.82,447]},"properties":{"stationId":"EDDM","rawText":"EDDM 241950Z 08003KT CAVOK 02/M08 Q1038 NOSIG","observationTime":"2019-02-24T19:50:00Z","temp":2,"dewpoint":-8,"windDirection":80,"windSpeed":5.556,"visibility":6.21,"altim":30.649607,"flightCategory":"VFR","metarType":"METAR","geometry_esri":{"x":48.35,"y":11.82,"z":447}}}