{"type":"Feature","geometry":{"type":"Point","coordinates":[48.35,11.82,447]},"properties":{"stationId":"EDDM","rawText":"EDDM 061450Z 28008KT CAVOK 28/12 Q1011 NOSIG","observationTime":"2019-07-06T14:50:00Z","temp":28,"dewpoint":12,"windDirection":280,"windSpeed":14.816,"visibility":6.21,"altim":29.852362,"flightCategory":"VFR","metarType":"METAR","geometry_esri":{"x":48.35,"y":11.82,"z":447}}}