{"type":"Feature","geometry":{"type":"Point","coordinates":[49.02,2.52,109]},"properties":{"stationId":"LFPG","rawText":"LFPG 190130Z 17009KT 9999 -RA BKN015 BKN066 13/11 Q1005 TEMPO BKN013","observationTime":"2019-10-19T01:30:00Z","temp":13,"dewpoint":11,"windDirection":170,"windSpeed":16.668,"visibility":6.21,"altim":29.675198,"flightCategory":"MVFR","metarType":"METAR","geometry_esri":{"x":49.02,"y":2.52,"z":109}}}