{"type":"Feature","geometry":{"type":"Point","coordinates":[48.35,11.82,447]},"properties":{"stationId":"EDDM","rawText":"EDDM 290950Z 25006KT 230V290 9000 FEW040 21/17 Q1021 NOSIG","observationTime":"2019-08-29T09:50:00Z","temp":21,"dewpoint":17,"windDirection":250,"windSpeed":11.112,"visibility":5.59,"altim":30.147638,"flightCategory":"VFR","metarType":"METAR","geometry_esri":{"x":48.35,"y":11.82,"z":447}}}