{"type":"Feature","geometry":{"type":"Point","coordinates":[48.35,11.82,447]},"properties":{"stationId":"EDDM","rawText":"EDDM 231750Z 07011KT CAVOK 16/07 Q1001 NOSIG","observationTime":"2019-04-23T17:50:00Z","temp":16,"dewpoint":7,"windDirection":70,"windSpeed":20.372,"visibility":6.21,"altim":29.557087,"flightCategory":"VFR","metarType":"METAR","geometry_esri":{"x":48.35,"y":11.82,"z":447}}}