{"type":"Feature","geometry":{"type":"Point","coordinates":[53.42,-6.25,85]},"properties":{"stationId":"EIDW","rawText":"EIDW 061930Z 25010KT 200V290 9999 VCSH FEW017CB SCT070 16/13 Q1000 NOSIG","observationTime":"2019-08-06T19:30:00Z","temp":16,"dewpoint":13,"windDirection":250,"windSpeed":18.52,"visibility":6.21,"altim":29.52756,"flightCategory":"VFR","metarType":"METAR","geometry_esri":{"x":53.42,"y":-6.25,"z":85}}}