{"type":"Feature","geometry":{"type":"Point","coordinates":[40.48,-3.57,582]},"properties":{"stationId":"LEMD","rawText":"LEMD 300030Z VRB02KT CAVOK 01/M00 Q1030 NOSIG","observationTime":"2018-12-30T00:30:00Z","temp":1,"dewpoint":0,"windDirection":0,"windSpeed":3.704,"visibility":6.21,"altim":30.413385,"flightCategory":"VFR","metarType":"METAR","geometry_esri":{"x":40.48,"y":-3.57,"z":582}}}