{"type":"Feature","geometry":{"type":"Point","coordinates":[53.42,-6.25,85]},"properties":{"stationId":"EIDW","rawText":"EIDW 010130Z 02007KT 350V060 9000 -RADZ FEW002 BKN004 12/11 Q0996 NOSIG","observationTime":"2019-10-01T01:30:00Z","temp":12,"dewpoint":11,"windDirection":20,"windSpeed":12.964,"visibility":5.59,"altim":29.409449,"flightCategory":"LIFR","metarType":"METAR","geometry_esri":{"x":53.42,"y":-6.25,"z":85}}}