{"type":"Feature","geometry":{"type":"Point","coordinates":[49.02,2.52,109]},"properties":{"stationId":"LFPG","rawText":"LFPG 061730Z 18012KT 170V230 9999 -RA FEW010 SCT031 BKN057 11/09 Q0995 NOSIG","observationTime":"2019-03-06T17:30:00Z","temp":11,"dewpoint":9,"windDirection":180,"windSpeed":22.224,"visibility":6.21,"altim":29.379921,"flightCategory":"VFR","metarType":"METAR","geometry_esri":{"x":49.02,"y":2.52,"z":109}}}