{"type":"Feature","geometry":{"type":"Point","coordinates":[49.02,2.52,109]},"properties":{"stationId":"LFPG","rawText":"LFPG 191130Z 04012KT 010V080 CAVOK 18/04 Q1029 NOSIG","observationTime":"2019-09-19T11:30:00Z","temp":18,"dewpoint":4,"windDirection":40,"windSpeed":22.224,"visibility":6.21,"altim":30.383858,"flightCategory":"VFR","metarType":"METAR","geometry_esri":{"x":49.02,"y":2.52,"z":109}}}