{"type":"Feature","geometry":{"type":"Point","coordinates":[53.42,-6.25,85]},"properties":{"stationId":"EIDW","rawText":"EIDW 311230Z 11016G26KT 9999 -RA SCT022 BKN035 BKN045 04/M01 Q0985 TEMPO 7000 BKN013","observationTime":"2019-01-31T12:30:00Z","temp":4,"dewpoint":-1,"windDirection":110,"windSpeed":29.632,"visibility":6.21,"altim":29.084646,"flightCategory":"VFR","metarType":"METAR","geometry_esri":{"x":53.42,"y":-6.25,"z":85}}}