{"type":"Feature","geometry":{"type":"Point","coordinates":[49.02,2.52,109]},"properties":{"stationId":"LFPG","rawText":"LFPG 120730Z 18003KT 3000 BR FEW014 BKN026 02/02 Q1035 NOSIG","observationTime":"2019-02-12T07:30:00Z","temp":2,"dewpoint":2,"windDirection":180,"windSpeed":5.556,"visibility":1.86,"altim":30.561024,"flightCategory":"IFR","metarType":"METAR","geometry_esri":{"x":49.02,"y":2.52,"z":109}}}