{"type":"Feature","geometry":{"type":"Point","coordinates":[49.02,2.52,109]},"properties":{"stationId":"LFPG","rawText":"LFPG 181430Z 13015KT 090V160 CAVOK 28/14 Q1011 NOSIG","observationTime":"2019-06-18T14:30:00Z","temp":28,"dewpoint":14,"windDirection":130,"windSpeed":27.78,"visibility":6.21,"altim":29.852362,"flightCategory":"VFR","metarType":"METAR","geometry_esri":{"x":49.02,"y":2.52,"z":109}}}