{"type":"Feature","geometry":{"type":"Point","coordinates":[48.35,11.82,447]},"properties":{"stationId":"EDDM","rawText":"EDDM 040450Z VRB02KT CAVOK 06/00 Q1004 NOSIG","observationTime":"2019-03-04T04:50:00Z","temp":6,"dewpoint":0,"windDirection":0,"windSpeed":3.704,"visibility":6.21,"altim":29.64567,"flightCategory":"VFR","metarType":"METAR","geometry_esri":{"x":48.35,"y":11.82,"z":447}}}