{"type":"Feature","geometry":{"type":"Point","coordinates":[53.42,-6.25,85]},"properties":{"stationId":"EIDW","rawText":"EIDW 132130Z 20013KT 170V230 9999 BKN023 BKN200 10/05 Q1024 NOSIG","observationTime":"2019-02-13T21:30:00Z","temp":10,"dewpoint":5,"windDirection":200,"windSpeed":24.076,"visibility":6.21,"altim":30.236221,"flightCategory":"MVFR","metarType":"METAR","geometry_esri":{"x":53.42,"y":-6.25,"z":85}}}