{"type":"Feature","geometry":{"type":"Point","coordinates":[51.48,-0.45,24]},"properties":{"stationId":"EGLL","rawText":"EGLL 060450Z AUTO 20007KT 9999 OVC032 09/09 Q1018","observationTime":"2019-02-06T04:50:00Z","temp":9,"dewpoint":9,"windDirection":200,"windSpeed":12.964,"visibility":6.21,"altim":30.059055,"flightCategory":"VFR","metarType":"METAR","geometry_esri":{"x":51.48,"y":-0.45,"z":24}}}