{"type":"Feature","geometry":{"type":"Point","coordinates":[40.48,-3.57,582]},"properties":{"stationId":"LEMD","rawText":"LEMD 040530Z 11004KT 060V160 CAVOK 23/11 Q1017 NOSIG","observationTime":"2019-07-04T05:30:00Z","temp":23,"dewpoint":11,"windDirection":110,"windSpeed":7.408,"visibility":6.21,"altim":30.029528,"flightCategory":"VFR","metarType":"METAR","geometry_esri":{"x":40.48,"y":-3.57,"z":582}}}