{"type":"Feature","geometry":{"type":"Point","coordinates":[40.48,-3.57,582]},"properties":{"stationId":"LEMD","rawText":"LEMD 071830Z 28005KT 230V310 CAVOK 22/M01 Q1019 NOSIG","observationTime":"2019-06-07T18:30:00Z","temp":22,"dewpoint":-1,"windDirection":280,"windSpeed":9.26,"visibility":6.21,"altim":30.088583,"flightCategory":"VFR","metarType":"METAR","geometry_esri":{"x":40.48,"y":-3.57,"z":582}}}