{"type":"Feature","geometry":{"type":"Point","coordinates":[47.78,13.02,430]},"properties":{"stationId":"LOWS","rawText":"LOWS 051550Z 03008KT 360V060 9999 FEW024 SCT032 BKN300 11/04 Q1002 NOSIG","observationTime":"2019-04-05T15:50:00Z","temp":11,"dewpoint":4,"windDirection":30,"windSpeed":14.816,"visibility":6.21,"altim":29.586615,"flightCategory":"VFR","metarType":"METAR","geometry_esri":{"x":47.78,"y":13.02,"z":430}}}