{"type":"Feature","geometry":{"type":"Point","coordinates":[49.02,2.52,109]},"properties":{"stationId":"LFPG","rawText":"LFPG 112230Z 21006KT CAVOK 06/M00 Q1028 NOSIG","observationTime":"2019-03-11T22:30:00Z","temp":6,"dewpoint":0,"windDirection":210,"windSpeed":11.112,"visibility":6.21,"altim":30.35433,"flightCategory":"VFR","metarType":"METAR","geometry_esri":{"x":49.02,"y":2.52,"z":109}}}