{"type":"Feature","geometry":{"type":"Point","coordinates":[47.78,13.02,430]},"properties":{"stationId":"LOWS","rawText":"LOWS 142150Z AUTO 18003KT 140V200 9999 FEW000 13/12 Q1016","observationTime":"2019-07-14T21:50:00Z","temp":13,"dewpoint":12,"windDirection":180,"windSpeed":5.556,"visibility":6.21,"altim":30,"flightCategory":"VFR","metarType":"METAR","geometry_esri":{"x":47.78,"y":13.02,"z":430}}}