{"type":"Feature","geometry":{"type":"Point","coordinates":[40.48,-3.57,582]},"properties":{"stationId":"LEMD","rawText":"LEMD 251630Z 15010KT 120V190 CAVOK 33/06 Q1014 NOSIG","observationTime":"2019-08-25T16:30:00Z","temp":33,"dewpoint":6,"windDirection":150,"windSpeed":18.52,"visibility":6.21,"altim":29.940945,"flightCategory":"VFR","metarType":"METAR","geometry_esri":{"x":40.48,"y":-3.57,"z":582}}}