{"type":"Feature","geometry":{"type":"Point","coordinates":[51.48,-0.45,24]},"properties":{"stationId":"EGLL","rawText":"EGLL 300550Z AUTO 24009KT 200V260 9999 OVC014 15/13 Q1019 BECMG BKN016","observationTime":"2019-05-30T05:50:00Z","temp":15,"dewpoint":13,"windDirection":240,"windSpeed":16.668,"visibility":6.21,"altim":30.088583,"flightCategory":"MVFR","metarType":"METAR","geometry_esri":{"x":51.48,"y":-0.45,"z":24}}}