{"type":"Feature","geometry":{"type":"Point","coordinates":[48.35,11.82,447]},"properties":{"stationId":"EDDM","rawText":"EDDM 101550Z 01006KT 340V050 9999 TS SCT036CB 24/16 Q1010 TEMPO 30025G40KT 4000 TSRAGR","observationTime":"2019-06-10T15:50:00Z","temp":24,"dewpoint":16,"windDirection":10,"windSpeed":11.112,"visibility":6.21,"altim":29.822834,"flightCategory":"VFR","metarType":"METAR","geometry_esri":{"x":48.35,"y":11.82,"z":447}}}