{"type":"Feature","geometry":{"type":"Point","coordinates":[40.48,-3.57,582]},"properties":{"stationId":"LEMD","rawText":"LEMD 170830Z 18003KT 120V230 9999 -RA FEW055 SCT070 10/08 Q1020 R88/19//95 NOSIG","observationTime":"2019-10-17T08:30:00Z","temp":10,"dewpoint":8,"windDirection":180,"windSpeed":5.556,"visibility":6.21,"altim":30.11811,"flightCategory":"VFR","metarType":"METAR","geometry_esri":{"x":40.48,"y":-3.57,"z":582}}}