{"type":"Feature","geometry":{"type":"Point","coordinates":[51.48,-0.45,24]},"properties":{"stationId":"EGLL","rawText":"EGLL 040950Z AUTO 26014KT 9999 NCD 06/03 Q0995 NOSIG","observationTime":"2019-03-04T09:50:00Z","temp":6,"dewpoint":3,"windDirection":260,"windSpeed":25.928,"visibility":6.21,"altim":29.379921,"flightCategory":"VFR","metarType":"METAR","geometry_esri":{"x":51.48,"y":-0.45,"z":24}}}