{"type":"Feature","geometry":{"type":"Point","coordinates":[51.48,-0.45,24]},"properties":{"stationId":"EGLL","rawText":"EGLL 011850Z 01010G20KT 340V040 6000 +SHRA SCT008 BKN014CB BKN039 14/13 Q1001 RESHRA TEMPO -SHRA","observationTime":"2019-10-01T18:50:00Z","temp":14,"dewpoint":13,"windDirection":10,"windSpeed":18.52,"visibility":3.73,"altim":29.557087,"flightCategory":"MVFR","metarType":"METAR","geometry_esri":{"x":51.48,"y":-0.45,"z":24}}}