{"type":"Feature","geometry":{"type":"Point","coordinates":[40.48,-3.57,582]},"properties":{"stationId":"LEMD","rawText":"LEMD 280530Z 15003KT CAVOK M00/M02 Q1017 NOSIG","observationTime":"2019-01-28T05:30:00Z","temp":0,"dewpoint":-2,"windDirection":150,"windSpeed":5.556,"visibility":6.21,"altim":30.029528,"flightCategory":"VFR","metarType":"METAR","geometry_esri":{"x":40.48,"y":-3.57,"z":582}}}