{"type":"Feature","geometry":{"type":"Point","coordinates":[48.35,11.82,447]},"properties":{"stationId":"EDDM","rawText":"EDDM 242050Z 28013G27KT 250V310 CAVOK 18/03 Q1008 BECMG 25010KT","observationTime":"2019-04-24T20:50:00Z","temp":18,"dewpoint":3,"windDirection":280,"windSpeed":24.076,"visibility":6.21,"altim":29.763779,"flightCategory":"VFR","metarType":"METAR","geometry_esri":{"x":48.35,"y":11.82,"z":447}}}