{"type":"Feature","geometry":{"type":"Point","coordinates":[40.48,-3.57,582]},"properties":{"stationId":"LEMD","rawText":"LEMD 141530Z 24012G24KT 210V350 9999 SCT050 19/07 Q1012 NOSIG","observationTime":"2019-10-14T15:30:00Z","temp":19,"dewpoint":7,"windDirection":240,"windSpeed":22.224,"visibility":6.21,"altim":29.88189,"flightCategory":"VFR","metarType":"METAR","geometry_esri":{"x":40.48,"y":-3.57,"z":582}}}