{"type":"Feature","geometry":{"type":"Point","coordinates":[49.02,2.52,109]},"properties":{"stationId":"LFPG","rawText":"LFPG 280830Z 26010KT 220V300 9999 VCSH BKN020 FEW023TCU SCT080 14/08 Q1011 TEMPO 31015G25KT 2500 TSRA SCT020CB","observationTime":"2019-05-28T08:30:00Z","temp":14,"dewpoint":8,"windDirection":260,"windSpeed":18.52,"visibility":6.21,"altim":29.852362,"flightCategory":"MVFR","metarType":"SPECI","geometry_esri":{"x":49.02,"y":2.52,"z":109}}}