{"type":"Feature","geometry":{"type":"Point","coordinates":[47.78,13.02,430]},"properties":{"stationId":"LOWS","rawText":"LOWS 240650Z 15011KT CAVOK 13/02 Q1004 NOSIG","observationTime":"2019-11-24T06:50:00Z","temp":13,"dewpoint":2,"windDirection":150,"windSpeed":20.372,"visibility":6.21,"altim":29.64567,"flightCategory":"VFR","metarType":"METAR","geometry_esri":{"x":47.78,"y":13.02,"z":430}}}