{"type":"Feature","geometry":{"type":"Point","coordinates":[51.48,-0.45,24]},"properties":{"stationId":"EGLL","rawText":"EGLL 102050Z AUTO 27006KT 6000 BKN008 BKN017 05/04 Q1030 TEMPO 4000 -RADZ BKN004","observationTime":"2019-01-10T20:50:00Z","temp":5,"dewpoint":4,"windDirection":270,"windSpeed":11.112,"visibility":3.73,"altim":30.413385,"flightCategory":"IFR","metarType":"METAR","geometry_esri":{"x":51.48,"y":-0.45,"z":24}}}