{"type":"Feature","geometry":{"type":"Point","coordinates":[48.35,11.82,447]},"properties":{"stationId":"EDDM","rawText":"EDDM 281150Z 29009KT 250V320 9999 -RA SCT015 SCT038 14/11 Q1007 TEMPO SHRA SCT015TCU","observationTime":"2019-05-28T11:50:00Z","temp":14,"dewpoint":11,"windDirection":290,"windSpeed":16.668,"visibility":6.21,"altim":29.734253,"flightCategory":"VFR","metarType":"METAR","geometry_esri":{"x":48.35,"y":11.82,"z":447}}}