{"type":"Feature","geometry":{"type":"Point","coordinates":[40.48,-3.57,582]},"properties":{"stationId":"LEMD","rawText":"LEMD 150530Z VRB02KT CAVOK 11/04 Q1019 NOSIG","observationTime":"2019-06-15T05:30:00Z","temp":11,"dewpoint":4,"windDirection":0,"windSpeed":3.704,"visibility":6.21,"altim":30.088583,"flightCategory":"VFR","metarType":"METAR","geometry_esri":{"x":40.48,"y":-3.57,"z":582}}}