{"type":"Feature","geometry":{"type":"Point","coordinates":[51.48,-0.45,24]},"properties":{"stationId":"EGLL","rawText":"EGLL 230150Z AUTO 08005KT 0650 R09R/P1500 FG SCT001 05/05 Q1034 TEMPO 0300 BKN001","observationTime":"2019-02-23T01:50:00Z","temp":5,"dewpoint":5,"windDirection":80,"windSpeed":9.26,"visibility":0.4,"altim":30.531496,"flightCategory":"LIFR","metarType":"METAR","geometry_esri":{"x":51.48,"y":-0.45,"z":24}}}