{"type":"Feature","geometry":{"type":"Point","coordinates":[53.42,-6.25,85]},"properties":{"stationId":"EIDW","rawText":"EIDW 151830Z 28011KT 9999 FEW022 SCT035 19/12 Q1013 NOSIG","observationTime":"2019-08-15T18:30:00Z","temp":19,"dewpoint":12,"windDirection":280,"windSpeed":20.372,"visibility":6.21,"altim":29.911417,"flightCategory":"VFR","metarType":"METAR","geometry_esri":{"x":53.42,"y":-6.25,"z":85}}}