{"type":"Feature","geometry":{"type":"Point","coordinates":[47.78,13.02,430]},"properties":{"stationId":"LOWS","rawText":"LOWS 050850Z 15008KT 9999 FEW070 23/15 Q1016 NOSIG","observationTime":"2019-08-05T08:50:00Z","temp":23,"dewpoint":15,"windDirection":150,"windSpeed":14.816,"visibility":6.21,"altim":30,"flightCategory":"VFR","metarType":"METAR","geometry_esri":{"x":47.78,"y":13.02,"z":430}}}