{"type":"Feature","geometry":{"type":"Point","coordinates":[51.48,-0.45,24]},"properties":{"stationId":"EGLL","rawText":"EGLL 171450Z AUTO 22009KT 180V260 9999 NCD 25/11 Q1013","observationTime":"2019-07-17T14:50:00Z","temp":25,"dewpoint":11,"windDirection":220,"windSpeed":16.668,"visibility":6.21,"altim":29.911417,"flightCategory":"VFR","metarType":"METAR","geometry_esri":{"x":51.48,"y":-0.45,"z":24}}}