{"type":"Feature","geometry":{"type":"Point","coordinates":[47.78,13.02,430]},"properties":{"stationId":"LOWS","rawText":"LOWS 030050Z AUTO 31004KT 3900 -RASN FEW002 BKN008 01/00 Q1001","observationTime":"2019-02-03T00:50:00Z","temp":1,"dewpoint":0,"windDirection":310,"windSpeed":7.408,"visibility":2.42,"altim":29.557087,"flightCategory":"IFR","metarType":"METAR","geometry_esri":{"x":47.78,"y":13.02,"z":430}}}