{"type":"Feature","geometry":{"type":"Point","coordinates":[47.78,13.02,430]},"properties":{"stationId":"LOWS","rawText":"LOWS 151250Z 17009KT 9999 -RA FEW013 OVC028 05/03 Q1011 TEMPO RA","observationTime":"2019-03-15T12:50:00Z","temp":5,"dewpoint":3,"windDirection":170,"windSpeed":16.668,"visibility":6.21,"altim":29.852362,"flightCategory":"MVFR","metarType":"METAR","geometry_esri":{"x":47.78,"y":13.02,"z":430}}}