{"type":"Feature","geometry":{"type":"Point","coordinates":[40.48,-3.57,582]},"properties":{"stationId":"LEMD","rawText":"LEMD 162330Z 13003KT CAVOK 11/05 Q1019 NOSIG","observationTime":"2019-10-16T23:30:00Z","temp":11,"dewpoint":5,"windDirection":130,"windSpeed":5.556,"visibility":6.21,"altim":30.088583,"flightCategory":"VFR","metarType":"METAR","geometry_esri":{"x":40.48,"y":-3.57,"z":582}}}