{"type":"Feature","geometry":{"type":"Point","coordinates":[48.35,11.82,447]},"properties":{"stationId":"EDDM","rawText":"EDDM 100450Z 03005KT 360V060 CAVOK 06/03 Q1007 NOSIG","observationTime":"2019-04-10T04:50:00Z","temp":6,"dewpoint":3,"windDirection":30,"windSpeed":9.26,"visibility":6.21,"altim":29.734253,"flightCategory":"VFR","metarType":"METAR","geometry_esri":{"x":48.35,"y":11.82,"z":447}}}