{"type":"Feature","geometry":{"type":"Point","coordinates":[51.48,-0.45,24]},"properties":{"stationId":"EGLL","rawText":"EGLL 141150Z AUTO 29017KT 9999 -RA FEW032/// SCT047/// //////CB 11/08 Q1002 RERA","observationTime":"2019-03-14T11:50:00Z","temp":11,"dewpoint":8,"windDirection":290,"windSpeed":31.484,"visibility":6.21,"altim":29.586615,"flightCategory":"VFR","metarType":"METAR","geometry_esri":{"x":51.48,"y":-0.45,"z":24}}}