{"type":"Feature","geometry":{"type":"Point","coordinates":[48.35,11.82,447]},"properties":{"stationId":"EDDM","rawText":"EDDM 132150Z 01005KT 330V060 CAVOK 08/M01 Q1031 NOSIG","observationTime":"2019-05-13T21:50:00Z","temp":8,"dewpoint":-1,"windDirection":10,"windSpeed":9.26,"visibility":6.21,"altim":30.442913,"flightCategory":"VFR","metarType":"METAR","geometry_esri":{"x":48.35,"y":11.82,"z":447}}}