{"type":"Feature","geometry":{"type":"Point","coordinates":[47.78,13.02,430]},"properties":{"stationId":"LOWS","rawText":"LOWS 141550Z 15006KT 9999 FEW018 FEW025CB BKN110 18/13 Q1015 TEMPO 30010G20KT SHRA","observationTime":"2019-07-14T15:50:00Z","temp":18,"dewpoint":13,"windDirection":150,"windSpeed":11.112,"visibility":6.21,"altim":29.970472,"flightCategory":"VFR","metarType":"METAR","geometry_esri":{"x":47.78,"y":13.02,"z":430}}}