{"type":"Feature","geometry":{"type":"Point","coordinates":[51.48,-0.45,24]},"properties":{"stationId":"EGLL","rawText":"EGLL 212050Z AUTO 36004KT 320V040 9999 NCD 17/06 Q1020 NOSIG","observationTime":"2019-05-21T20:50:00Z","temp":17,"dewpoint":6,"windDirection":360,"windSpeed":7.408,"visibility":6.21,"altim":30.11811,"flightCategory":"VFR","metarType":"METAR","geometry_esri":{"x":51.48,"y":-0.45,"z":24}}}