{"type":"Feature","geometry":{"type":"Point","coordinates":[49.02,2.52,109]},"properties":{"stationId":"LFPG","rawText":"LFPG 191330Z 06005KT 040V100 3000 VCTS VCSH FEW015CB BKN033 BKN084 16/12 Q1007 RETSRA TEMPO 2500 TSRA SCT015CB","observationTime":"2019-05-19T13:30:00Z","temp":16,"dewpoint":12,"windDirection":60,"windSpeed":9.26,"visibility":1.86,"altim":29.734253,"flightCategory":"IFR","metarType":"METAR","geometry_esri":{"x":49.02,"y":2.52,"z":109}}}