{"type":"Feature","geometry":{"type":"Point","coordinates":[51.48,-0.45,24]},"properties":{"stationId":"EGLL","rawText":"EGLL 121050Z AUTO 33005KT 260V020 9999 -RA BKN030/// BKN041/// //////CB 19/10 Q1014","observationTime":"2019-08-12T10:50:00Z","temp":19,"dewpoint":10,"windDirection":330,"windSpeed":9.26,"visibility":6.21,"altim":29.940945,"flightCategory":"MVFR","metarType":"METAR","geometry_esri":{"x":51.48,"y":-0.45,"z":24}}}