{"type":"Feature","geometry":{"type":"Point","coordinates":[49.02,2.52,109]},"properties":{"stationId":"LFPG","rawText":"LFPG 160830Z 07005KT 030V100 CAVOK 18/09 Q1020 NOSIG","observationTime":"2019-07-16T08:30:00Z","temp":18,"dewpoint":9,"windDirection":70,"windSpeed":9.26,"visibility":6.21,"altim":30.11811,"flightCategory":"VFR","metarType":"METAR","geometry_esri":{"x":49.02,"y":2.52,"z":109}}}