{"type":"Feature","geometry":{"type":"Point","coordinates":[51.48,-0.45,24]},"properties":{"stationId":"EGLL","rawText":"EGLL 020050Z AUTO 17004KT 7000 -RA SCT025 BKN031 08/06 Q1015 TEMPO BKN012","observationTime":"2019-03-02T00:50:00Z","temp":8,"dewpoint":6,"windDirection":170,"windSpeed":7.408,"visibility":4.35,"altim":29.970472,"flightCategory":"MVFR","metarType":"SPECI","geometry_esri":{"x":51.48,"y":-0.45,"z":24}}}