{"type":"Feature","geometry":{"type":"Point","coordinates":[51.48,-0.45,24]},"properties":{"stationId":"EGLL","rawText":"EGLL 261550Z AUTO 19010KT 150V230 9999 BKN015 BKN023 13/12 Q0992","observationTime":"2019-11-26T15:50:00Z","temp":13,"dewpoint":12,"windDirection":190,"windSpeed":18.52,"visibility":6.21,"altim":29.291338,"flightCategory":"MVFR","metarType":"METAR","geometry_esri":{"x":51.48,"y":-0.45,"z":24}}}