{"type":"Feature","geometry":{"type":"Point","coordinates":[49.02,2.52,109]},"properties":{"stationId":"LFPG","rawText":"LFPG 140030Z 30014KT 9999 SCT020 SCT066 09/07 Q1013 TEMPO 31020G35KT 3000 -SHRA","observationTime":"2019-01-14T00:30:00Z","temp":9,"dewpoint":7,"windDirection":300,"windSpeed":25.928,"visibility":6.21,"altim":29.911417,"flightCategory":"VFR","metarType":"SPECI","geometry_esri":{"x":49.02,"y":2.52,"z":109}}}