{"type":"Feature","geometry":{"type":"Point","coordinates":[48.35,11.82,447]},"properties":{"stationId":"EDDM","rawText":"EDDM 020150Z 23013KT 9999 FEW040 14/12 Q1005 NOSIG","observationTime":"2019-10-02T01:50:00Z","temp":14,"dewpoint":12,"windDirection":230,"windSpeed":24.076,"visibility":6.21,"altim":29.675198,"flightCategory":"VFR","metarType":"METAR","geometry_esri":{"x":48.35,"y":11.82,"z":447}}}