{"type":"Feature","geometry":{"type":"Point","coordinates":[49.02,2.52,109]},"properties":{"stationId":"LFPG","rawText":"LFPG 130530Z 08004KT 0300 R27L/0300N R09R/0400N R26R/0300N R08L/0400N R26L/0375N R08R/0300N R27R/0275N R09L/0450N FZFG VV/// M02/M02 Q1036 NOSIG","observationTime":"2019-02-13T05:30:00Z","temp":-2,"dewpoint":-2,"windDirection":80,"windSpeed":7.408,"visibility":0.19,"altim":30.590551,"flightCategory":"LIFR","metarType":"SPECI","geometry_esri":{"x":49.02,"y":2.52,"z":109}}}