{"type":"Feature","geometry":{"type":"Point","coordinates":[53.42,-6.25,85]},"properties":{"stationId":"EIDW","rawText":"EIDW 212230Z 10010KT 9999 -RA SCT015 BKN018 07/05 Q0995 NOSIG","observationTime":"2019-11-21T22:30:00Z","temp":7,"dewpoint":5,"windDirection":100,"windSpeed":18.52,"visibility":6.21,"altim":29.379921,"flightCategory":"MVFR","metarType":"METAR","geometry_esri":{"x":53.42,"y":-6.25,"z":85}}}