{"type":"Feature","geometry":{"type":"Point","coordinates":[47.78,13.02,430]},"properties":{"stationId":"LOWS","rawText":"LOWS 301250Z 31016KT 280V340 9999 FEW045 BKN055 19/10 Q1014 NOSIG","observationTime":"2019-09-30T12:50:00Z","temp":19,"dewpoint":10,"windDirection":310,"windSpeed":29.632,"visibility":6.21,"altim":29.940945,"flightCategory":"VFR","metarType":"METAR","geometry_esri":{"x":47.78,"y":13.02,"z":430}}}