{"type":"Feature","geometry":{"type":"Point","coordinates":[49.02,2.52,109]},"properties":{"stationId":"LFPG","rawText":"LFPG 212030Z 22011KT 9999 SCT014 SCT016 13/11 Q1013 NOSIG","observationTime":"2018-12-21T20:30:00Z","temp":13,"dewpoint":11,"windDirection":220,"windSpeed":20.372,"visibility":6.21,"altim":29.911417,"flightCategory":"VFR","metarType":"METAR","geometry_esri":{"x":49.02,"y":2.52,"z":109}}}