{"type":"Feature","geometry":{"type":"Point","coordinates":[40.48,-3.57,582]},"properties":{"stationId":"LEMD","rawText":"LEMD 271130Z 23003KT CAVOK 26/07 Q1014 NOSIG","observationTime":"2019-05-27T11:30:00Z","temp":26,"dewpoint":7,"windDirection":230,"windSpeed":5.556,"visibility":6.21,"altim":29.940945,"flightCategory":"VFR","metarType":"METAR","geometry_esri":{"x":40.48,"y":-3.57,"z":582}}}