{"type":"Feature","geometry":{"type":"Point","coordinates":[47.78,13.02,430]},"properties":{"stationId":"LOWS","rawText":"LOWS 261150Z 01004KT 310V060 9999 FEW050 26/19 Q1019 NOSIG","observationTime":"2019-08-26T11:50:00Z","temp":26,"dewpoint":19,"windDirection":10,"windSpeed":7.408,"visibility":6.21,"altim":30.088583,"flightCategory":"VFR","metarType":"METAR","geometry_esri":{"x":47.78,"y":13.02,"z":430}}}