{"type":"Feature","geometry":{"type":"Point","coordinates":[48.35,11.82,447]},"properties":{"stationId":"EDDM","rawText":"EDDM 251450Z 12004KT 080V170 9999 FEW036 18/10 Q1023 NOSIG","observationTime":"2019-10-25T14:50:00Z","temp":18,"dewpoint":10,"windDirection":120,"windSpeed":7.408,"visibility":6.21,"altim":30.206694,"flightCategory":"VFR","metarType":"METAR","geometry_esri":{"x":48.35,"y":11.82,"z":447}}}