{"type":"Feature","geometry":{"type":"Point","coordinates":[51.48,-0.45,24]},"properties":{"stationId":"EGLL","rawText":"EGLL 310950Z AUTO 09005KT 9000 NCD 00/M00 Q0993","observationTime":"2019-01-31T09:50:00Z","temp":0,"dewpoint":0,"windDirection":90,"windSpeed":9.26,"visibility":5.59,"altim":29.320866,"flightCategory":"VFR","metarType":"METAR","geometry_esri":{"x":51.48,"y":-0.45,"z":24}}}