{"type":"Feature","geometry":{"type":"Point","coordinates":[53.42,-6.25,85]},"properties":{"stationId":"EIDW","rawText":"EIDW 080330Z 09012KT 9999 FEW012 SCT033 BKN045 09/06 Q0995 NOSIG","observationTime":"2019-05-08T03:30:00Z","temp":9,"dewpoint":6,"windDirection":90,"windSpeed":22.224,"visibility":6.21,"altim":29.379921,"flightCategory":"VFR","metarType":"METAR","geometry_esri":{"x":53.42,"y":-6.25,"z":85}}}