{"type":"Feature","geometry":{"type":"Point","coordinates":[53.42,-6.25,85]},"properties":{"stationId":"EIDW","rawText":"EIDW 241230Z 13011KT 100V170 9999 FEW023 SCT100 BKN200 20/14 Q1016 NOSIG","observationTime":"2019-08-24T12:30:00Z","temp":20,"dewpoint":14,"windDirection":130,"windSpeed":20.372,"visibility":6.21,"altim":30,"flightCategory":"VFR","metarType":"METAR","geometry_esri":{"x":53.42,"y":-6.25,"z":85}}}