{"type":"Feature","geometry":{"type":"Point","coordinates":[40.48,-3.57,582]},"properties":{"stationId":"LEMD","rawText":"LEMD 061030Z 20013KT 120V230 CAVOK 19/00 Q1013 NOSIG","observationTime":"2019-06-06T10:30:00Z","temp":19,"dewpoint":0,"windDirection":200,"windSpeed":24.076,"visibility":6.21,"altim":29.911417,"flightCategory":"VFR","metarType":"METAR","geometry_esri":{"x":40.48,"y":-3.57,"z":582}}}