{"type":"Feature","geometry":{"type":"Point","coordinates":[49.02,2.52,109]},"properties":{"stationId":"LFPG","rawText":"LFPG 210430Z 14004KT 3000 R27R/1200D BR NSC 05/05 Q1026 NOSIG","observationTime":"2019-02-21T04:30:00Z","temp":5,"dewpoint":5,"windDirection":140,"windSpeed":7.408,"visibility":1.86,"altim":30.295275,"flightCategory":"IFR","metarType":"SPECI","geometry_esri":{"x":49.02,"y":2.52,"z":109}}}