{"type":"Feature","geometry":{"type":"Point","coordinates":[53.42,-6.25,85]},"properties":{"stationId":"EIDW","rawText":"EIDW 110343Z VRB02KT 9999 FEW025 M02/M02 Q1024 NOSIG","observationTime":"2019-04-11T03:43:00Z","temp":-2,"dewpoint":-2,"windDirection":0,"windSpeed":3.704,"visibility":6.21,"altim":30.236221,"flightCategory":"VFR","metarType":"METAR","geometry_esri":{"x":53.42,"y":-6.25,"z":85}}}