{"type":"Feature","geometry":{"type":"Point","coordinates":[51.48,-0.45,24]},"properties":{"stationId":"EGLL","rawText":"EGLL 072050Z AUTO 27018KT 9999 -RA BKN023 OVC034 08/05 Q1000 NOSIG","observationTime":"2019-03-07T20:50:00Z","temp":8,"dewpoint":5,"windDirection":270,"windSpeed":33.336,"visibility":6.21,"altim":29.52756,"flightCategory":"MVFR","metarType":"METAR","geometry_esri":{"x":51.48,"y":-0.45,"z":24}}}