{"type":"Feature","geometry":{"type":"Point","coordinates":[40.48,-3.57,582]},"properties":{"stationId":"LEMD","rawText":"LEMD 160630Z 04002KT CAVOK 07/05 Q1021 NOSIG","observationTime":"2019-10-16T06:30:00Z","temp":7,"dewpoint":5,"windDirection":40,"windSpeed":3.704,"visibility":6.21,"altim":30.147638,"flightCategory":"VFR","metarType":"METAR","geometry_esri":{"x":40.48,"y":-3.57,"z":582}}}