{"type":"Feature","geometry":{"type":"Point","coordinates":[40.48,-3.57,582]},"properties":{"stationId":"LEMD","rawText":"LEMD 280230Z 04005KT 360V090 CAVOK 17/09 Q1013 NOSIG","observationTime":"2019-07-28T02:30:00Z","temp":17,"dewpoint":9,"windDirection":40,"windSpeed":9.26,"visibility":6.21,"altim":29.911417,"flightCategory":"VFR","metarType":"METAR","geometry_esri":{"x":40.48,"y":-3.57,"z":582}}}