{"type":"Feature","geometry":{"type":"Point","coordinates":[53.42,-6.25,85]},"properties":{"stationId":"EIDW","rawText":"EIDW 152130Z 19005KT 170V230 9999 FEW022 SCT035 BKN060 17/12 Q1012 NOSIG","observationTime":"2019-08-15T21:30:00Z","temp":17,"dewpoint":12,"windDirection":190,"windSpeed":9.26,"visibility":6.21,"altim":29.88189,"flightCategory":"VFR","metarType":"METAR","geometry_esri":{"x":53.42,"y":-6.25,"z":85}}}