{"type":"Feature","geometry":{"type":"Point","coordinates":[48.35,11.82,447]},"properties":{"stationId":"EDDM","rawText":"EDDM 282050Z 03004KT 350V050 CAVOK 08/05 Q1032 NOSIG","observationTime":"2019-03-28T20:50:00Z","temp":8,"dewpoint":5,"windDirection":30,"windSpeed":7.408,"visibility":6.21,"altim":30.47244,"flightCategory":"VFR","metarType":"METAR","geometry_esri":{"x":48.35,"y":11.82,"z":447}}}