{"type":"Feature","geometry":{"type":"Point","coordinates":[48.35,11.82,447]},"properties":{"stationId":"EDDM","rawText":"EDDM 141950Z VRB02KT CAVOK 13/10 Q1019 NOSIG","observationTime":"2019-08-14T19:50:00Z","temp":13,"dewpoint":10,"windDirection":0,"windSpeed":3.704,"visibility":6.21,"altim":30.088583,"flightCategory":"VFR","metarType":"METAR","geometry_esri":{"x":48.35,"y":11.82,"z":447}}}