{"type":"Feature","geometry":{"type":"Point","coordinates":[40.48,-3.57,582]},"properties":{"stationId":"LEMD","rawText":"LEMD 270730Z 33004KT 300V010 CAVOK 02/M01 Q1029 NOSIG","observationTime":"2019-02-27T07:30:00Z","temp":2,"dewpoint":-1,"windDirection":330,"windSpeed":7.408,"visibility":6.21,"altim":30.383858,"flightCategory":"VFR","metarType":"METAR","geometry_esri":{"x":40.48,"y":-3.57,"z":582}}}