{"type":"Feature","geometry":{"type":"Point","coordinates":[48.35,11.82,447]},"properties":{"stationId":"EDDM","rawText":"EDDM 302150Z 21003KT CAVOK 10/07 Q1016 NOSIG","observationTime":"2019-09-30T21:50:00Z","temp":10,"dewpoint":7,"windDirection":210,"windSpeed":5.556,"visibility":6.21,"altim":30,"flightCategory":"VFR","metarType":"METAR","geometry_esri":{"x":48.35,"y":11.82,"z":447}}}