{"type":"Feature","geometry":{"type":"Point","coordinates":[48.35,11.82,447]},"properties":{"stationId":"EDDM","rawText":"EDDM 171850Z 10005KT CAVOK 22/14 Q1017 NOSIG","observationTime":"2019-06-17T18:50:00Z","temp":22,"dewpoint":14,"windDirection":100,"windSpeed":9.26,"visibility":6.21,"altim":30.029528,"flightCategory":"VFR","metarType":"METAR","geometry_esri":{"x":48.35,"y":11.82,"z":447}}}