{"type":"Feature","geometry":{"type":"Point","coordinates":[49.02,2.52,109]},"properties":{"stationId":"LFPG","rawText":"LFPG 160630Z 06005KT 040V100 CAVOK 10/02 Q1018 NOSIG","observationTime":"2019-05-16T06:30:00Z","temp":10,"dewpoint":2,"windDirection":60,"windSpeed":9.26,"visibility":6.21,"altim":30.059055,"flightCategory":"VFR","metarType":"METAR","geometry_esri":{"x":49.02,"y":2.52,"z":109}}}