{"type":"Feature","geometry":{"type":"Point","coordinates":[49.02,2.52,109]},"properties":{"stationId":"LFPG","rawText":"LFPG 220730Z 05004KT 020V090 2000 0300E R27L/0650U R09R/0200D R26R/1900D R08L/P2000 R26L/0325U R08R/1900N R27R/0225N R09L/0600U BCFG FEW006 05/04 Q1035 NOSIG","observationTime":"2019-02-22T07:30:00Z","temp":5,"dewpoint":4,"windDirection":50,"windSpeed":7.408,"visibility":1.24,"altim":30.561024,"flightCategory":"IFR","metarType":"SPECI","geometry_esri":{"x":49.02,"y":2.52,"z":109}}}