{"type":"Feature","geometry":{"type":"Point","coordinates":[51.48,-0.45,24]},"properties":{"stationId":"EGLL","rawText":"EGLL 150950Z AUTO 36006KT 320V040 9999 -RA SCT011 SCT033 BKN040 07/06 Q1004 NOSIG","observationTime":"2019-11-15T09:50:00Z","temp":7,"dewpoint":6,"windDirection":360,"windSpeed":11.112,"visibility":6.21,"altim":29.64567,"flightCategory":"VFR","metarType":"METAR","geometry_esri":{"x":51.48,"y":-0.45,"z":24}}}