{"type":"Feature","geometry":{"type":"Point","coordinates":[48.35,11.82,447]},"properties":{"stationId":"EDDM","rawText":"EDDM 222150Z 10009KT 1200 R08L/P2000N R08R/1900N BR BKN001 BKN002 OVC004 03/03 Q1005 NOSIG","observationTime":"2019-11-22T21:50:00Z","temp":3,"dewpoint":3,"windDirection":100,"windSpeed":16.668,"visibility":0.75,"altim":29.675198,"flightCategory":"LIFR","metarType":"METAR","geometry_esri":{"x":48.35,"y":11.82,"z":447}}}