{"type":"Feature","geometry":{"type":"Point","coordinates":[40.48,-3.57,582]},"properties":{"stationId":"LEMD","rawText":"LEMD 080330Z 17007KT 130V190 CAVOK 22/09 Q1012 NOSIG","observationTime":"2019-07-08T03:30:00Z","temp":22,"dewpoint":9,"windDirection":170,"windSpeed":12.964,"visibility":6.21,"altim":29.88189,"flightCategory":"VFR","metarType":"METAR","geometry_esri":{"x":40.48,"y":-3.57,"z":582}}}