{"type":"Feature","geometry":{"type":"Point","coordinates":[40.48,-3.57,582]},"properties":{"stationId":"LEMD","rawText":"LEMD 241630Z 05008KT 350V110 9999 FEW067 24/07 Q1014 NOSIG","observationTime":"2019-05-24T16:30:00Z","temp":24,"dewpoint":7,"windDirection":50,"windSpeed":14.816,"visibility":6.21,"altim":29.940945,"flightCategory":"VFR","metarType":"METAR","geometry_esri":{"x":40.48,"y":-3.57,"z":582}}}