{"type":"Feature","geometry":{"type":"Point","coordinates":[53.42,-6.25,85]},"properties":{"stationId":"EIDW","rawText":"EIDW 272130Z VRB03KT 9999 SCT018 BKN030 09/08 Q1026 NOSIG","observationTime":"2018-12-27T21:30:00Z","temp":9,"dewpoint":8,"windDirection":0,"windSpeed":5.556,"visibility":6.21,"altim":30.295275,"flightCategory":"MVFR","metarType":"METAR","geometry_esri":{"x":53.42,"y":-6.25,"z":85}}}