{"type":"Feature","geometry":{"type":"Point","coordinates":[40.48,-3.57,582]},"properties":{"stationId":"LEMD","rawText":"LEMD 170930Z 10004KT 350V160 9999 FEW050 15/07 Q1014 NOSIG","observationTime":"2019-04-17T09:30:00Z","temp":15,"dewpoint":7,"windDirection":100,"windSpeed":7.408,"visibility":6.21,"altim":29.940945,"flightCategory":"VFR","metarType":"METAR","geometry_esri":{"x":40.48,"y":-3.57,"z":582}}}