{"type":"Feature","geometry":{"type":"Point","coordinates":[40.48,-3.57,582]},"properties":{"stationId":"LEMD","rawText":"LEMD 191230Z 35013KT 310V040 9999 BKN065 15/M01 Q1024 NOSIG","observationTime":"2019-03-19T12:30:00Z","temp":15,"dewpoint":-1,"windDirection":350,"windSpeed":24.076,"visibility":6.21,"altim":30.236221,"flightCategory":"VFR","metarType":"METAR","geometry_esri":{"x":40.48,"y":-3.57,"z":582}}}