{"type":"Feature","geometry":{"type":"Point","coordinates":[53.42,-6.25,85]},"properties":{"stationId":"EIDW","rawText":"EIDW 042230Z 29016KT 9999 FEW017 BKN250 09/05 Q1025 NOSIG","observationTime":"2019-09-04T22:30:00Z","temp":9,"dewpoint":5,"windDirection":290,"windSpeed":29.632,"visibility":6.21,"altim":30.265747,"flightCategory":"VFR","metarType":"METAR","geometry_esri":{"x":53.42,"y":-6.25,"z":85}}}