{"type":"Feature","geometry":{"type":"Point","coordinates":[40.48,-3.57,582]},"properties":{"stationId":"LEMD","rawText":"LEMD 071330Z 18010KT 150V210 9999 FEW045 11/02 Q1015 NOSIG","observationTime":"2019-03-07T13:30:00Z","temp":11,"dewpoint":2,"windDirection":180,"windSpeed":18.52,"visibility":6.21,"altim":29.970472,"flightCategory":"VFR","metarType":"METAR","geometry_esri":{"x":40.48,"y":-3.57,"z":582}}}