{"type":"Feature","geometry":{"type":"Point","coordinates":[51.48,-0.45,24]},"properties":{"stationId":"EGLL","rawText":"EGLL 031350Z AUTO 27005KT 190V340 9999 SCT033/// //////CB 15/07 Q1014 TEMPO SHRA","observationTime":"2019-05-03T13:50:00Z","temp":15,"dewpoint":7,"windDirection":270,"windSpeed":9.26,"visibility":6.21,"altim":29.940945,"flightCategory":"VFR","metarType":"METAR","geometry_esri":{"x":51.48,"y":-0.45,"z":24}}}