{"type":"Feature","geometry":{"type":"Point","coordinates":[49.02,2.52,109]},"properties":{"stationId":"LFPG","rawText":"LFPG 231830Z 13008KT CAVOK 21/06 Q1016 NOSIG","observationTime":"2019-05-23T18:30:00Z","temp":21,"dewpoint":6,"windDirection":130,"windSpeed":14.816,"visibility":6.21,"altim":30,"flightCategory":"VFR","metarType":"METAR","geometry_esri":{"x":49.02,"y":2.52,"z":109}}}