{"type":"Feature","geometry":{"type":"Point","coordinates":[48.35,11.82,447]},"properties":{"stationId":"EDDM","rawText":"EDDM 111250Z 27015KT 9999 BKN013 OVC025 02/01 Q1017 BECMG BKN015","observationTime":"2019-02-11T12:50:00Z","temp":2,"dewpoint":1,"windDirection":270,"windSpeed":27.78,"visibility":6.21,"altim":30.029528,"flightCategory":"MVFR","metarType":"METAR","geometry_esri":{"x":48.35,"y":11.82,"z":447}}}