{"type":"Feature","geometry":{"type":"Point","coordinates":[40.48,-3.57,582]},"properties":{"stationId":"LEMD","rawText":"LEMD 071830Z 14004KT 110V190 CAVOK 11/02 Q1022 NOSIG","observationTime":"2019-02-07T18:30:00Z","temp":11,"dewpoint":2,"windDirection":140,"windSpeed":7.408,"visibility":6.21,"altim":30.177166,"flightCategory":"VFR","metarType":"METAR","geometry_esri":{"x":40.48,"y":-3.57,"z":582}}}