{"type":"Feature","geometry":{"type":"Point","coordinates":[40.48,-3.57,582]},"properties":{"stationId":"LEMD","rawText":"LEMD 190630Z 18009G19KT 150V210 CAVOK 19/10 Q1016 NOSIG","observationTime":"2019-06-19T06:30:00Z","temp":19,"dewpoint":10,"windDirection":180,"windSpeed":16.668,"visibility":6.21,"altim":30,"flightCategory":"VFR","metarType":"METAR","geometry_esri":{"x":40.48,"y":-3.57,"z":582}}}