{"type":"Feature","geometry":{"type":"Point","coordinates":[47.78,13.02,430]},"properties":{"stationId":"LOWS","rawText":"LOWS 130150Z AUTO VRB02KT 5000 -RASN BR FEW001 SCT014 BKN034 00/00 Q1004","observationTime":"2019-11-13T01:50:00Z","temp":0,"dewpoint":0,"windDirection":0,"windSpeed":3.704,"visibility":3.11,"altim":29.64567,"flightCategory":"MVFR","metarType":"METAR","geometry_esri":{"x":47.78,"y":13.02,"z":430}}}