{"type":"Feature","geometry":{"type":"Point","coordinates":[53.42,-6.25,85]},"properties":{"stationId":"EIDW","rawText":"EIDW 210030Z 15009KT 110V180 CAVOK 14/12 Q1012 NOSIG","observationTime":"2019-09-21T00:30:00Z","temp":14,"dewpoint":12,"windDirection":150,"windSpeed":16.668,"visibility":6.21,"altim":29.88189,"flightCategory":"VFR","metarType":"METAR","geometry_esri":{"x":53.42,"y":-6.25,"z":85}}}