{"type":"Feature","geometry":{"type":"Point","coordinates":[53.42,-6.25,85]},"properties":{"stationId":"EIDW","rawText":"EIDW 010730Z 27015KT 9999 FEW016 SCT150 BKN170 10/08 Q1017 NOSIG","observationTime":"2019-09-01T07:30:00Z","temp":10,"dewpoint":8,"windDirection":270,"windSpeed":27.78,"visibility":6.21,"altim":30.029528,"flightCategory":"VFR","metarType":"METAR","geometry_esri":{"x":53.42,"y":-6.25,"z":85}}}