{"type":"Feature","geometry":{"type":"Point","coordinates":[48.35,11.82,447]},"properties":{"stationId":"EDDM","rawText":"EDDM 121250Z 26008KT 230V300 9999 FEW048 22/11 Q1032 NOSIG","observationTime":"2019-09-12T12:50:00Z","temp":22,"dewpoint":11,"windDirection":260,"windSpeed":14.816,"visibility":6.21,"altim":30.47244,"flightCategory":"VFR","metarType":"METAR","geometry_esri":{"x":48.35,"y":11.82,"z":447}}}