{"type":"Feature","geometry":{"type":"Point","coordinates":[51.48,-0.45,24]},"properties":{"stationId":"EGLL","rawText":"EGLL 231350Z AUTO 09007KT 060V120 9999 NCD 14/11 Q1011","observationTime":"2019-10-23T13:50:00Z","temp":14,"dewpoint":11,"windDirection":90,"windSpeed":12.964,"visibility":6.21,"altim":29.852362,"flightCategory":"VFR","metarType":"METAR","geometry_esri":{"x":51.48,"y":-0.45,"z":24}}}