{"type":"Feature","geometry":{"type":"Point","coordinates":[47.78,13.02,430]},"properties":{"stationId":"LOWS","rawText":"LOWS 310150Z AUTO 30003KT 6000 -RA FEW007 BKN014 04/03 Q1022","observationTime":"2019-10-31T01:50:00Z","temp":4,"dewpoint":3,"windDirection":300,"windSpeed":5.556,"visibility":3.73,"altim":30.177166,"flightCategory":"MVFR","metarType":"METAR","geometry_esri":{"x":47.78,"y":13.02,"z":430}}}