{"type":"Feature","geometry":{"type":"Point","coordinates":[49.02,2.52,109]},"properties":{"stationId":"LFPG","rawText":"LFPG 111730Z 22008KT 190V250 9999 -SHRA FEW033CB SCT040 BKN093 15/09 Q1011 TEMPO 3500 SHRA SCT030CB","observationTime":"2019-06-11T17:30:00Z","temp":15,"dewpoint":9,"windDirection":220,"windSpeed":14.816,"visibility":6.21,"altim":29.852362,"flightCategory":"VFR","metarType":"METAR","geometry_esri":{"x":49.02,"y":2.52,"z":109}}}