{"type":"Feature","geometry":{"type":"Point","coordinates":[47.78,13.02,430]},"properties":{"stationId":"LOWS","rawText":"LOWS 060650Z 04003KT 3000 0350S R15/P1500D R33/0700D FZBCFG BKN002 M08/M09 Q1029 TEMPO 1200 FZBCFG","observationTime":"2019-02-06T06:50:00Z","temp":-8,"dewpoint":-9,"windDirection":40,"windSpeed":5.556,"visibility":1.86,"altim":30.383858,"flightCategory":"LIFR","metarType":"METAR","geometry_esri":{"x":47.78,"y":13.02,"z":430}}}