{"type":"Feature","geometry":{"type":"Point","coordinates":[40.48,-3.57,582]},"properties":{"stationId":"LEMD","rawText":"LEMD 291530Z 24014KT CAVOK 34/02 Q1011 NOSIG","observationTime":"2019-07-29T15:30:00Z","temp":34,"dewpoint":2,"windDirection":240,"windSpeed":25.928,"visibility":6.21,"altim":29.852362,"flightCategory":"VFR","metarType":"METAR","geometry_esri":{"x":40.48,"y":-3.57,"z":582}}}