{"type":"Feature","geometry":{"type":"Point","coordinates":[40.48,-3.57,582]},"properties":{"stationId":"LEMD","rawText":"LEMD 292330Z 15010KT 110V190 CAVOK 10/M01 Q1023 NOSIG","observationTime":"2019-03-29T23:30:00Z","temp":10,"dewpoint":-1,"windDirection":150,"windSpeed":18.52,"visibility":6.21,"altim":30.206694,"flightCategory":"VFR","metarType":"METAR","geometry_esri":{"x":40.48,"y":-3.57,"z":582}}}