{"type":"Feature","geometry":{"type":"Point","coordinates":[48.35,11.82,447]},"properties":{"stationId":"EDDM","rawText":"EDDM 041750Z 05003KT 6000 R08L/0550V0800N BCFG NSC M07/M08 Q1027 R88/190095 BECMG 4000 BR","observationTime":"2019-02-04T17:50:00Z","temp":-7,"dewpoint":-8,"windDirection":50,"windSpeed":5.556,"visibility":3.73,"altim":30.324802,"flightCategory":"MVFR","metarType":"METAR","geometry_esri":{"x":48.35,"y":11.82,"z":447}}}