{"type":"Feature","geometry":{"type":"Point","coordinates":[47.78,13.02,430]},"properties":{"stationId":"LOWS","rawText":"LOWS 010850Z 29003KT 250V340 7000 FEW006 06/04 Q1017 NOSIG","observationTime":"2019-11-01T08:50:00Z","temp":6,"dewpoint":4,"windDirection":290,"windSpeed":5.556,"visibility":4.35,"altim":30.029528,"flightCategory":"MVFR","metarType":"METAR","geometry_esri":{"x":47.78,"y":13.02,"z":430}}}