{"type":"Feature","geometry":{"type":"Point","coordinates":[53.42,-6.25,85]},"properties":{"stationId":"EIDW","rawText":"EIDW 121630Z 30014KT 9999 FEW015 06/03 Q1003 NOSIG","observationTime":"2019-11-12T16:30:00Z","temp":6,"dewpoint":3,"windDirection":300,"windSpeed":25.928,"visibility":6.21,"altim":29.616142,"flightCategory":"VFR","metarType":"METAR","geometry_esri":{"x":53.42,"y":-6.25,"z":85}}}