{"type":"Feature","geometry":{"type":"Point","coordinates":[53.42,-6.25,85]},"properties":{"stationId":"EIDW","rawText":"EIDW 111230Z 28013KT 230V300 9999 FEW019 SCT027 BKN038 20/13 Q1011 NOSIG","observationTime":"2019-07-11T12:30:00Z","temp":20,"dewpoint":13,"windDirection":280,"windSpeed":24.076,"visibility":6.21,"altim":29.852362,"flightCategory":"VFR","metarType":"METAR","geometry_esri":{"x":53.42,"y":-6.25,"z":85}}}