{"type":"Feature","geometry":{"type":"Point","coordinates":[48.35,11.82,447]},"properties":{"stationId":"EDDM","rawText":"EDDM 251450Z 11003KT 070V240 CAVOK 30/19 Q1022 NOSIG","observationTime":"2019-06-25T14:50:00Z","temp":30,"dewpoint":19,"windDirection":110,"windSpeed":5.556,"visibility":6.21,"altim":30.177166,"flightCategory":"VFR","metarType":"METAR","geometry_esri":{"x":48.35,"y":11.82,"z":447}}}