{"type":"Feature","geometry":{"type":"Point","coordinates":[40.48,-3.57,582]},"properties":{"stationId":"LEMD","rawText":"LEMD 040130Z 15007KT 110V170 9999 FEW070 25/11 Q1015 NOSIG","observationTime":"2019-07-04T01:30:00Z","temp":25,"dewpoint":11,"windDirection":150,"windSpeed":12.964,"visibility":6.21,"altim":29.970472,"flightCategory":"VFR","metarType":"METAR","geometry_esri":{"x":40.48,"y":-3.57,"z":582}}}