{"type":"Feature","geometry":{"type":"Point","coordinates":[49.02,2.52,109]},"properties":{"stationId":"LFPG","rawText":"LFPG 021730Z 33011KT CAVOK 12/02 Q1019 NOSIG","observationTime":"2019-10-02T17:30:00Z","temp":12,"dewpoint":2,"windDirection":330,"windSpeed":20.372,"visibility":6.21,"altim":30.088583,"flightCategory":"VFR","metarType":"METAR","geometry_esri":{"x":49.02,"y":2.52,"z":109}}}