{"type":"Feature","geometry":{"type":"Point","coordinates":[49.02,2.52,109]},"properties":{"stationId":"LFPG","rawText":"LFPG 070230Z 27010KT 9999 SCT035 BKN050 13/09 Q1015 NOSIG","observationTime":"2019-10-07T02:30:00Z","temp":13,"dewpoint":9,"windDirection":270,"windSpeed":18.52,"visibility":6.21,"altim":29.970472,"flightCategory":"VFR","metarType":"METAR","geometry_esri":{"x":49.02,"y":2.52,"z":109}}}