{"type":"Feature","geometry":{"type":"Point","coordinates":[48.35,11.82,447]},"properties":{"stationId":"EDDM","rawText":"EDDM 100450Z VRB01KT CAVOK 21/19 Q1015 TEMPO SHRA BKN040CB","observationTime":"2019-08-10T04:50:00Z","temp":21,"dewpoint":19,"windDirection":0,"windSpeed":1.852,"visibility":6.21,"altim":29.970472,"flightCategory":"VFR","metarType":"METAR","geometry_esri":{"x":48.35,"y":11.82,"z":447}}}