{"type":"Feature","geometry":{"type":"Point","coordinates":[49.02,2.52,109]},"properties":{"stationId":"LFPG","rawText":"LFPG 040630Z 18005KT CAVOK 04/01 Q0998 NOSIG","observationTime":"2019-04-04T06:30:00Z","temp":4,"dewpoint":1,"windDirection":180,"windSpeed":9.26,"visibility":6.21,"altim":29.468504,"flightCategory":"VFR","metarType":"METAR","geometry_esri":{"x":49.02,"y":2.52,"z":109}}}