{"type":"Feature","geometry":{"type":"Point","coordinates":[49.02,2.52,109]},"properties":{"stationId":"LFPG","rawText":"LFPG 031847Z 05009KT 020V100 0500 R27L/0800N R09R/0800N R26R/1400U R08L/1600U R26L/1400U R08R/1300D R27R/0800N R09L/0600N FG VV/// 03/02 Q1026 NOSIG","observationTime":"2019-12-03T18:47:00Z","temp":3,"dewpoint":2,"windDirection":50,"windSpeed":16.668,"visibility":0.31,"altim":30.295275,"flightCategory":"LIFR","metarType":"METAR","geometry_esri":{"x":49.02,"y":2.52,"z":109}}}