{"type":"Feature","geometry":{"type":"Point","coordinates":[53.42,-6.25,85]},"properties":{"stationId":"EIDW","rawText":"EIDW 111830Z 04010KT 010V090 9999 FEW022 BKN045 BKN250 13/08 Q1020 NOSIG","observationTime":"2019-06-11T18:30:00Z","temp":13,"dewpoint":8,"windDirection":40,"windSpeed":18.52,"visibility":6.21,"altim":30.11811,"flightCategory":"VFR","metarType":"METAR","geometry_esri":{"x":53.42,"y":-6.25,"z":85}}}