{"type":"Feature","geometry":{"type":"Point","coordinates":[40.48,-3.57,582]},"properties":{"stationId":"LEMD","rawText":"LEMD 221730Z 15005KT 100V210 CAVOK 32/05 Q1019 NOSIG","observationTime":"2019-08-22T17:30:00Z","temp":32,"dewpoint":5,"windDirection":150,"windSpeed":9.26,"visibility":6.21,"altim":30.088583,"flightCategory":"VFR","metarType":"METAR","geometry_esri":{"x":40.48,"y":-3.57,"z":582}}}