{"type":"Feature","geometry":{"type":"Point","coordinates":[48.35,11.82,447]},"properties":{"stationId":"EDDM","rawText":"EDDM 211050Z 25018KT 4500 -RADZ SCT011 BKN020 12/10 Q1008 TEMPO 25020G30KT RADZ BKN008","observationTime":"2019-05-21T10:50:00Z","temp":12,"dewpoint":10,"windDirection":250,"windSpeed":33.336,"visibility":2.8,"altim":29.763779,"flightCategory":"IFR","metarType":"METAR","geometry_esri":{"x":48.35,"y":11.82,"z":447}}}