{"type":"Feature","geometry":{"type":"Point","coordinates":[40.48,-3.57,582]},"properties":{"stationId":"LEMD","rawText":"LEMD 101230Z 22012G23KT 190V330 9999 FEW040 SCT070 23/12 Q1015 NOSIG","observationTime":"2019-05-10T12:30:00Z","temp":23,"dewpoint":12,"windDirection":220,"windSpeed":22.224,"visibility":6.21,"altim":29.970472,"flightCategory":"VFR","metarType":"METAR","geometry_esri":{"x":40.48,"y":-3.57,"z":582}}}