{"type":"Feature","geometry":{"type":"Point","coordinates":[47.78,13.02,430]},"properties":{"stationId":"LOWS","rawText":"LOWS 270750Z 14009KT 9999 FEW045 BKN200 M00/M03 Q0998 R88/////// NOSIG","observationTime":"2019-01-27T07:50:00Z","temp":0,"dewpoint":-3,"windDirection":140,"windSpeed":16.668,"visibility":6.21,"altim":29.468504,"flightCategory":"VFR","metarType":"METAR","geometry_esri":{"x":47.78,"y":13.02,"z":430}}}