{"type":"Feature","geometry":{"type":"Point","coordinates":[40.48,-3.57,582]},"properties":{"stationId":"LEMD","rawText":"LEMD 010030Z 35003KT CAVOK 15/05 Q1016 NOSIG","observationTime":"2019-10-01T00:30:00Z","temp":15,"dewpoint":5,"windDirection":350,"windSpeed":5.556,"visibility":6.21,"altim":30,"flightCategory":"VFR","metarType":"METAR","geometry_esri":{"x":40.48,"y":-3.57,"z":582}}}