{"type":"Feature","geometry":{"type":"Point","coordinates":[53.42,-6.25,85]},"properties":{"stationId":"EIDW","rawText":"EIDW 241530Z 11006KT 080V150 3500 -RA FEW010 BKN018 BKN024 11/10 Q0988 TEMPO BKN008","observationTime":"2019-04-24T15:30:00Z","temp":11,"dewpoint":10,"windDirection":110,"windSpeed":11.112,"visibility":2.17,"altim":29.17323,"flightCategory":"IFR","metarType":"METAR","geometry_esri":{"x":53.42,"y":-6.25,"z":85}}}