{"type":"Feature","geometry":{"type":"Point","coordinates":[40.48,-3.57,582]},"properties":{"stationId":"LEMD","rawText":"LEMD 121630Z 18009KT 110V240 CAVOK 27/09 Q1015 NOSIG","observationTime":"2019-10-12T16:30:00Z","temp":27,"dewpoint":9,"windDirection":180,"windSpeed":16.668,"visibility":6.21,"altim":29.970472,"flightCategory":"VFR","metarType":"METAR","geometry_esri":{"x":40.48,"y":-3.57,"z":582}}}