{"type":"Feature","geometry":{"type":"Point","coordinates":[51.48,-0.45,24]},"properties":{"stationId":"EGLL","rawText":"EGLL 161050Z AUTO 08009KT 030V130 9999 NCD 18/04 Q1019 NOSIG","observationTime":"2019-05-16T10:50:00Z","temp":18,"dewpoint":4,"windDirection":80,"windSpeed":16.668,"visibility":6.21,"altim":30.088583,"flightCategory":"VFR","metarType":"METAR","geometry_esri":{"x":51.48,"y":-0.45,"z":24}}}