{"type":"Feature","geometry":{"type":"Point","coordinates":[49.02,2.52,109]},"properties":{"stationId":"LFPG","rawText":"LFPG 190930Z 32007KT 290V350 6000 FEW007 BKN067 16/11 Q1007 NOSIG","observationTime":"2019-05-19T09:30:00Z","temp":16,"dewpoint":11,"windDirection":320,"windSpeed":12.964,"visibility":3.73,"altim":29.734253,"flightCategory":"MVFR","metarType":"METAR","geometry_esri":{"x":49.02,"y":2.52,"z":109}}}