{"type":"Feature","geometry":{"type":"Point","coordinates":[47.78,13.02,430]},"properties":{"stationId":"LOWS","rawText":"LOWS 032050Z 29008KT 6000 -SN FEW007 SCT012 BKN024 M00/M02 Q1022 R15/590195 TEMPO 4000","observationTime":"2019-02-03T20:50:00Z","temp":0,"dewpoint":-2,"windDirection":290,"windSpeed":14.816,"visibility":3.73,"altim":30.177166,"flightCategory":"MVFR","metarType":"METAR","geometry_esri":{"x":47.78,"y":13.02,"z":430}}}