{"type":"Feature","geometry":{"type":"Point","coordinates":[53.42,-6.25,85]},"properties":{"stationId":"EIDW","rawText":"EIDW 052030Z 06008KT 8000 -RA SCT005 SCT016 BKN022 07/06 Q1003 NOSIG","observationTime":"2019-04-05T20:30:00Z","temp":7,"dewpoint":6,"windDirection":60,"windSpeed":14.816,"visibility":4.97,"altim":29.616142,"flightCategory":"MVFR","metarType":"METAR","geometry_esri":{"x":53.42,"y":-6.25,"z":85}}}