{"type":"Feature","geometry":{"type":"Point","coordinates":[51.48,-0.45,24]},"properties":{"stationId":"EGLL","rawText":"EGLL 212250Z AUTO 35004KT 310V020 9999 NCD 14/06 Q1020 NOSIG","observationTime":"2019-05-21T22:50:00Z","temp":14,"dewpoint":6,"windDirection":350,"windSpeed":7.408,"visibility":6.21,"altim":30.11811,"flightCategory":"VFR","metarType":"METAR","geometry_esri":{"x":51.48,"y":-0.45,"z":24}}}