{"type":"Feature","geometry":{"type":"Point","coordinates":[51.48,-0.45,24]},"properties":{"stationId":"EGLL","rawText":"EGLL 051950Z 23008KT CAVOK 16/07 Q1007","observationTime":"2019-06-05T19:50:00Z","temp":16,"dewpoint":7,"windDirection":230,"windSpeed":14.816,"visibility":6.21,"altim":29.734253,"flightCategory":"VFR","metarType":"METAR","geometry_esri":{"x":51.48,"y":-0.45,"z":24}}}