{"type":"Feature","geometry":{"type":"Point","coordinates":[51.48,-0.45,24]},"properties":{"stationId":"EGLL","rawText":"EGLL 300750Z AUTO 22009KT 9999 NCD 17/14 Q1022","observationTime":"2019-08-30T07:50:00Z","temp":17,"dewpoint":14,"windDirection":220,"windSpeed":16.668,"visibility":6.21,"altim":30.177166,"flightCategory":"VFR","metarType":"METAR","geometry_esri":{"x":51.48,"y":-0.45,"z":24}}}