{"type":"Feature","geometry":{"type":"Point","coordinates":[47.78,13.02,430]},"properties":{"stationId":"LOWS","rawText":"LOWS 081950Z 13005KT 9999 SCT090 18/08 Q1025 NOSIG","observationTime":"2019-06-08T19:50:00Z","temp":18,"dewpoint":8,"windDirection":130,"windSpeed":9.26,"visibility":6.21,"altim":30.265747,"flightCategory":"VFR","metarType":"METAR","geometry_esri":{"x":47.78,"y":13.02,"z":430}}}