{"type":"Feature","geometry":{"type":"Point","coordinates":[48.35,11.82,447]},"properties":{"stationId":"EDDM","rawText":"EDDM 310250Z 06004KT CAVOK 03/00 Q1022 NOSIG","observationTime":"2019-10-31T02:50:00Z","temp":3,"dewpoint":0,"windDirection":60,"windSpeed":7.408,"visibility":6.21,"altim":30.177166,"flightCategory":"VFR","metarType":"METAR","geometry_esri":{"x":48.35,"y":11.82,"z":447}}}