{"type":"Feature","geometry":{"type":"Point","coordinates":[49.02,2.52,109]},"properties":{"stationId":"LFPG","rawText":"LFPG 151530Z 15005KT 110V170 CAVOK 16/02 Q1027 NOSIG","observationTime":"2019-02-15T15:30:00Z","temp":16,"dewpoint":2,"windDirection":150,"windSpeed":9.26,"visibility":6.21,"altim":30.324802,"flightCategory":"VFR","metarType":"METAR","geometry_esri":{"x":49.02,"y":2.52,"z":109}}}