{"type":"Feature","geometry":{"type":"Point","coordinates":[40.48,-3.57,582]},"properties":{"stationId":"LEMD","rawText":"LEMD 030930Z 02007KT 350V060 CAVOK 05/00 Q1017 NOSIG","observationTime":"2019-12-03T09:30:00Z","temp":5,"dewpoint":0,"windDirection":20,"windSpeed":12.964,"visibility":6.21,"altim":30.029528,"flightCategory":"VFR","metarType":"METAR","geometry_esri":{"x":40.48,"y":-3.57,"z":582}}}