{"type":"Feature","geometry":{"type":"Point","coordinates":[47.78,13.02,430]},"properties":{"stationId":"LOWS","rawText":"LOWS 101450Z VRB05KT 9999 FEW018 SCT044 BKN050 13/08 Q1020 NOSIG","observationTime":"2019-10-10T14:50:00Z","temp":13,"dewpoint":8,"windDirection":0,"windSpeed":9.26,"visibility":6.21,"altim":30.11811,"flightCategory":"VFR","metarType":"METAR","geometry_esri":{"x":47.78,"y":13.02,"z":430}}}