{"type":"Feature","geometry":{"type":"Point","coordinates":[48.35,11.82,447]},"properties":{"stationId":"EDDM","rawText":"EDDM 032350Z 05004KT CAVOK M02/M03 Q1025 NOSIG","observationTime":"2019-12-03T23:50:00Z","temp":-2,"dewpoint":-3,"windDirection":50,"windSpeed":7.408,"visibility":6.21,"altim":30.265747,"flightCategory":"VFR","metarType":"METAR","geometry_esri":{"x":48.35,"y":11.82,"z":447}}}