{"type":"Feature","geometry":{"type":"Point","coordinates":[48.35,11.82,447]},"properties":{"stationId":"EDDM","rawText":"EDDM 020050Z 20001KT CAVOK 12/11 Q1021 NOSIG","observationTime":"2019-06-02T00:50:00Z","temp":12,"dewpoint":11,"windDirection":200,"windSpeed":1.852,"visibility":6.21,"altim":30.147638,"flightCategory":"VFR","metarType":"METAR","geometry_esri":{"x":48.35,"y":11.82,"z":447}}}