{"type":"Feature","geometry":{"type":"Point","coordinates":[51.48,-0.45,24]},"properties":{"stationId":"EGLL","rawText":"EGLL 061350Z AUTO 24014KT 9999 BKN022 17/12 Q1020 NOSIG","observationTime":"2019-09-06T13:50:00Z","temp":17,"dewpoint":12,"windDirection":240,"windSpeed":25.928,"visibility":6.21,"altim":30.11811,"flightCategory":"MVFR","metarType":"METAR","geometry_esri":{"x":51.48,"y":-0.45,"z":24}}}