{"type":"Feature","geometry":{"type":"Point","coordinates":[53.42,-6.25,85]},"properties":{"stationId":"EIDW","rawText":"EIDW 220830Z 14006KT 100V190 9999 FEW023 BKN220 16/07 Q1020 NOSIG","observationTime":"2019-06-22T08:30:00Z","temp":16,"dewpoint":7,"windDirection":140,"windSpeed":11.112,"visibility":6.21,"altim":30.11811,"flightCategory":"VFR","metarType":"METAR","geometry_esri":{"x":53.42,"y":-6.25,"z":85}}}