{"type":"Feature","geometry":{"type":"Point","coordinates":[49.02,2.52,109]},"properties":{"stationId":"LFPG","rawText":"LFPG 040630Z 02009KT 340V070 CAVOK 15/08 Q1024 NOSIG","observationTime":"2019-07-04T06:30:00Z","temp":15,"dewpoint":8,"windDirection":20,"windSpeed":16.668,"visibility":6.21,"altim":30.236221,"flightCategory":"VFR","metarType":"METAR","geometry_esri":{"x":49.02,"y":2.52,"z":109}}}