{"type":"Feature","geometry":{"type":"Point","coordinates":[40.48,-3.57,582]},"properties":{"stationId":"LEMD","rawText":"LEMD 051530Z 28013KT 260V320 9999 SCT080 21/M02 Q1012 NOSIG","observationTime":"2019-06-05T15:30:00Z","temp":21,"dewpoint":-2,"windDirection":280,"windSpeed":24.076,"visibility":6.21,"altim":29.88189,"flightCategory":"VFR","metarType":"METAR","geometry_esri":{"x":40.48,"y":-3.57,"z":582}}}