{"type":"Feature","geometry":{"type":"Point","coordinates":[49.02,2.52,109]},"properties":{"stationId":"LFPG","rawText":"LFPG 211530Z 15010KT 110V180 CAVOK 27/12 Q1011 NOSIG","observationTime":"2019-09-21T15:30:00Z","temp":27,"dewpoint":12,"windDirection":150,"windSpeed":18.52,"visibility":6.21,"altim":29.852362,"flightCategory":"VFR","metarType":"METAR","geometry_esri":{"x":49.02,"y":2.52,"z":109}}}