{"type":"Feature","geometry":{"type":"Point","coordinates":[40.48,-3.57,582]},"properties":{"stationId":"LEMD","rawText":"LEMD 301830Z 25005KT 220V290 9999 FEW060 BKN080 18/12 Q1023 NOSIG","observationTime":"2019-10-30T18:30:00Z","temp":18,"dewpoint":12,"windDirection":250,"windSpeed":9.26,"visibility":6.21,"altim":30.206694,"flightCategory":"VFR","metarType":"METAR","geometry_esri":{"x":40.48,"y":-3.57,"z":582}}}