{"type":"Feature","geometry":{"type":"Point","coordinates":[48.35,11.82,447]},"properties":{"stationId":"EDDM","rawText":"EDDM 131350Z 25025KT 9999 -SHGSRA FEW035CB SCT045TCU 08/M02 Q1011 TEMPO 26025G40KT 4000 SHGSRA","observationTime":"2019-03-13T13:50:00Z","temp":8,"dewpoint":-2,"windDirection":250,"windSpeed":46.300000000000004,"visibility":6.21,"altim":29.852362,"flightCategory":"VFR","metarType":"METAR","geometry_esri":{"x":48.35,"y":11.82,"z":447}}}