{"type":"Feature","geometry":{"type":"Point","coordinates":[48.35,11.82,447]},"properties":{"stationId":"EDDM","rawText":"EDDM 302050Z 08010KT CAVOK 05/01 Q1023 NOSIG","observationTime":"2019-10-30T20:50:00Z","temp":5,"dewpoint":1,"windDirection":80,"windSpeed":18.52,"visibility":6.21,"altim":30.206694,"flightCategory":"VFR","metarType":"METAR","geometry_esri":{"x":48.35,"y":11.82,"z":447}}}