{"type":"Feature","geometry":{"type":"Point","coordinates":[53.42,-6.25,85]},"properties":{"stationId":"EIDW","rawText":"EIDW 231030Z 14012KT 110V170 9999 FEW012 21/17 Q1015 NOSIG","observationTime":"2019-07-23T10:30:00Z","temp":21,"dewpoint":17,"windDirection":140,"windSpeed":22.224,"visibility":6.21,"altim":29.970472,"flightCategory":"VFR","metarType":"METAR","geometry_esri":{"x":53.42,"y":-6.25,"z":85}}}