{"type":"Feature","geometry":{"type":"Point","coordinates":[40.48,-3.57,582]},"properties":{"stationId":"LEMD","rawText":"LEMD 210930Z 04004KT 350V100 9999 OVC030 23/15 Q1022 NOSIG","observationTime":"2019-08-21T09:30:00Z","temp":23,"dewpoint":15,"windDirection":40,"windSpeed":7.408,"visibility":6.21,"altim":30.177166,"flightCategory":"MVFR","metarType":"METAR","geometry_esri":{"x":40.48,"y":-3.57,"z":582}}}