{"type":"Feature","geometry":{"type":"Point","coordinates":[47.78,13.02,430]},"properties":{"stationId":"LOWS","rawText":"LOWS 171650Z 15013G24KT 120V180 CAVOK 13/05 Q1000 NOSIG","observationTime":"2019-11-17T16:50:00Z","temp":13,"dewpoint":5,"windDirection":150,"windSpeed":24.076,"visibility":6.21,"altim":29.52756,"flightCategory":"VFR","metarType":"METAR","geometry_esri":{"x":47.78,"y":13.02,"z":430}}}