{"type":"Feature","geometry":{"type":"Point","coordinates":[51.48,-0.45,24]},"properties":{"stationId":"EGLL","rawText":"EGLL 190850Z AUTO VRB02KT 3900 BR OVC034 01/01 Q1018 BECMG 5000","observationTime":"2019-11-19T08:50:00Z","temp":1,"dewpoint":1,"windDirection":0,"windSpeed":3.704,"visibility":2.42,"altim":30.059055,"flightCategory":"IFR","metarType":"METAR","geometry_esri":{"x":51.48,"y":-0.45,"z":24}}}