{"type":"Feature","geometry":{"type":"Point","coordinates":[40.48,-3.57,582]},"properties":{"stationId":"LEMD","rawText":"LEMD 010330Z 36003KT CAVOK 12/05 Q1015 NOSIG","observationTime":"2019-10-01T03:30:00Z","temp":12,"dewpoint":5,"windDirection":360,"windSpeed":5.556,"visibility":6.21,"altim":29.970472,"flightCategory":"VFR","metarType":"METAR","geometry_esri":{"x":40.48,"y":-3.57,"z":582}}}