{"type":"Feature","geometry":{"type":"Point","coordinates":[49.02,2.52,109]},"properties":{"stationId":"LFPG","rawText":"LFPG 242230Z 05005KT CAVOK 03/01 Q1035 NOSIG","observationTime":"2018-12-24T22:30:00Z","temp":3,"dewpoint":1,"windDirection":50,"windSpeed":9.26,"visibility":6.21,"altim":30.561024,"flightCategory":"VFR","metarType":"METAR","geometry_esri":{"x":49.02,"y":2.52,"z":109}}}