{"type":"Feature","geometry":{"type":"Point","coordinates":[48.35,11.82,447]},"properties":{"stationId":"EDDM","rawText":"EDDM 251350Z 15018KT 130V190 CAVOK 24/M01 Q1009 TEMPO 16015G25KT","observationTime":"2019-04-25T13:50:00Z","temp":24,"dewpoint":-1,"windDirection":150,"windSpeed":33.336,"visibility":6.21,"altim":29.793306,"flightCategory":"VFR","metarType":"METAR","geometry_esri":{"x":48.35,"y":11.82,"z":447}}}