{"type":"Feature","geometry":{"type":"Point","coordinates":[40.48,-3.57,582]},"properties":{"stationId":"LEMD","rawText":"LEMD 302130Z 19008KT 9000 -RA FEW009 BKN012 OVC020 07/07 Q1006 R88/29//95 TEMPO RA BKN015","observationTime":"2019-01-30T21:30:00Z","temp":7,"dewpoint":7,"windDirection":190,"windSpeed":14.816,"visibility":5.59,"altim":29.704725,"flightCategory":"MVFR","metarType":"METAR","geometry_esri":{"x":40.48,"y":-3.57,"z":582}}}