{"type":"Feature","geometry":{"type":"Point","coordinates":[51.48,-0.45,24]},"properties":{"stationId":"EGLL","rawText":"EGLL 280850Z AUTO 08010KT 050V120 9999 NCD 18/12 Q1026 NOSIG","observationTime":"2019-06-28T08:50:00Z","temp":18,"dewpoint":12,"windDirection":80,"windSpeed":18.52,"visibility":6.21,"altim":30.295275,"flightCategory":"VFR","metarType":"METAR","geometry_esri":{"x":51.48,"y":-0.45,"z":24}}}