{"type":"Feature","geometry":{"type":"Point","coordinates":[47.78,13.02,430]},"properties":{"stationId":"LOWS","rawText":"LOWS 192050Z 18004KT 150V210 9999 FEW050 BKN070 03/M01 Q1030 NOSIG","observationTime":"2019-03-19T20:50:00Z","temp":3,"dewpoint":-1,"windDirection":180,"windSpeed":7.408,"visibility":6.21,"altim":30.413385,"flightCategory":"VFR","metarType":"METAR","geometry_esri":{"x":47.78,"y":13.02,"z":430}}}