{"type":"Feature","geometry":{"type":"Point","coordinates":[49.02,2.52,109]},"properties":{"stationId":"LFPG","rawText":"LFPG 171230Z 04004KT 330V080 9999 FEW039 BKN070 18/07 Q1005 NOSIG","observationTime":"2019-05-17T12:30:00Z","temp":18,"dewpoint":7,"windDirection":40,"windSpeed":7.408,"visibility":6.21,"altim":29.675198,"flightCategory":"VFR","metarType":"METAR","geometry_esri":{"x":49.02,"y":2.52,"z":109}}}