{"type":"Feature","geometry":{"type":"Point","coordinates":[47.78,13.02,430]},"properties":{"stationId":"LOWS","rawText":"LOWS 022350Z AUTO 18003KT 150V230 9999 FEW038 SCT050 19/16 Q1019","observationTime":"2019-07-02T23:50:00Z","temp":19,"dewpoint":16,"windDirection":180,"windSpeed":5.556,"visibility":6.21,"altim":30.088583,"flightCategory":"VFR","metarType":"METAR","geometry_esri":{"x":47.78,"y":13.02,"z":430}}}