{"type":"Feature","geometry":{"type":"Point","coordinates":[48.35,11.82,447]},"properties":{"stationId":"EDDM","rawText":"EDDM 261050Z VRB03KT CAVOK 14/10 Q1022 NOSIG","observationTime":"2019-10-26T10:50:00Z","temp":14,"dewpoint":10,"windDirection":0,"windSpeed":5.556,"visibility":6.21,"altim":30.177166,"flightCategory":"VFR","metarType":"METAR","geometry_esri":{"x":48.35,"y":11.82,"z":447}}}