{"type":"Feature","geometry":{"type":"Point","coordinates":[53.42,-6.25,85]},"properties":{"stationId":"EIDW","rawText":"EIDW 250730Z 06007KT 010V080 9999 FEW010 BKN024 BKN120 09/08 Q0992 NOSIG","observationTime":"2019-04-25T07:30:00Z","temp":9,"dewpoint":8,"windDirection":60,"windSpeed":12.964,"visibility":6.21,"altim":29.291338,"flightCategory":"MVFR","metarType":"METAR","geometry_esri":{"x":53.42,"y":-6.25,"z":85}}}