{"type":"Feature","geometry":{"type":"Point","coordinates":[40.48,-3.57,582]},"properties":{"stationId":"LEMD","rawText":"LEMD 191230Z 15005KT 090V220 9999 FEW045 28/13 Q1017 NOSIG","observationTime":"2019-09-19T12:30:00Z","temp":28,"dewpoint":13,"windDirection":150,"windSpeed":9.26,"visibility":6.21,"altim":30.029528,"flightCategory":"VFR","metarType":"METAR","geometry_esri":{"x":40.48,"y":-3.57,"z":582}}}