{"type":"Feature","geometry":{"type":"Point","coordinates":[49.02,2.52,109]},"properties":{"stationId":"LFPG","rawText":"LFPG 051230Z 31009KT 280V340 9999 SCT043 BKN066 17/08 Q1025 NOSIG","observationTime":"2019-09-05T12:30:00Z","temp":17,"dewpoint":8,"windDirection":310,"windSpeed":16.668,"visibility":6.21,"altim":30.265747,"flightCategory":"VFR","metarType":"METAR","geometry_esri":{"x":49.02,"y":2.52,"z":109}}}