{"type":"Feature","geometry":{"type":"Point","coordinates":[48.35,11.82,447]},"properties":{"stationId":"EDDM","rawText":"EDDM 061850Z 06006KT CAVOK 12/03 Q1002 NOSIG","observationTime":"2019-04-06T18:50:00Z","temp":12,"dewpoint":3,"windDirection":60,"windSpeed":11.112,"visibility":6.21,"altim":29.586615,"flightCategory":"VFR","metarType":"METAR","geometry_esri":{"x":48.35,"y":11.82,"z":447}}}