{"type":"Feature","geometry":{"type":"Point","coordinates":[49.02,2.52,109]},"properties":{"stationId":"LFPG","rawText":"LFPG 300630Z 29012KT 9999 FEW013 SCT017 BKN100 01/00 Q0994 R27L/59//42 R27R/590434 NOSIG","observationTime":"2019-01-30T06:30:00Z","temp":1,"dewpoint":0,"windDirection":290,"windSpeed":22.224,"visibility":6.21,"altim":29.350393,"flightCategory":"VFR","metarType":"SPECI","geometry_esri":{"x":49.02,"y":2.52,"z":109}}}