{"type":"Feature","geometry":{"type":"Point","coordinates":[53.42,-6.25,85]},"properties":{"stationId":"EIDW","rawText":"EIDW 280630Z 34006KT 9999 FEW025 M01/M01 Q1027 NOSIG","observationTime":"2019-10-28T06:30:00Z","temp":-1,"dewpoint":-1,"windDirection":340,"windSpeed":11.112,"visibility":6.21,"altim":30.324802,"flightCategory":"VFR","metarType":"METAR","geometry_esri":{"x":53.42,"y":-6.25,"z":85}}}