{"type":"Feature","geometry":{"type":"Point","coordinates":[47.78,13.02,430]},"properties":{"stationId":"LOWS","rawText":"LOWS 151850Z 16009KT 9999 -SHRA FEW015 FEW050CB BKN080 18/17 Q1015 RERA TEMPO SHRA","observationTime":"2019-06-15T18:50:00Z","temp":18,"dewpoint":17,"windDirection":160,"windSpeed":16.668,"visibility":6.21,"altim":29.970472,"flightCategory":"VFR","metarType":"METAR","geometry_esri":{"x":47.78,"y":13.02,"z":430}}}