{"type":"Feature","geometry":{"type":"Point","coordinates":[49.02,2.52,109]},"properties":{"stationId":"LFPG","rawText":"LFPG 060830Z 18012KT 140V230 CAVOK 10/03 Q0999 NOSIG","observationTime":"2019-03-06T08:30:00Z","temp":10,"dewpoint":3,"windDirection":180,"windSpeed":22.224,"visibility":6.21,"altim":29.498032,"flightCategory":"VFR","metarType":"METAR","geometry_esri":{"x":49.02,"y":2.52,"z":109}}}