{"type":"Feature","geometry":{"type":"Point","coordinates":[51.48,-0.45,24]},"properties":{"stationId":"EGLL","rawText":"EGLL 250450Z AUTO 04002KT 7000 NCD 16/14 Q1017 NOSIG","observationTime":"2019-08-25T04:50:00Z","temp":16,"dewpoint":14,"windDirection":40,"windSpeed":3.704,"visibility":4.35,"altim":30.029528,"flightCategory":"MVFR","metarType":"METAR","geometry_esri":{"x":51.48,"y":-0.45,"z":24}}}