{"type":"Feature","geometry":{"type":"Point","coordinates":[48.35,11.82,447]},"properties":{"stationId":"EDDM","rawText":"EDDM 162350Z 23003KT CAVOK M02/M03 Q1008 NOSIG","observationTime":"2019-01-16T23:50:00Z","temp":-2,"dewpoint":-3,"windDirection":230,"windSpeed":5.556,"visibility":6.21,"altim":29.763779,"flightCategory":"VFR","metarType":"METAR","geometry_esri":{"x":48.35,"y":11.82,"z":447}}}