{"type":"Feature","geometry":{"type":"Point","coordinates":[40.48,-3.57,582]},"properties":{"stationId":"LEMD","rawText":"LEMD 180230Z 17004KT 4500 DZ BR FEW006 BKN010 15/14 Q1018 NOSIG","observationTime":"2019-10-18T02:30:00Z","temp":15,"dewpoint":14,"windDirection":170,"windSpeed":7.408,"visibility":2.8,"altim":30.059055,"flightCategory":"IFR","metarType":"METAR","geometry_esri":{"x":40.48,"y":-3.57,"z":582}}}