{"type":"Feature","geometry":{"type":"Point","coordinates":[49.02,2.52,109]},"properties":{"stationId":"LFPG","rawText":"LFPG 091130Z 23020KT 9999 SCT025 BKN039 15/08 Q1010 TEMPO SHRA SCT015TCU","observationTime":"2019-10-09T11:30:00Z","temp":15,"dewpoint":8,"windDirection":230,"windSpeed":37.04,"visibility":6.21,"altim":29.822834,"flightCategory":"VFR","metarType":"METAR","geometry_esri":{"x":49.02,"y":2.52,"z":109}}}