{"type":"Feature","geometry":{"type":"Point","coordinates":[53.42,-6.25,85]},"properties":{"stationId":"EIDW","rawText":"EIDW 061730Z 16010KT 130V190 9999 FEW018 SCT043 BKN240 08/04 Q1005 NOSIG","observationTime":"2019-02-06T17:30:00Z","temp":8,"dewpoint":4,"windDirection":160,"windSpeed":18.52,"visibility":6.21,"altim":29.675198,"flightCategory":"VFR","metarType":"METAR","geometry_esri":{"x":53.42,"y":-6.25,"z":85}}}