{"type":"Feature","geometry":{"type":"Point","coordinates":[51.48,-0.45,24]},"properties":{"stationId":"EGLL","rawText":"EGLL 012250Z AUTO 35006KT 310V030 7000 -RA BKN010 OVC015 02/01 Q0996 TEMPO SCT010 BKN015","observationTime":"2019-02-01T22:50:00Z","temp":2,"dewpoint":1,"windDirection":350,"windSpeed":11.112,"visibility":4.35,"altim":29.409449,"flightCategory":"MVFR","metarType":"METAR","geometry_esri":{"x":51.48,"y":-0.45,"z":24}}}