{"type":"Feature","geometry":{"type":"Point","coordinates":[47.78,13.02,430]},"properties":{"stationId":"LOWS","rawText":"LOWS 200950Z 31005KT 280V010 9999 FEW040 13/07 Q1028 NOSIG","observationTime":"2019-09-20T09:50:00Z","temp":13,"dewpoint":7,"windDirection":310,"windSpeed":9.26,"visibility":6.21,"altim":30.35433,"flightCategory":"VFR","metarType":"METAR","geometry_esri":{"x":47.78,"y":13.02,"z":430}}}