{"type":"Feature","geometry":{"type":"Point","coordinates":[40.48,-3.57,582]},"properties":{"stationId":"LEMD","rawText":"LEMD 302230Z 20008KT 9000 -RA SCT008 BKN009 OVC015 07/07 Q1006 R88/29//95 TEMPO RA BKN015","observationTime":"2019-01-30T22:30:00Z","temp":7,"dewpoint":7,"windDirection":200,"windSpeed":14.816,"visibility":5.59,"altim":29.704725,"flightCategory":"IFR","metarType":"SPECI","geometry_esri":{"x":40.48,"y":-3.57,"z":582}}}