{"type":"Feature","geometry":{"type":"Point","coordinates":[47.78,13.02,430]},"properties":{"stationId":"LOWS","rawText":"LOWS 231250Z 33006KT 270V050 9999 FEW036 SCT048 17/07 Q1018 NOSIG","observationTime":"2019-05-23T12:50:00Z","temp":17,"dewpoint":7,"windDirection":330,"windSpeed":11.112,"visibility":6.21,"altim":30.059055,"flightCategory":"VFR","metarType":"METAR","geometry_esri":{"x":47.78,"y":13.02,"z":430}}}