{"type":"Feature","geometry":{"type":"Point","coordinates":[40.48,-3.57,582]},"properties":{"stationId":"LEMD","rawText":"LEMD 161230Z 13005KT 060V180 CAVOK 10/M01 Q1014 NOSIG","observationTime":"2019-11-16T12:30:00Z","temp":10,"dewpoint":-1,"windDirection":130,"windSpeed":9.26,"visibility":6.21,"altim":29.940945,"flightCategory":"VFR","metarType":"METAR","geometry_esri":{"x":40.48,"y":-3.57,"z":582}}}