{"type":"Feature","geometry":{"type":"Point","coordinates":[49.02,2.52,109]},"properties":{"stationId":"LFPG","rawText":"LFPG 230730Z 12016KT CAVOK 10/08 Q0991 TEMPO 13015G25KT","observationTime":"2019-11-23T07:30:00Z","temp":10,"dewpoint":8,"windDirection":120,"windSpeed":29.632,"visibility":6.21,"altim":29.26181,"flightCategory":"VFR","metarType":"SPECI","geometry_esri":{"x":49.02,"y":2.52,"z":109}}}