{"type":"Feature","geometry":{"type":"Point","coordinates":[51.48,-0.45,24]},"properties":{"stationId":"EGLL","rawText":"EGLL 151050Z AUTO 04005KT 010V120 9999 BKN027 OVC033 18/10 Q1023","observationTime":"2019-07-15T10:50:00Z","temp":18,"dewpoint":10,"windDirection":40,"windSpeed":9.26,"visibility":6.21,"altim":30.206694,"flightCategory":"MVFR","metarType":"METAR","geometry_esri":{"x":51.48,"y":-0.45,"z":24}}}