{"type":"Feature","geometry":{"type":"Point","coordinates":[49.02,2.52,109]},"properties":{"stationId":"LFPG","rawText":"LFPG 230730Z 21004KT 150V270 CAVOK 18/08 Q1019 NOSIG","observationTime":"2019-05-23T07:30:00Z","temp":18,"dewpoint":8,"windDirection":210,"windSpeed":7.408,"visibility":6.21,"altim":30.088583,"flightCategory":"VFR","metarType":"METAR","geometry_esri":{"x":49.02,"y":2.52,"z":109}}}