{"type":"Feature","geometry":{"type":"Point","coordinates":[48.35,11.82,447]},"properties":{"stationId":"EDDM","rawText":"EDDM 221250Z 09010KT 050V130 9999 BKN025 22/16 Q1016 NOSIG","observationTime":"2019-06-22T12:50:00Z","temp":22,"dewpoint":16,"windDirection":90,"windSpeed":18.52,"visibility":6.21,"altim":30,"flightCategory":"MVFR","metarType":"METAR","geometry_esri":{"x":48.35,"y":11.82,"z":447}}}