{"type":"Feature","geometry":{"type":"Point","coordinates":[48.35,11.82,447]},"properties":{"stationId":"EDDM","rawText":"EDDM 291750Z 06004KT CAVOK 11/03 Q1027 NOSIG","observationTime":"2019-03-29T17:50:00Z","temp":11,"dewpoint":3,"windDirection":60,"windSpeed":7.408,"visibility":6.21,"altim":30.324802,"flightCategory":"VFR","metarType":"METAR","geometry_esri":{"x":48.35,"y":11.82,"z":447}}}