{"type":"Feature","geometry":{"type":"Point","coordinates":[47.78,13.02,430]},"properties":{"stationId":"LOWS","rawText":"LOWS 141150Z 01008KT 320V040 9999 FEW030 BKN300 23/16 Q1029 NOSIG","observationTime":"2019-09-14T11:50:00Z","temp":23,"dewpoint":16,"windDirection":10,"windSpeed":14.816,"visibility":6.21,"altim":30.383858,"flightCategory":"VFR","metarType":"METAR","geometry_esri":{"x":47.78,"y":13.02,"z":430}}}