{"type":"Feature","geometry":{"type":"Point","coordinates":[47.78,13.02,430]},"properties":{"stationId":"LOWS","rawText":"LOWS 161350Z 01004KT 340V040 7000 FEW008 BKN009 05/03 Q1011 TEMPO BKN010","observationTime":"2019-11-16T13:50:00Z","temp":5,"dewpoint":3,"windDirection":10,"windSpeed":7.408,"visibility":4.35,"altim":29.852362,"flightCategory":"IFR","metarType":"METAR","geometry_esri":{"x":47.78,"y":13.02,"z":430}}}