{"type":"Feature","geometry":{"type":"Point","coordinates":[47.78,13.02,430]},"properties":{"stationId":"LOWS","rawText":"LOWS 220750Z VRB01KT 0300 R15/0400N R33/0600N FG BKN002 01/01 Q1010 TEMPO 1000 BCFG","observationTime":"2019-11-22T07:50:00Z","temp":1,"dewpoint":1,"windDirection":0,"windSpeed":1.852,"visibility":0.19,"altim":29.822834,"flightCategory":"LIFR","metarType":"METAR","geometry_esri":{"x":47.78,"y":13.02,"z":430}}}