{"type":"Feature","geometry":{"type":"Point","coordinates":[40.48,-3.57,582]},"properties":{"stationId":"LEMD","rawText":"LEMD 081830Z 32003KT CAVOK 06/M03 Q1026 NOSIG","observationTime":"2019-01-08T18:30:00Z","temp":6,"dewpoint":-3,"windDirection":320,"windSpeed":5.556,"visibility":6.21,"altim":30.295275,"flightCategory":"VFR","metarType":"METAR","geometry_esri":{"x":40.48,"y":-3.57,"z":582}}}