{"type":"Feature","geometry":{"type":"Point","coordinates":[49.02,2.52,109]},"properties":{"stationId":"LFPG","rawText":"LFPG 031430Z 23013KT 200V260 9999 SCT043 SCT060 09/M02 Q0999 NOSIG","observationTime":"2019-04-03T14:30:00Z","temp":9,"dewpoint":-2,"windDirection":230,"windSpeed":24.076,"visibility":6.21,"altim":29.498032,"flightCategory":"VFR","metarType":"METAR","geometry_esri":{"x":49.02,"y":2.52,"z":109}}}