{"type":"Feature","geometry":{"type":"Point","coordinates":[49.02,2.52,109]},"properties":{"stationId":"LFPG","rawText":"LFPG 081630Z 02012KT 360V070 CAVOK 22/05 Q1018 NOSIG","observationTime":"2019-07-08T16:30:00Z","temp":22,"dewpoint":5,"windDirection":20,"windSpeed":22.224,"visibility":6.21,"altim":30.059055,"flightCategory":"VFR","metarType":"METAR","geometry_esri":{"x":49.02,"y":2.52,"z":109}}}