{"type":"Feature","geometry":{"type":"Point","coordinates":[47.78,13.02,430]},"properties":{"stationId":"LOWS","rawText":"LOWS 260950Z 15005KT 110V170 CAVOK 11/02 Q1034 NOSIG","observationTime":"2019-02-26T09:50:00Z","temp":11,"dewpoint":2,"windDirection":150,"windSpeed":9.26,"visibility":6.21,"altim":30.531496,"flightCategory":"VFR","metarType":"METAR","geometry_esri":{"x":47.78,"y":13.02,"z":430}}}