{"type":"Feature","geometry":{"type":"Point","coordinates":[40.48,-3.57,582]},"properties":{"stationId":"LEMD","rawText":"LEMD 211730Z 35007KT 310V040 9999 SCT050 28/07 Q1014 NOSIG","observationTime":"2019-06-21T17:30:00Z","temp":28,"dewpoint":7,"windDirection":350,"windSpeed":12.964,"visibility":6.21,"altim":29.940945,"flightCategory":"VFR","metarType":"METAR","geometry_esri":{"x":40.48,"y":-3.57,"z":582}}}