{"type":"Feature","geometry":{"type":"Point","coordinates":[48.35,11.82,447]},"properties":{"stationId":"EDDM","rawText":"EDDM 071450Z 09004KT CAVOK 10/05 Q1004 NOSIG","observationTime":"2019-11-07T14:50:00Z","temp":10,"dewpoint":5,"windDirection":90,"windSpeed":7.408,"visibility":6.21,"altim":29.64567,"flightCategory":"VFR","metarType":"METAR","geometry_esri":{"x":48.35,"y":11.82,"z":447}}}