{"type":"Feature","geometry":{"type":"Point","coordinates":[48.35,11.82,447]},"properties":{"stationId":"EDDM","rawText":"EDDM 290950Z 08008KT 040V110 CAVOK 25/14 Q1022 NOSIG","observationTime":"2019-06-29T09:50:00Z","temp":25,"dewpoint":14,"windDirection":80,"windSpeed":14.816,"visibility":6.21,"altim":30.177166,"flightCategory":"VFR","metarType":"METAR","geometry_esri":{"x":48.35,"y":11.82,"z":447}}}