{"type":"Feature","geometry":{"type":"Point","coordinates":[51.48,-0.45,24]},"properties":{"stationId":"EGLL","rawText":"EGLL 170250Z AUTO 19004KT 9999 NCD 15/13 Q1016","observationTime":"2019-07-17T02:50:00Z","temp":15,"dewpoint":13,"windDirection":190,"windSpeed":7.408,"visibility":6.21,"altim":30,"flightCategory":"VFR","metarType":"METAR","geometry_esri":{"x":51.48,"y":-0.45,"z":24}}}