{"type":"Feature","geometry":{"type":"Point","coordinates":[49.02,2.52,109]},"properties":{"stationId":"LFPG","rawText":"LFPG 151030Z 11015KT CAVOK 12/M01 Q1020 NOSIG","observationTime":"2019-04-15T10:30:00Z","temp":12,"dewpoint":-1,"windDirection":110,"windSpeed":27.78,"visibility":6.21,"altim":30.11811,"flightCategory":"VFR","metarType":"METAR","geometry_esri":{"x":49.02,"y":2.52,"z":109}}}