{"type":"Feature","geometry":{"type":"Point","coordinates":[40.48,-3.57,582]},"properties":{"stationId":"LEMD","rawText":"LEMD 160430Z 00000KT CAVOK 13/02 Q1011 NOSIG","observationTime":"2019-05-16T04:30:00Z","temp":13,"dewpoint":2,"windDirection":0,"windSpeed":0,"visibility":6.21,"altim":29.852362,"flightCategory":"VFR","metarType":"METAR","geometry_esri":{"x":40.48,"y":-3.57,"z":582}}}