{"type":"Feature","geometry":{"type":"Point","coordinates":[51.48,-0.45,24]},"properties":{"stationId":"EGLL","rawText":"EGLL 221050Z AUTO 19010KT 160V250 9999 SCT020/// BKN026/// //////CB 21/17 Q1003 TEMPO RA","observationTime":"2019-09-22T10:50:00Z","temp":21,"dewpoint":17,"windDirection":190,"windSpeed":18.52,"visibility":6.21,"altim":29.616142,"flightCategory":"MVFR","metarType":"SPECI","geometry_esri":{"x":51.48,"y":-0.45,"z":24}}}