{"type":"Feature","geometry":{"type":"Point","coordinates":[49.02,2.52,109]},"properties":{"stationId":"LFPG","rawText":"LFPG 090230Z 13010KT CAVOK 24/15 Q1007 TEMPO 4000 -SHRA FEW050CB","observationTime":"2019-08-09T02:30:00Z","temp":24,"dewpoint":15,"windDirection":130,"windSpeed":18.52,"visibility":6.21,"altim":29.734253,"flightCategory":"VFR","metarType":"SPECI","geometry_esri":{"x":49.02,"y":2.52,"z":109}}}