{"type":"Feature","geometry":{"type":"Point","coordinates":[40.48,-3.57,582]},"properties":{"stationId":"LEMD","rawText":"LEMD 261830Z VRB02KT CAVOK 16/08 Q1021 NOSIG","observationTime":"2019-10-26T18:30:00Z","temp":16,"dewpoint":8,"windDirection":0,"windSpeed":3.704,"visibility":6.21,"altim":30.147638,"flightCategory":"VFR","metarType":"METAR","geometry_esri":{"x":40.48,"y":-3.57,"z":582}}}