{"type":"Feature","geometry":{"type":"Point","coordinates":[47.78,13.02,430]},"properties":{"stationId":"LOWS","rawText":"LOWS 022250Z AUTO 23004KT 9999 FEW012 SCT050 BKN180 08/05 Q1017","observationTime":"2019-10-02T22:50:00Z","temp":8,"dewpoint":5,"windDirection":230,"windSpeed":7.408,"visibility":6.21,"altim":30.029528,"flightCategory":"VFR","metarType":"METAR","geometry_esri":{"x":47.78,"y":13.02,"z":430}}}