{"type":"Feature","geometry":{"type":"Point","coordinates":[48.35,11.82,447]},"properties":{"stationId":"EDDM","rawText":"EDDM 161750Z 03003KT 350V060 9999 FEW015 BKN023 09/06 Q1012 NOSIG","observationTime":"2019-05-16T17:50:00Z","temp":9,"dewpoint":6,"windDirection":30,"windSpeed":5.556,"visibility":6.21,"altim":29.88189,"flightCategory":"MVFR","metarType":"METAR","geometry_esri":{"x":48.35,"y":11.82,"z":447}}}