{"type":"Feature","geometry":{"type":"Point","coordinates":[49.02,2.52,109]},"properties":{"stationId":"LFPG","rawText":"LFPG 282130Z 26003KT CAVOK 21/16 Q1017 NOSIG","observationTime":"2019-08-28T21:30:00Z","temp":21,"dewpoint":16,"windDirection":260,"windSpeed":5.556,"visibility":6.21,"altim":30.029528,"flightCategory":"VFR","metarType":"METAR","geometry_esri":{"x":49.02,"y":2.52,"z":109}}}