{"type":"Feature","geometry":{"type":"Point","coordinates":[49.02,2.52,109]},"properties":{"stationId":"LFPG","rawText":"LFPG 150030Z 06008KT CAVOK 09/03 Q1026 NOSIG","observationTime":"2019-05-15T00:30:00Z","temp":9,"dewpoint":3,"windDirection":60,"windSpeed":14.816,"visibility":6.21,"altim":30.295275,"flightCategory":"VFR","metarType":"METAR","geometry_esri":{"x":49.02,"y":2.52,"z":109}}}