{"type":"Feature","geometry":{"type":"Point","coordinates":[48.35,11.82,447]},"properties":{"stationId":"EDDM","rawText":"EDDM 191650Z 29005KT CAVOK 29/09 Q1010 NOSIG","observationTime":"2019-06-19T16:50:00Z","temp":29,"dewpoint":9,"windDirection":290,"windSpeed":9.26,"visibility":6.21,"altim":29.822834,"flightCategory":"VFR","metarType":"METAR","geometry_esri":{"x":48.35,"y":11.82,"z":447}}}