{"type":"Feature","geometry":{"type":"Point","coordinates":[51.48,-0.45,24]},"properties":{"stationId":"EGLL","rawText":"EGLL 271250Z AUTO 28012KT 9999 NCD 17/07 Q1010 NOSIG","observationTime":"2019-05-27T12:50:00Z","temp":17,"dewpoint":7,"windDirection":280,"windSpeed":22.224,"visibility":6.21,"altim":29.822834,"flightCategory":"VFR","metarType":"METAR","geometry_esri":{"x":51.48,"y":-0.45,"z":24}}}