{"type":"Feature","geometry":{"type":"Point","coordinates":[40.48,-3.57,582]},"properties":{"stationId":"LEMD","rawText":"LEMD 220030Z 18006KT 6000 BKN035 BKN080 19/16 Q1014 NOSIG","observationTime":"2019-09-22T00:30:00Z","temp":19,"dewpoint":16,"windDirection":180,"windSpeed":11.112,"visibility":3.73,"altim":29.940945,"flightCategory":"MVFR","metarType":"METAR","geometry_esri":{"x":40.48,"y":-3.57,"z":582}}}