{"type":"Feature","geometry":{"type":"Point","coordinates":[51.48,-0.45,24]},"properties":{"stationId":"EGLL","rawText":"EGLL 170750Z AUTO 16007KT 130V210 7000 NCD 06/05 Q1015 NOSIG","observationTime":"2019-02-17T07:50:00Z","temp":6,"dewpoint":5,"windDirection":160,"windSpeed":12.964,"visibility":4.35,"altim":29.970472,"flightCategory":"MVFR","metarType":"METAR","geometry_esri":{"x":51.48,"y":-0.45,"z":24}}}