{"type":"Feature","geometry":{"type":"Point","coordinates":[51.48,-0.45,24]},"properties":{"stationId":"EGLL","rawText":"EGLL 101850Z AUTO 28005KT 9000 OVC007 04/03 Q1029 TEMPO 4000 -RADZ BKN004","observationTime":"2019-01-10T18:50:00Z","temp":4,"dewpoint":3,"windDirection":280,"windSpeed":9.26,"visibility":5.59,"altim":30.383858,"flightCategory":"IFR","metarType":"METAR","geometry_esri":{"x":51.48,"y":-0.45,"z":24}}}