{"type":"Feature","geometry":{"type":"Point","coordinates":[48.35,11.82,447]},"properties":{"stationId":"EDDM","rawText":"EDDM 180850Z 06005KT 360V100 CAVOK 12/05 Q1025 NOSIG","observationTime":"2019-09-18T08:50:00Z","temp":12,"dewpoint":5,"windDirection":60,"windSpeed":9.26,"visibility":6.21,"altim":30.265747,"flightCategory":"VFR","metarType":"METAR","geometry_esri":{"x":48.35,"y":11.82,"z":447}}}