{"type":"Feature","geometry":{"type":"Point","coordinates":[40.48,-3.57,582]},"properties":{"stationId":"LEMD","rawText":"LEMD 270830Z VRB02KT CAVOK 17/10 Q1021 NOSIG","observationTime":"2019-09-27T08:30:00Z","temp":17,"dewpoint":10,"windDirection":0,"windSpeed":3.704,"visibility":6.21,"altim":30.147638,"flightCategory":"VFR","metarType":"METAR","geometry_esri":{"x":40.48,"y":-3.57,"z":582}}}