{"type":"Feature","geometry":{"type":"Point","coordinates":[40.48,-3.57,582]},"properties":{"stationId":"LEMD","rawText":"LEMD 140930Z 27014G24KT 9999 FEW010 07/01 Q1004 R88/29//95 NOSIG","observationTime":"2019-11-14T09:30:00Z","temp":7,"dewpoint":1,"windDirection":270,"windSpeed":25.928,"visibility":6.21,"altim":29.64567,"flightCategory":"VFR","metarType":"METAR","geometry_esri":{"x":40.48,"y":-3.57,"z":582}}}