{"type":"Feature","geometry":{"type":"Point","coordinates":[49.02,2.52,109]},"properties":{"stationId":"LFPG","rawText":"LFPG 271530Z 16005KT 100V180 4000 BR BKN005 SCT190 00/M01 Q1026 TEMPO BKN005","observationTime":"2018-12-27T15:30:00Z","temp":0,"dewpoint":-1,"windDirection":160,"windSpeed":9.26,"visibility":2.49,"altim":30.295275,"flightCategory":"IFR","metarType":"METAR","geometry_esri":{"x":49.02,"y":2.52,"z":109}}}