{"type":"Feature","geometry":{"type":"Point","coordinates":[49.02,2.52,109]},"properties":{"stationId":"LFPG","rawText":"LFPG 012030Z 22007KT CAVOK 13/12 Q1003 NOSIG","observationTime":"2019-10-01T20:30:00Z","temp":13,"dewpoint":12,"windDirection":220,"windSpeed":12.964,"visibility":6.21,"altim":29.616142,"flightCategory":"VFR","metarType":"METAR","geometry_esri":{"x":49.02,"y":2.52,"z":109}}}