{"type":"Feature","geometry":{"type":"Point","coordinates":[47.78,13.02,430]},"properties":{"stationId":"LOWS","rawText":"LOWS 071750Z 23010KT 200V280 9999 -RA FEW030 BKN040 07/04 Q1010 NOSIG","observationTime":"2019-03-07T17:50:00Z","temp":7,"dewpoint":4,"windDirection":230,"windSpeed":18.52,"visibility":6.21,"altim":29.822834,"flightCategory":"VFR","metarType":"METAR","geometry_esri":{"x":47.78,"y":13.02,"z":430}}}