{"type":"Feature","geometry":{"type":"Point","coordinates":[48.35,11.82,447]},"properties":{"stationId":"EDDM","rawText":"EDDM 191650Z 12004KT CAVOK 13/08 Q1012 NOSIG","observationTime":"2019-10-19T16:50:00Z","temp":13,"dewpoint":8,"windDirection":120,"windSpeed":7.408,"visibility":6.21,"altim":29.88189,"flightCategory":"VFR","metarType":"METAR","geometry_esri":{"x":48.35,"y":11.82,"z":447}}}