{"type":"Feature","geometry":{"type":"Point","coordinates":[53.42,-6.25,85]},"properties":{"stationId":"EIDW","rawText":"EIDW 031830Z 35011KT 9999 FEW024 BKN040 09/01 Q1018 NOSIG","observationTime":"2019-05-03T18:30:00Z","temp":9,"dewpoint":1,"windDirection":350,"windSpeed":20.372,"visibility":6.21,"altim":30.059055,"flightCategory":"VFR","metarType":"METAR","geometry_esri":{"x":53.42,"y":-6.25,"z":85}}}