{"type":"Feature","geometry":{"type":"Point","coordinates":[51.48,-0.45,24]},"properties":{"stationId":"EGLL","rawText":"EGLL 211350Z AUTO 26023KT 9999 BKN035 12/06 Q1002","observationTime":"2018-12-21T13:50:00Z","temp":12,"dewpoint":6,"windDirection":260,"windSpeed":42.596000000000004,"visibility":6.21,"altim":29.586615,"flightCategory":"VFR","metarType":"METAR","geometry_esri":{"x":51.48,"y":-0.45,"z":24}}}