{"type":"Feature","geometry":{"type":"Point","coordinates":[40.48,-3.57,582]},"properties":{"stationId":"LEMD","rawText":"LEMD 022030Z 05004KT 010V100 9999 FEW070 28/12 Q1019 NOSIG","observationTime":"2019-09-02T20:30:00Z","temp":28,"dewpoint":12,"windDirection":50,"windSpeed":7.408,"visibility":6.21,"altim":30.088583,"flightCategory":"VFR","metarType":"METAR","geometry_esri":{"x":40.48,"y":-3.57,"z":582}}}