{"type":"Feature","geometry":{"type":"Point","coordinates":[53.42,-6.25,85]},"properties":{"stationId":"EIDW","rawText":"EIDW 050130Z 23012KT 210V280 9999 SCT025 04/01 Q0993 NOSIG","observationTime":"2019-03-05T01:30:00Z","temp":4,"dewpoint":1,"windDirection":230,"windSpeed":22.224,"visibility":6.21,"altim":29.320866,"flightCategory":"VFR","metarType":"METAR","geometry_esri":{"x":53.42,"y":-6.25,"z":85}}}