{"type":"Feature","geometry":{"type":"Point","coordinates":[53.42,-6.25,85]},"properties":{"stationId":"EIDW","rawText":"EIDW 250230Z 12011KT 6000 -RA FEW006 SCT012 BKN020 09/08 Q0996 NOSIG","observationTime":"2019-11-25T02:30:00Z","temp":9,"dewpoint":8,"windDirection":120,"windSpeed":20.372,"visibility":3.73,"altim":29.409449,"flightCategory":"MVFR","metarType":"METAR","geometry_esri":{"x":53.42,"y":-6.25,"z":85}}}