{"type":"Feature","geometry":{"type":"Point","coordinates":[48.35,11.82,447]},"properties":{"stationId":"EDDM","rawText":"EDDM 010550Z VRB02KT CAVOK 14/11 Q1025 BECMG 09004KT","observationTime":"2019-06-01T05:50:00Z","temp":14,"dewpoint":11,"windDirection":0,"windSpeed":3.704,"visibility":6.21,"altim":30.265747,"flightCategory":"VFR","metarType":"METAR","geometry_esri":{"x":48.35,"y":11.82,"z":447}}}