{"type":"Feature","geometry":{"type":"Point","coordinates":[48.35,11.82,447]},"properties":{"stationId":"EDDM","rawText":"EDDM 010550Z 25007KT 5000 BR FEW020 07/05 Q1017 NOSIG","observationTime":"2019-05-01T05:50:00Z","temp":7,"dewpoint":5,"windDirection":250,"windSpeed":12.964,"visibility":3.11,"altim":30.029528,"flightCategory":"MVFR","metarType":"METAR","geometry_esri":{"x":48.35,"y":11.82,"z":447}}}