{"type":"Feature","geometry":{"type":"Point","coordinates":[53.42,-6.25,85]},"properties":{"stationId":"EIDW","rawText":"EIDW 240730Z 18004KT 110V260 9999 FEW006 SCT020 18/14 Q1008 NOSIG","observationTime":"2019-07-24T07:30:00Z","temp":18,"dewpoint":14,"windDirection":180,"windSpeed":7.408,"visibility":6.21,"altim":29.763779,"flightCategory":"VFR","metarType":"METAR","geometry_esri":{"x":53.42,"y":-6.25,"z":85}}}