{"type":"Feature","geometry":{"type":"Point","coordinates":[48.35,11.82,447]},"properties":{"stationId":"EDDM","rawText":"EDDM 240750Z 11004KT 080V140 CAVOK 20/16 Q1021 NOSIG","observationTime":"2019-08-24T07:50:00Z","temp":20,"dewpoint":16,"windDirection":110,"windSpeed":7.408,"visibility":6.21,"altim":30.147638,"flightCategory":"VFR","metarType":"METAR","geometry_esri":{"x":48.35,"y":11.82,"z":447}}}