{"type":"Feature","geometry":{"type":"Point","coordinates":[51.48,-0.45,24]},"properties":{"stationId":"EGLL","rawText":"EGLL 091150Z AUTO 06007KT 020V090 5000 -DZ BKN011 OVC016 09/08 Q1014 TEMPO 4000 BKN008","observationTime":"2019-04-09T11:50:00Z","temp":9,"dewpoint":8,"windDirection":60,"windSpeed":12.964,"visibility":3.11,"altim":29.940945,"flightCategory":"MVFR","metarType":"METAR","geometry_esri":{"x":51.48,"y":-0.45,"z":24}}}