{"type":"Feature","geometry":{"type":"Point","coordinates":[51.48,-0.45,24]},"properties":{"stationId":"EGLL","rawText":"EGLL 220450Z AUTO 23004KT 190V280 0300 R27L/0900 R27R/0600 FG VV/// 07/07 Q1034 TEMPO 0500","observationTime":"2019-02-22T04:50:00Z","temp":7,"dewpoint":7,"windDirection":230,"windSpeed":7.408,"visibility":0.19,"altim":30.531496,"flightCategory":"LIFR","metarType":"METAR","geometry_esri":{"x":51.48,"y":-0.45,"z":24}}}