{"type":"Feature","geometry":{"type":"Point","coordinates":[47.78,13.02,430]},"properties":{"stationId":"LOWS","rawText":"LOWS 301550Z 06003KT 010V100 9999 FEW015 BKN023 06/04 Q1024 NOSIG","observationTime":"2019-10-30T15:50:00Z","temp":6,"dewpoint":4,"windDirection":60,"windSpeed":5.556,"visibility":6.21,"altim":30.236221,"flightCategory":"MVFR","metarType":"METAR","geometry_esri":{"x":47.78,"y":13.02,"z":430}}}