{"type":"Feature","geometry":{"type":"Point","coordinates":[47.78,13.02,430]},"properties":{"stationId":"LOWS","rawText":"LOWS 250450Z 15003KT 110V170 CAVOK 18/16 Q1021 NOSIG","observationTime":"2019-06-25T04:50:00Z","temp":18,"dewpoint":16,"windDirection":150,"windSpeed":5.556,"visibility":6.21,"altim":30.147638,"flightCategory":"VFR","metarType":"METAR","geometry_esri":{"x":47.78,"y":13.02,"z":430}}}