{"type":"Feature","geometry":{"type":"Point","coordinates":[48.35,11.82,447]},"properties":{"stationId":"EDDM","rawText":"EDDM 230750Z 04004KT 340V100 9999 FEW042 19/15 Q1026 NOSIG","observationTime":"2019-08-23T07:50:00Z","temp":19,"dewpoint":15,"windDirection":40,"windSpeed":7.408,"visibility":6.21,"altim":30.295275,"flightCategory":"VFR","metarType":"METAR","geometry_esri":{"x":48.35,"y":11.82,"z":447}}}