{"type":"Feature","geometry":{"type":"Point","coordinates":[51.48,-0.45,24]},"properties":{"stationId":"EGLL","rawText":"EGLL 091250Z AUTO 20010KT 170V240 9999 -RA SCT016 SCT030 BKN039 15/12 Q1012 TEMPO SHRA BKN014","observationTime":"2019-09-09T12:50:00Z","temp":15,"dewpoint":12,"windDirection":200,"windSpeed":18.52,"visibility":6.21,"altim":29.88189,"flightCategory":"VFR","metarType":"SPECI","geometry_esri":{"x":51.48,"y":-0.45,"z":24}}}