{"type":"Feature","geometry":{"type":"Point","coordinates":[51.48,-0.45,24]},"properties":{"stationId":"EGLL","rawText":"EGLL 081250Z AUTO VRB02KT 5000 HZ OVC012 11/08 Q1011 NOSIG","observationTime":"2019-04-08T12:50:00Z","temp":11,"dewpoint":8,"windDirection":0,"windSpeed":3.704,"visibility":3.11,"altim":29.852362,"flightCategory":"MVFR","metarType":"METAR","geometry_esri":{"x":51.48,"y":-0.45,"z":24}}}