{"type":"Feature","geometry":{"type":"Point","coordinates":[48.35,11.82,447]},"properties":{"stationId":"EDDM","rawText":"EDDM 212050Z 26011KT 9999 -RA FEW007 BKN011 11/10 Q1013 TEMPO 4000 BKN008","observationTime":"2019-05-21T20:50:00Z","temp":11,"dewpoint":10,"windDirection":260,"windSpeed":20.372,"visibility":6.21,"altim":29.911417,"flightCategory":"MVFR","metarType":"METAR","geometry_esri":{"x":48.35,"y":11.82,"z":447}}}