{"type":"Feature","geometry":{"type":"Point","coordinates":[47.78,13.02,430]},"properties":{"stationId":"LOWS","rawText":"LOWS 182050Z 19002KT 8000 FEW002 SCT250 M01/M01 Q1015 TEMPO 2000 BR","observationTime":"2019-11-18T20:50:00Z","temp":-1,"dewpoint":-1,"windDirection":190,"windSpeed":3.704,"visibility":4.97,"altim":29.970472,"flightCategory":"MVFR","metarType":"METAR","geometry_esri":{"x":47.78,"y":13.02,"z":430}}}