{"type":"Feature","geometry":{"type":"Point","coordinates":[48.35,11.82,447]},"properties":{"stationId":"EDDM","rawText":"EDDM 041150Z 06005KT 9999 FEW010 00/M02 Q1029 R88/190095 NOSIG","observationTime":"2019-02-04T11:50:00Z","temp":0,"dewpoint":-2,"windDirection":60,"windSpeed":9.26,"visibility":6.21,"altim":30.383858,"flightCategory":"VFR","metarType":"METAR","geometry_esri":{"x":48.35,"y":11.82,"z":447}}}