{"type":"Feature","geometry":{"type":"Point","coordinates":[40.48,-3.57,582]},"properties":{"stationId":"LEMD","rawText":"LEMD 032030Z 35009KT CAVOK 14/03 Q1013 NOSIG","observationTime":"2019-05-03T20:30:00Z","temp":14,"dewpoint":3,"windDirection":350,"windSpeed":16.668,"visibility":6.21,"altim":29.911417,"flightCategory":"VFR","metarType":"METAR","geometry_esri":{"x":40.48,"y":-3.57,"z":582}}}