{"type":"Feature","geometry":{"type":"Point","coordinates":[51.48,-0.45,24]},"properties":{"stationId":"EGLL","rawText":"EGLL 290850Z AUTO 22012KT 180V250 9999 BKN012 OVC018 17/16 Q0994 TEMPO BKN009","observationTime":"2019-09-29T08:50:00Z","temp":17,"dewpoint":16,"windDirection":220,"windSpeed":22.224,"visibility":6.21,"altim":29.350393,"flightCategory":"MVFR","metarType":"METAR","geometry_esri":{"x":51.48,"y":-0.45,"z":24}}}