{"type":"Feature","geometry":{"type":"Point","coordinates":[51.48,-0.45,24]},"properties":{"stationId":"EGLL","rawText":"EGLL 141750Z AUTO 19013KT 160V240 9999 SCT038 18/10 Q1011","observationTime":"2019-06-14T17:50:00Z","temp":18,"dewpoint":10,"windDirection":190,"windSpeed":24.076,"visibility":6.21,"altim":29.852362,"flightCategory":"VFR","metarType":"METAR","geometry_esri":{"x":51.48,"y":-0.45,"z":24}}}