{"type":"Feature","geometry":{"type":"Point","coordinates":[47.78,13.02,430]},"properties":{"stationId":"LOWS","rawText":"LOWS 030750Z 16005KT 130V190 9999 FEW015 16/12 Q1026 NOSIG","observationTime":"2019-09-03T07:50:00Z","temp":16,"dewpoint":12,"windDirection":160,"windSpeed":9.26,"visibility":6.21,"altim":30.295275,"flightCategory":"VFR","metarType":"METAR","geometry_esri":{"x":47.78,"y":13.02,"z":430}}}