{"type":"Feature","geometry":{"type":"Point","coordinates":[53.42,-6.25,85]},"properties":{"stationId":"EIDW","rawText":"EIDW 202230Z 23005KT 180V290 9999 FEW010 SCT022 BKN028 12/09 Q1029 NOSIG","observationTime":"2019-03-20T22:30:00Z","temp":12,"dewpoint":9,"windDirection":230,"windSpeed":9.26,"visibility":6.21,"altim":30.383858,"flightCategory":"MVFR","metarType":"METAR","geometry_esri":{"x":53.42,"y":-6.25,"z":85}}}