{"type":"Feature","geometry":{"type":"Point","coordinates":[49.02,2.52,109]},"properties":{"stationId":"LFPG","rawText":"LFPG 030630Z 31003KT 270V020 CAVOK 16/12 Q1015 NOSIG","observationTime":"2019-06-03T06:30:00Z","temp":16,"dewpoint":12,"windDirection":310,"windSpeed":5.556,"visibility":6.21,"altim":29.970472,"flightCategory":"VFR","metarType":"METAR","geometry_esri":{"x":49.02,"y":2.52,"z":109}}}