{"type":"Feature","geometry":{"type":"Point","coordinates":[49.02,2.52,109]},"properties":{"stationId":"LFPG","rawText":"LFPG 152330Z 18009KT CAVOK 11/08 Q1012 NOSIG","observationTime":"2019-10-15T23:30:00Z","temp":11,"dewpoint":8,"windDirection":180,"windSpeed":16.668,"visibility":6.21,"altim":29.88189,"flightCategory":"VFR","metarType":"METAR","geometry_esri":{"x":49.02,"y":2.52,"z":109}}}