{"type":"Feature","geometry":{"type":"Point","coordinates":[51.48,-0.45,24]},"properties":{"stationId":"EGLL","rawText":"EGLL 082350Z AUTO 14008KT 9999 FEW049 16/10 Q1022","observationTime":"2019-07-08T23:50:00Z","temp":16,"dewpoint":10,"windDirection":140,"windSpeed":14.816,"visibility":6.21,"altim":30.177166,"flightCategory":"VFR","metarType":"METAR","geometry_esri":{"x":51.48,"y":-0.45,"z":24}}}