{"type":"Feature","geometry":{"type":"Point","coordinates":[49.02,2.52,109]},"properties":{"stationId":"LFPG","rawText":"LFPG 210930Z 14008KT 110V170 CAVOK 21/09 Q1015 NOSIG","observationTime":"2019-09-21T09:30:00Z","temp":21,"dewpoint":9,"windDirection":140,"windSpeed":14.816,"visibility":6.21,"altim":29.970472,"flightCategory":"VFR","metarType":"METAR","geometry_esri":{"x":49.02,"y":2.52,"z":109}}}