{"type":"Feature","geometry":{"type":"Point","coordinates":[40.48,-3.57,582]},"properties":{"stationId":"LEMD","rawText":"LEMD 071430Z 23017G32KT 200V260 CAVOK 23/09 Q1015 NOSIG","observationTime":"2019-05-07T14:30:00Z","temp":23,"dewpoint":9,"windDirection":230,"windSpeed":31.484,"visibility":6.21,"altim":29.970472,"flightCategory":"VFR","metarType":"METAR","geometry_esri":{"x":40.48,"y":-3.57,"z":582}}}