{"type":"Feature","geometry":{"type":"Point","coordinates":[53.42,-6.25,85]},"properties":{"stationId":"EIDW","rawText":"EIDW 251130Z 06005KT 020V080 8000 -RA FEW012 SCT025 OVC040 06/06 Q1006 NOSIG","observationTime":"2019-10-25T11:30:00Z","temp":6,"dewpoint":6,"windDirection":60,"windSpeed":9.26,"visibility":4.97,"altim":29.704725,"flightCategory":"MVFR","metarType":"METAR","geometry_esri":{"x":53.42,"y":-6.25,"z":85}}}