{"type":"Feature","geometry":{"type":"Point","coordinates":[53.42,-6.25,85]},"properties":{"stationId":"EIDW","rawText":"EIDW 150930Z 29018KT 260V320 9999 FEW020 15/10 Q1012 NOSIG","observationTime":"2019-08-15T09:30:00Z","temp":15,"dewpoint":10,"windDirection":290,"windSpeed":33.336,"visibility":6.21,"altim":29.88189,"flightCategory":"VFR","metarType":"METAR","geometry_esri":{"x":53.42,"y":-6.25,"z":85}}}