{"type":"Feature","geometry":{"type":"Point","coordinates":[40.48,-3.57,582]},"properties":{"stationId":"LEMD","rawText":"LEMD 111530Z 02003KT 310V080 CAVOK 20/04 Q1028 NOSIG","observationTime":"2019-03-11T15:30:00Z","temp":20,"dewpoint":4,"windDirection":20,"windSpeed":5.556,"visibility":6.21,"altim":30.35433,"flightCategory":"VFR","metarType":"METAR","geometry_esri":{"x":40.48,"y":-3.57,"z":582}}}