{"type":"Feature","geometry":{"type":"Point","coordinates":[40.48,-3.57,582]},"properties":{"stationId":"LEMD","rawText":"LEMD 100630Z 35002KT CAVOK 03/03 Q1031 NOSIG","observationTime":"2019-03-10T06:30:00Z","temp":3,"dewpoint":3,"windDirection":350,"windSpeed":3.704,"visibility":6.21,"altim":30.442913,"flightCategory":"VFR","metarType":"METAR","geometry_esri":{"x":40.48,"y":-3.57,"z":582}}}