{"type":"Feature","geometry":{"type":"Point","coordinates":[53.42,-6.25,85]},"properties":{"stationId":"EIDW","rawText":"EIDW 042130Z 16006KT 9999 BKN025 06/01 Q1040 NOSIG","observationTime":"2019-01-04T21:30:00Z","temp":6,"dewpoint":1,"windDirection":160,"windSpeed":11.112,"visibility":6.21,"altim":30.708662,"flightCategory":"MVFR","metarType":"METAR","geometry_esri":{"x":53.42,"y":-6.25,"z":85}}}