{"type":"Feature","geometry":{"type":"Point","coordinates":[48.35,11.82,447]},"properties":{"stationId":"EDDM","rawText":"EDDM 311750Z 12003KT CAVOK 19/12 Q1025 NOSIG","observationTime":"2019-05-31T17:50:00Z","temp":19,"dewpoint":12,"windDirection":120,"windSpeed":5.556,"visibility":6.21,"altim":30.265747,"flightCategory":"VFR","metarType":"METAR","geometry_esri":{"x":48.35,"y":11.82,"z":447}}}