{"type":"Feature","geometry":{"type":"Point","coordinates":[49.02,2.52,109]},"properties":{"stationId":"LFPG","rawText":"LFPG 191930Z 26005KT 9999 FEW026 SCT060 BKN120 18/16 Q1011 RETSRA NOSIG","observationTime":"2019-06-19T19:30:00Z","temp":18,"dewpoint":16,"windDirection":260,"windSpeed":9.26,"visibility":6.21,"altim":29.852362,"flightCategory":"VFR","metarType":"METAR","geometry_esri":{"x":49.02,"y":2.52,"z":109}}}