{"type":"Feature","geometry":{"type":"Point","coordinates":[49.02,2.52,109]},"properties":{"stationId":"LFPG","rawText":"LFPG 190530Z 14010KT CAVOK M02/M03 Q1013 NOSIG","observationTime":"2019-01-19T05:30:00Z","temp":-2,"dewpoint":-3,"windDirection":140,"windSpeed":18.52,"visibility":6.21,"altim":29.911417,"flightCategory":"VFR","metarType":"METAR","geometry_esri":{"x":49.02,"y":2.52,"z":109}}}