{"type":"Feature","geometry":{"type":"Point","coordinates":[40.48,-3.57,582]},"properties":{"stationId":"LEMD","rawText":"LEMD 081930Z 21003KT 160V280 CAVOK 11/01 Q1021 NOSIG","observationTime":"2019-02-08T19:30:00Z","temp":11,"dewpoint":1,"windDirection":210,"windSpeed":5.556,"visibility":6.21,"altim":30.147638,"flightCategory":"VFR","metarType":"METAR","geometry_esri":{"x":40.48,"y":-3.57,"z":582}}}