{"type":"Feature","geometry":{"type":"Point","coordinates":[40.48,-3.57,582]},"properties":{"stationId":"LEMD","rawText":"LEMD 281230Z 19002KT CAVOK 17/M08 Q1026 NOSIG","observationTime":"2019-03-28T12:30:00Z","temp":17,"dewpoint":-8,"windDirection":190,"windSpeed":3.704,"visibility":6.21,"altim":30.295275,"flightCategory":"VFR","metarType":"METAR","geometry_esri":{"x":40.48,"y":-3.57,"z":582}}}