{"type":"Feature","geometry":{"type":"Point","coordinates":[48.35,11.82,447]},"properties":{"stationId":"EDDM","rawText":"EDDM 150850Z 26017KT 9999 FEW033 SCT046 01/M02 Q1021 BECMG 25015G25KT","observationTime":"2019-01-15T08:50:00Z","temp":1,"dewpoint":-2,"windDirection":260,"windSpeed":31.484,"visibility":6.21,"altim":30.147638,"flightCategory":"VFR","metarType":"METAR","geometry_esri":{"x":48.35,"y":11.82,"z":447}}}