{"type":"Feature","geometry":{"type":"Point","coordinates":[49.02,2.52,109]},"properties":{"stationId":"LFPG","rawText":"LFPG 022230Z 21014KT 9999 BKN031 11/06 Q1015 NOSIG","observationTime":"2019-03-02T22:30:00Z","temp":11,"dewpoint":6,"windDirection":210,"windSpeed":25.928,"visibility":6.21,"altim":29.970472,"flightCategory":"VFR","metarType":"METAR","geometry_esri":{"x":49.02,"y":2.52,"z":109}}}