{"type":"Feature","geometry":{"type":"Point","coordinates":[51.48,-0.45,24]},"properties":{"stationId":"EGLL","rawText":"EGLL 311150Z AUTO 10009KT 9999 NCD 04/M00 Q0992 NOSIG","observationTime":"2019-01-31T11:50:00Z","temp":4,"dewpoint":0,"windDirection":100,"windSpeed":16.668,"visibility":6.21,"altim":29.291338,"flightCategory":"VFR","metarType":"METAR","geometry_esri":{"x":51.48,"y":-0.45,"z":24}}}