{"type":"Feature","geometry":{"type":"Point","coordinates":[47.78,13.02,430]},"properties":{"stationId":"LOWS","rawText":"LOWS 070950Z 34005KT 300V360 8000 -RA FEW004 BKN007 07/05 Q1019 BECMG BKN014","observationTime":"2019-10-07T09:50:00Z","temp":7,"dewpoint":5,"windDirection":340,"windSpeed":9.26,"visibility":4.97,"altim":30.088583,"flightCategory":"IFR","metarType":"METAR","geometry_esri":{"x":47.78,"y":13.02,"z":430}}}