{"type":"Feature","geometry":{"type":"Point","coordinates":[49.02,2.52,109]},"properties":{"stationId":"LFPG","rawText":"LFPG 030530Z 00000KT CAVOK 05/03 Q1022 NOSIG","observationTime":"2019-10-03T05:30:00Z","temp":5,"dewpoint":3,"windDirection":0,"windSpeed":0,"visibility":6.21,"altim":30.177166,"flightCategory":"VFR","metarType":"METAR","geometry_esri":{"x":49.02,"y":2.52,"z":109}}}