{"type":"Feature","geometry":{"type":"Point","coordinates":[47.78,13.02,430]},"properties":{"stationId":"LOWS","rawText":"LOWS 120850Z 27007KT 230V320 9999 FEW030 SCT035 BKN050 04/M03 Q1026 NOSIG","observationTime":"2019-03-12T08:50:00Z","temp":4,"dewpoint":-3,"windDirection":270,"windSpeed":12.964,"visibility":6.21,"altim":30.295275,"flightCategory":"VFR","metarType":"METAR","geometry_esri":{"x":47.78,"y":13.02,"z":430}}}