{"type":"Feature","geometry":{"type":"Point","coordinates":[49.02,2.52,109]},"properties":{"stationId":"LFPG","rawText":"LFPG 091130Z 35010KT 6000 -SHRA FEW008 BKN051 10/09 Q1010 NOSIG","observationTime":"2019-04-09T11:30:00Z","temp":10,"dewpoint":9,"windDirection":350,"windSpeed":18.52,"visibility":3.73,"altim":29.822834,"flightCategory":"MVFR","metarType":"METAR","geometry_esri":{"x":49.02,"y":2.52,"z":109}}}