{"type":"Feature","geometry":{"type":"Point","coordinates":[47.78,13.02,430]},"properties":{"stationId":"LOWS","rawText":"LOWS 172350Z AUTO 25007KT 9999 FEW050 OVC060 04/01 Q1016","observationTime":"2019-03-17T23:50:00Z","temp":4,"dewpoint":1,"windDirection":250,"windSpeed":12.964,"visibility":6.21,"altim":30,"flightCategory":"VFR","metarType":"METAR","geometry_esri":{"x":47.78,"y":13.02,"z":430}}}