{"type":"Feature","geometry":{"type":"Point","coordinates":[47.78,13.02,430]},"properties":{"stationId":"LOWS","rawText":"LOWS 110950Z 33007KT 9999 FEW025 BKN050 M03/M07 Q1025 R15/490195 NOSIG","observationTime":"2019-01-11T09:50:00Z","temp":-3,"dewpoint":-7,"windDirection":330,"windSpeed":12.964,"visibility":6.21,"altim":30.265747,"flightCategory":"VFR","metarType":"METAR","geometry_esri":{"x":47.78,"y":13.02,"z":430}}}