{"type":"Feature","geometry":{"type":"Point","coordinates":[48.35,11.82,447]},"properties":{"stationId":"EDDM","rawText":"EDDM 211250Z 28006KT 230V320 9999 FEW030 11/04 Q1028 NOSIG","observationTime":"2019-02-21T12:50:00Z","temp":11,"dewpoint":4,"windDirection":280,"windSpeed":11.112,"visibility":6.21,"altim":30.35433,"flightCategory":"VFR","metarType":"METAR","geometry_esri":{"x":48.35,"y":11.82,"z":447}}}