{"type":"Feature","geometry":{"type":"Point","coordinates":[48.35,11.82,447]},"properties":{"stationId":"EDDM","rawText":"EDDM 141350Z 07004KT 010V100 CAVOK 22/12 Q1015 NOSIG","observationTime":"2019-10-14T13:50:00Z","temp":22,"dewpoint":12,"windDirection":70,"windSpeed":7.408,"visibility":6.21,"altim":29.970472,"flightCategory":"VFR","metarType":"METAR","geometry_esri":{"x":48.35,"y":11.82,"z":447}}}