{"type":"Feature","geometry":{"type":"Point","coordinates":[48.35,11.82,447]},"properties":{"stationId":"EDDM","rawText":"EDDM 100550Z 07003KT 040V100 0500 R08L/0650N R08R/0750V1000N FZFG VV/// M00/M01 Q1009 NOSIG","observationTime":"2019-11-10T05:50:00Z","temp":0,"dewpoint":-1,"windDirection":70,"windSpeed":5.556,"visibility":0.31,"altim":29.793306,"flightCategory":"LIFR","metarType":"METAR","geometry_esri":{"x":48.35,"y":11.82,"z":447}}}