{"type":"Feature","geometry":{"type":"Point","coordinates":[51.48,-0.45,24]},"properties":{"stationId":"EGLL","rawText":"EGLL 070550Z AUTO 24010KT 9999 SCT011 BKN019 07/07 Q0990 TEMPO BKN011","observationTime":"2019-11-07T05:50:00Z","temp":7,"dewpoint":7,"windDirection":240,"windSpeed":18.52,"visibility":6.21,"altim":29.232283,"flightCategory":"MVFR","metarType":"METAR","geometry_esri":{"x":51.48,"y":-0.45,"z":24}}}