{"type":"Feature","geometry":{"type":"Point","coordinates":[51.48,-0.45,24]},"properties":{"stationId":"EGLL","rawText":"EGLL 040150Z AUTO 14005KT 9999 NCD 02/00 Q0995 NOSIG","observationTime":"2019-04-04T01:50:00Z","temp":2,"dewpoint":0,"windDirection":140,"windSpeed":9.26,"visibility":6.21,"altim":29.379921,"flightCategory":"VFR","metarType":"METAR","geometry_esri":{"x":51.48,"y":-0.45,"z":24}}}