{"type":"Feature","geometry":{"type":"Point","coordinates":[53.42,-6.25,85]},"properties":{"stationId":"EIDW","rawText":"EIDW 251430Z 14011KT 110V170 9999 SCT014 BKN017 BKN021 20/17 Q1005 NOSIG","observationTime":"2019-07-25T14:30:00Z","temp":20,"dewpoint":17,"windDirection":140,"windSpeed":20.372,"visibility":6.21,"altim":29.675198,"flightCategory":"MVFR","metarType":"METAR","geometry_esri":{"x":53.42,"y":-6.25,"z":85}}}