{"type":"Feature","geometry":{"type":"Point","coordinates":[49.02,2.52,109]},"properties":{"stationId":"LFPG","rawText":"LFPG 231830Z 18010KT 130V200 CAVOK 19/10 Q0995 NOSIG","observationTime":"2019-04-23T18:30:00Z","temp":19,"dewpoint":10,"windDirection":180,"windSpeed":18.52,"visibility":6.21,"altim":29.379921,"flightCategory":"VFR","metarType":"METAR","geometry_esri":{"x":49.02,"y":2.52,"z":109}}}