{"type":"Feature","geometry":{"type":"Point","coordinates":[40.48,-3.57,582]},"properties":{"stationId":"LEMD","rawText":"LEMD 150330Z VRB01KT CAVOK 02/M03 Q1027 NOSIG","observationTime":"2019-03-15T03:30:00Z","temp":2,"dewpoint":-3,"windDirection":0,"windSpeed":1.852,"visibility":6.21,"altim":30.324802,"flightCategory":"VFR","metarType":"METAR","geometry_esri":{"x":40.48,"y":-3.57,"z":582}}}