{"type":"Feature","geometry":{"type":"Point","coordinates":[47.78,13.02,430]},"properties":{"stationId":"LOWS","rawText":"LOWS 240050Z AUTO 15007KT 110V190 9999 FEW120 BKN140 16/04 Q1003","observationTime":"2019-04-24T00:50:00Z","temp":16,"dewpoint":4,"windDirection":150,"windSpeed":12.964,"visibility":6.21,"altim":29.616142,"flightCategory":"VFR","metarType":"METAR","geometry_esri":{"x":47.78,"y":13.02,"z":430}}}