{"type":"Feature","geometry":{"type":"Point","coordinates":[40.48,-3.57,582]},"properties":{"stationId":"LEMD","rawText":"LEMD 231230Z 21011KT 9999 SCT035 BKN055 11/03 Q0998 R88/29//95 NOSIG","observationTime":"2019-04-23T12:30:00Z","temp":11,"dewpoint":3,"windDirection":210,"windSpeed":20.372,"visibility":6.21,"altim":29.468504,"flightCategory":"VFR","metarType":"SPECI","geometry_esri":{"x":40.48,"y":-3.57,"z":582}}}