{"type":"Feature","geometry":{"type":"Point","coordinates":[48.35,11.82,447]},"properties":{"stationId":"EDDM","rawText":"EDDM 260450Z 32004KT 290V350 9999 SCT026 BKN043 01/M00 Q1027 NOSIG","observationTime":"2019-03-26T04:50:00Z","temp":1,"dewpoint":0,"windDirection":320,"windSpeed":7.408,"visibility":6.21,"altim":30.324802,"flightCategory":"VFR","metarType":"METAR","geometry_esri":{"x":48.35,"y":11.82,"z":447}}}