{"type":"Feature","geometry":{"type":"Point","coordinates":[48.35,11.82,447]},"properties":{"stationId":"EDDM","rawText":"EDDM 220950Z 10012KT 9999 SCT030 19/12 Q1026 NOSIG","observationTime":"2019-08-22T09:50:00Z","temp":19,"dewpoint":12,"windDirection":100,"windSpeed":22.224,"visibility":6.21,"altim":30.295275,"flightCategory":"VFR","metarType":"METAR","geometry_esri":{"x":48.35,"y":11.82,"z":447}}}