{"type":"Feature","geometry":{"type":"Point","coordinates":[51.48,-0.45,24]},"properties":{"stationId":"EGLL","rawText":"EGLL 250350Z AUTO 19003KT 3500 BR SCT025 BKN036 BKN044 04/03 Q1014 BECMG BKN012","observationTime":"2019-01-25T03:50:00Z","temp":4,"dewpoint":3,"windDirection":190,"windSpeed":5.556,"visibility":2.17,"altim":29.940945,"flightCategory":"IFR","metarType":"METAR","geometry_esri":{"x":51.48,"y":-0.45,"z":24}}}