{"type":"Feature","geometry":{"type":"Point","coordinates":[47.78,13.02,430]},"properties":{"stationId":"LOWS","rawText":"LOWS 131050Z 17003KT 3500 -SNRA FEW002 BKN008 01/00 Q1005 TEMPO 6000 -RASN SCT010 BKN012","observationTime":"2019-11-13T10:50:00Z","temp":1,"dewpoint":0,"windDirection":170,"windSpeed":5.556,"visibility":2.17,"altim":29.675198,"flightCategory":"IFR","metarType":"METAR","geometry_esri":{"x":47.78,"y":13.02,"z":430}}}