{"type":"Feature","geometry":{"type":"Point","coordinates":[49.02,2.52,109]},"properties":{"stationId":"LFPG","rawText":"LFPG 010130Z 14004KT 3500 BR BKN002 SCT004 09/09 Q1014 TEMPO 0500 FG BKN002","observationTime":"2019-11-01T01:30:00Z","temp":9,"dewpoint":9,"windDirection":140,"windSpeed":7.408,"visibility":2.17,"altim":29.940945,"flightCategory":"LIFR","metarType":"SPECI","geometry_esri":{"x":49.02,"y":2.52,"z":109}}}