{"type":"Feature","geometry":{"type":"Point","coordinates":[49.02,2.52,109]},"properties":{"stationId":"LFPG","rawText":"LFPG 151430Z 15004KT 110V170 1100 R27L/P2000 R09R/1900U R26R/1600D R08L/1200D R26L/1700U R08R/1200U R27R/P2000 R09L/P2000 -SN SCT002 BKN003 01/M00 Q0997 TEMPO 0800 -SN BKN003 BECMG VRB03KT","observationTime":"2019-11-15T14:30:00Z","temp":1,"dewpoint":0,"windDirection":150,"windSpeed":7.408,"visibility":0.68,"altim":29.438976,"flightCategory":"LIFR","metarType":"SPECI","geometry_esri":{"x":49.02,"y":2.52,"z":109}}}