{"type":"Feature","geometry":{"type":"Point","coordinates":[53.42,-6.25,85]},"properties":{"stationId":"EIDW","rawText":"EIDW 201230Z 28007KT 230V330 9999 FEW022 SCT030 BKN080 15/08 Q1015 NOSIG","observationTime":"2019-05-20T12:30:00Z","temp":15,"dewpoint":8,"windDirection":280,"windSpeed":12.964,"visibility":6.21,"altim":29.970472,"flightCategory":"VFR","metarType":"METAR","geometry_esri":{"x":53.42,"y":-6.25,"z":85}}}