{"type":"Feature","geometry":{"type":"Point","coordinates":[49.02,2.52,109]},"properties":{"stationId":"LFPG","rawText":"LFPG 071430Z 24007KT 3500 -DZ BR FEW006 SCT008 BKN016 07/06 Q1034 NOSIG","observationTime":"2019-01-07T14:30:00Z","temp":7,"dewpoint":6,"windDirection":240,"windSpeed":12.964,"visibility":2.17,"altim":30.531496,"flightCategory":"IFR","metarType":"METAR","geometry_esri":{"x":49.02,"y":2.52,"z":109}}}