{"type":"Feature","geometry":{"type":"Point","coordinates":[40.48,-3.57,582]},"properties":{"stationId":"LEMD","rawText":"LEMD 061130Z 26004KT 170V340 9999 FEW039 13/04 Q1017 NOSIG","observationTime":"2019-11-06T11:30:00Z","temp":13,"dewpoint":4,"windDirection":260,"windSpeed":7.408,"visibility":6.21,"altim":30.029528,"flightCategory":"VFR","metarType":"METAR","geometry_esri":{"x":40.48,"y":-3.57,"z":582}}}