{"type":"Feature","geometry":{"type":"Point","coordinates":[49.02,2.52,109]},"properties":{"stationId":"LFPG","rawText":"LFPG 141630Z 09006KT CAVOK 11/03 Q1031 NOSIG","observationTime":"2019-02-14T16:30:00Z","temp":11,"dewpoint":3,"windDirection":90,"windSpeed":11.112,"visibility":6.21,"altim":30.442913,"flightCategory":"VFR","metarType":"METAR","geometry_esri":{"x":49.02,"y":2.52,"z":109}}}