{"type":"Feature","geometry":{"type":"Point","coordinates":[40.48,-3.57,582]},"properties":{"stationId":"LEMD","rawText":"LEMD 142030Z 00000KT CAVOK 11/M01 Q1027 NOSIG","observationTime":"2019-03-14T20:30:00Z","temp":11,"dewpoint":-1,"windDirection":0,"windSpeed":0,"visibility":6.21,"altim":30.324802,"flightCategory":"VFR","metarType":"METAR","geometry_esri":{"x":40.48,"y":-3.57,"z":582}}}