{"type":"Feature","geometry":{"type":"Point","coordinates":[40.48,-3.57,582]},"properties":{"stationId":"LEMD","rawText":"LEMD 061930Z 24007KT CAVOK 22/02 Q1016 NOSIG","observationTime":"2019-05-06T19:30:00Z","temp":22,"dewpoint":2,"windDirection":240,"windSpeed":12.964,"visibility":6.21,"altim":30,"flightCategory":"VFR","metarType":"METAR","geometry_esri":{"x":40.48,"y":-3.57,"z":582}}}