{"type":"Feature","geometry":{"type":"Point","coordinates":[49.02,2.52,109]},"properties":{"stationId":"LFPG","rawText":"LFPG 090430Z 04004KT CAVOK 11/09 Q1022 NOSIG","observationTime":"2019-06-09T04:30:00Z","temp":11,"dewpoint":9,"windDirection":40,"windSpeed":7.408,"visibility":6.21,"altim":30.177166,"flightCategory":"VFR","metarType":"METAR","geometry_esri":{"x":49.02,"y":2.52,"z":109}}}