{"type":"Feature","geometry":{"type":"Point","coordinates":[51.48,-0.45,24]},"properties":{"stationId":"EGLL","rawText":"EGLL 150350Z AUTO 06004KT 6000 NCD 04/02 Q1023","observationTime":"2019-04-15T03:50:00Z","temp":4,"dewpoint":2,"windDirection":60,"windSpeed":7.408,"visibility":3.73,"altim":30.206694,"flightCategory":"MVFR","metarType":"METAR","geometry_esri":{"x":51.48,"y":-0.45,"z":24}}}