{"type":"Feature","geometry":{"type":"Point","coordinates":[40.48,-3.57,582]},"properties":{"stationId":"LEMD","rawText":"LEMD 151930Z 16005KT 130V210 CAVOK 24/00 Q1018 NOSIG","observationTime":"2019-06-15T19:30:00Z","temp":24,"dewpoint":0,"windDirection":160,"windSpeed":9.26,"visibility":6.21,"altim":30.059055,"flightCategory":"VFR","metarType":"METAR","geometry_esri":{"x":40.48,"y":-3.57,"z":582}}}