{"type":"Feature","geometry":{"type":"Point","coordinates":[49.02,2.52,109]},"properties":{"stationId":"LFPG","rawText":"LFPG 060230Z 26002KT 9999 FEW026 BKN053 BKN097 19/16 Q1013 NOSIG","observationTime":"2019-08-06T02:30:00Z","temp":19,"dewpoint":16,"windDirection":260,"windSpeed":3.704,"visibility":6.21,"altim":29.911417,"flightCategory":"VFR","metarType":"METAR","geometry_esri":{"x":49.02,"y":2.52,"z":109}}}