{"type":"Feature","geometry":{"type":"Point","coordinates":[48.35,11.82,447]},"properties":{"stationId":"EDDM","rawText":"EDDM 091750Z 10003KT 050V140 CAVOK 04/02 Q1011 NOSIG","observationTime":"2019-11-09T17:50:00Z","temp":4,"dewpoint":2,"windDirection":100,"windSpeed":5.556,"visibility":6.21,"altim":29.852362,"flightCategory":"VFR","metarType":"METAR","geometry_esri":{"x":48.35,"y":11.82,"z":447}}}