{"type":"Feature","geometry":{"type":"Point","coordinates":[49.02,2.52,109]},"properties":{"stationId":"LFPG","rawText":"LFPG 152130Z 17011KT 120V200 8000 -RA BKN007 03/02 Q1000 TEMPO 4000 -RA","observationTime":"2019-11-15T21:30:00Z","temp":3,"dewpoint":2,"windDirection":170,"windSpeed":20.372,"visibility":4.97,"altim":29.52756,"flightCategory":"IFR","metarType":"SPECI","geometry_esri":{"x":49.02,"y":2.52,"z":109}}}