{"type":"Feature","geometry":{"type":"Point","coordinates":[40.48,-3.57,582]},"properties":{"stationId":"LEMD","rawText":"LEMD 180130Z 35002KT CAVOK 09/04 Q1010 NOSIG","observationTime":"2019-05-18T01:30:00Z","temp":9,"dewpoint":4,"windDirection":350,"windSpeed":3.704,"visibility":6.21,"altim":29.822834,"flightCategory":"VFR","metarType":"METAR","geometry_esri":{"x":40.48,"y":-3.57,"z":582}}}