{"type":"Feature","geometry":{"type":"Point","coordinates":[49.02,2.52,109]},"properties":{"stationId":"LFPG","rawText":"LFPG 031930Z 00000KT CAVOK 02/M01 Q1028 NOSIG","observationTime":"2019-02-03T19:30:00Z","temp":2,"dewpoint":-1,"windDirection":0,"windSpeed":0,"visibility":6.21,"altim":30.35433,"flightCategory":"VFR","metarType":"METAR","geometry_esri":{"x":49.02,"y":2.52,"z":109}}}