{"type":"Feature","geometry":{"type":"Point","coordinates":[51.48,-0.45,24]},"properties":{"stationId":"EGLL","rawText":"EGLL 010350Z AUTO VRB03KT 9999 NCD 02/02 Q1020 NOSIG","observationTime":"2019-12-01T03:50:00Z","temp":2,"dewpoint":2,"windDirection":0,"windSpeed":5.556,"visibility":6.21,"altim":30.11811,"flightCategory":"VFR","metarType":"METAR","geometry_esri":{"x":51.48,"y":-0.45,"z":24}}}