{"type":"Feature","geometry":{"type":"Point","coordinates":[51.48,-0.45,24]},"properties":{"stationId":"EGLL","rawText":"EGLL 091550Z AUTO 05007KT 360V070 9999 BKN031 11/07 Q1014 NOSIG","observationTime":"2019-04-09T15:50:00Z","temp":11,"dewpoint":7,"windDirection":50,"windSpeed":12.964,"visibility":6.21,"altim":29.940945,"flightCategory":"VFR","metarType":"METAR","geometry_esri":{"x":51.48,"y":-0.45,"z":24}}}