{"type":"Feature","geometry":{"type":"Point","coordinates":[49.02,2.52,109]},"properties":{"stationId":"LFPG","rawText":"LFPG 200830Z 02008KT 350V110 CAVOK 18/09 Q1027 NOSIG","observationTime":"2019-04-20T08:30:00Z","temp":18,"dewpoint":9,"windDirection":20,"windSpeed":14.816,"visibility":6.21,"altim":30.324802,"flightCategory":"VFR","metarType":"METAR","geometry_esri":{"x":49.02,"y":2.52,"z":109}}}