{"type":"Feature","geometry":{"type":"Point","coordinates":[48.35,11.82,447]},"properties":{"stationId":"EDDM","rawText":"EDDM 101350Z 08007KT 040V110 CAVOK 18/10 Q1018 NOSIG","observationTime":"2019-09-10T13:50:00Z","temp":18,"dewpoint":10,"windDirection":80,"windSpeed":12.964,"visibility":6.21,"altim":30.059055,"flightCategory":"VFR","metarType":"METAR","geometry_esri":{"x":48.35,"y":11.82,"z":447}}}