{"type":"Feature","geometry":{"type":"Point","coordinates":[40.48,-3.57,582]},"properties":{"stationId":"LEMD","rawText":"LEMD 290630Z 09002KT CAVOK 02/00 Q1016 NOSIG","observationTime":"2019-01-29T06:30:00Z","temp":2,"dewpoint":0,"windDirection":90,"windSpeed":3.704,"visibility":6.21,"altim":30,"flightCategory":"VFR","metarType":"METAR","geometry_esri":{"x":40.48,"y":-3.57,"z":582}}}