{"type":"Feature","geometry":{"type":"Point","coordinates":[49.02,2.52,109]},"properties":{"stationId":"LFPG","rawText":"LFPG 202330Z 31005KT CAVOK 19/15 Q1018 NOSIG","observationTime":"2019-07-20T23:30:00Z","temp":19,"dewpoint":15,"windDirection":310,"windSpeed":9.26,"visibility":6.21,"altim":30.059055,"flightCategory":"VFR","metarType":"METAR","geometry_esri":{"x":49.02,"y":2.52,"z":109}}}