{"type":"Feature","geometry":{"type":"Point","coordinates":[48.35,11.82,447]},"properties":{"stationId":"EDDM","rawText":"EDDM 100950Z 33007KT 300V360 6000 -SN SCT008 BKN015 M00/M01 Q1018 R88/290095 NOSIG","observationTime":"2019-01-10T09:50:00Z","temp":0,"dewpoint":-1,"windDirection":330,"windSpeed":12.964,"visibility":3.73,"altim":30.059055,"flightCategory":"MVFR","metarType":"METAR","geometry_esri":{"x":48.35,"y":11.82,"z":447}}}