{"type":"Feature","geometry":{"type":"Point","coordinates":[53.42,-6.25,85]},"properties":{"stationId":"EIDW","rawText":"EIDW 301030Z 24013KT 210V280 9000 -SHRA FEW020 BKN030 17/12 Q1013 NOSIG","observationTime":"2019-06-30T10:30:00Z","temp":17,"dewpoint":12,"windDirection":240,"windSpeed":24.076,"visibility":5.59,"altim":29.911417,"flightCategory":"MVFR","metarType":"METAR","geometry_esri":{"x":53.42,"y":-6.25,"z":85}}}