{"type":"Feature","geometry":{"type":"Point","coordinates":[53.42,-6.25,85]},"properties":{"stationId":"EIDW","rawText":"EIDW 232030Z 20012KT 160V220 9999 FEW015 BKN032 13/09 Q1002 NOSIG","observationTime":"2019-10-23T20:30:00Z","temp":13,"dewpoint":9,"windDirection":200,"windSpeed":22.224,"visibility":6.21,"altim":29.586615,"flightCategory":"VFR","metarType":"METAR","geometry_esri":{"x":53.42,"y":-6.25,"z":85}}}