{"type":"Feature","geometry":{"type":"Point","coordinates":[51.48,-0.45,24]},"properties":{"stationId":"EGLL","rawText":"EGLL 271350Z AUTO VRB03KT 9000 NCD 18/07 Q1024","observationTime":"2019-02-27T13:50:00Z","temp":18,"dewpoint":7,"windDirection":0,"windSpeed":5.556,"visibility":5.59,"altim":30.236221,"flightCategory":"VFR","metarType":"METAR","geometry_esri":{"x":51.48,"y":-0.45,"z":24}}}