{"type":"Feature","geometry":{"type":"Point","coordinates":[49.02,2.52,109]},"properties":{"stationId":"LFPG","rawText":"LFPG 200330Z 01003KT 5000 R09R/1100U R09L/1000U -RA BR FEW001 BKN073 11/11 Q1006 NOSIG","observationTime":"2019-10-20T03:30:00Z","temp":11,"dewpoint":11,"windDirection":10,"windSpeed":5.556,"visibility":3.11,"altim":29.704725,"flightCategory":"MVFR","metarType":"METAR","geometry_esri":{"x":49.02,"y":2.52,"z":109}}}