{"type":"Feature","geometry":{"type":"Point","coordinates":[53.42,-6.25,85]},"properties":{"stationId":"EIDW","rawText":"EIDW 170730Z 30012KT 9999 FEW024 00/M02 Q1015 NOSIG","observationTime":"2019-01-17T07:30:00Z","temp":0,"dewpoint":-2,"windDirection":300,"windSpeed":22.224,"visibility":6.21,"altim":29.970472,"flightCategory":"VFR","metarType":"METAR","geometry_esri":{"x":53.42,"y":-6.25,"z":85}}}