{"type":"Feature","geometry":{"type":"Point","coordinates":[49.02,2.52,109]},"properties":{"stationId":"LFPG","rawText":"LFPG 010030Z 08012KT CAVOK 04/01 Q1015 NOSIG","observationTime":"2019-12-01T00:30:00Z","temp":4,"dewpoint":1,"windDirection":80,"windSpeed":22.224,"visibility":6.21,"altim":29.970472,"flightCategory":"VFR","metarType":"METAR","geometry_esri":{"x":49.02,"y":2.52,"z":109}}}