{"type":"Feature","geometry":{"type":"Point","coordinates":[47.78,13.02,430]},"properties":{"stationId":"LOWS","rawText":"LOWS 180950Z 29003KT 200V010 9999 SCT025 15/06 Q1024 NOSIG","observationTime":"2019-09-18T09:50:00Z","temp":15,"dewpoint":6,"windDirection":290,"windSpeed":5.556,"visibility":6.21,"altim":30.236221,"flightCategory":"VFR","metarType":"METAR","geometry_esri":{"x":47.78,"y":13.02,"z":430}}}