{"type":"Feature","geometry":{"type":"Point","coordinates":[47.78,13.02,430]},"properties":{"stationId":"LOWS","rawText":"LOWS 210650Z 32003KT 8000 FEW010 SCT012 BKN028 M03/M05 Q1018 R15/410295 NOSIG","observationTime":"2019-01-21T06:50:00Z","temp":-3,"dewpoint":-5,"windDirection":320,"windSpeed":5.556,"visibility":4.97,"altim":30.059055,"flightCategory":"MVFR","metarType":"SPECI","geometry_esri":{"x":47.78,"y":13.02,"z":430}}}