{"type":"Feature","geometry":{"type":"Point","coordinates":[47.78,13.02,430]},"properties":{"stationId":"LOWS","rawText":"LOWS 181050Z 15007KT 110V170 9999 FEW080 18/08 Q1014 NOSIG","observationTime":"2019-10-18T10:50:00Z","temp":18,"dewpoint":8,"windDirection":150,"windSpeed":12.964,"visibility":6.21,"altim":29.940945,"flightCategory":"VFR","metarType":"METAR","geometry_esri":{"x":47.78,"y":13.02,"z":430}}}