{"type":"Feature","geometry":{"type":"Point","coordinates":[47.78,13.02,430]},"properties":{"stationId":"LOWS","rawText":"LOWS 291450Z 02007KT CAVOK 30/11 Q1019 NOSIG","observationTime":"2019-06-29T14:50:00Z","temp":30,"dewpoint":11,"windDirection":20,"windSpeed":12.964,"visibility":6.21,"altim":30.088583,"flightCategory":"VFR","metarType":"METAR","geometry_esri":{"x":47.78,"y":13.02,"z":430}}}