{"type":"Feature","geometry":{"type":"Point","coordinates":[53.42,-6.25,85]},"properties":{"stationId":"EIDW","rawText":"EIDW 271830Z 30005KT 9999 FEW014 BKN050 07/07 Q0989 NOSIG","observationTime":"2019-11-27T18:30:00Z","temp":7,"dewpoint":7,"windDirection":300,"windSpeed":9.26,"visibility":6.21,"altim":29.202755,"flightCategory":"VFR","metarType":"METAR","geometry_esri":{"x":53.42,"y":-6.25,"z":85}}}