{"type":"Feature","geometry":{"type":"Point","coordinates":[40.48,-3.57,582]},"properties":{"stationId":"LEMD","rawText":"LEMD 131230Z 26001KT CAVOK 13/02 Q1030 NOSIG","observationTime":"2019-02-13T12:30:00Z","temp":13,"dewpoint":2,"windDirection":260,"windSpeed":1.852,"visibility":6.21,"altim":30.413385,"flightCategory":"VFR","metarType":"METAR","geometry_esri":{"x":40.48,"y":-3.57,"z":582}}}