{"type":"Feature","geometry":{"type":"Point","coordinates":[53.42,-6.25,85]},"properties":{"stationId":"EIDW","rawText":"EIDW 242030Z 14006KT 110V170 9999 FEW008 SCT025 BKN200 08/07 Q1030 NOSIG","observationTime":"2018-12-24T20:30:00Z","temp":8,"dewpoint":7,"windDirection":140,"windSpeed":11.112,"visibility":6.21,"altim":30.413385,"flightCategory":"VFR","metarType":"METAR","geometry_esri":{"x":53.42,"y":-6.25,"z":85}}}