{"type":"Feature","geometry":{"type":"Point","coordinates":[47.78,13.02,430]},"properties":{"stationId":"LOWS","rawText":"LOWS 050750Z 24004KT 220V280 8000 -RASN FEW004 SCT008 BKN015 02/01 Q1014 TEMPO 4000 RASN BKN009","observationTime":"2019-05-05T07:50:00Z","temp":2,"dewpoint":1,"windDirection":240,"windSpeed":7.408,"visibility":4.97,"altim":29.940945,"flightCategory":"MVFR","metarType":"METAR","geometry_esri":{"x":47.78,"y":13.02,"z":430}}}