{"type":"Feature","geometry":{"type":"Point","coordinates":[48.35,11.82,447]},"properties":{"stationId":"EDDM","rawText":"EDDM 160550Z 36003KT 330V080 9999 BKN009 BKN037 06/03 Q1016 TEMPO SCT008","observationTime":"2019-05-16T05:50:00Z","temp":6,"dewpoint":3,"windDirection":360,"windSpeed":5.556,"visibility":6.21,"altim":30,"flightCategory":"IFR","metarType":"METAR","geometry_esri":{"x":48.35,"y":11.82,"z":447}}}