{"type":"Feature","geometry":{"type":"Point","coordinates":[53.42,-6.25,85]},"properties":{"stationId":"EIDW","rawText":"EIDW 190430Z 25008KT 220V280 9999 SCT006 BKN008 BKN130 07/05 Q1024 NOSIG","observationTime":"2019-03-19T04:30:00Z","temp":7,"dewpoint":5,"windDirection":250,"windSpeed":14.816,"visibility":6.21,"altim":30.236221,"flightCategory":"IFR","metarType":"METAR","geometry_esri":{"x":53.42,"y":-6.25,"z":85}}}