{"type":"Feature","geometry":{"type":"Point","coordinates":[49.02,2.52,109]},"properties":{"stationId":"LFPG","rawText":"LFPG 311830Z 04009KT 010V070 9999 FEW017 SCT046 BKN051 10/07 Q1017 NOSIG","observationTime":"2019-10-31T18:30:00Z","temp":10,"dewpoint":7,"windDirection":40,"windSpeed":16.668,"visibility":6.21,"altim":30.029528,"flightCategory":"VFR","metarType":"METAR","geometry_esri":{"x":49.02,"y":2.52,"z":109}}}