{"type":"Feature","geometry":{"type":"Point","coordinates":[48.35,11.82,447]},"properties":{"stationId":"EDDM","rawText":"EDDM 070050Z 06007KT 020V090 5000 -RA BR BKN006 BKN010 07/06 Q1011 NOSIG","observationTime":"2019-10-07T00:50:00Z","temp":7,"dewpoint":6,"windDirection":60,"windSpeed":12.964,"visibility":3.11,"altim":29.852362,"flightCategory":"IFR","metarType":"METAR","geometry_esri":{"x":48.35,"y":11.82,"z":447}}}