{"type":"Feature","geometry":{"type":"Point","coordinates":[40.48,-3.57,582]},"properties":{"stationId":"LEMD","rawText":"LEMD 061630Z 22013KT CAVOK 36/01 Q1011 NOSIG","observationTime":"2019-08-06T16:30:00Z","temp":36,"dewpoint":1,"windDirection":220,"windSpeed":24.076,"visibility":6.21,"altim":29.852362,"flightCategory":"VFR","metarType":"METAR","geometry_esri":{"x":40.48,"y":-3.57,"z":582}}}