{"type":"Feature","geometry":{"type":"Point","coordinates":[49.02,2.52,109]},"properties":{"stationId":"LFPG","rawText":"LFPG 121530Z 18012KT 140V210 7000 SHRA SCT033CB BKN053 BKN100 16/08 Q1009 NOSIG","observationTime":"2019-06-12T15:30:00Z","temp":16,"dewpoint":8,"windDirection":180,"windSpeed":22.224,"visibility":4.35,"altim":29.793306,"flightCategory":"MVFR","metarType":"METAR","geometry_esri":{"x":49.02,"y":2.52,"z":109}}}