{"type":"Feature","geometry":{"type":"Point","coordinates":[49.02,2.52,109]},"properties":{"stationId":"LFPG","rawText":"LFPG 192130Z 32004KT CAVOK 08/03 Q1032 NOSIG","observationTime":"2019-03-19T21:30:00Z","temp":8,"dewpoint":3,"windDirection":320,"windSpeed":7.408,"visibility":6.21,"altim":30.47244,"flightCategory":"VFR","metarType":"METAR","geometry_esri":{"x":49.02,"y":2.52,"z":109}}}