{"type":"Feature","geometry":{"type":"Point","coordinates":[40.48,-3.57,582]},"properties":{"stationId":"LEMD","rawText":"LEMD 201130Z 04006KT 330V110 CAVOK 12/M03 Q1028 NOSIG","observationTime":"2019-03-20T11:30:00Z","temp":12,"dewpoint":-3,"windDirection":40,"windSpeed":11.112,"visibility":6.21,"altim":30.35433,"flightCategory":"VFR","metarType":"METAR","geometry_esri":{"x":40.48,"y":-3.57,"z":582}}}