{"type":"Feature","geometry":{"type":"Point","coordinates":[47.78,13.02,430]},"properties":{"stationId":"LOWS","rawText":"LOWS 211150Z 35004KT 280V050 CAVOK 19/09 Q1021 NOSIG","observationTime":"2019-09-21T11:50:00Z","temp":19,"dewpoint":9,"windDirection":350,"windSpeed":7.408,"visibility":6.21,"altim":30.147638,"flightCategory":"VFR","metarType":"METAR","geometry_esri":{"x":47.78,"y":13.02,"z":430}}}