{"type":"Feature","geometry":{"type":"Point","coordinates":[48.35,11.82,447]},"properties":{"stationId":"EDDM","rawText":"EDDM 291750Z 32004KT 270V350 9999 BKN013 19/16 Q1012 BECMG BKN015","observationTime":"2019-07-29T17:50:00Z","temp":19,"dewpoint":16,"windDirection":320,"windSpeed":7.408,"visibility":6.21,"altim":29.88189,"flightCategory":"MVFR","metarType":"METAR","geometry_esri":{"x":48.35,"y":11.82,"z":447}}}