{"type":"Feature","geometry":{"type":"Point","coordinates":[48.35,11.82,447]},"properties":{"stationId":"EDDM","rawText":"EDDM 031450Z 09005KT 050V120 CAVOK 28/10 Q1014 NOSIG","observationTime":"2019-06-03T14:50:00Z","temp":28,"dewpoint":10,"windDirection":90,"windSpeed":9.26,"visibility":6.21,"altim":29.940945,"flightCategory":"VFR","metarType":"METAR","geometry_esri":{"x":48.35,"y":11.82,"z":447}}}