{"type":"Feature","geometry":{"type":"Point","coordinates":[49.02,2.52,109]},"properties":{"stationId":"LFPG","rawText":"LFPG 060430Z 33003KT CAVOK 02/00 Q1024 NOSIG","observationTime":"2019-05-06T04:30:00Z","temp":2,"dewpoint":0,"windDirection":330,"windSpeed":5.556,"visibility":6.21,"altim":30.236221,"flightCategory":"VFR","metarType":"METAR","geometry_esri":{"x":49.02,"y":2.52,"z":109}}}