{"type":"Feature","geometry":{"type":"Point","coordinates":[49.02,2.52,109]},"properties":{"stationId":"LFPG","rawText":"LFPG 060130Z 35005KT CAVOK 09/04 Q1027 NOSIG","observationTime":"2019-09-06T01:30:00Z","temp":9,"dewpoint":4,"windDirection":350,"windSpeed":9.26,"visibility":6.21,"altim":30.324802,"flightCategory":"VFR","metarType":"METAR","geometry_esri":{"x":49.02,"y":2.52,"z":109}}}