{"type":"Feature","geometry":{"type":"Point","coordinates":[48.35,11.82,447]},"properties":{"stationId":"EDDM","rawText":"EDDM 110950Z 28013KT 4000 -SHSN FEW004CB BKN010 00/M01 Q1018 RETSGS BECMG 6000 BKN020","observationTime":"2019-03-11T09:50:00Z","temp":0,"dewpoint":-1,"windDirection":280,"windSpeed":24.076,"visibility":2.49,"altim":30.059055,"flightCategory":"IFR","metarType":"METAR","geometry_esri":{"x":48.35,"y":11.82,"z":447}}}