{"type":"Feature","geometry":{"type":"Point","coordinates":[51.48,-0.45,24]},"properties":{"stationId":"EGLL","rawText":"EGLL 221750Z AUTO 19008KT 150V240 9999 SCT022 SCT027 17/15 Q1005 NOSIG","observationTime":"2019-09-22T17:50:00Z","temp":17,"dewpoint":15,"windDirection":190,"windSpeed":14.816,"visibility":6.21,"altim":29.675198,"flightCategory":"VFR","metarType":"METAR","geometry_esri":{"x":51.48,"y":-0.45,"z":24}}}