{"type":"Feature","geometry":{"type":"Point","coordinates":[53.42,-6.25,85]},"properties":{"stationId":"EIDW","rawText":"EIDW 212030Z 18008KT CAVOK 15/05 Q1010 NOSIG","observationTime":"2019-04-21T20:30:00Z","temp":15,"dewpoint":5,"windDirection":180,"windSpeed":14.816,"visibility":6.21,"altim":29.822834,"flightCategory":"VFR","metarType":"METAR","geometry_esri":{"x":53.42,"y":-6.25,"z":85}}}