{"type":"Feature","geometry":{"type":"Point","coordinates":[53.42,-6.25,85]},"properties":{"stationId":"EIDW","rawText":"EIDW 232030Z 19007KT 150V230 9999 -RA FEW018 BKN035 BKN100 16/15 Q0998 NOSIG","observationTime":"2019-09-23T20:30:00Z","temp":16,"dewpoint":15,"windDirection":190,"windSpeed":12.964,"visibility":6.21,"altim":29.468504,"flightCategory":"VFR","metarType":"METAR","geometry_esri":{"x":53.42,"y":-6.25,"z":85}}}