{"type":"Feature","geometry":{"type":"Point","coordinates":[49.02,2.52,109]},"properties":{"stationId":"LFPG","rawText":"LFPG 100630Z 03008KT 010V080 2500 BR BKN007 BKN022 10/09 Q1011 NOSIG","observationTime":"2019-04-10T06:30:00Z","temp":10,"dewpoint":9,"windDirection":30,"windSpeed":14.816,"visibility":1.55,"altim":29.852362,"flightCategory":"IFR","metarType":"METAR","geometry_esri":{"x":49.02,"y":2.52,"z":109}}}