{"type":"Feature","geometry":{"type":"Point","coordinates":[47.78,13.02,430]},"properties":{"stationId":"LOWS","rawText":"LOWS 070050Z AUTO 17006KT 120V250 9999 -SHRA //////CB FEW018 BKN060 18/16 Q1013","observationTime":"2019-07-07T00:50:00Z","temp":18,"dewpoint":16,"windDirection":170,"windSpeed":11.112,"visibility":6.21,"altim":29.911417,"flightCategory":"VFR","metarType":"METAR","geometry_esri":{"x":47.78,"y":13.02,"z":430}}}