{"type":"Feature","geometry":{"type":"Point","coordinates":[53.42,-6.25,85]},"properties":{"stationId":"EIDW","rawText":"EIDW 261430Z 22017G28KT 180V270 9999 FEW020 SCT130 16/10 Q0995 NOSIG","observationTime":"2019-09-26T14:30:00Z","temp":16,"dewpoint":10,"windDirection":220,"windSpeed":31.484,"visibility":6.21,"altim":29.379921,"flightCategory":"VFR","metarType":"METAR","geometry_esri":{"x":53.42,"y":-6.25,"z":85}}}