{"type":"Feature","geometry":{"type":"Point","coordinates":[48.35,11.82,447]},"properties":{"stationId":"EDDM","rawText":"EDDM 061750Z 29010KT 250V320 9999 -SHRA FEW020 BKN055TCU 16/10 Q1015 TEMPO SHRA","observationTime":"2019-06-06T17:50:00Z","temp":16,"dewpoint":10,"windDirection":290,"windSpeed":18.52,"visibility":6.21,"altim":29.970472,"flightCategory":"VFR","metarType":"METAR","geometry_esri":{"x":48.35,"y":11.82,"z":447}}}