{"type":"Feature","geometry":{"type":"Point","coordinates":[51.48,-0.45,24]},"properties":{"stationId":"EGLL","rawText":"EGLL 191450Z AUTO VRB04KT 9999 FEW037 18/10 Q1010","observationTime":"2019-05-19T14:50:00Z","temp":18,"dewpoint":10,"windDirection":0,"windSpeed":7.408,"visibility":6.21,"altim":29.822834,"flightCategory":"VFR","metarType":"METAR","geometry_esri":{"x":51.48,"y":-0.45,"z":24}}}