{"type":"Feature","geometry":{"type":"Point","coordinates":[49.02,2.52,109]},"properties":{"stationId":"LFPG","rawText":"LFPG 040830Z 24012KT 9999 SCT014 BKN260 14/11 Q1009 TEMPO 26015G25KT FEW025TCU","observationTime":"2019-10-04T08:30:00Z","temp":14,"dewpoint":11,"windDirection":240,"windSpeed":22.224,"visibility":6.21,"altim":29.793306,"flightCategory":"VFR","metarType":"METAR","geometry_esri":{"x":49.02,"y":2.52,"z":109}}}