{"type":"Feature","geometry":{"type":"Point","coordinates":[49.02,2.52,109]},"properties":{"stationId":"LFPG","rawText":"LFPG 221230Z 20010KT 1000 R27L/1900U R09R/1900U R26R/1300U R08L/2000N R26L/P2000 R08R/1900D R27R/1900D R09L/1900U -SN BKN003 BKN013 00/M01 Q1005 R27R/590350 R27L/590350 BECMG 3000 BR BKN008 R27R/590350 R27L/590350","observationTime":"2019-01-22T12:30:00Z","temp":0,"dewpoint":-1,"windDirection":200,"windSpeed":18.52,"visibility":0.62,"altim":29.675198,"flightCategory":"LIFR","metarType":"METAR","geometry_esri":{"x":49.02,"y":2.52,"z":109}}}