{"type":"Feature","geometry":{"type":"Point","coordinates":[40.48,-3.57,582]},"properties":{"stationId":"LEMD","rawText":"LEMD 031930Z 00000KT CAVOK 19/05 Q1019 NOSIG","observationTime":"2019-10-03T19:30:00Z","temp":19,"dewpoint":5,"windDirection":0,"windSpeed":0,"visibility":6.21,"altim":30.088583,"flightCategory":"VFR","metarType":"METAR","geometry_esri":{"x":40.48,"y":-3.57,"z":582}}}