{"type":"Feature","geometry":{"type":"Point","coordinates":[51.48,-0.45,24]},"properties":{"stationId":"EGLL","rawText":"EGLL 220950Z 08007KT 050V110 CAVOK 19/07 Q1006","observationTime":"2019-04-22T09:50:00Z","temp":19,"dewpoint":7,"windDirection":80,"windSpeed":12.964,"visibility":6.21,"altim":29.704725,"flightCategory":"VFR","metarType":"METAR","geometry_esri":{"x":51.48,"y":-0.45,"z":24}}}