{"type":"Feature","geometry":{"type":"Point","coordinates":[40.48,-3.57,582]},"properties":{"stationId":"LEMD","rawText":"LEMD 251530Z 15010KT 110V190 CAVOK 35/08 Q1014 NOSIG","observationTime":"2019-06-25T15:30:00Z","temp":35,"dewpoint":8,"windDirection":150,"windSpeed":18.52,"visibility":6.21,"altim":29.940945,"flightCategory":"VFR","metarType":"METAR","geometry_esri":{"x":40.48,"y":-3.57,"z":582}}}