{"type":"Feature","geometry":{"type":"Point","coordinates":[53.42,-6.25,85]},"properties":{"stationId":"EIDW","rawText":"EIDW 260930Z 09023G33KT 1800 -RADZ SCT003 BKN004 BKN010 08/08 Q0984 TEMPO BKN005","observationTime":"2019-11-26T09:30:00Z","temp":8,"dewpoint":8,"windDirection":90,"windSpeed":42.596000000000004,"visibility":1.12,"altim":29.055119,"flightCategory":"LIFR","metarType":"SPECI","geometry_esri":{"x":53.42,"y":-6.25,"z":85}}}