{"type":"Feature","geometry":{"type":"Point","coordinates":[49.02,2.52,109]},"properties":{"stationId":"LFPG","rawText":"LFPG 200730Z 11004KT 0800 0200NE R27L/0225N R09R/1500D R26R/0150N R08L/0225N R26L/0175N R08R/0175N R27R/0200N R09L/1000U FG BKN001 SCT027 01/01 Q1023 TEMPO 0500 FG VV///","observationTime":"2019-02-20T07:30:00Z","temp":1,"dewpoint":1,"windDirection":110,"windSpeed":7.408,"visibility":0.5,"altim":30.206694,"flightCategory":"LIFR","metarType":"SPECI","geometry_esri":{"x":49.02,"y":2.52,"z":109}}}