{"type":"Feature","geometry":{"type":"Point","coordinates":[53.42,-6.25,85]},"properties":{"stationId":"EIDW","rawText":"EIDW 061130Z 20010G21KT 170V240 9999 FEW022 SCT250 09/05 Q1011 NOSIG","observationTime":"2019-02-06T11:30:00Z","temp":9,"dewpoint":5,"windDirection":200,"windSpeed":18.52,"visibility":6.21,"altim":29.852362,"flightCategory":"VFR","metarType":"METAR","geometry_esri":{"x":53.42,"y":-6.25,"z":85}}}