{"type":"Feature","geometry":{"type":"Point","coordinates":[40.48,-3.57,582]},"properties":{"stationId":"LEMD","rawText":"LEMD 200830Z 21009G26KT 160V230 9999 FEW017 BKN055 11/08 Q1009 NOSIG","observationTime":"2019-10-20T08:30:00Z","temp":11,"dewpoint":8,"windDirection":210,"windSpeed":16.668,"visibility":6.21,"altim":29.793306,"flightCategory":"VFR","metarType":"METAR","geometry_esri":{"x":40.48,"y":-3.57,"z":582}}}