{"type":"Feature","geometry":{"type":"Point","coordinates":[49.02,2.52,109]},"properties":{"stationId":"LFPG","rawText":"LFPG 060830Z VRB09KT 0900 R27L/1300D R09R/1100D R26R/P2000 R08L/1600D R26L/P2000 R08R/1700U R27R/1200D R09L/1100D FG BKN001 BKN001 05/05 Q1025 NOSIG","observationTime":"2019-02-06T08:30:00Z","temp":5,"dewpoint":5,"windDirection":0,"windSpeed":16.668,"visibility":0.56,"altim":30.265747,"flightCategory":"LIFR","metarType":"METAR","geometry_esri":{"x":49.02,"y":2.52,"z":109}}}