{"type":"Feature","geometry":{"type":"Point","coordinates":[40.48,-3.57,582]},"properties":{"stationId":"LEMD","rawText":"LEMD 191830Z 34005KT 310V010 9999 FEW060 24/14 Q1016 NOSIG","observationTime":"2019-09-19T18:30:00Z","temp":24,"dewpoint":14,"windDirection":340,"windSpeed":9.26,"visibility":6.21,"altim":30,"flightCategory":"VFR","metarType":"METAR","geometry_esri":{"x":40.48,"y":-3.57,"z":582}}}