{"type":"Feature","geometry":{"type":"Point","coordinates":[40.48,-3.57,582]},"properties":{"stationId":"LEMD","rawText":"LEMD 210930Z 02005KT 340V100 CAVOK 24/11 Q1016 NOSIG","observationTime":"2019-06-21T09:30:00Z","temp":24,"dewpoint":11,"windDirection":20,"windSpeed":9.26,"visibility":6.21,"altim":30,"flightCategory":"VFR","metarType":"METAR","geometry_esri":{"x":40.48,"y":-3.57,"z":582}}}