{"type":"Feature","geometry":{"type":"Point","coordinates":[53.42,-6.25,85]},"properties":{"stationId":"EIDW","rawText":"EIDW 212230Z 24002KT 9999 FEW017 SCT250 06/03 Q1023 NOSIG","observationTime":"2019-10-21T22:30:00Z","temp":6,"dewpoint":3,"windDirection":240,"windSpeed":3.704,"visibility":6.21,"altim":30.206694,"flightCategory":"VFR","metarType":"METAR","geometry_esri":{"x":53.42,"y":-6.25,"z":85}}}