{"type":"Feature","geometry":{"type":"Point","coordinates":[51.48,-0.45,24]},"properties":{"stationId":"EGLL","rawText":"EGLL 041650Z AUTO 19008KT 9999 BKN012 BKN022 17/15 Q1001 BECMG SCT012 BKN022","observationTime":"2019-06-04T16:50:00Z","temp":17,"dewpoint":15,"windDirection":190,"windSpeed":14.816,"visibility":6.21,"altim":29.557087,"flightCategory":"MVFR","metarType":"METAR","geometry_esri":{"x":51.48,"y":-0.45,"z":24}}}