{"type":"Feature","geometry":{"type":"Point","coordinates":[51.48,-0.45,24]},"properties":{"stationId":"EGLL","rawText":"EGLL 240750Z AUTO 09002KT 3000 R09R/1300 BR NCD 04/04 Q1035 BECMG 6000 NSW","observationTime":"2019-02-24T07:50:00Z","temp":4,"dewpoint":4,"windDirection":90,"windSpeed":3.704,"visibility":1.86,"altim":30.561024,"flightCategory":"IFR","metarType":"METAR","geometry_esri":{"x":51.48,"y":-0.45,"z":24}}}