{"type":"Feature","geometry":{"type":"Point","coordinates":[48.35,11.82,447]},"properties":{"stationId":"EDDM","rawText":"EDDM 070850Z 29005KT 260V320 9999 -RA FEW010 SCT046 13/10 Q1020 NOSIG","observationTime":"2019-09-07T08:50:00Z","temp":13,"dewpoint":10,"windDirection":290,"windSpeed":9.26,"visibility":6.21,"altim":30.11811,"flightCategory":"VFR","metarType":"METAR","geometry_esri":{"x":48.35,"y":11.82,"z":447}}}