{"type":"Feature","geometry":{"type":"Point","coordinates":[48.35,11.82,447]},"properties":{"stationId":"EDDM","rawText":"EDDM 081250Z 25021KT 9999 -RA FEW014 BKN019 04/01 Q1012 R88/290095 TEMPO 25020G30KT BKN013","observationTime":"2019-01-08T12:50:00Z","temp":4,"dewpoint":1,"windDirection":250,"windSpeed":38.892,"visibility":6.21,"altim":29.88189,"flightCategory":"MVFR","metarType":"METAR","geometry_esri":{"x":48.35,"y":11.82,"z":447}}}