{"type":"Feature","geometry":{"type":"Point","coordinates":[49.02,2.52,109]},"properties":{"stationId":"LFPG","rawText":"LFPG 121430Z 27012KT 240V310 9999 BKN048 SCT083 26/13 Q1015 NOSIG","observationTime":"2019-07-12T14:30:00Z","temp":26,"dewpoint":13,"windDirection":270,"windSpeed":22.224,"visibility":6.21,"altim":29.970472,"flightCategory":"VFR","metarType":"METAR","geometry_esri":{"x":49.02,"y":2.52,"z":109}}}