{"type":"Feature","geometry":{"type":"Point","coordinates":[53.42,-6.25,85]},"properties":{"stationId":"EIDW","rawText":"EIDW 142130Z 34012KT 9999 FEW017 03/M01 Q1013 NOSIG","observationTime":"2019-11-14T21:30:00Z","temp":3,"dewpoint":-1,"windDirection":340,"windSpeed":22.224,"visibility":6.21,"altim":29.911417,"flightCategory":"VFR","metarType":"METAR","geometry_esri":{"x":53.42,"y":-6.25,"z":85}}}