{"type":"Feature","geometry":{"type":"Point","coordinates":[53.42,-6.25,85]},"properties":{"stationId":"EIDW","rawText":"EIDW 181430Z 22004KT 160V270 9999 FEW019 BKN022 09/04 Q1004 NOSIG","observationTime":"2019-01-18T14:30:00Z","temp":9,"dewpoint":4,"windDirection":220,"windSpeed":7.408,"visibility":6.21,"altim":29.64567,"flightCategory":"MVFR","metarType":"METAR","geometry_esri":{"x":53.42,"y":-6.25,"z":85}}}