{"type":"Feature","geometry":{"type":"Point","coordinates":[49.02,2.52,109]},"properties":{"stationId":"LFPG","rawText":"LFPG 061830Z 33013KT 290V360 CAVOK 29/12 Q1011 NOSIG","observationTime":"2019-07-06T18:30:00Z","temp":29,"dewpoint":12,"windDirection":330,"windSpeed":24.076,"visibility":6.21,"altim":29.852362,"flightCategory":"VFR","metarType":"METAR","geometry_esri":{"x":49.02,"y":2.52,"z":109}}}