{"type":"Feature","geometry":{"type":"Point","coordinates":[40.48,-3.57,582]},"properties":{"stationId":"LEMD","rawText":"LEMD 251730Z 15003KT 130V190 CAVOK 18/02 Q1028 NOSIG","observationTime":"2019-02-25T17:30:00Z","temp":18,"dewpoint":2,"windDirection":150,"windSpeed":5.556,"visibility":6.21,"altim":30.35433,"flightCategory":"VFR","metarType":"METAR","geometry_esri":{"x":40.48,"y":-3.57,"z":582}}}