{"type":"Feature","geometry":{"type":"Point","coordinates":[40.48,-3.57,582]},"properties":{"stationId":"LEMD","rawText":"LEMD 081730Z 21012KT 9999 FEW040CB SCT070 30/07 Q1010 TEMPO 4000 SHRA SCT040TCU","observationTime":"2019-07-08T17:30:00Z","temp":30,"dewpoint":7,"windDirection":210,"windSpeed":22.224,"visibility":6.21,"altim":29.822834,"flightCategory":"VFR","metarType":"METAR","geometry_esri":{"x":40.48,"y":-3.57,"z":582}}}