{"type":"Feature","geometry":{"type":"Point","coordinates":[48.35,11.82,447]},"properties":{"stationId":"EDDM","rawText":"EDDM 211750Z 10002KT 9999 FEW040 18/12 Q1027 NOSIG","observationTime":"2019-08-21T17:50:00Z","temp":18,"dewpoint":12,"windDirection":100,"windSpeed":3.704,"visibility":6.21,"altim":30.324802,"flightCategory":"VFR","metarType":"METAR","geometry_esri":{"x":48.35,"y":11.82,"z":447}}}