{"type":"Feature","geometry":{"type":"Point","coordinates":[48.35,11.82,447]},"properties":{"stationId":"EDDM","rawText":"EDDM 031950Z 15009KT CAVOK 12/M01 Q0998 BECMG 29020G35KT","observationTime":"2019-04-03T19:50:00Z","temp":12,"dewpoint":-1,"windDirection":150,"windSpeed":16.668,"visibility":6.21,"altim":29.468504,"flightCategory":"VFR","metarType":"METAR","geometry_esri":{"x":48.35,"y":11.82,"z":447}}}