{"type":"Feature","geometry":{"type":"Point","coordinates":[49.02,2.52,109]},"properties":{"stationId":"LFPG","rawText":"LFPG 202130Z 36008KT 210V010 6000 NSC M00/M02 Q1020 NOSIG","observationTime":"2019-01-20T21:30:00Z","temp":0,"dewpoint":-2,"windDirection":360,"windSpeed":14.816,"visibility":3.73,"altim":30.11811,"flightCategory":"MVFR","metarType":"METAR","geometry_esri":{"x":49.02,"y":2.52,"z":109}}}