{"type":"Feature","geometry":{"type":"Point","coordinates":[53.42,-6.25,85]},"properties":{"stationId":"EIDW","rawText":"EIDW 240130Z 24006KT 200V280 9999 FEW012 BKN200 17/14 Q1008 NOSIG","observationTime":"2019-07-24T01:30:00Z","temp":17,"dewpoint":14,"windDirection":240,"windSpeed":11.112,"visibility":6.21,"altim":29.763779,"flightCategory":"VFR","metarType":"METAR","geometry_esri":{"x":53.42,"y":-6.25,"z":85}}}