{"type":"Feature","geometry":{"type":"Point","coordinates":[51.48,-0.45,24]},"properties":{"stationId":"EGLL","rawText":"EGLL 201350Z AUTO 31006KT 270V340 9999 FEW045 18/09 Q1013","observationTime":"2019-05-20T13:50:00Z","temp":18,"dewpoint":9,"windDirection":310,"windSpeed":11.112,"visibility":6.21,"altim":29.911417,"flightCategory":"VFR","metarType":"METAR","geometry_esri":{"x":51.48,"y":-0.45,"z":24}}}