{"type":"Feature","geometry":{"type":"Point","coordinates":[48.35,11.82,447]},"properties":{"stationId":"EDDM","rawText":"EDDM 051850Z 27011KT 9999 -RA FEW012 OVC017 04/02 Q1014 NOSIG","observationTime":"2019-03-05T18:50:00Z","temp":4,"dewpoint":2,"windDirection":270,"windSpeed":20.372,"visibility":6.21,"altim":29.940945,"flightCategory":"MVFR","metarType":"METAR","geometry_esri":{"x":48.35,"y":11.82,"z":447}}}