{"type":"Feature","geometry":{"type":"Point","coordinates":[40.48,-3.57,582]},"properties":{"stationId":"LEMD","rawText":"LEMD 160330Z 34003KT CAVOK 02/00 Q1026 NOSIG","observationTime":"2019-02-16T03:30:00Z","temp":2,"dewpoint":0,"windDirection":340,"windSpeed":5.556,"visibility":6.21,"altim":30.295275,"flightCategory":"VFR","metarType":"METAR","geometry_esri":{"x":40.48,"y":-3.57,"z":582}}}