{"type":"Feature","geometry":{"type":"Point","coordinates":[53.42,-6.25,85]},"properties":{"stationId":"EIDW","rawText":"EIDW 161630Z 26011KT 220V290 9999 FEW015 SCT027 20/14 Q0996 NOSIG","observationTime":"2019-08-16T16:30:00Z","temp":20,"dewpoint":14,"windDirection":260,"windSpeed":20.372,"visibility":6.21,"altim":29.409449,"flightCategory":"VFR","metarType":"METAR","geometry_esri":{"x":53.42,"y":-6.25,"z":85}}}