{"type":"Feature","geometry":{"type":"Point","coordinates":[47.78,13.02,430]},"properties":{"stationId":"LOWS","rawText":"LOWS 300550Z 03003KT 350V070 9999 -RA FEW005 SCT017 BKN025 06/05 Q1023 NOSIG","observationTime":"2019-10-30T05:50:00Z","temp":6,"dewpoint":5,"windDirection":30,"windSpeed":5.556,"visibility":6.21,"altim":30.206694,"flightCategory":"MVFR","metarType":"METAR","geometry_esri":{"x":47.78,"y":13.02,"z":430}}}