{"type":"Feature","geometry":{"type":"Point","coordinates":[49.02,2.52,109]},"properties":{"stationId":"LFPG","rawText":"LFPG 171530Z 11012KT 070V130 9999 FEW046 17/05 Q1018 NOSIG","observationTime":"2019-04-17T15:30:00Z","temp":17,"dewpoint":5,"windDirection":110,"windSpeed":22.224,"visibility":6.21,"altim":30.059055,"flightCategory":"VFR","metarType":"METAR","geometry_esri":{"x":49.02,"y":2.52,"z":109}}}