{"type":"Feature","geometry":{"type":"Point","coordinates":[49.02,2.52,109]},"properties":{"stationId":"LFPG","rawText":"LFPG 210530Z 01006KT 7000 NSC 05/04 Q1034 TEMPO 4000 BR","observationTime":"2019-03-21T05:30:00Z","temp":5,"dewpoint":4,"windDirection":10,"windSpeed":11.112,"visibility":4.35,"altim":30.531496,"flightCategory":"MVFR","metarType":"SPECI","geometry_esri":{"x":49.02,"y":2.52,"z":109}}}