{"type":"Feature","geometry":{"type":"Point","coordinates":[53.42,-6.25,85]},"properties":{"stationId":"EIDW","rawText":"EIDW 032330Z 15006KT 9999 -RA FEW008 BKN045 16/15 Q1012 NOSIG","observationTime":"2019-08-03T23:30:00Z","temp":16,"dewpoint":15,"windDirection":150,"windSpeed":11.112,"visibility":6.21,"altim":29.88189,"flightCategory":"VFR","metarType":"METAR","geometry_esri":{"x":53.42,"y":-6.25,"z":85}}}