{"type":"Feature","geometry":{"type":"Point","coordinates":[51.48,-0.45,24]},"properties":{"stationId":"EGLL","rawText":"EGLL 272250Z 28003KT 6000 NSC 05/04 Q1026","observationTime":"2019-10-27T22:50:00Z","temp":5,"dewpoint":4,"windDirection":280,"windSpeed":5.556,"visibility":3.73,"altim":30.295275,"flightCategory":"MVFR","metarType":"METAR","geometry_esri":{"x":51.48,"y":-0.45,"z":24}}}