{"type":"Feature","geometry":{"type":"Point","coordinates":[51.48,-0.45,24]},"properties":{"stationId":"EGLL","rawText":"EGLL 220450Z AUTO 22008KT 9999 OVC034 18/15 Q1021","observationTime":"2019-07-22T04:50:00Z","temp":18,"dewpoint":15,"windDirection":220,"windSpeed":14.816,"visibility":6.21,"altim":30.147638,"flightCategory":"VFR","metarType":"METAR","geometry_esri":{"x":51.48,"y":-0.45,"z":24}}}