{"type":"Feature","geometry":{"type":"Point","coordinates":[40.48,-3.57,582]},"properties":{"stationId":"LEMD","rawText":"LEMD 201530Z 03005KT 340V120 CAVOK 30/10 Q1018 NOSIG","observationTime":"2019-08-20T15:30:00Z","temp":30,"dewpoint":10,"windDirection":30,"windSpeed":9.26,"visibility":6.21,"altim":30.059055,"flightCategory":"VFR","metarType":"METAR","geometry_esri":{"x":40.48,"y":-3.57,"z":582}}}