{"type":"Feature","geometry":{"type":"Point","coordinates":[49.02,2.52,109]},"properties":{"stationId":"LFPG","rawText":"LFPG 090730Z 13007KT 360V150 CAVOK 11/08 Q1017 NOSIG","observationTime":"2019-09-09T07:30:00Z","temp":11,"dewpoint":8,"windDirection":130,"windSpeed":12.964,"visibility":6.21,"altim":30.029528,"flightCategory":"VFR","metarType":"METAR","geometry_esri":{"x":49.02,"y":2.52,"z":109}}}