{"type":"Feature","geometry":{"type":"Point","coordinates":[47.78,13.02,430]},"properties":{"stationId":"LOWS","rawText":"LOWS 191350Z 02005KT 340V050 9999 FEW025 BKN032 15/11 Q1013 NOSIG","observationTime":"2019-10-19T13:50:00Z","temp":15,"dewpoint":11,"windDirection":20,"windSpeed":9.26,"visibility":6.21,"altim":29.911417,"flightCategory":"VFR","metarType":"METAR","geometry_esri":{"x":47.78,"y":13.02,"z":430}}}