{"type":"Feature","geometry":{"type":"Point","coordinates":[48.35,11.82,447]},"properties":{"stationId":"EDDM","rawText":"EDDM 170950Z VRB02KT CAVOK 15/08 Q1017 NOSIG","observationTime":"2019-10-17T09:50:00Z","temp":15,"dewpoint":8,"windDirection":0,"windSpeed":3.704,"visibility":6.21,"altim":30.029528,"flightCategory":"VFR","metarType":"METAR","geometry_esri":{"x":48.35,"y":11.82,"z":447}}}