{"type":"Feature","geometry":{"type":"Point","coordinates":[53.42,-6.25,85]},"properties":{"stationId":"EIDW","rawText":"EIDW 040430Z 25004KT 190V280 9999 OVC030 06/01 Q1041 NOSIG","observationTime":"2019-01-04T04:30:00Z","temp":6,"dewpoint":1,"windDirection":250,"windSpeed":7.408,"visibility":6.21,"altim":30.73819,"flightCategory":"MVFR","metarType":"METAR","geometry_esri":{"x":53.42,"y":-6.25,"z":85}}}