{"type":"Feature","geometry":{"type":"Point","coordinates":[48.35,11.82,447]},"properties":{"stationId":"EDDM","rawText":"EDDM 281350Z 27012KT 9999 FEW043 19/08 Q1018 NOSIG","observationTime":"2019-09-28T13:50:00Z","temp":19,"dewpoint":8,"windDirection":270,"windSpeed":22.224,"visibility":6.21,"altim":30.059055,"flightCategory":"VFR","metarType":"METAR","geometry_esri":{"x":48.35,"y":11.82,"z":447}}}