{"type":"Feature","geometry":{"type":"Point","coordinates":[47.78,13.02,430]},"properties":{"stationId":"LOWS","rawText":"LOWS 241550Z 33007KT 290V020 9999 FEW070 33/16 Q1017 NOSIG","observationTime":"2019-07-24T15:50:00Z","temp":33,"dewpoint":16,"windDirection":330,"windSpeed":12.964,"visibility":6.21,"altim":30.029528,"flightCategory":"VFR","metarType":"METAR","geometry_esri":{"x":47.78,"y":13.02,"z":430}}}