{"type":"Feature","geometry":{"type":"Point","coordinates":[51.48,-0.45,24]},"properties":{"stationId":"EGLL","rawText":"EGLL 130850Z AUTO 28022KT 9999 BKN029 OVC040 08/03 Q1006 NOSIG","observationTime":"2019-03-13T08:50:00Z","temp":8,"dewpoint":3,"windDirection":280,"windSpeed":40.744,"visibility":6.21,"altim":29.704725,"flightCategory":"MVFR","metarType":"METAR","geometry_esri":{"x":51.48,"y":-0.45,"z":24}}}