{"type":"Feature","geometry":{"type":"Point","coordinates":[48.35,11.82,447]},"properties":{"stationId":"EDDM","rawText":"EDDM 181350Z 27011KT 230V300 9999 FEW036TCU 05/M01 Q1019 NOSIG","observationTime":"2019-03-18T13:50:00Z","temp":5,"dewpoint":-1,"windDirection":270,"windSpeed":20.372,"visibility":6.21,"altim":30.088583,"flightCategory":"VFR","metarType":"METAR","geometry_esri":{"x":48.35,"y":11.82,"z":447}}}