{"type":"Feature","geometry":{"type":"Point","coordinates":[40.48,-3.57,582]},"properties":{"stationId":"LEMD","rawText":"LEMD 290230Z 36005KT 330V040 CAVOK 04/00 Q1017 NOSIG","observationTime":"2019-01-29T02:30:00Z","temp":4,"dewpoint":0,"windDirection":360,"windSpeed":9.26,"visibility":6.21,"altim":30.029528,"flightCategory":"VFR","metarType":"METAR","geometry_esri":{"x":40.48,"y":-3.57,"z":582}}}