{"type":"Feature","geometry":{"type":"Point","coordinates":[40.48,-3.57,582]},"properties":{"stationId":"LEMD","rawText":"LEMD 031530Z 15012G23KT 120V200 9999 FEW070 35/05 Q1012 NOSIG","observationTime":"2019-07-03T15:30:00Z","temp":35,"dewpoint":5,"windDirection":150,"windSpeed":22.224,"visibility":6.21,"altim":29.88189,"flightCategory":"VFR","metarType":"METAR","geometry_esri":{"x":40.48,"y":-3.57,"z":582}}}