{"type":"Feature","geometry":{"type":"Point","coordinates":[51.48,-0.45,24]},"properties":{"stationId":"EGLL","rawText":"EGLL 050650Z 20006KT 150V250 4000 BR BKN023 06/06 Q1024 NOSIG","observationTime":"2019-02-05T06:50:00Z","temp":6,"dewpoint":6,"windDirection":200,"windSpeed":11.112,"visibility":2.49,"altim":30.236221,"flightCategory":"IFR","metarType":"METAR","geometry_esri":{"x":51.48,"y":-0.45,"z":24}}}