{"type":"Feature","geometry":{"type":"Point","coordinates":[48.35,11.82,447]},"properties":{"stationId":"EDDM","rawText":"EDDM 110350Z 17005KT 140V210 3500 BR OVC002 M00/M01 Q1015 TEMPO 2500","observationTime":"2019-11-11T03:50:00Z","temp":0,"dewpoint":-1,"windDirection":170,"windSpeed":9.26,"visibility":2.17,"altim":29.970472,"flightCategory":"LIFR","metarType":"METAR","geometry_esri":{"x":48.35,"y":11.82,"z":447}}}