{"type":"Feature","geometry":{"type":"Point","coordinates":[48.35,11.82,447]},"properties":{"stationId":"EDDM","rawText":"EDDM 041350Z VRB03KT CAVOK 24/10 Q1016 NOSIG","observationTime":"2019-09-04T13:50:00Z","temp":24,"dewpoint":10,"windDirection":0,"windSpeed":5.556,"visibility":6.21,"altim":30,"flightCategory":"VFR","metarType":"METAR","geometry_esri":{"x":48.35,"y":11.82,"z":447}}}