{"type":"Feature","geometry":{"type":"Point","coordinates":[53.42,-6.25,85]},"properties":{"stationId":"EIDW","rawText":"EIDW 031130Z 06006KT 020V110 9999 FEW024 17/07 Q1030 WS RWY28 NOSIG","observationTime":"2019-07-03T11:30:00Z","temp":17,"dewpoint":7,"windDirection":60,"windSpeed":11.112,"visibility":6.21,"altim":30.413385,"flightCategory":"VFR","metarType":"METAR","geometry_esri":{"x":53.42,"y":-6.25,"z":85}}}