{"type":"Feature","geometry":{"type":"Point","coordinates":[53.42,-6.25,85]},"properties":{"stationId":"EIDW","rawText":"EIDW 261630Z 05012KT 9999 FEW024 17/12 Q1031 NOSIG","observationTime":"2019-06-26T16:30:00Z","temp":17,"dewpoint":12,"windDirection":50,"windSpeed":22.224,"visibility":6.21,"altim":30.442913,"flightCategory":"VFR","metarType":"METAR","geometry_esri":{"x":53.42,"y":-6.25,"z":85}}}