{"type":"Feature","geometry":{"type":"Point","coordinates":[47.78,13.02,430]},"properties":{"stationId":"LOWS","rawText":"LOWS 161450Z 32005KT 230V350 9999 FEW050 18/02 Q1016 NOSIG","observationTime":"2019-04-16T14:50:00Z","temp":18,"dewpoint":2,"windDirection":320,"windSpeed":9.26,"visibility":6.21,"altim":30,"flightCategory":"VFR","metarType":"METAR","geometry_esri":{"x":47.78,"y":13.02,"z":430}}}