{"type":"Feature","geometry":{"type":"Point","coordinates":[48.35,11.82,447]},"properties":{"stationId":"EDDM","rawText":"EDDM 140950Z 27011KT 9999 -SHRA SCT010 BKN014TCU 03/02 Q1008 R88/290095 TEMPO 27015G25KT 4000 -SHRASN BKN008","observationTime":"2019-01-14T09:50:00Z","temp":3,"dewpoint":2,"windDirection":270,"windSpeed":20.372,"visibility":6.21,"altim":29.763779,"flightCategory":"MVFR","metarType":"METAR","geometry_esri":{"x":48.35,"y":11.82,"z":447}}}