{"type":"Feature","geometry":{"type":"Point","coordinates":[51.48,-0.45,24]},"properties":{"stationId":"EGLL","rawText":"EGLL 041350Z AUTO 18008KT 130V270 9999 FEW046/// //////TCU 12/09 Q0983 NOSIG","observationTime":"2019-11-04T13:50:00Z","temp":12,"dewpoint":9,"windDirection":180,"windSpeed":14.816,"visibility":6.21,"altim":29.02559,"flightCategory":"VFR","metarType":"SPECI","geometry_esri":{"x":51.48,"y":-0.45,"z":24}}}