{"type":"Feature","geometry":{"type":"Point","coordinates":[40.48,-3.57,582]},"properties":{"stationId":"LEMD","rawText":"LEMD 250030Z 33005KT CAVOK 09/M01 Q1023 NOSIG","observationTime":"2019-03-25T00:30:00Z","temp":9,"dewpoint":-1,"windDirection":330,"windSpeed":9.26,"visibility":6.21,"altim":30.206694,"flightCategory":"VFR","metarType":"METAR","geometry_esri":{"x":40.48,"y":-3.57,"z":582}}}