{"type":"Feature","geometry":{"type":"Point","coordinates":[53.42,-6.25,85]},"properties":{"stationId":"EIDW","rawText":"EIDW 240730Z 25008KT 200V300 9999 FEW012 SCT220 08/07 Q1001 NOSIG","observationTime":"2019-10-24T07:30:00Z","temp":8,"dewpoint":7,"windDirection":250,"windSpeed":14.816,"visibility":6.21,"altim":29.557087,"flightCategory":"VFR","metarType":"METAR","geometry_esri":{"x":53.42,"y":-6.25,"z":85}}}