{"type":"Feature","geometry":{"type":"Point","coordinates":[47.78,13.02,430]},"properties":{"stationId":"LOWS","rawText":"LOWS 071950Z 26005KT 220V300 9999 FEW040 FEW060TCU BKN070 19/13 Q1014 TEMPO SHRA","observationTime":"2019-07-07T19:50:00Z","temp":19,"dewpoint":13,"windDirection":260,"windSpeed":9.26,"visibility":6.21,"altim":29.940945,"flightCategory":"VFR","metarType":"METAR","geometry_esri":{"x":47.78,"y":13.02,"z":430}}}