{"type":"Feature","geometry":{"type":"Point","coordinates":[40.48,-3.57,582]},"properties":{"stationId":"LEMD","rawText":"LEMD 230930Z 12003KT CAVOK 17/11 Q1022 NOSIG","observationTime":"2019-09-23T09:30:00Z","temp":17,"dewpoint":11,"windDirection":120,"windSpeed":5.556,"visibility":6.21,"altim":30.177166,"flightCategory":"VFR","metarType":"METAR","geometry_esri":{"x":40.48,"y":-3.57,"z":582}}}