{"type":"Feature","geometry":{"type":"Point","coordinates":[49.02,2.52,109]},"properties":{"stationId":"LFPG","rawText":"LFPG 060830Z 27007KT 9999 FEW010 BKN054 10/08 Q1005 NOSIG","observationTime":"2019-11-06T08:30:00Z","temp":10,"dewpoint":8,"windDirection":270,"windSpeed":12.964,"visibility":6.21,"altim":29.675198,"flightCategory":"VFR","metarType":"METAR","geometry_esri":{"x":49.02,"y":2.52,"z":109}}}