{"type":"Feature","geometry":{"type":"Point","coordinates":[47.78,13.02,430]},"properties":{"stationId":"LOWS","rawText":"LOWS 171150Z 02007KT 320V080 9999 FEW060 19/10 Q1006 NOSIG","observationTime":"2019-05-17T11:50:00Z","temp":19,"dewpoint":10,"windDirection":20,"windSpeed":12.964,"visibility":6.21,"altim":29.704725,"flightCategory":"VFR","metarType":"METAR","geometry_esri":{"x":47.78,"y":13.02,"z":430}}}