{"type":"Feature","geometry":{"type":"Point","coordinates":[48.35,11.82,447]},"properties":{"stationId":"EDDM","rawText":"EDDM 182050Z 10010KT 5000 BR OVC005 01/M00 Q1021 NOSIG","observationTime":"2018-12-18T20:50:00Z","temp":1,"dewpoint":0,"windDirection":100,"windSpeed":18.52,"visibility":3.11,"altim":30.147638,"flightCategory":"IFR","metarType":"METAR","geometry_esri":{"x":48.35,"y":11.82,"z":447}}}