{"type":"Feature","geometry":{"type":"Point","coordinates":[48.35,11.82,447]},"properties":{"stationId":"EDDM","rawText":"EDDM 050850Z VRB02KT 9000 FEW009 BKN012 05/02 Q1005 BECMG BKN020","observationTime":"2019-04-05T08:50:00Z","temp":5,"dewpoint":2,"windDirection":0,"windSpeed":3.704,"visibility":5.59,"altim":29.675198,"flightCategory":"MVFR","metarType":"METAR","geometry_esri":{"x":48.35,"y":11.82,"z":447}}}