{"type":"Feature","geometry":{"type":"Point","coordinates":[40.48,-3.57,582]},"properties":{"stationId":"LEMD","rawText":"LEMD 240330Z 00000KT 7000 2000N R32R/P2000 BCFG FEW002 SCT045 08/08 Q1014 NOSIG","observationTime":"2019-10-24T03:30:00Z","temp":8,"dewpoint":8,"windDirection":0,"windSpeed":0,"visibility":4.35,"altim":29.940945,"flightCategory":"MVFR","metarType":"SPECI","geometry_esri":{"x":40.48,"y":-3.57,"z":582}}}