{"type":"Feature","geometry":{"type":"Point","coordinates":[49.02,2.52,109]},"properties":{"stationId":"LFPG","rawText":"LFPG 061830Z 23007KT 9999 FEW010 BKN033 20/17 Q1010 NOSIG","observationTime":"2019-08-06T18:30:00Z","temp":20,"dewpoint":17,"windDirection":230,"windSpeed":12.964,"visibility":6.21,"altim":29.822834,"flightCategory":"VFR","metarType":"METAR","geometry_esri":{"x":49.02,"y":2.52,"z":109}}}