{"type":"Feature","geometry":{"type":"Point","coordinates":[48.35,11.82,447]},"properties":{"stationId":"EDDM","rawText":"EDDM 200050Z 05004KT 020V080 3000 BR FEW003 08/07 Q1010 TEMPO 2000 BR BKN003","observationTime":"2019-10-20T00:50:00Z","temp":8,"dewpoint":7,"windDirection":50,"windSpeed":7.408,"visibility":1.86,"altim":29.822834,"flightCategory":"IFR","metarType":"METAR","geometry_esri":{"x":48.35,"y":11.82,"z":447}}}