{"type":"Feature","geometry":{"type":"Point","coordinates":[47.78,13.02,430]},"properties":{"stationId":"LOWS","rawText":"LOWS 031550Z 35004KT 320V020 9999 SCT042 BKN060 11/04 Q1018 NOSIG","observationTime":"2019-10-03T15:50:00Z","temp":11,"dewpoint":4,"windDirection":350,"windSpeed":7.408,"visibility":6.21,"altim":30.059055,"flightCategory":"VFR","metarType":"METAR","geometry_esri":{"x":47.78,"y":13.02,"z":430}}}