{"type":"Feature","geometry":{"type":"Point","coordinates":[53.42,-6.25,85]},"properties":{"stationId":"EIDW","rawText":"EIDW 171430Z 08007KT 040V120 9999 FEW028 16/07 Q1028 NOSIG","observationTime":"2019-09-17T14:30:00Z","temp":16,"dewpoint":7,"windDirection":80,"windSpeed":12.964,"visibility":6.21,"altim":30.35433,"flightCategory":"VFR","metarType":"METAR","geometry_esri":{"x":53.42,"y":-6.25,"z":85}}}