{"type":"Feature","geometry":{"type":"Point","coordinates":[48.35,11.82,447]},"properties":{"stationId":"EDDM","rawText":"EDDM 260750Z 25018KT 3500 -SN SCT013 OVC020 00/M01 Q1011 R26L/190095 R26R/290095 TEMPO -FZRA BKN012","observationTime":"2019-01-26T07:50:00Z","temp":0,"dewpoint":-1,"windDirection":250,"windSpeed":33.336,"visibility":2.17,"altim":29.852362,"flightCategory":"IFR","metarType":"METAR","geometry_esri":{"x":48.35,"y":11.82,"z":447}}}