{"type":"Feature","geometry":{"type":"Point","coordinates":[53.42,-6.25,85]},"properties":{"stationId":"EIDW","rawText":"EIDW 261430Z 14006KT 070V170 9999 FEW028 18/14 Q1017 NOSIG","observationTime":"2019-08-26T14:30:00Z","temp":18,"dewpoint":14,"windDirection":140,"windSpeed":11.112,"visibility":6.21,"altim":30.029528,"flightCategory":"VFR","metarType":"METAR","geometry_esri":{"x":53.42,"y":-6.25,"z":85}}}