{"type":"Feature","geometry":{"type":"Point","coordinates":[47.78,13.02,430]},"properties":{"stationId":"LOWS","rawText":"LOWS 111550Z 28008KT 240V330 9999 VCSH FEW025 FEW050CB BKN070 05/M06 Q1018 R15/CLRD// TEMPO 29015G25KT 2000 SHSN","observationTime":"2019-03-11T15:50:00Z","temp":5,"dewpoint":-6,"windDirection":280,"windSpeed":14.816,"visibility":6.21,"altim":30.059055,"flightCategory":"VFR","metarType":"METAR","geometry_esri":{"x":47.78,"y":13.02,"z":430}}}