{"type":"Feature","geometry":{"type":"Point","coordinates":[48.35,11.82,447]},"properties":{"stationId":"EDDM","rawText":"EDDM 311150Z 09004KT 050V140 9999 FEW035 27/18 Q1017 NOSIG","observationTime":"2019-08-31T11:50:00Z","temp":27,"dewpoint":18,"windDirection":90,"windSpeed":7.408,"visibility":6.21,"altim":30.029528,"flightCategory":"VFR","metarType":"METAR","geometry_esri":{"x":48.35,"y":11.82,"z":447}}}