{"type":"Feature","geometry":{"type":"Point","coordinates":[47.78,13.02,430]},"properties":{"stationId":"LOWS","rawText":"LOWS 260950Z 32004KT 260V020 9999 FEW070 30/17 Q1012 NOSIG","observationTime":"2019-07-26T09:50:00Z","temp":30,"dewpoint":17,"windDirection":320,"windSpeed":7.408,"visibility":6.21,"altim":29.88189,"flightCategory":"VFR","metarType":"METAR","geometry_esri":{"x":47.78,"y":13.02,"z":430}}}