{"type":"Feature","geometry":{"type":"Point","coordinates":[47.78,13.02,430]},"properties":{"stationId":"LOWS","rawText":"LOWS 301650Z 23006KT 190V290 9999 -SHRA FEW009 SCT028 BKN038 07/06 Q1017 TEMPO SHRA","observationTime":"2019-04-30T16:50:00Z","temp":7,"dewpoint":6,"windDirection":230,"windSpeed":11.112,"visibility":6.21,"altim":30.029528,"flightCategory":"VFR","metarType":"METAR","geometry_esri":{"x":47.78,"y":13.02,"z":430}}}