{"type":"Feature","geometry":{"type":"Point","coordinates":[53.42,-6.25,85]},"properties":{"stationId":"EIDW","rawText":"EIDW 181530Z 26006KT 190V320 9999 FEW025 SCT060 18/12 Q1008 NOSIG","observationTime":"2019-07-18T15:30:00Z","temp":18,"dewpoint":12,"windDirection":260,"windSpeed":11.112,"visibility":6.21,"altim":29.763779,"flightCategory":"VFR","metarType":"METAR","geometry_esri":{"x":53.42,"y":-6.25,"z":85}}}