{"type":"Feature","geometry":{"type":"Point","coordinates":[51.48,-0.45,24]},"properties":{"stationId":"EGLL","rawText":"EGLL 120950Z AUTO 24009KT 8000 BKN004 OVC008 06/05 Q1034 TEMPO 9999 BKN008","observationTime":"2019-02-12T09:50:00Z","temp":6,"dewpoint":5,"windDirection":240,"windSpeed":16.668,"visibility":4.97,"altim":30.531496,"flightCategory":"LIFR","metarType":"METAR","geometry_esri":{"x":51.48,"y":-0.45,"z":24}}}