{"type":"Feature","geometry":{"type":"Point","coordinates":[47.78,13.02,430]},"properties":{"stationId":"LOWS","rawText":"LOWS 161550Z 34007KT 320V020 9999 FEW050 BKN180 25/16 Q1018 BECMG 16005KT","observationTime":"2019-09-16T15:50:00Z","temp":25,"dewpoint":16,"windDirection":340,"windSpeed":12.964,"visibility":6.21,"altim":30.059055,"flightCategory":"VFR","metarType":"METAR","geometry_esri":{"x":47.78,"y":13.02,"z":430}}}