{"type":"Feature","geometry":{"type":"Point","coordinates":[49.02,2.52,109]},"properties":{"stationId":"LFPG","rawText":"LFPG 301830Z 02007KT 010V090 8000 BKN020 11/06 Q1021 NOSIG","observationTime":"2019-04-30T18:30:00Z","temp":11,"dewpoint":6,"windDirection":20,"windSpeed":12.964,"visibility":4.97,"altim":30.147638,"flightCategory":"MVFR","metarType":"METAR","geometry_esri":{"x":49.02,"y":2.52,"z":109}}}