{"type":"Feature","geometry":{"type":"Point","coordinates":[53.42,-6.25,85]},"properties":{"stationId":"EIDW","rawText":"EIDW 211130Z 20010KT 160V230 9999 FEW020 BKN150 BKN200 04/M00 Q1018 NOSIG","observationTime":"2019-01-21T11:30:00Z","temp":4,"dewpoint":0,"windDirection":200,"windSpeed":18.52,"visibility":6.21,"altim":30.059055,"flightCategory":"VFR","metarType":"METAR","geometry_esri":{"x":53.42,"y":-6.25,"z":85}}}