{"type":"Feature","geometry":{"type":"Point","coordinates":[40.48,-3.57,582]},"properties":{"stationId":"LEMD","rawText":"LEMD 291830Z 19005KT CAVOK 27/03 Q1018 NOSIG","observationTime":"2019-09-29T18:30:00Z","temp":27,"dewpoint":3,"windDirection":190,"windSpeed":9.26,"visibility":6.21,"altim":30.059055,"flightCategory":"VFR","metarType":"METAR","geometry_esri":{"x":40.48,"y":-3.57,"z":582}}}