{"type":"Feature","geometry":{"type":"Point","coordinates":[47.78,13.02,430]},"properties":{"stationId":"LOWS","rawText":"LOWS 180750Z 36004KT 330V040 6000 -DZ FEW007 BKN010 04/03 Q1009 NOSIG","observationTime":"2019-11-18T07:50:00Z","temp":4,"dewpoint":3,"windDirection":360,"windSpeed":7.408,"visibility":3.73,"altim":29.793306,"flightCategory":"MVFR","metarType":"METAR","geometry_esri":{"x":47.78,"y":13.02,"z":430}}}