{"type":"Feature","geometry":{"type":"Point","coordinates":[40.48,-3.57,582]},"properties":{"stationId":"LEMD","rawText":"LEMD 071430Z 20010KT 170V240 9999 FEW048 12/01 Q1015 NOSIG","observationTime":"2019-03-07T14:30:00Z","temp":12,"dewpoint":1,"windDirection":200,"windSpeed":18.52,"visibility":6.21,"altim":29.970472,"flightCategory":"VFR","metarType":"METAR","geometry_esri":{"x":40.48,"y":-3.57,"z":582}}}