{"type":"Feature","geometry":{"type":"Point","coordinates":[47.78,13.02,430]},"properties":{"stationId":"LOWS","rawText":"LOWS 051750Z 28009KT 230V310 6000 RA FEW005 SCT012 BKN018 14/13 Q1021 TEMPO 4000","observationTime":"2019-09-05T17:50:00Z","temp":14,"dewpoint":13,"windDirection":280,"windSpeed":16.668,"visibility":3.73,"altim":30.147638,"flightCategory":"MVFR","metarType":"METAR","geometry_esri":{"x":47.78,"y":13.02,"z":430}}}