{"type":"Feature","geometry":{"type":"Point","coordinates":[47.78,13.02,430]},"properties":{"stationId":"LOWS","rawText":"LOWS 181620Z 13005KT 100V170 CAVOK 01/M03 Q1023 NOSIG","observationTime":"2018-12-18T16:20:00Z","temp":1,"dewpoint":-3,"windDirection":130,"windSpeed":9.26,"visibility":6.21,"altim":30.206694,"flightCategory":"VFR","metarType":"METAR","geometry_esri":{"x":47.78,"y":13.02,"z":430}}}