{"type":"Feature","geometry":{"type":"Point","coordinates":[51.48,-0.45,24]},"properties":{"stationId":"EGLL","rawText":"EGLL 161950Z AUTO VRB03KT 6000 NCD 12/08 Q1017","observationTime":"2019-04-16T19:50:00Z","temp":12,"dewpoint":8,"windDirection":0,"windSpeed":5.556,"visibility":3.73,"altim":30.029528,"flightCategory":"MVFR","metarType":"METAR","geometry_esri":{"x":51.48,"y":-0.45,"z":24}}}