{"type":"Feature","geometry":{"type":"Point","coordinates":[48.35,11.82,447]},"properties":{"stationId":"EDDM","rawText":"EDDM 130950Z 25024KT 9999 SCT035 07/M01 Q1013 BECMG 26015G30KT","observationTime":"2019-03-13T09:50:00Z","temp":7,"dewpoint":-1,"windDirection":250,"windSpeed":44.448,"visibility":6.21,"altim":29.911417,"flightCategory":"VFR","metarType":"METAR","geometry_esri":{"x":48.35,"y":11.82,"z":447}}}