{"type":"Feature","geometry":{"type":"Point","coordinates":[47.78,13.02,430]},"properties":{"stationId":"LOWS","rawText":"LOWS 070650Z VRB02KT 9999 -TSRA FEW005 SCT032 FEW040CB BKN050 17/16 Q1013 RERA TEMPO 29015G25KT TSRA","observationTime":"2019-07-07T06:50:00Z","temp":17,"dewpoint":16,"windDirection":0,"windSpeed":3.704,"visibility":6.21,"altim":29.911417,"flightCategory":"VFR","metarType":"METAR","geometry_esri":{"x":47.78,"y":13.02,"z":430}}}