{"type":"Feature","geometry":{"type":"Point","coordinates":[47.78,13.02,430]},"properties":{"stationId":"LOWS","rawText":"LOWS 230250Z AUTO 29003KT 8000 FEW001 SCT016 BKN044 16/16 Q1017","observationTime":"2019-06-23T02:50:00Z","temp":16,"dewpoint":16,"windDirection":290,"windSpeed":5.556,"visibility":4.97,"altim":30.029528,"flightCategory":"MVFR","metarType":"METAR","geometry_esri":{"x":47.78,"y":13.02,"z":430}}}