{"type":"Feature","geometry":{"type":"Point","coordinates":[40.48,-3.57,582]},"properties":{"stationId":"LEMD","rawText":"LEMD 300830Z 34003KT 290V030 CAVOK 08/M01 Q1022 NOSIG","observationTime":"2019-03-30T08:30:00Z","temp":8,"dewpoint":-1,"windDirection":340,"windSpeed":5.556,"visibility":6.21,"altim":30.177166,"flightCategory":"VFR","metarType":"METAR","geometry_esri":{"x":40.48,"y":-3.57,"z":582}}}