{"type":"Feature","geometry":{"type":"Point","coordinates":[49.02,2.52,109]},"properties":{"stationId":"LFPG","rawText":"LFPG 271130Z 21004KT 180V260 CAVOK 17/05 Q1027 NOSIG","observationTime":"2019-02-27T11:30:00Z","temp":17,"dewpoint":5,"windDirection":210,"windSpeed":7.408,"visibility":6.21,"altim":30.324802,"flightCategory":"VFR","metarType":"METAR","geometry_esri":{"x":49.02,"y":2.52,"z":109}}}