{"type":"Feature","geometry":{"type":"Point","coordinates":[40.48,-3.57,582]},"properties":{"stationId":"LEMD","rawText":"LEMD 281130Z 20002KT CAVOK 19/11 Q1019 NOSIG","observationTime":"2019-10-28T11:30:00Z","temp":19,"dewpoint":11,"windDirection":200,"windSpeed":3.704,"visibility":6.21,"altim":30.088583,"flightCategory":"VFR","metarType":"METAR","geometry_esri":{"x":40.48,"y":-3.57,"z":582}}}