{"type":"Feature","geometry":{"type":"Point","coordinates":[51.48,-0.45,24]},"properties":{"stationId":"EGLL","rawText":"EGLL 241850Z AUTO 08004KT 9999 BKN024 04/04 Q1034","observationTime":"2018-12-24T18:50:00Z","temp":4,"dewpoint":4,"windDirection":80,"windSpeed":7.408,"visibility":6.21,"altim":30.531496,"flightCategory":"MVFR","metarType":"METAR","geometry_esri":{"x":51.48,"y":-0.45,"z":24}}}