{"type":"Feature","geometry":{"type":"Point","coordinates":[49.02,2.52,109]},"properties":{"stationId":"LFPG","rawText":"LFPG 141130Z VRB10G21KT 9999 SCT022 BKN028 BKN260 06/01 Q0999 NOSIG","observationTime":"2019-11-14T11:30:00Z","temp":6,"dewpoint":1,"windDirection":0,"windSpeed":18.52,"visibility":6.21,"altim":29.498032,"flightCategory":"MVFR","metarType":"METAR","geometry_esri":{"x":49.02,"y":2.52,"z":109}}}