{"type":"Feature","geometry":{"type":"Point","coordinates":[40.48,-3.57,582]},"properties":{"stationId":"LEMD","rawText":"LEMD 221530Z 17006KT 120V240 9999 SCT050 19/05 Q0999 NOSIG","observationTime":"2019-04-22T15:30:00Z","temp":19,"dewpoint":5,"windDirection":170,"windSpeed":11.112,"visibility":6.21,"altim":29.498032,"flightCategory":"VFR","metarType":"METAR","geometry_esri":{"x":40.48,"y":-3.57,"z":582}}}