{"type":"Feature","geometry":{"type":"Point","coordinates":[53.42,-6.25,85]},"properties":{"stationId":"EIDW","rawText":"EIDW 161430Z 27008KT 9999 FEW022 SCT050 BKN130 04/03 Q1009 NOSIG","observationTime":"2019-11-16T14:30:00Z","temp":4,"dewpoint":3,"windDirection":270,"windSpeed":14.816,"visibility":6.21,"altim":29.793306,"flightCategory":"VFR","metarType":"METAR","geometry_esri":{"x":53.42,"y":-6.25,"z":85}}}