{"type":"Feature","geometry":{"type":"Point","coordinates":[40.48,-3.57,582]},"properties":{"stationId":"LEMD","rawText":"LEMD 010930Z 18001KT CAVOK 26/12 Q1017 NOSIG","observationTime":"2019-09-01T09:30:00Z","temp":26,"dewpoint":12,"windDirection":180,"windSpeed":1.852,"visibility":6.21,"altim":30.029528,"flightCategory":"VFR","metarType":"METAR","geometry_esri":{"x":40.48,"y":-3.57,"z":582}}}