{"type":"Feature","geometry":{"type":"Point","coordinates":[48.35,11.82,447]},"properties":{"stationId":"EDDM","rawText":"EDDM 150850Z 22004KT 170V280 CAVOK 18/11 Q1016 NOSIG","observationTime":"2019-08-15T08:50:00Z","temp":18,"dewpoint":11,"windDirection":220,"windSpeed":7.408,"visibility":6.21,"altim":30,"flightCategory":"VFR","metarType":"METAR","geometry_esri":{"x":48.35,"y":11.82,"z":447}}}