{"type":"Feature","geometry":{"type":"Point","coordinates":[51.48,-0.45,24]},"properties":{"stationId":"EGLL","rawText":"EGLL 271350Z 20004KT 160V230 3000 1400S R27R/P1500 R27L/P1500 BR NSC 06/05 Q1025","observationTime":"2018-12-27T13:50:00Z","temp":6,"dewpoint":5,"windDirection":200,"windSpeed":7.408,"visibility":1.86,"altim":30.265747,"flightCategory":"IFR","metarType":"SPECI","geometry_esri":{"x":51.48,"y":-0.45,"z":24}}}