{"type":"Feature","geometry":{"type":"Point","coordinates":[48.35,11.82,447]},"properties":{"stationId":"EDDM","rawText":"EDDM 041550Z 25015KT 8000 BKN012 M01/M02 Q1031 R88/290095 TEMPO SCT012","observationTime":"2019-01-04T15:50:00Z","temp":-1,"dewpoint":-2,"windDirection":250,"windSpeed":27.78,"visibility":4.97,"altim":30.442913,"flightCategory":"MVFR","metarType":"SPECI","geometry_esri":{"x":48.35,"y":11.82,"z":447}}}