{"type":"Feature","geometry":{"type":"Point","coordinates":[49.02,2.52,109]},"properties":{"stationId":"LFPG","rawText":"LFPG 140830Z 04006KT 360V070 6000 NSC 04/M01 Q1023 NOSIG","observationTime":"2019-04-14T08:30:00Z","temp":4,"dewpoint":-1,"windDirection":40,"windSpeed":11.112,"visibility":3.73,"altim":30.206694,"flightCategory":"MVFR","metarType":"METAR","geometry_esri":{"x":49.02,"y":2.52,"z":109}}}