{"type":"Feature","geometry":{"type":"Point","coordinates":[49.02,2.52,109]},"properties":{"stationId":"LFPG","rawText":"LFPG 102330Z 03012KT 5000 -RA BKN006 BKN013 10/09 Q1007 TEMPO 2500 RA BKN003","observationTime":"2019-05-10T23:30:00Z","temp":10,"dewpoint":9,"windDirection":30,"windSpeed":22.224,"visibility":3.11,"altim":29.734253,"flightCategory":"IFR","metarType":"METAR","geometry_esri":{"x":49.02,"y":2.52,"z":109}}}