{"type":"Feature","geometry":{"type":"Point","coordinates":[47.78,13.02,430]},"properties":{"stationId":"LOWS","rawText":"LOWS 191750Z 15003KT CAVOK 11/10 Q1012 NOSIG","observationTime":"2019-10-19T17:50:00Z","temp":11,"dewpoint":10,"windDirection":150,"windSpeed":5.556,"visibility":6.21,"altim":29.88189,"flightCategory":"VFR","metarType":"METAR","geometry_esri":{"x":47.78,"y":13.02,"z":430}}}