{"type":"Feature","geometry":{"type":"Point","coordinates":[40.48,-3.57,582]},"properties":{"stationId":"LEMD","rawText":"LEMD 301330Z 20006KT 160V250 CAVOK 29/04 Q1018 NOSIG","observationTime":"2019-09-30T13:30:00Z","temp":29,"dewpoint":4,"windDirection":200,"windSpeed":11.112,"visibility":6.21,"altim":30.059055,"flightCategory":"VFR","metarType":"METAR","geometry_esri":{"x":40.48,"y":-3.57,"z":582}}}