{"type":"Feature","geometry":{"type":"Point","coordinates":[40.48,-3.57,582]},"properties":{"stationId":"LEMD","rawText":"LEMD 210130Z 35004KT CAVOK 03/02 Q1026 NOSIG","observationTime":"2019-02-21T01:30:00Z","temp":3,"dewpoint":2,"windDirection":350,"windSpeed":7.408,"visibility":6.21,"altim":30.295275,"flightCategory":"VFR","metarType":"METAR","geometry_esri":{"x":40.48,"y":-3.57,"z":582}}}