{"type":"Feature","geometry":{"type":"Point","coordinates":[47.78,13.02,430]},"properties":{"stationId":"LOWS","rawText":"LOWS 030950Z VRB05KT 9999 FEW080 SCT150 16/02 Q1003 TEMPO 16015KT","observationTime":"2019-04-03T09:50:00Z","temp":16,"dewpoint":2,"windDirection":0,"windSpeed":9.26,"visibility":6.21,"altim":29.616142,"flightCategory":"VFR","metarType":"METAR","geometry_esri":{"x":47.78,"y":13.02,"z":430}}}