{"type":"Feature","geometry":{"type":"Point","coordinates":[49.02,2.52,109]},"properties":{"stationId":"LFPG","rawText":"LFPG 291930Z 13008KT CAVOK 25/09 Q1009 NOSIG","observationTime":"2019-07-29T19:30:00Z","temp":25,"dewpoint":9,"windDirection":130,"windSpeed":14.816,"visibility":6.21,"altim":29.793306,"flightCategory":"VFR","metarType":"METAR","geometry_esri":{"x":49.02,"y":2.52,"z":109}}}