{"type":"Feature","geometry":{"type":"Point","coordinates":[51.48,-0.45,24]},"properties":{"stationId":"EGLL","rawText":"EGLL 300150Z AUTO 09005KT 3400 HZ NCD 07/06 Q1026 NOSIG","observationTime":"2019-04-30T01:50:00Z","temp":7,"dewpoint":6,"windDirection":90,"windSpeed":9.26,"visibility":2.11,"altim":30.295275,"flightCategory":"IFR","metarType":"METAR","geometry_esri":{"x":51.48,"y":-0.45,"z":24}}}