{"type":"Feature","geometry":{"type":"Point","coordinates":[53.42,-6.25,85]},"properties":{"stationId":"EIDW","rawText":"EIDW 030530Z 15008KT 9999 FEW030 BKN140 BKN250 09/05 Q1015 NOSIG","observationTime":"2019-10-03T05:30:00Z","temp":9,"dewpoint":5,"windDirection":150,"windSpeed":14.816,"visibility":6.21,"altim":29.970472,"flightCategory":"VFR","metarType":"METAR","geometry_esri":{"x":53.42,"y":-6.25,"z":85}}}