{"type":"Feature","geometry":{"type":"Point","coordinates":[53.42,-6.25,85]},"properties":{"stationId":"EIDW","rawText":"EIDW 221130Z 13006KT 100V160 9000 -RADZ SCT003 SCT019 BKN050 16/15 Q0999 NOSIG","observationTime":"2019-09-22T11:30:00Z","temp":16,"dewpoint":15,"windDirection":130,"windSpeed":11.112,"visibility":5.59,"altim":29.498032,"flightCategory":"VFR","metarType":"METAR","geometry_esri":{"x":53.42,"y":-6.25,"z":85}}}