{"type":"Feature","geometry":{"type":"Point","coordinates":[53.42,-6.25,85]},"properties":{"stationId":"EIDW","rawText":"EIDW 190930Z 25012G22KT 200V280 9999 FEW022 15/10 Q1010 NOSIG","observationTime":"2019-08-19T09:30:00Z","temp":15,"dewpoint":10,"windDirection":250,"windSpeed":22.224,"visibility":6.21,"altim":29.822834,"flightCategory":"VFR","metarType":"METAR","geometry_esri":{"x":53.42,"y":-6.25,"z":85}}}