{"type":"Feature","geometry":{"type":"Point","coordinates":[47.78,13.02,430]},"properties":{"stationId":"LOWS","rawText":"LOWS 241950Z 31003KT 9000 FEW003 SCT300 04/03 Q1008 TEMPO 4000 BR","observationTime":"2019-11-24T19:50:00Z","temp":4,"dewpoint":3,"windDirection":310,"windSpeed":5.556,"visibility":5.59,"altim":29.763779,"flightCategory":"VFR","metarType":"SPECI","geometry_esri":{"x":47.78,"y":13.02,"z":430}}}