{"type":"Feature","geometry":{"type":"Point","coordinates":[40.48,-3.57,582]},"properties":{"stationId":"LEMD","rawText":"LEMD 232330Z 21012KT 180V240 9999 FEW020 SCT032 07/03 Q1003 R88/19//95 NOSIG","observationTime":"2019-04-23T23:30:00Z","temp":7,"dewpoint":3,"windDirection":210,"windSpeed":22.224,"visibility":6.21,"altim":29.616142,"flightCategory":"VFR","metarType":"SPECI","geometry_esri":{"x":40.48,"y":-3.57,"z":582}}}