{"type":"Feature","geometry":{"type":"Point","coordinates":[48.35,11.82,447]},"properties":{"stationId":"EDDM","rawText":"EDDM 190250Z VRB01KT CAVOK 06/05 Q1003 NOSIG","observationTime":"2019-05-19T02:50:00Z","temp":6,"dewpoint":5,"windDirection":0,"windSpeed":1.852,"visibility":6.21,"altim":29.616142,"flightCategory":"VFR","metarType":"METAR","geometry_esri":{"x":48.35,"y":11.82,"z":447}}}