{"type":"Feature","geometry":{"type":"Point","coordinates":[49.02,2.52,109]},"properties":{"stationId":"LFPG","rawText":"LFPG 191230Z 14011KT 9999 BKN013 01/M02 Q1011 TEMPO 4000 -SNRA BKN007","observationTime":"2019-01-19T12:30:00Z","temp":1,"dewpoint":-2,"windDirection":140,"windSpeed":20.372,"visibility":6.21,"altim":29.852362,"flightCategory":"MVFR","metarType":"SPECI","geometry_esri":{"x":49.02,"y":2.52,"z":109}}}