{"type":"Feature","geometry":{"type":"Point","coordinates":[48.35,11.82,447]},"properties":{"stationId":"EDDM","rawText":"EDDM 141850Z 09001KT 9999 FEW025 16/13 Q1015 NOSIG","observationTime":"2019-07-14T18:50:00Z","temp":16,"dewpoint":13,"windDirection":90,"windSpeed":1.852,"visibility":6.21,"altim":29.970472,"flightCategory":"VFR","metarType":"METAR","geometry_esri":{"x":48.35,"y":11.82,"z":447}}}