{"type":"Feature","geometry":{"type":"Point","coordinates":[47.78,13.02,430]},"properties":{"stationId":"LOWS","rawText":"LOWS 170350Z 17004KT CAVOK 06/05 Q1017 NOSIG","observationTime":"2019-10-17T03:50:00Z","temp":6,"dewpoint":5,"windDirection":170,"windSpeed":7.408,"visibility":6.21,"altim":30.029528,"flightCategory":"VFR","metarType":"METAR","geometry_esri":{"x":47.78,"y":13.02,"z":430}}}