{"type":"Feature","geometry":{"type":"Point","coordinates":[47.78,13.02,430]},"properties":{"stationId":"LOWS","rawText":"LOWS 050750Z VRB01KT 9999 FEW012 SCT016 BKN038 06/02 Q1004 NOSIG","observationTime":"2019-04-05T07:50:00Z","temp":6,"dewpoint":2,"windDirection":0,"windSpeed":1.852,"visibility":6.21,"altim":29.64567,"flightCategory":"VFR","metarType":"METAR","geometry_esri":{"x":47.78,"y":13.02,"z":430}}}