{"type":"Feature","geometry":{"type":"Point","coordinates":[53.42,-6.25,85]},"properties":{"stationId":"EIDW","rawText":"EIDW 151830Z 26011KT 210V280 9999 FEW018 SCT040 BKN120 08/02 Q1007 NOSIG","observationTime":"2019-03-15T18:30:00Z","temp":8,"dewpoint":2,"windDirection":260,"windSpeed":20.372,"visibility":6.21,"altim":29.734253,"flightCategory":"VFR","metarType":"METAR","geometry_esri":{"x":53.42,"y":-6.25,"z":85}}}