{"type":"Feature","geometry":{"type":"Point","coordinates":[48.35,11.82,447]},"properties":{"stationId":"EDDM","rawText":"EDDM 181150Z 24008KT 210V280 9999 -SHSN FEW020TCU SCT040 02/M02 Q1019 TEMPO 4000","observationTime":"2019-01-18T11:50:00Z","temp":2,"dewpoint":-2,"windDirection":240,"windSpeed":14.816,"visibility":6.21,"altim":30.088583,"flightCategory":"VFR","metarType":"METAR","geometry_esri":{"x":48.35,"y":11.82,"z":447}}}