{"type":"Feature","geometry":{"type":"Point","coordinates":[40.48,-3.57,582]},"properties":{"stationId":"LEMD","rawText":"LEMD 100630Z 35006KT CAVOK 18/10 Q1018 NOSIG","observationTime":"2019-07-10T06:30:00Z","temp":18,"dewpoint":10,"windDirection":350,"windSpeed":11.112,"visibility":6.21,"altim":30.059055,"flightCategory":"VFR","metarType":"METAR","geometry_esri":{"x":40.48,"y":-3.57,"z":582}}}