{"type":"Feature","geometry":{"type":"Point","coordinates":[40.48,-3.57,582]},"properties":{"stationId":"LEMD","rawText":"LEMD 191030Z 19006KT 160V250 9999 SCT012 08/05 Q1025 NOSIG","observationTime":"2018-12-19T10:30:00Z","temp":8,"dewpoint":5,"windDirection":190,"windSpeed":11.112,"visibility":6.21,"altim":30.265747,"flightCategory":"VFR","metarType":"METAR","geometry_esri":{"x":40.48,"y":-3.57,"z":582}}}