{"type":"Feature","geometry":{"type":"Point","coordinates":[51.48,-0.45,24]},"properties":{"stationId":"EGLL","rawText":"EGLL 291150Z AUTO 19010KT 140V250 9999 SCT047 24/11 Q1009 NOSIG","observationTime":"2019-07-29T11:50:00Z","temp":24,"dewpoint":11,"windDirection":190,"windSpeed":18.52,"visibility":6.21,"altim":29.793306,"flightCategory":"VFR","metarType":"METAR","geometry_esri":{"x":51.48,"y":-0.45,"z":24}}}