{"type":"Feature","geometry":{"type":"Point","coordinates":[48.35,11.82,447]},"properties":{"stationId":"EDDM","rawText":"EDDM 200250Z 31004KT 9999 FEW027 OVC036 05/03 Q1022 NOSIG","observationTime":"2019-02-20T02:50:00Z","temp":5,"dewpoint":3,"windDirection":310,"windSpeed":7.408,"visibility":6.21,"altim":30.177166,"flightCategory":"VFR","metarType":"METAR","geometry_esri":{"x":48.35,"y":11.82,"z":447}}}