{"type":"Feature","geometry":{"type":"Point","coordinates":[51.48,-0.45,24]},"properties":{"stationId":"EGLL","rawText":"EGLL 071550Z AUTO 26026KT 9999 -RA BKN036 BKN043 10/03 Q0994","observationTime":"2019-03-07T15:50:00Z","temp":10,"dewpoint":3,"windDirection":260,"windSpeed":48.152,"visibility":6.21,"altim":29.350393,"flightCategory":"VFR","metarType":"METAR","geometry_esri":{"x":51.48,"y":-0.45,"z":24}}}