{"type":"Feature","geometry":{"type":"Point","coordinates":[51.48,-0.45,24]},"properties":{"stationId":"EGLL","rawText":"EGLL 130950Z AUTO 19016KT 160V230 9999 OVC023 17/15 Q0999","observationTime":"2019-10-13T09:50:00Z","temp":17,"dewpoint":15,"windDirection":190,"windSpeed":29.632,"visibility":6.21,"altim":29.498032,"flightCategory":"MVFR","metarType":"METAR","geometry_esri":{"x":51.48,"y":-0.45,"z":24}}}