{"type":"Feature","geometry":{"type":"Point","coordinates":[49.02,2.52,109]},"properties":{"stationId":"LFPG","rawText":"LFPG 300630Z 19014KT 9999 FEW023 19/13 Q1012 NOSIG","observationTime":"2019-07-30T06:30:00Z","temp":19,"dewpoint":13,"windDirection":190,"windSpeed":25.928,"visibility":6.21,"altim":29.88189,"flightCategory":"VFR","metarType":"METAR","geometry_esri":{"x":49.02,"y":2.52,"z":109}}}