{"type":"Feature","geometry":{"type":"Point","coordinates":[53.42,-6.25,85]},"properties":{"stationId":"EIDW","rawText":"EIDW 221730Z 25013KT 210V280 9999 FEW018 SCT030 BKN200 20/15 Q1018 NOSIG","observationTime":"2019-08-22T17:30:00Z","temp":20,"dewpoint":15,"windDirection":250,"windSpeed":24.076,"visibility":6.21,"altim":30.059055,"flightCategory":"VFR","metarType":"METAR","geometry_esri":{"x":53.42,"y":-6.25,"z":85}}}