{"type":"Feature","geometry":{"type":"Point","coordinates":[40.48,-3.57,582]},"properties":{"stationId":"LEMD","rawText":"LEMD 190630Z 36003KT 340V070 9999 BKN070 07/M02 Q1024 NOSIG","observationTime":"2019-03-19T06:30:00Z","temp":7,"dewpoint":-2,"windDirection":360,"windSpeed":5.556,"visibility":6.21,"altim":30.236221,"flightCategory":"VFR","metarType":"METAR","geometry_esri":{"x":40.48,"y":-3.57,"z":582}}}