{"type":"Feature","geometry":{"type":"Point","coordinates":[53.42,-6.25,85]},"properties":{"stationId":"EIDW","rawText":"EIDW 012330Z 27011KT 9999 -RA FEW009 SCT017 BKN020 06/05 Q1009 NOSIG","observationTime":"2019-04-01T23:30:00Z","temp":6,"dewpoint":5,"windDirection":270,"windSpeed":20.372,"visibility":6.21,"altim":29.793306,"flightCategory":"MVFR","metarType":"METAR","geometry_esri":{"x":53.42,"y":-6.25,"z":85}}}