{"type":"Feature","geometry":{"type":"Point","coordinates":[53.42,-6.25,85]},"properties":{"stationId":"EIDW","rawText":"EIDW 280230Z 32005KT 9999 FEW025 M00/M01 Q1027 NOSIG","observationTime":"2019-10-28T02:30:00Z","temp":0,"dewpoint":-1,"windDirection":320,"windSpeed":9.26,"visibility":6.21,"altim":30.324802,"flightCategory":"VFR","metarType":"METAR","geometry_esri":{"x":53.42,"y":-6.25,"z":85}}}