{"type":"Feature","geometry":{"type":"Point","coordinates":[49.02,2.52,109]},"properties":{"stationId":"LFPG","rawText":"LFPG 061430Z 19005KT 090V230 2500 R26R/1400U RA BR FEW009 FEW016CB BKN026 OVC040 18/17 Q1011 TEMPO TSRA","observationTime":"2019-08-06T14:30:00Z","temp":18,"dewpoint":17,"windDirection":190,"windSpeed":9.26,"visibility":1.55,"altim":29.852362,"flightCategory":"IFR","metarType":"SPECI","geometry_esri":{"x":49.02,"y":2.52,"z":109}}}