{"type":"Feature","geometry":{"type":"Point","coordinates":[53.42,-6.25,85]},"properties":{"stationId":"EIDW","rawText":"EIDW 262130Z 19016G27KT 160V240 9999 FEW012 SCT020 BKN025 07/04 Q0989 NOSIG","observationTime":"2019-04-26T21:30:00Z","temp":7,"dewpoint":4,"windDirection":190,"windSpeed":29.632,"visibility":6.21,"altim":29.202755,"flightCategory":"MVFR","metarType":"METAR","geometry_esri":{"x":53.42,"y":-6.25,"z":85}}}