{"type":"Feature","geometry":{"type":"Point","coordinates":[47.78,13.02,430]},"properties":{"stationId":"LOWS","rawText":"LOWS 040250Z AUTO 11005KT 9999 NSC M03/M05 Q1024","observationTime":"2019-12-04T02:50:00Z","temp":-3,"dewpoint":-5,"windDirection":110,"windSpeed":9.26,"visibility":6.21,"altim":30.236221,"flightCategory":"VFR","metarType":"METAR","geometry_esri":{"x":47.78,"y":13.02,"z":430}}}