{"type":"Feature","geometry":{"type":"Point","coordinates":[40.48,-3.57,582]},"properties":{"stationId":"LEMD","rawText":"LEMD 171030Z 16003KT CAVOK 17/07 Q1014 NOSIG","observationTime":"2019-04-17T10:30:00Z","temp":17,"dewpoint":7,"windDirection":160,"windSpeed":5.556,"visibility":6.21,"altim":29.940945,"flightCategory":"VFR","metarType":"METAR","geometry_esri":{"x":40.48,"y":-3.57,"z":582}}}