{"type":"Feature","geometry":{"type":"Point","coordinates":[48.35,11.82,447]},"properties":{"stationId":"EDDM","rawText":"EDDM 221450Z 28008KT 9999 SCT015 BKN021 13/10 Q1018 NOSIG","observationTime":"2019-05-22T14:50:00Z","temp":13,"dewpoint":10,"windDirection":280,"windSpeed":14.816,"visibility":6.21,"altim":30.059055,"flightCategory":"MVFR","metarType":"METAR","geometry_esri":{"x":48.35,"y":11.82,"z":447}}}