{"type":"Feature","geometry":{"type":"Point","coordinates":[49.02,2.52,109]},"properties":{"stationId":"LFPG","rawText":"LFPG 300130Z 33010KT 1000 R27L/1700D R09R/1700D R26R/2000U R08L/P2000 R26L/P2000 R08R/1700N R27R/1600D R09L/1600D SN FEW002 BKN003 00/M00 Q0989 R08L/690341 R09R/69//50 R09L/690350 TEMPO 0800 SN BKN003","observationTime":"2019-01-30T01:30:00Z","temp":0,"dewpoint":0,"windDirection":330,"windSpeed":18.52,"visibility":0.62,"altim":29.202755,"flightCategory":"LIFR","metarType":"METAR","geometry_esri":{"x":49.02,"y":2.52,"z":109}}}