{"type":"Feature","geometry":{"type":"Point","coordinates":[51.48,-0.45,24]},"properties":{"stationId":"EGLL","rawText":"EGLL 140150Z AUTO 36003KT 9999 NCD 16/13 Q1023","observationTime":"2019-07-14T01:50:00Z","temp":16,"dewpoint":13,"windDirection":360,"windSpeed":5.556,"visibility":6.21,"altim":30.206694,"flightCategory":"VFR","metarType":"METAR","geometry_esri":{"x":51.48,"y":-0.45,"z":24}}}