{"type":"Feature","geometry":{"type":"Point","coordinates":[51.48,-0.45,24]},"properties":{"stationId":"EGLL","rawText":"EGLL 151750Z AUTO 03004KT 310V110 9999 NCD 21/10 Q1021","observationTime":"2019-07-15T17:50:00Z","temp":21,"dewpoint":10,"windDirection":30,"windSpeed":7.408,"visibility":6.21,"altim":30.147638,"flightCategory":"VFR","metarType":"METAR","geometry_esri":{"x":51.48,"y":-0.45,"z":24}}}