{"type":"Feature","geometry":{"type":"Point","coordinates":[40.48,-3.57,582]},"properties":{"stationId":"LEMD","rawText":"LEMD 080330Z 34005KT CAVOK 14/07 Q1020 NOSIG","observationTime":"2019-10-08T03:30:00Z","temp":14,"dewpoint":7,"windDirection":340,"windSpeed":9.26,"visibility":6.21,"altim":30.11811,"flightCategory":"VFR","metarType":"METAR","geometry_esri":{"x":40.48,"y":-3.57,"z":582}}}