{"type":"Feature","geometry":{"type":"Point","coordinates":[49.02,2.52,109]},"properties":{"stationId":"LFPG","rawText":"LFPG 071030Z 24016G26KT 9999 BKN025 10/05 Q0998 NOSIG","observationTime":"2019-11-07T10:30:00Z","temp":10,"dewpoint":5,"windDirection":240,"windSpeed":29.632,"visibility":6.21,"altim":29.468504,"flightCategory":"MVFR","metarType":"METAR","geometry_esri":{"x":49.02,"y":2.52,"z":109}}}