{"type":"Feature","geometry":{"type":"Point","coordinates":[51.48,-0.45,24]},"properties":{"stationId":"EGLL","rawText":"EGLL 062050Z AUTO 21013KT 9999 BKN017 BKN025 OVC039 10/08 Q0986 TEMPO BKN014","observationTime":"2019-03-06T20:50:00Z","temp":10,"dewpoint":8,"windDirection":210,"windSpeed":24.076,"visibility":6.21,"altim":29.114174,"flightCategory":"MVFR","metarType":"METAR","geometry_esri":{"x":51.48,"y":-0.45,"z":24}}}