{"type":"Feature","geometry":{"type":"Point","coordinates":[40.48,-3.57,582]},"properties":{"stationId":"LEMD","rawText":"LEMD 152230Z 33005KT CAVOK 05/02 Q1026 NOSIG","observationTime":"2019-02-15T22:30:00Z","temp":5,"dewpoint":2,"windDirection":330,"windSpeed":9.26,"visibility":6.21,"altim":30.295275,"flightCategory":"VFR","metarType":"METAR","geometry_esri":{"x":40.48,"y":-3.57,"z":582}}}