{"type":"Feature","geometry":{"type":"Point","coordinates":[51.48,-0.45,24]},"properties":{"stationId":"EGLL","rawText":"EGLL 071550Z AUTO 20011KT 170V250 7000 BKN007 OVC012 14/13 Q1012 TEMPO 4000 RADZ","observationTime":"2019-10-07T15:50:00Z","temp":14,"dewpoint":13,"windDirection":200,"windSpeed":20.372,"visibility":4.35,"altim":29.88189,"flightCategory":"IFR","metarType":"METAR","geometry_esri":{"x":51.48,"y":-0.45,"z":24}}}