{"type":"Feature","geometry":{"type":"Point","coordinates":[40.48,-3.57,582]},"properties":{"stationId":"LEMD","rawText":"LEMD 192030Z 01004KT CAVOK 09/02 Q1020 NOSIG","observationTime":"2019-02-19T20:30:00Z","temp":9,"dewpoint":2,"windDirection":10,"windSpeed":7.408,"visibility":6.21,"altim":30.11811,"flightCategory":"VFR","metarType":"METAR","geometry_esri":{"x":40.48,"y":-3.57,"z":582}}}