{"type":"Feature","geometry":{"type":"Point","coordinates":[47.78,13.02,430]},"properties":{"stationId":"LOWS","rawText":"LOWS 281350Z 25004KT 200V300 9999 -RA FEW007 SCT013 BKN025 13/12 Q1007 RERA TEMPO RA","observationTime":"2019-05-28T13:50:00Z","temp":13,"dewpoint":12,"windDirection":250,"windSpeed":7.408,"visibility":6.21,"altim":29.734253,"flightCategory":"MVFR","metarType":"METAR","geometry_esri":{"x":47.78,"y":13.02,"z":430}}}