{"type":"Feature","geometry":{"type":"Point","coordinates":[40.48,-3.57,582]},"properties":{"stationId":"LEMD","rawText":"LEMD 011930Z 18006KT 110V220 CAVOK 15/02 Q1022 NOSIG","observationTime":"2019-03-01T19:30:00Z","temp":15,"dewpoint":2,"windDirection":180,"windSpeed":11.112,"visibility":6.21,"altim":30.177166,"flightCategory":"VFR","metarType":"METAR","geometry_esri":{"x":40.48,"y":-3.57,"z":582}}}