{"type":"Feature","geometry":{"type":"Point","coordinates":[40.48,-3.57,582]},"properties":{"stationId":"LEMD","rawText":"LEMD 211930Z 01004KT 340V050 CAVOK 22/03 Q1015 NOSIG","observationTime":"2019-05-21T19:30:00Z","temp":22,"dewpoint":3,"windDirection":10,"windSpeed":7.408,"visibility":6.21,"altim":29.970472,"flightCategory":"VFR","metarType":"METAR","geometry_esri":{"x":40.48,"y":-3.57,"z":582}}}