{"type":"Feature","geometry":{"type":"Point","coordinates":[49.02,2.52,109]},"properties":{"stationId":"LFPG","rawText":"LFPG 201230Z 21013KT 190V290 9999 SCT018 SCT024 10/05 Q1014 NOSIG","observationTime":"2018-12-20T12:30:00Z","temp":10,"dewpoint":5,"windDirection":210,"windSpeed":24.076,"visibility":6.21,"altim":29.940945,"flightCategory":"VFR","metarType":"METAR","geometry_esri":{"x":49.02,"y":2.52,"z":109}}}