{"type":"Feature","geometry":{"type":"Point","coordinates":[48.35,11.82,447]},"properties":{"stationId":"EDDM","rawText":"EDDM 142050Z 01004KT 330V040 9999 BKN040 07/01 Q1021 NOSIG","observationTime":"2019-04-14T20:50:00Z","temp":7,"dewpoint":1,"windDirection":10,"windSpeed":7.408,"visibility":6.21,"altim":30.147638,"flightCategory":"VFR","metarType":"METAR","geometry_esri":{"x":48.35,"y":11.82,"z":447}}}