{"type":"Feature","geometry":{"type":"Point","coordinates":[49.02,2.52,109]},"properties":{"stationId":"LFPG","rawText":"LFPG 201930Z 35006KT CAVOK 16/10 Q1013 NOSIG","observationTime":"2019-05-20T19:30:00Z","temp":16,"dewpoint":10,"windDirection":350,"windSpeed":11.112,"visibility":6.21,"altim":29.911417,"flightCategory":"VFR","metarType":"METAR","geometry_esri":{"x":49.02,"y":2.52,"z":109}}}