{"type":"Feature","geometry":{"type":"Point","coordinates":[49.02,2.52,109]},"properties":{"stationId":"LFPG","rawText":"LFPG 241030Z 27004KT 190V340 9999 FEW041 BKN260 20/10 Q1017 NOSIG","observationTime":"2019-05-24T10:30:00Z","temp":20,"dewpoint":10,"windDirection":270,"windSpeed":7.408,"visibility":6.21,"altim":30.029528,"flightCategory":"VFR","metarType":"METAR","geometry_esri":{"x":49.02,"y":2.52,"z":109}}}