{"type":"Feature","geometry":{"type":"Point","coordinates":[49.02,2.52,109]},"properties":{"stationId":"LFPG","rawText":"LFPG 160130Z 16009KT 9999 BKN009 04/03 Q1001 NOSIG","observationTime":"2019-11-16T01:30:00Z","temp":4,"dewpoint":3,"windDirection":160,"windSpeed":16.668,"visibility":6.21,"altim":29.557087,"flightCategory":"IFR","metarType":"METAR","geometry_esri":{"x":49.02,"y":2.52,"z":109}}}