{"type":"Feature","geometry":{"type":"Point","coordinates":[49.02,2.52,109]},"properties":{"stationId":"LFPG","rawText":"LFPG 290330Z 18004KT 2500 BR BKN003 BKN023 02/01 Q1035 NOSIG","observationTime":"2018-12-29T03:30:00Z","temp":2,"dewpoint":1,"windDirection":180,"windSpeed":7.408,"visibility":1.55,"altim":30.561024,"flightCategory":"LIFR","metarType":"METAR","geometry_esri":{"x":49.02,"y":2.52,"z":109}}}