{"type":"Feature","geometry":{"type":"Point","coordinates":[51.48,-0.45,24]},"properties":{"stationId":"EGLL","rawText":"EGLL 260950Z AUTO 04007KT 020V080 9999 OVC010 17/15 Q1028","observationTime":"2019-06-26T09:50:00Z","temp":17,"dewpoint":15,"windDirection":40,"windSpeed":12.964,"visibility":6.21,"altim":30.35433,"flightCategory":"MVFR","metarType":"METAR","geometry_esri":{"x":51.48,"y":-0.45,"z":24}}}