{"type":"Feature","geometry":{"type":"Point","coordinates":[51.48,-0.45,24]},"properties":{"stationId":"EGLL","rawText":"EGLL 220450Z AUTO 27007KT 9999 NCD 04/02 Q1004 NOSIG","observationTime":"2019-01-22T04:50:00Z","temp":4,"dewpoint":2,"windDirection":270,"windSpeed":12.964,"visibility":6.21,"altim":29.64567,"flightCategory":"VFR","metarType":"METAR","geometry_esri":{"x":51.48,"y":-0.45,"z":24}}}