{"type":"Feature","geometry":{"type":"Point","coordinates":[48.35,11.82,447]},"properties":{"stationId":"EDDM","rawText":"EDDM 041050Z 10007KT 070V140 CAVOK 21/10 Q1018 NOSIG","observationTime":"2019-09-04T10:50:00Z","temp":21,"dewpoint":10,"windDirection":100,"windSpeed":12.964,"visibility":6.21,"altim":30.059055,"flightCategory":"VFR","metarType":"METAR","geometry_esri":{"x":48.35,"y":11.82,"z":447}}}