{"type":"Feature","geometry":{"type":"Point","coordinates":[49.02,2.52,109]},"properties":{"stationId":"LFPG","rawText":"LFPG 230930Z 32013KT 9000 4000E -SN BKN007 BKN010 01/M00 Q0995 R26/59//50 TEMPO 3000 SHSN BKN004","observationTime":"2019-01-23T09:30:00Z","temp":1,"dewpoint":0,"windDirection":320,"windSpeed":24.076,"visibility":5.59,"altim":29.379921,"flightCategory":"IFR","metarType":"SPECI","geometry_esri":{"x":49.02,"y":2.52,"z":109}}}