{"type":"Feature","geometry":{"type":"Point","coordinates":[49.02,2.52,109]},"properties":{"stationId":"LFPG","rawText":"LFPG 191530Z 20008KT 170V230 9999 FEW028 11/04 Q1022 NOSIG","observationTime":"2019-02-19T15:30:00Z","temp":11,"dewpoint":4,"windDirection":200,"windSpeed":14.816,"visibility":6.21,"altim":30.177166,"flightCategory":"VFR","metarType":"METAR","geometry_esri":{"x":49.02,"y":2.52,"z":109}}}