{"type":"Feature","geometry":{"type":"Point","coordinates":[48.35,11.82,447]},"properties":{"stationId":"EDDM","rawText":"EDDM 191950Z 03003KT 360V060 CAVOK 13/01 Q1027 NOSIG","observationTime":"2019-04-19T19:50:00Z","temp":13,"dewpoint":1,"windDirection":30,"windSpeed":5.556,"visibility":6.21,"altim":30.324802,"flightCategory":"VFR","metarType":"METAR","geometry_esri":{"x":48.35,"y":11.82,"z":447}}}