{"type":"Feature","geometry":{"type":"Point","coordinates":[48.35,11.82,447]},"properties":{"stationId":"EDDM","rawText":"EDDM 191550Z 13006KT CAVOK 14/09 Q1012 NOSIG","observationTime":"2019-10-19T15:50:00Z","temp":14,"dewpoint":9,"windDirection":130,"windSpeed":11.112,"visibility":6.21,"altim":29.88189,"flightCategory":"VFR","metarType":"METAR","geometry_esri":{"x":48.35,"y":11.82,"z":447}}}