{"type":"Feature","geometry":{"type":"Point","coordinates":[49.02,2.52,109]},"properties":{"stationId":"LFPG","rawText":"LFPG 021330Z 29007KT 250V310 5000 -RA BKN015 FEW021TCU BKN053 12/10 Q1014 TEMPO 30015G25KT 3000 SHRAGS FEW013CB","observationTime":"2019-05-02T13:30:00Z","temp":12,"dewpoint":10,"windDirection":290,"windSpeed":12.964,"visibility":3.11,"altim":29.940945,"flightCategory":"MVFR","metarType":"METAR","geometry_esri":{"x":49.02,"y":2.52,"z":109}}}