{"type":"Feature","geometry":{"type":"Point","coordinates":[40.48,-3.57,582]},"properties":{"stationId":"LEMD","rawText":"LEMD 232130Z 13003KT 110V250 CAVOK 12/02 Q1024 NOSIG","observationTime":"2019-03-23T21:30:00Z","temp":12,"dewpoint":2,"windDirection":130,"windSpeed":5.556,"visibility":6.21,"altim":30.236221,"flightCategory":"VFR","metarType":"METAR","geometry_esri":{"x":40.48,"y":-3.57,"z":582}}}