{"type":"Feature","geometry":{"type":"Point","coordinates":[40.48,-3.57,582]},"properties":{"stationId":"LEMD","rawText":"LEMD 070330Z 22007KT 9999 SCT042 05/03 Q1007 NOSIG","observationTime":"2019-04-07T03:30:00Z","temp":5,"dewpoint":3,"windDirection":220,"windSpeed":12.964,"visibility":6.21,"altim":29.734253,"flightCategory":"VFR","metarType":"METAR","geometry_esri":{"x":40.48,"y":-3.57,"z":582}}}