{"type":"Feature","geometry":{"type":"Point","coordinates":[40.48,-3.57,582]},"properties":{"stationId":"LEMD","rawText":"LEMD 081230Z 20007KT 130V270 9999 FEW078 29/09 Q1012 NOSIG","observationTime":"2019-07-08T12:30:00Z","temp":29,"dewpoint":9,"windDirection":200,"windSpeed":12.964,"visibility":6.21,"altim":29.88189,"flightCategory":"VFR","metarType":"METAR","geometry_esri":{"x":40.48,"y":-3.57,"z":582}}}