{"type":"Feature","geometry":{"type":"Point","coordinates":[48.35,11.82,447]},"properties":{"stationId":"EDDM","rawText":"EDDM 271650Z VRB01KT CAVOK M02/M02 Q1025 NOSIG","observationTime":"2018-12-27T16:50:00Z","temp":-2,"dewpoint":-2,"windDirection":0,"windSpeed":1.852,"visibility":6.21,"altim":30.265747,"flightCategory":"VFR","metarType":"METAR","geometry_esri":{"x":48.35,"y":11.82,"z":447}}}