{"type":"Feature","geometry":{"type":"Point","coordinates":[48.35,11.82,447]},"properties":{"stationId":"EDDM","rawText":"EDDM 170450Z VRB02KT CAVOK 04/M00 Q1021 NOSIG","observationTime":"2019-04-17T04:50:00Z","temp":4,"dewpoint":0,"windDirection":0,"windSpeed":3.704,"visibility":6.21,"altim":30.147638,"flightCategory":"VFR","metarType":"METAR","geometry_esri":{"x":48.35,"y":11.82,"z":447}}}