{"type":"Feature","geometry":{"type":"Point","coordinates":[48.35,11.82,447]},"properties":{"stationId":"EDDM","rawText":"EDDM 230750Z 11007KT 4200 BR OVC003 11/10 Q1019 NOSIG","observationTime":"2019-10-23T07:50:00Z","temp":11,"dewpoint":10,"windDirection":110,"windSpeed":12.964,"visibility":2.61,"altim":30.088583,"flightCategory":"LIFR","metarType":"METAR","geometry_esri":{"x":48.35,"y":11.82,"z":447}}}