{"type":"Feature","geometry":{"type":"Point","coordinates":[49.02,2.52,109]},"properties":{"stationId":"LFPG","rawText":"LFPG 161530Z 06012KT 030V090 CAVOK 17/02 Q1013 NOSIG","observationTime":"2019-05-16T15:30:00Z","temp":17,"dewpoint":2,"windDirection":60,"windSpeed":22.224,"visibility":6.21,"altim":29.911417,"flightCategory":"VFR","metarType":"METAR","geometry_esri":{"x":49.02,"y":2.52,"z":109}}}