{"type":"Feature","geometry":{"type":"Point","coordinates":[47.78,13.02,430]},"properties":{"stationId":"LOWS","rawText":"LOWS 150850Z 24006KT 8000 -RA FEW004 SCT011 BKN018 05/03 Q1021 NOSIG","observationTime":"2019-05-15T08:50:00Z","temp":5,"dewpoint":3,"windDirection":240,"windSpeed":11.112,"visibility":4.97,"altim":30.147638,"flightCategory":"MVFR","metarType":"METAR","geometry_esri":{"x":47.78,"y":13.02,"z":430}}}