{"type":"Feature","geometry":{"type":"Point","coordinates":[47.78,13.02,430]},"properties":{"stationId":"LOWS","rawText":"LOWS 131550Z 36005KT 330V030 9999 FEW050 SCT300 23/14 Q1031 NOSIG","observationTime":"2019-09-13T15:50:00Z","temp":23,"dewpoint":14,"windDirection":360,"windSpeed":9.26,"visibility":6.21,"altim":30.442913,"flightCategory":"VFR","metarType":"METAR","geometry_esri":{"x":47.78,"y":13.02,"z":430}}}