{"type":"Feature","geometry":{"type":"Point","coordinates":[47.78,13.02,430]},"properties":{"stationId":"LOWS","rawText":"LOWS 091150Z 14009KT 110V170 9999 FEW040 SCT060 BKN300 15/07 Q1003 TEMPO 32015G30KT SHRA","observationTime":"2019-05-09T11:50:00Z","temp":15,"dewpoint":7,"windDirection":140,"windSpeed":16.668,"visibility":6.21,"altim":29.616142,"flightCategory":"VFR","metarType":"METAR","geometry_esri":{"x":47.78,"y":13.02,"z":430}}}