{"type":"Feature","geometry":{"type":"Point","coordinates":[47.78,13.02,430]},"properties":{"stationId":"LOWS","rawText":"LOWS 032050Z 29013KT 260V320 3000 SN FEW006 BKN012 BKN025 M02/M04 Q1032 R15/490195 TEMPO 2000 SN BKN008","observationTime":"2019-01-03T20:50:00Z","temp":-2,"dewpoint":-4,"windDirection":290,"windSpeed":24.076,"visibility":1.86,"altim":30.47244,"flightCategory":"IFR","metarType":"METAR","geometry_esri":{"x":47.78,"y":13.02,"z":430}}}