{"type":"Feature","geometry":{"type":"Point","coordinates":[40.48,-3.57,582]},"properties":{"stationId":"LEMD","rawText":"LEMD 180930Z 18010KT 150V230 CAVOK 26/M01 Q1015 NOSIG","observationTime":"2019-06-18T09:30:00Z","temp":26,"dewpoint":-1,"windDirection":180,"windSpeed":18.52,"visibility":6.21,"altim":29.970472,"flightCategory":"VFR","metarType":"METAR","geometry_esri":{"x":40.48,"y":-3.57,"z":582}}}