{"type":"Feature","geometry":{"type":"Point","coordinates":[48.35,11.82,447]},"properties":{"stationId":"EDDM","rawText":"EDDM 231950Z 07003KT 030V090 0200 R08L/0225N R08R/0750D FG BKN001 07/07 Q1013 NOSIG","observationTime":"2019-10-23T19:50:00Z","temp":7,"dewpoint":7,"windDirection":70,"windSpeed":5.556,"visibility":0.12,"altim":29.911417,"flightCategory":"LIFR","metarType":"METAR","geometry_esri":{"x":48.35,"y":11.82,"z":447}}}