{"type":"Feature","geometry":{"type":"Point","coordinates":[40.48,-3.57,582]},"properties":{"stationId":"LEMD","rawText":"LEMD 281530Z 22006KT CAVOK 22/10 Q1017 NOSIG","observationTime":"2019-10-28T15:30:00Z","temp":22,"dewpoint":10,"windDirection":220,"windSpeed":11.112,"visibility":6.21,"altim":30.029528,"flightCategory":"VFR","metarType":"METAR","geometry_esri":{"x":40.48,"y":-3.57,"z":582}}}