{"type":"Feature","geometry":{"type":"Point","coordinates":[51.48,-0.45,24]},"properties":{"stationId":"EGLL","rawText":"EGLL 221250Z AUTO 09008KT 070V140 9999 NCD 24/07 Q1004 NOSIG","observationTime":"2019-04-22T12:50:00Z","temp":24,"dewpoint":7,"windDirection":90,"windSpeed":14.816,"visibility":6.21,"altim":29.64567,"flightCategory":"VFR","metarType":"METAR","geometry_esri":{"x":51.48,"y":-0.45,"z":24}}}