{"type":"Feature","geometry":{"type":"Point","coordinates":[49.02,2.52,109]},"properties":{"stationId":"LFPG","rawText":"LFPG 121630Z VRB02KT 9999 FEW032 BKN041 22/15 Q1031 NOSIG","observationTime":"2019-09-12T16:30:00Z","temp":22,"dewpoint":15,"windDirection":0,"windSpeed":3.704,"visibility":6.21,"altim":30.442913,"flightCategory":"VFR","metarType":"METAR","geometry_esri":{"x":49.02,"y":2.52,"z":109}}}