{"type":"Feature","geometry":{"type":"Point","coordinates":[47.78,13.02,430]},"properties":{"stationId":"LOWS","rawText":"LOWS 211750Z 04008KT CAVOK 20/01 Q1015 NOSIG","observationTime":"2019-04-21T17:50:00Z","temp":20,"dewpoint":1,"windDirection":40,"windSpeed":14.816,"visibility":6.21,"altim":29.970472,"flightCategory":"VFR","metarType":"METAR","geometry_esri":{"x":47.78,"y":13.02,"z":430}}}