{"type":"Feature","geometry":{"type":"Point","coordinates":[49.02,2.52,109]},"properties":{"stationId":"LFPG","rawText":"LFPG 040330Z 05005KT 2000 0800E R27L/P2000 R09R/P2000 R26R/0800U R08L/1100U R26L/0500N R08R/0650N R27R/P2000 R09L/P2000 PRFG SCT001 M01/M01 Q1021 NOSIG","observationTime":"2019-12-04T03:30:00Z","temp":-1,"dewpoint":-1,"windDirection":50,"windSpeed":9.26,"visibility":1.24,"altim":30.147638,"flightCategory":"IFR","metarType":"SPECI","geometry_esri":{"x":49.02,"y":2.52,"z":109}}}