{"type":"Feature","geometry":{"type":"Point","coordinates":[49.02,2.52,109]},"properties":{"stationId":"LFPG","rawText":"LFPG 010830Z 18014KT 9999 BKN013 BKN020 18/16 Q1005 TEMPO 20015G25KT 4000 RA SCT013TCU","observationTime":"2019-10-01T08:30:00Z","temp":18,"dewpoint":16,"windDirection":180,"windSpeed":25.928,"visibility":6.21,"altim":29.675198,"flightCategory":"MVFR","metarType":"METAR","geometry_esri":{"x":49.02,"y":2.52,"z":109}}}