{"type":"Feature","geometry":{"type":"Point","coordinates":[47.78,13.02,430]},"properties":{"stationId":"LOWS","rawText":"LOWS 271650Z 13004KT 080V160 9999 SHRA FEW032 FEW050CB BKN080 BKN300 22/18 Q1003 TEMPO 32015G25KT 3500 TSRA","observationTime":"2019-07-27T16:50:00Z","temp":22,"dewpoint":18,"windDirection":130,"windSpeed":7.408,"visibility":6.21,"altim":29.616142,"flightCategory":"VFR","metarType":"METAR","geometry_esri":{"x":47.78,"y":13.02,"z":430}}}