{"type":"Feature","geometry":{"type":"Point","coordinates":[40.48,-3.57,582]},"properties":{"stationId":"LEMD","rawText":"LEMD 241230Z 04011KT 360V070 9999 SCT055 22/08 Q1015 NOSIG","observationTime":"2019-05-24T12:30:00Z","temp":22,"dewpoint":8,"windDirection":40,"windSpeed":20.372,"visibility":6.21,"altim":29.970472,"flightCategory":"VFR","metarType":"METAR","geometry_esri":{"x":40.48,"y":-3.57,"z":582}}}