{"type":"Feature","geometry":{"type":"Point","coordinates":[48.35,11.82,447]},"properties":{"stationId":"EDDM","rawText":"EDDM 031650Z 29003KT 9999 FEW048 10/03 Q1018 NOSIG","observationTime":"2019-10-03T16:50:00Z","temp":10,"dewpoint":3,"windDirection":290,"windSpeed":5.556,"visibility":6.21,"altim":30.059055,"flightCategory":"VFR","metarType":"METAR","geometry_esri":{"x":48.35,"y":11.82,"z":447}}}