{"type":"Feature","geometry":{"type":"Point","coordinates":[51.48,-0.45,24]},"properties":{"stationId":"EGLL","rawText":"EGLL 021450Z AUTO 28010KT 9999 FEW037/// SCT043/// //////CB 16/06 Q1013 TEMPO SHRA","observationTime":"2019-05-02T14:50:00Z","temp":16,"dewpoint":6,"windDirection":280,"windSpeed":18.52,"visibility":6.21,"altim":29.911417,"flightCategory":"VFR","metarType":"METAR","geometry_esri":{"x":51.48,"y":-0.45,"z":24}}}