{"type":"Feature","geometry":{"type":"Point","coordinates":[40.48,-3.57,582]},"properties":{"stationId":"LEMD","rawText":"LEMD 060230Z 09004KT CAVOK 08/M03 Q1017 NOSIG","observationTime":"2019-05-06T02:30:00Z","temp":8,"dewpoint":-3,"windDirection":90,"windSpeed":7.408,"visibility":6.21,"altim":30.029528,"flightCategory":"VFR","metarType":"METAR","geometry_esri":{"x":40.48,"y":-3.57,"z":582}}}