{"type":"Feature","geometry":{"type":"Point","coordinates":[53.42,-6.25,85]},"properties":{"stationId":"EIDW","rawText":"EIDW 210230Z 14016KT 9999 FEW012 BKN018 08/05 Q1000 NOSIG","observationTime":"2019-11-21T02:30:00Z","temp":8,"dewpoint":5,"windDirection":140,"windSpeed":29.632,"visibility":6.21,"altim":29.52756,"flightCategory":"MVFR","metarType":"METAR","geometry_esri":{"x":53.42,"y":-6.25,"z":85}}}