{"type":"Feature","geometry":{"type":"Point","coordinates":[49.02,2.52,109]},"properties":{"stationId":"LFPG","rawText":"LFPG 111930Z 15003KT 080V220 6000 -RA FEW011 FEW046TCU BKN063 BKN086 13/10 Q1011 TEMPO 3500 SHRA SCT030CB","observationTime":"2019-06-11T19:30:00Z","temp":13,"dewpoint":10,"windDirection":150,"windSpeed":5.556,"visibility":3.73,"altim":29.852362,"flightCategory":"MVFR","metarType":"METAR","geometry_esri":{"x":49.02,"y":2.52,"z":109}}}