{"type":"Feature","geometry":{"type":"Point","coordinates":[40.48,-3.57,582]},"properties":{"stationId":"LEMD","rawText":"LEMD 281530Z 22012G24KT 170V250 9999 SCT020 BKN028 13/09 Q1016 NOSIG","observationTime":"2019-11-28T15:30:00Z","temp":13,"dewpoint":9,"windDirection":220,"windSpeed":22.224,"visibility":6.21,"altim":30,"flightCategory":"MVFR","metarType":"METAR","geometry_esri":{"x":40.48,"y":-3.57,"z":582}}}