{"type":"Feature","geometry":{"type":"Point","coordinates":[51.48,-0.45,24]},"properties":{"stationId":"EGLL","rawText":"EGLL 231450Z AUTO 19014KT 150V220 9999 -RA FEW026 SCT033 BKN047 18/13 Q1010 TEMPO RA","observationTime":"2019-09-23T14:50:00Z","temp":18,"dewpoint":13,"windDirection":190,"windSpeed":25.928,"visibility":6.21,"altim":29.822834,"flightCategory":"VFR","metarType":"METAR","geometry_esri":{"x":51.48,"y":-0.45,"z":24}}}