{"type":"Feature","geometry":{"type":"Point","coordinates":[40.48,-3.57,582]},"properties":{"stationId":"LEMD","rawText":"LEMD 231130Z 27021KT 240V300 9999 FEW040 SCT060 13/04 Q1007 WS R32L WS R32R NOSIG","observationTime":"2019-01-23T11:30:00Z","temp":13,"dewpoint":4,"windDirection":270,"windSpeed":38.892,"visibility":6.21,"altim":29.734253,"flightCategory":"VFR","metarType":"METAR","geometry_esri":{"x":40.48,"y":-3.57,"z":582}}}