{"type":"Feature","geometry":{"type":"Point","coordinates":[48.35,11.82,447]},"properties":{"stationId":"EDDM","rawText":"EDDM 170550Z VRB02KT 5000 2000NE BCFG FEW002 14/14 Q1022 NOSIG","observationTime":"2019-06-17T05:50:00Z","temp":14,"dewpoint":14,"windDirection":0,"windSpeed":3.704,"visibility":3.11,"altim":30.177166,"flightCategory":"MVFR","metarType":"METAR","geometry_esri":{"x":48.35,"y":11.82,"z":447}}}