{"type":"Feature","geometry":{"type":"Point","coordinates":[49.02,2.52,109]},"properties":{"stationId":"LFPG","rawText":"LFPG 241130Z 16011G22KT 130V210 9999 SCT020 SCT036 17/12 Q1009 NOSIG","observationTime":"2019-10-24T11:30:00Z","temp":17,"dewpoint":12,"windDirection":160,"windSpeed":20.372,"visibility":6.21,"altim":29.793306,"flightCategory":"VFR","metarType":"METAR","geometry_esri":{"x":49.02,"y":2.52,"z":109}}}