{"type":"Feature","geometry":{"type":"Point","coordinates":[47.78,13.02,430]},"properties":{"stationId":"LOWS","rawText":"LOWS 121250Z 28011KT 230V300 9999 FEW026 SCT040 BKN070 03/M04 Q1032 NOSIG","observationTime":"2019-02-12T12:50:00Z","temp":3,"dewpoint":-4,"windDirection":280,"windSpeed":20.372,"visibility":6.21,"altim":30.47244,"flightCategory":"VFR","metarType":"METAR","geometry_esri":{"x":47.78,"y":13.02,"z":430}}}