{"type":"Feature","geometry":{"type":"Point","coordinates":[40.48,-3.57,582]},"properties":{"stationId":"LEMD","rawText":"LEMD 031430Z 33002KT 9999 FEW050 33/13 Q1020 NOSIG","observationTime":"2019-09-03T14:30:00Z","temp":33,"dewpoint":13,"windDirection":330,"windSpeed":3.704,"visibility":6.21,"altim":30.11811,"flightCategory":"VFR","metarType":"METAR","geometry_esri":{"x":40.48,"y":-3.57,"z":582}}}