{"type":"Feature","geometry":{"type":"Point","coordinates":[40.48,-3.57,582]},"properties":{"stationId":"LEMD","rawText":"LEMD 211630Z 17004KT 080V200 9999 FEW048 15/03 Q1016 NOSIG","observationTime":"2019-10-21T16:30:00Z","temp":15,"dewpoint":3,"windDirection":170,"windSpeed":7.408,"visibility":6.21,"altim":30,"flightCategory":"VFR","metarType":"METAR","geometry_esri":{"x":40.48,"y":-3.57,"z":582}}}