{"type":"Feature","geometry":{"type":"Point","coordinates":[49.02,2.52,109]},"properties":{"stationId":"LFPG","rawText":"LFPG 180430Z 27006KT 9999 FEW027 BKN032 04/02 Q1011 NOSIG","observationTime":"2019-11-18T04:30:00Z","temp":4,"dewpoint":2,"windDirection":270,"windSpeed":11.112,"visibility":6.21,"altim":29.852362,"flightCategory":"VFR","metarType":"METAR","geometry_esri":{"x":49.02,"y":2.52,"z":109}}}