{"type":"Feature","geometry":{"type":"Point","coordinates":[51.48,-0.45,24]},"properties":{"stationId":"EGLL","rawText":"EGLL 061650Z 26014KT 9999 4000S -SHRA SCT025CB BKN045 18/13 Q1019","observationTime":"2019-09-06T16:50:00Z","temp":18,"dewpoint":13,"windDirection":260,"windSpeed":25.928,"visibility":6.21,"altim":30.088583,"flightCategory":"VFR","metarType":"METAR","geometry_esri":{"x":51.48,"y":-0.45,"z":24}}}