{"type":"Feature","geometry":{"type":"Point","coordinates":[47.78,13.02,430]},"properties":{"stationId":"LOWS","rawText":"LOWS 102150Z 30008KT 1300 R15/P1500U R33/P1500N SN FEW003 BKN006 M02/M03 Q1022 R15/590395 NOSIG","observationTime":"2019-01-10T21:50:00Z","temp":-2,"dewpoint":-3,"windDirection":300,"windSpeed":14.816,"visibility":0.81,"altim":30.177166,"flightCategory":"LIFR","metarType":"METAR","geometry_esri":{"x":47.78,"y":13.02,"z":430}}}