{"type":"Feature","geometry":{"type":"Point","coordinates":[40.48,-3.57,582]},"properties":{"stationId":"LEMD","rawText":"LEMD 231230Z 27004KT 240V300 9999 -RA FEW015 BKN025 10/07 Q1007 R88/29//95 NOSIG","observationTime":"2019-10-23T12:30:00Z","temp":10,"dewpoint":7,"windDirection":270,"windSpeed":7.408,"visibility":6.21,"altim":29.734253,"flightCategory":"MVFR","metarType":"METAR","geometry_esri":{"x":40.48,"y":-3.57,"z":582}}}