{"type":"Feature","geometry":{"type":"Point","coordinates":[47.78,13.02,430]},"properties":{"stationId":"LOWS","rawText":"LOWS 260650Z 16004KT 9999 FEW004 BKN006 03/03 Q1011 BECMG SCT006 BKN060","observationTime":"2019-11-26T06:50:00Z","temp":3,"dewpoint":3,"windDirection":160,"windSpeed":7.408,"visibility":6.21,"altim":29.852362,"flightCategory":"IFR","metarType":"METAR","geometry_esri":{"x":47.78,"y":13.02,"z":430}}}