{"type":"Feature","geometry":{"type":"Point","coordinates":[48.35,11.82,447]},"properties":{"stationId":"EDDM","rawText":"EDDM 072150Z 18007KT 160V220 9999 FEW045 06/02 Q1010 NOSIG","observationTime":"2019-03-07T21:50:00Z","temp":6,"dewpoint":2,"windDirection":180,"windSpeed":12.964,"visibility":6.21,"altim":29.822834,"flightCategory":"VFR","metarType":"METAR","geometry_esri":{"x":48.35,"y":11.82,"z":447}}}