{"type":"Feature","geometry":{"type":"Point","coordinates":[49.02,2.52,109]},"properties":{"stationId":"LFPG","rawText":"LFPG 290730Z 19016KT 9999 3000E RA SCT023 BKN046 BKN073 14/11 Q1006 TEMPO 4000 RA BKN013","observationTime":"2019-09-29T07:30:00Z","temp":14,"dewpoint":11,"windDirection":190,"windSpeed":29.632,"visibility":6.21,"altim":29.704725,"flightCategory":"VFR","metarType":"METAR","geometry_esri":{"x":49.02,"y":2.52,"z":109}}}