{"type":"Feature","geometry":{"type":"Point","coordinates":[40.48,-3.57,582]},"properties":{"stationId":"LEMD","rawText":"LEMD 240930Z 00000KT 9999 BCFG FEW002 02/02 Q1031 BECMG NSW","observationTime":"2018-12-24T09:30:00Z","temp":2,"dewpoint":2,"windDirection":0,"windSpeed":0,"visibility":6.21,"altim":30.442913,"flightCategory":"VFR","metarType":"SPECI","geometry_esri":{"x":40.48,"y":-3.57,"z":582}}}