{"type":"Feature","geometry":{"type":"Point","coordinates":[40.48,-3.57,582]},"properties":{"stationId":"LEMD","rawText":"LEMD 131430Z 18004KT 110V250 CAVOK 21/M13 Q1018 NOSIG","observationTime":"2019-04-13T14:30:00Z","temp":21,"dewpoint":-13,"windDirection":180,"windSpeed":7.408,"visibility":6.21,"altim":30.059055,"flightCategory":"VFR","metarType":"METAR","geometry_esri":{"x":40.48,"y":-3.57,"z":582}}}