{"type":"Feature","geometry":{"type":"Point","coordinates":[53.42,-6.25,85]},"properties":{"stationId":"EIDW","rawText":"EIDW 131630Z 30011KT 9999 SCT028 BKN040 11/06 Q1005 NOSIG","observationTime":"2019-06-13T16:30:00Z","temp":11,"dewpoint":6,"windDirection":300,"windSpeed":20.372,"visibility":6.21,"altim":29.675198,"flightCategory":"VFR","metarType":"METAR","geometry_esri":{"x":53.42,"y":-6.25,"z":85}}}