{"type":"Feature","geometry":{"type":"Point","coordinates":[49.02,2.52,109]},"properties":{"stationId":"LFPG","rawText":"LFPG 081230Z 23019KT 200V260 9999 -SHRA FEW040TCU SCT046 BKN060 17/07 Q1021 TEMPO 3000 SHRA SCT030CB","observationTime":"2019-06-08T12:30:00Z","temp":17,"dewpoint":7,"windDirection":230,"windSpeed":35.188,"visibility":6.21,"altim":30.147638,"flightCategory":"VFR","metarType":"METAR","geometry_esri":{"x":49.02,"y":2.52,"z":109}}}