{"type":"Feature","geometry":{"type":"Point","coordinates":[48.35,11.82,447]},"properties":{"stationId":"EDDM","rawText":"EDDM 010650Z 25006KT CAVOK 18/14 Q1014 BECMG 26010KT","observationTime":"2019-09-01T06:50:00Z","temp":18,"dewpoint":14,"windDirection":250,"windSpeed":11.112,"visibility":6.21,"altim":29.940945,"flightCategory":"VFR","metarType":"METAR","geometry_esri":{"x":48.35,"y":11.82,"z":447}}}