{"type":"Feature","geometry":{"type":"Point","coordinates":[48.35,11.82,447]},"properties":{"stationId":"EDDM","rawText":"EDDM 011250Z 06007KT CAVOK 02/M04 Q0991 NOSIG","observationTime":"2019-02-01T12:50:00Z","temp":2,"dewpoint":-4,"windDirection":60,"windSpeed":12.964,"visibility":6.21,"altim":29.26181,"flightCategory":"VFR","metarType":"METAR","geometry_esri":{"x":48.35,"y":11.82,"z":447}}}