{"type":"Feature","geometry":{"type":"Point","coordinates":[40.48,-3.57,582]},"properties":{"stationId":"LEMD","rawText":"LEMD 180630Z 00000KT CAVOK 16/14 Q1018 NOSIG","observationTime":"2019-09-18T06:30:00Z","temp":16,"dewpoint":14,"windDirection":0,"windSpeed":0,"visibility":6.21,"altim":30.059055,"flightCategory":"VFR","metarType":"METAR","geometry_esri":{"x":40.48,"y":-3.57,"z":582}}}