{"type":"Feature","geometry":{"type":"Point","coordinates":[48.35,11.82,447]},"properties":{"stationId":"EDDM","rawText":"EDDM 161250Z 27005KT 230V350 CAVOK 16/02 Q1017 NOSIG","observationTime":"2019-04-16T12:50:00Z","temp":16,"dewpoint":2,"windDirection":270,"windSpeed":9.26,"visibility":6.21,"altim":30.029528,"flightCategory":"VFR","metarType":"METAR","geometry_esri":{"x":48.35,"y":11.82,"z":447}}}