{"type":"Feature","geometry":{"type":"Point","coordinates":[53.42,-6.25,85]},"properties":{"stationId":"EIDW","rawText":"EIDW 061151Z 23009KT 190V280 5000 -SHRA FEW018 SCT023CB BKN031 15/13 Q1000 NOSIG","observationTime":"2019-08-06T11:51:00Z","temp":15,"dewpoint":13,"windDirection":230,"windSpeed":16.668,"visibility":3.11,"altim":29.52756,"flightCategory":"MVFR","metarType":"METAR","geometry_esri":{"x":53.42,"y":-6.25,"z":85}}}