{"type":"Feature","geometry":{"type":"Point","coordinates":[47.78,13.02,430]},"properties":{"stationId":"LOWS","rawText":"LOWS 282050Z VRB02KT 3200 1000E R15/P1500D R33/P1500D RA FEW004 BKN011 FEW030CB 19/17 Q1005 TEMPO 32008KT 6000","observationTime":"2019-07-28T20:50:00Z","temp":19,"dewpoint":17,"windDirection":0,"windSpeed":3.704,"visibility":1.99,"altim":29.675198,"flightCategory":"IFR","metarType":"METAR","geometry_esri":{"x":47.78,"y":13.02,"z":430}}}