{"type":"Feature","geometry":{"type":"Point","coordinates":[48.35,11.82,447]},"properties":{"stationId":"EDDM","rawText":"EDDM 161450Z 06007KT 020V090 9999 BKN025 10/05 Q1012 NOSIG","observationTime":"2019-05-16T14:50:00Z","temp":10,"dewpoint":5,"windDirection":60,"windSpeed":12.964,"visibility":6.21,"altim":29.88189,"flightCategory":"MVFR","metarType":"METAR","geometry_esri":{"x":48.35,"y":11.82,"z":447}}}