{"type":"Feature","geometry":{"type":"Point","coordinates":[40.48,-3.57,582]},"properties":{"stationId":"LEMD","rawText":"LEMD 280930Z 26014KT 230V290 9999 FEW065 09/01 Q1017 NOSIG","observationTime":"2019-01-28T09:30:00Z","temp":9,"dewpoint":1,"windDirection":260,"windSpeed":25.928,"visibility":6.21,"altim":30.029528,"flightCategory":"VFR","metarType":"METAR","geometry_esri":{"x":40.48,"y":-3.57,"z":582}}}