{"type":"Feature","geometry":{"type":"Point","coordinates":[40.48,-3.57,582]},"properties":{"stationId":"LEMD","rawText":"LEMD 042330Z 29013KT 9999 FEW035 SCT050 BKN070 11/06 Q1008 R88/29//95 NOSIG","observationTime":"2019-11-04T23:30:00Z","temp":11,"dewpoint":6,"windDirection":290,"windSpeed":24.076,"visibility":6.21,"altim":29.763779,"flightCategory":"VFR","metarType":"METAR","geometry_esri":{"x":40.48,"y":-3.57,"z":582}}}