{"type":"Feature","geometry":{"type":"Point","coordinates":[47.78,13.02,430]},"properties":{"stationId":"LOWS","rawText":"LOWS 041550Z VRB12G27KT 9999 -SHRA FEW016 SCT030 BKN040 07/02 Q1005 TEMPO SHRA","observationTime":"2019-03-04T15:50:00Z","temp":7,"dewpoint":2,"windDirection":0,"windSpeed":22.224,"visibility":6.21,"altim":29.675198,"flightCategory":"VFR","metarType":"METAR","geometry_esri":{"x":47.78,"y":13.02,"z":430}}}