{"type":"Feature","geometry":{"type":"Point","coordinates":[49.02,2.52,109]},"properties":{"stationId":"LFPG","rawText":"LFPG 161930Z 26006KT 220V290 CAVOK 21/10 Q1021 NOSIG","observationTime":"2019-06-16T19:30:00Z","temp":21,"dewpoint":10,"windDirection":260,"windSpeed":11.112,"visibility":6.21,"altim":30.147638,"flightCategory":"VFR","metarType":"METAR","geometry_esri":{"x":49.02,"y":2.52,"z":109}}}