{"type":"Feature","geometry":{"type":"Point","coordinates":[51.48,-0.45,24]},"properties":{"stationId":"EGLL","rawText":"EGLL 091750Z AUTO 17004KT 140V300 9999 -RA BKN032 14/12 Q1012 TEMPO SHRA","observationTime":"2019-09-09T17:50:00Z","temp":14,"dewpoint":12,"windDirection":170,"windSpeed":7.408,"visibility":6.21,"altim":29.88189,"flightCategory":"VFR","metarType":"METAR","geometry_esri":{"x":51.48,"y":-0.45,"z":24}}}