{"type":"Feature","geometry":{"type":"Point","coordinates":[49.02,2.52,109]},"properties":{"stationId":"LFPG","rawText":"LFPG 011830Z 13009KT CAVOK 18/02 Q1013 NOSIG","observationTime":"2019-04-01T18:30:00Z","temp":18,"dewpoint":2,"windDirection":130,"windSpeed":16.668,"visibility":6.21,"altim":29.911417,"flightCategory":"VFR","metarType":"METAR","geometry_esri":{"x":49.02,"y":2.52,"z":109}}}