{"type":"Feature","geometry":{"type":"Point","coordinates":[40.48,-3.57,582]},"properties":{"stationId":"LEMD","rawText":"LEMD 261730Z 15007KT 110V200 CAVOK 19/M04 Q1028 NOSIG","observationTime":"2019-02-26T17:30:00Z","temp":19,"dewpoint":-4,"windDirection":150,"windSpeed":12.964,"visibility":6.21,"altim":30.35433,"flightCategory":"VFR","metarType":"METAR","geometry_esri":{"x":40.48,"y":-3.57,"z":582}}}