{"type":"Feature","geometry":{"type":"Point","coordinates":[40.48,-3.57,582]},"properties":{"stationId":"LEMD","rawText":"LEMD 181430Z 28003KT 240V310 CAVOK 14/02 Q1017 NOSIG","observationTime":"2019-02-18T14:30:00Z","temp":14,"dewpoint":2,"windDirection":280,"windSpeed":5.556,"visibility":6.21,"altim":30.029528,"flightCategory":"VFR","metarType":"METAR","geometry_esri":{"x":40.48,"y":-3.57,"z":582}}}