{"type":"Feature","geometry":{"type":"Point","coordinates":[40.48,-3.57,582]},"properties":{"stationId":"LEMD","rawText":"LEMD 050630Z 25016KT 230V290 9999 FEW050 14/05 Q1010 NOSIG","observationTime":"2019-06-05T06:30:00Z","temp":14,"dewpoint":5,"windDirection":250,"windSpeed":29.632,"visibility":6.21,"altim":29.822834,"flightCategory":"VFR","metarType":"METAR","geometry_esri":{"x":40.48,"y":-3.57,"z":582}}}