{"type":"Feature","geometry":{"type":"Point","coordinates":[48.35,11.82,447]},"properties":{"stationId":"EDDM","rawText":"EDDM 100350Z 25015KT CAVOK 10/05 Q1014 NOSIG","observationTime":"2019-03-10T03:50:00Z","temp":10,"dewpoint":5,"windDirection":250,"windSpeed":27.78,"visibility":6.21,"altim":29.940945,"flightCategory":"VFR","metarType":"METAR","geometry_esri":{"x":48.35,"y":11.82,"z":447}}}