{"type":"Feature","geometry":{"type":"Point","coordinates":[40.48,-3.57,582]},"properties":{"stationId":"LEMD","rawText":"LEMD 141230Z 26014G25KT 220V300 9999 BKN050 09/M01 Q1002 NOSIG","observationTime":"2019-11-14T12:30:00Z","temp":9,"dewpoint":-1,"windDirection":260,"windSpeed":25.928,"visibility":6.21,"altim":29.586615,"flightCategory":"VFR","metarType":"METAR","geometry_esri":{"x":40.48,"y":-3.57,"z":582}}}