{"type":"Feature","geometry":{"type":"Point","coordinates":[40.48,-3.57,582]},"properties":{"stationId":"LEMD","rawText":"LEMD 201430Z 15009KT 100V180 9999 FEW030 SCT050 26/15 Q1015 NOSIG","observationTime":"2019-09-20T14:30:00Z","temp":26,"dewpoint":15,"windDirection":150,"windSpeed":16.668,"visibility":6.21,"altim":29.970472,"flightCategory":"VFR","metarType":"METAR","geometry_esri":{"x":40.48,"y":-3.57,"z":582}}}