{"type":"Feature","geometry":{"type":"Point","coordinates":[47.78,13.02,430]},"properties":{"stationId":"LOWS","rawText":"LOWS 271750Z VRB02KT 6000 -RA FEW003 SCT010 BKN025 14/13 Q1008 NOSIG","observationTime":"2019-05-27T17:50:00Z","temp":14,"dewpoint":13,"windDirection":0,"windSpeed":3.704,"visibility":3.73,"altim":29.763779,"flightCategory":"MVFR","metarType":"METAR","geometry_esri":{"x":47.78,"y":13.02,"z":430}}}