{"type":"Feature","geometry":{"type":"Point","coordinates":[47.78,13.02,430]},"properties":{"stationId":"LOWS","rawText":"LOWS 070450Z 16012KT 9999 VCSH FEW028 SCT050 FEW050TCU BKN070 17/15 Q1011 TEMPO SHRA","observationTime":"2019-07-07T04:50:00Z","temp":17,"dewpoint":15,"windDirection":160,"windSpeed":22.224,"visibility":6.21,"altim":29.852362,"flightCategory":"VFR","metarType":"SPECI","geometry_esri":{"x":47.78,"y":13.02,"z":430}}}