{"type":"Feature","geometry":{"type":"Point","coordinates":[53.42,-6.25,85]},"properties":{"stationId":"EIDW","rawText":"EIDW 291130Z 27011KT 9999 FEW014 SCT023 BKN200 10/08 Q1031 NOSIG","observationTime":"2018-12-29T11:30:00Z","temp":10,"dewpoint":8,"windDirection":270,"windSpeed":20.372,"visibility":6.21,"altim":30.442913,"flightCategory":"VFR","metarType":"METAR","geometry_esri":{"x":53.42,"y":-6.25,"z":85}}}