{"type":"Feature","geometry":{"type":"Point","coordinates":[40.48,-3.57,582]},"properties":{"stationId":"LEMD","rawText":"LEMD 261540Z 31005KT 260V340 9999 -TSRA SCT050CB BKN070 24/19 Q1014 R88/29//95 NOSIG","observationTime":"2019-08-26T15:40:00Z","temp":24,"dewpoint":19,"windDirection":310,"windSpeed":9.26,"visibility":6.21,"altim":29.940945,"flightCategory":"VFR","metarType":"SPECI","geometry_esri":{"x":40.48,"y":-3.57,"z":582}}}