{"type":"Feature","geometry":{"type":"Point","coordinates":[49.02,2.52,109]},"properties":{"stationId":"LFPG","rawText":"LFPG 262030Z 17013KT 8000 RA SCT013 BKN059 12/10 Q0997 TEMPO 4000 SHRA SCT012TCU","observationTime":"2019-11-26T20:30:00Z","temp":12,"dewpoint":10,"windDirection":170,"windSpeed":24.076,"visibility":4.97,"altim":29.438976,"flightCategory":"MVFR","metarType":"METAR","geometry_esri":{"x":49.02,"y":2.52,"z":109}}}