{"type":"Feature","geometry":{"type":"Point","coordinates":[53.42,-6.25,85]},"properties":{"stationId":"EIDW","rawText":"EIDW 050930Z 21010KT 170V260 9999 FEW018 SCT035 16/12 Q1005 WS RWY28 NOSIG","observationTime":"2019-08-05T09:30:00Z","temp":16,"dewpoint":12,"windDirection":210,"windSpeed":18.52,"visibility":6.21,"altim":29.675198,"flightCategory":"VFR","metarType":"METAR","geometry_esri":{"x":53.42,"y":-6.25,"z":85}}}