{"type":"Feature","geometry":{"type":"Point","coordinates":[40.48,-3.57,582]},"properties":{"stationId":"LEMD","rawText":"LEMD 020230Z 26013G26KT 220V290 9999 SCT055 06/M02 Q1000 WS R32R NOSIG","observationTime":"2019-02-02T02:30:00Z","temp":6,"dewpoint":-2,"windDirection":260,"windSpeed":24.076,"visibility":6.21,"altim":29.52756,"flightCategory":"VFR","metarType":"METAR","geometry_esri":{"x":40.48,"y":-3.57,"z":582}}}