{"type":"Feature","geometry":{"type":"Point","coordinates":[51.48,-0.45,24]},"properties":{"stationId":"EGLL","rawText":"EGLL 111450Z AUTO 29014KT 9999 NCD 11/M02 Q1026 NOSIG","observationTime":"2019-03-11T14:50:00Z","temp":11,"dewpoint":-2,"windDirection":290,"windSpeed":25.928,"visibility":6.21,"altim":30.295275,"flightCategory":"VFR","metarType":"METAR","geometry_esri":{"x":51.48,"y":-0.45,"z":24}}}