{"type":"Feature","geometry":{"type":"Point","coordinates":[49.02,2.52,109]},"properties":{"stationId":"LFPG","rawText":"LFPG 081230Z 20018KT 9999 FEW015 BKN017 09/06 Q1012 NOSIG","observationTime":"2019-02-08T12:30:00Z","temp":9,"dewpoint":6,"windDirection":200,"windSpeed":33.336,"visibility":6.21,"altim":29.88189,"flightCategory":"MVFR","metarType":"METAR","geometry_esri":{"x":49.02,"y":2.52,"z":109}}}