{"type":"Feature","geometry":{"type":"Point","coordinates":[53.42,-6.25,85]},"properties":{"stationId":"EIDW","rawText":"EIDW 121830Z 35009KT 310V010 9999 -DZ FEW010 BKN030 11/08 Q1012 TEMPO BKN012","observationTime":"2019-06-12T18:30:00Z","temp":11,"dewpoint":8,"windDirection":350,"windSpeed":16.668,"visibility":6.21,"altim":29.88189,"flightCategory":"MVFR","metarType":"METAR","geometry_esri":{"x":53.42,"y":-6.25,"z":85}}}