{"type":"Feature","geometry":{"type":"Point","coordinates":[49.02,2.52,109]},"properties":{"stationId":"LFPG","rawText":"LFPG 211730Z 13003KT 8000 NSC M00/M04 Q1021 NOSIG","observationTime":"2019-01-21T17:30:00Z","temp":0,"dewpoint":-4,"windDirection":130,"windSpeed":5.556,"visibility":4.97,"altim":30.147638,"flightCategory":"MVFR","metarType":"METAR","geometry_esri":{"x":49.02,"y":2.52,"z":109}}}