{"type":"Feature","geometry":{"type":"Point","coordinates":[49.02,2.52,109]},"properties":{"stationId":"LFPG","rawText":"LFPG 221630Z 17007KT 2500 BR BKN003 BKN013 01/00 Q1002 R27R/590350 R27L/590350 NOSIG","observationTime":"2019-01-22T16:30:00Z","temp":1,"dewpoint":0,"windDirection":170,"windSpeed":12.964,"visibility":1.55,"altim":29.586615,"flightCategory":"LIFR","metarType":"METAR","geometry_esri":{"x":49.02,"y":2.52,"z":109}}}