{"type":"Feature","geometry":{"type":"Point","coordinates":[48.35,11.82,447]},"properties":{"stationId":"EDDM","rawText":"EDDM 260850Z 17003KT 140V210 9999 FEW005 05/04 Q1011 NOSIG","observationTime":"2019-11-26T08:50:00Z","temp":5,"dewpoint":4,"windDirection":170,"windSpeed":5.556,"visibility":6.21,"altim":29.852362,"flightCategory":"VFR","metarType":"METAR","geometry_esri":{"x":48.35,"y":11.82,"z":447}}}