{"type":"Feature","geometry":{"type":"Point","coordinates":[49.02,2.52,109]},"properties":{"stationId":"LFPG","rawText":"LFPG 181930Z 30008KT 5000 -RA FEW011 BKN045 19/17 Q1014 TEMPO 4500 -SHRA BKN014","observationTime":"2019-07-18T19:30:00Z","temp":19,"dewpoint":17,"windDirection":300,"windSpeed":14.816,"visibility":3.11,"altim":29.940945,"flightCategory":"MVFR","metarType":"METAR","geometry_esri":{"x":49.02,"y":2.52,"z":109}}}