{"type":"Feature","geometry":{"type":"Point","coordinates":[40.48,-3.57,582]},"properties":{"stationId":"LEMD","rawText":"LEMD 181730Z 22007KT 190V250 9999 FEW030 20/13 Q1014 NOSIG","observationTime":"2019-10-18T17:30:00Z","temp":20,"dewpoint":13,"windDirection":220,"windSpeed":12.964,"visibility":6.21,"altim":29.940945,"flightCategory":"VFR","metarType":"METAR","geometry_esri":{"x":40.48,"y":-3.57,"z":582}}}