{"type":"Feature","geometry":{"type":"Point","coordinates":[49.02,2.52,109]},"properties":{"stationId":"LFPG","rawText":"LFPG 142030Z 05006KT 020V090 9999 FEW019 BKN030 05/03 Q1000 NOSIG","observationTime":"2019-11-14T20:30:00Z","temp":5,"dewpoint":3,"windDirection":50,"windSpeed":11.112,"visibility":6.21,"altim":29.52756,"flightCategory":"MVFR","metarType":"METAR","geometry_esri":{"x":49.02,"y":2.52,"z":109}}}