{"type":"Feature","geometry":{"type":"Point","coordinates":[48.35,11.82,447]},"properties":{"stationId":"EDDM","rawText":"EDDM 021350Z 30008KT 270V330 CAVOK 25/08 Q1014 NOSIG","observationTime":"2019-08-02T13:50:00Z","temp":25,"dewpoint":8,"windDirection":300,"windSpeed":14.816,"visibility":6.21,"altim":29.940945,"flightCategory":"VFR","metarType":"METAR","geometry_esri":{"x":48.35,"y":11.82,"z":447}}}