{"type":"Feature","geometry":{"type":"Point","coordinates":[48.35,11.82,447]},"properties":{"stationId":"EDDM","rawText":"EDDM 120250Z VRB02KT 7000 NSC 13/12 Q1015 NOSIG","observationTime":"2019-07-12T02:50:00Z","temp":13,"dewpoint":12,"windDirection":0,"windSpeed":3.704,"visibility":4.35,"altim":29.970472,"flightCategory":"MVFR","metarType":"METAR","geometry_esri":{"x":48.35,"y":11.82,"z":447}}}