{"type":"Feature","geometry":{"type":"Point","coordinates":[49.02,2.52,109]},"properties":{"stationId":"LFPG","rawText":"LFPG 270930Z 08005KT 050V140 CAVOK 27/13 Q1015 NOSIG","observationTime":"2019-08-27T09:30:00Z","temp":27,"dewpoint":13,"windDirection":80,"windSpeed":9.26,"visibility":6.21,"altim":29.970472,"flightCategory":"VFR","metarType":"METAR","geometry_esri":{"x":49.02,"y":2.52,"z":109}}}