{"type":"Feature","geometry":{"type":"Point","coordinates":[49.02,2.52,109]},"properties":{"stationId":"LFPG","rawText":"LFPG 262030Z 03012KT 350V050 CAVOK 25/19 Q1022 NOSIG","observationTime":"2019-06-26T20:30:00Z","temp":25,"dewpoint":19,"windDirection":30,"windSpeed":22.224,"visibility":6.21,"altim":30.177166,"flightCategory":"VFR","metarType":"METAR","geometry_esri":{"x":49.02,"y":2.52,"z":109}}}