{"type":"Feature","geometry":{"type":"Point","coordinates":[49.02,2.52,109]},"properties":{"stationId":"LFPG","rawText":"LFPG 161630Z 21016KT 9999 BKN035 07/01 Q1008 NOSIG","observationTime":"2019-01-16T16:30:00Z","temp":7,"dewpoint":1,"windDirection":210,"windSpeed":29.632,"visibility":6.21,"altim":29.763779,"flightCategory":"VFR","metarType":"METAR","geometry_esri":{"x":49.02,"y":2.52,"z":109}}}