{"type":"Feature","geometry":{"type":"Point","coordinates":[40.48,-3.57,582]},"properties":{"stationId":"LEMD","rawText":"LEMD 101830Z 19005KT 150V260 CAVOK 32/06 Q1014 NOSIG","observationTime":"2019-07-10T18:30:00Z","temp":32,"dewpoint":6,"windDirection":190,"windSpeed":9.26,"visibility":6.21,"altim":29.940945,"flightCategory":"VFR","metarType":"METAR","geometry_esri":{"x":40.48,"y":-3.57,"z":582}}}