{"type":"Feature","geometry":{"type":"Point","coordinates":[47.78,13.02,430]},"properties":{"stationId":"LOWS","rawText":"LOWS 281050Z 19005KT 160V220 9999 FEW040 BKN060 10/01 Q1032 NOSIG","observationTime":"2019-03-28T10:50:00Z","temp":10,"dewpoint":1,"windDirection":190,"windSpeed":9.26,"visibility":6.21,"altim":30.47244,"flightCategory":"VFR","metarType":"METAR","geometry_esri":{"x":47.78,"y":13.02,"z":430}}}