{"type":"Feature","geometry":{"type":"Point","coordinates":[53.42,-6.25,85]},"properties":{"stationId":"EIDW","rawText":"EIDW 161530Z 13010KT 100V160 CAVOK 15/05 Q1017 NOSIG","observationTime":"2019-05-16T15:30:00Z","temp":15,"dewpoint":5,"windDirection":130,"windSpeed":18.52,"visibility":6.21,"altim":30.029528,"flightCategory":"VFR","metarType":"METAR","geometry_esri":{"x":53.42,"y":-6.25,"z":85}}}