{"type":"Feature","geometry":{"type":"Point","coordinates":[49.02,2.52,109]},"properties":{"stationId":"LFPG","rawText":"LFPG 181930Z 27007KT CAVOK 10/03 Q1017 NOSIG","observationTime":"2019-02-18T19:30:00Z","temp":10,"dewpoint":3,"windDirection":270,"windSpeed":12.964,"visibility":6.21,"altim":30.029528,"flightCategory":"VFR","metarType":"METAR","geometry_esri":{"x":49.02,"y":2.52,"z":109}}}