{"type":"Feature","geometry":{"type":"Point","coordinates":[47.78,13.02,430]},"properties":{"stationId":"LOWS","rawText":"LOWS 081850Z 15006KT 9999 FEW090 SCT100 19/07 Q1024 NOSIG","observationTime":"2019-06-08T18:50:00Z","temp":19,"dewpoint":7,"windDirection":150,"windSpeed":11.112,"visibility":6.21,"altim":30.236221,"flightCategory":"VFR","metarType":"METAR","geometry_esri":{"x":47.78,"y":13.02,"z":430}}}