{"type":"Feature","geometry":{"type":"Point","coordinates":[40.48,-3.57,582]},"properties":{"stationId":"LEMD","rawText":"LEMD 062230Z 22014KT 9999 FEW075 20/02 Q1009 NOSIG","observationTime":"2019-06-06T22:30:00Z","temp":20,"dewpoint":2,"windDirection":220,"windSpeed":25.928,"visibility":6.21,"altim":29.793306,"flightCategory":"VFR","metarType":"METAR","geometry_esri":{"x":40.48,"y":-3.57,"z":582}}}