{"type":"Feature","geometry":{"type":"Point","coordinates":[49.02,2.52,109]},"properties":{"stationId":"LFPG","rawText":"LFPG 081330Z 35004KT 290V060 9999 FEW040 BKN093 BKN260 16/05 Q1010 TEMPO FEW035TCU","observationTime":"2019-04-08T13:30:00Z","temp":16,"dewpoint":5,"windDirection":350,"windSpeed":7.408,"visibility":6.21,"altim":29.822834,"flightCategory":"VFR","metarType":"SPECI","geometry_esri":{"x":49.02,"y":2.52,"z":109}}}