{"type":"Feature","geometry":{"type":"Point","coordinates":[49.02,2.52,109]},"properties":{"stationId":"LFPG","rawText":"LFPG 122330Z 25016KT CAVOK 06/02 Q1012 NOSIG","observationTime":"2019-03-12T23:30:00Z","temp":6,"dewpoint":2,"windDirection":250,"windSpeed":29.632,"visibility":6.21,"altim":29.88189,"flightCategory":"VFR","metarType":"METAR","geometry_esri":{"x":49.02,"y":2.52,"z":109}}}