{"type":"Feature","geometry":{"type":"Point","coordinates":[49.02,2.52,109]},"properties":{"stationId":"LFPG","rawText":"LFPG 300930Z 10010KT CAVOK 05/02 Q1021 NOSIG","observationTime":"2019-11-30T09:30:00Z","temp":5,"dewpoint":2,"windDirection":100,"windSpeed":18.52,"visibility":6.21,"altim":30.147638,"flightCategory":"VFR","metarType":"METAR","geometry_esri":{"x":49.02,"y":2.52,"z":109}}}