{"type":"Feature","geometry":{"type":"Point","coordinates":[40.48,-3.57,582]},"properties":{"stationId":"LEMD","rawText":"LEMD 301130Z 14004KT 080V200 7000 NSC 17/12 Q1024 NOSIG","observationTime":"2019-10-30T11:30:00Z","temp":17,"dewpoint":12,"windDirection":140,"windSpeed":7.408,"visibility":4.35,"altim":30.236221,"flightCategory":"MVFR","metarType":"METAR","geometry_esri":{"x":40.48,"y":-3.57,"z":582}}}