{"type":"Feature","geometry":{"type":"Point","coordinates":[49.02,2.52,109]},"properties":{"stationId":"LFPG","rawText":"LFPG 061430Z 20009KT 180V250 CAVOK 20/05 Q1013 NOSIG","observationTime":"2019-06-06T14:30:00Z","temp":20,"dewpoint":5,"windDirection":200,"windSpeed":16.668,"visibility":6.21,"altim":29.911417,"flightCategory":"VFR","metarType":"METAR","geometry_esri":{"x":49.02,"y":2.52,"z":109}}}