{"type":"Feature","geometry":{"type":"Point","coordinates":[49.02,2.52,109]},"properties":{"stationId":"LFPG","rawText":"LFPG 251730Z 34004KT CAVOK 31/18 Q1018 NOSIG","observationTime":"2019-06-25T17:30:00Z","temp":31,"dewpoint":18,"windDirection":340,"windSpeed":7.408,"visibility":6.21,"altim":30.059055,"flightCategory":"VFR","metarType":"METAR","geometry_esri":{"x":49.02,"y":2.52,"z":109}}}