{"type":"Feature","geometry":{"type":"Point","coordinates":[49.02,2.52,109]},"properties":{"stationId":"LFPG","rawText":"LFPG 161230Z 28005KT 180V350 CAVOK 26/11 Q1021 NOSIG","observationTime":"2019-09-16T12:30:00Z","temp":26,"dewpoint":11,"windDirection":280,"windSpeed":9.26,"visibility":6.21,"altim":30.147638,"flightCategory":"VFR","metarType":"METAR","geometry_esri":{"x":49.02,"y":2.52,"z":109}}}