{"type":"Feature","geometry":{"type":"Point","coordinates":[49.02,2.52,109]},"properties":{"stationId":"LFPG","rawText":"LFPG 011030Z 01009KT 280V050 8000 -RASN BKN007 BKN017 03/01 Q1016 NOSIG","observationTime":"2019-12-01T10:30:00Z","temp":3,"dewpoint":1,"windDirection":10,"windSpeed":16.668,"visibility":4.97,"altim":30,"flightCategory":"IFR","metarType":"METAR","geometry_esri":{"x":49.02,"y":2.52,"z":109}}}