{"type":"Feature","geometry":{"type":"Point","coordinates":[49.02,2.52,109]},"properties":{"stationId":"LFPG","rawText":"LFPG 192230Z 28003KT CAVOK 16/10 Q1022 NOSIG","observationTime":"2019-08-19T22:30:00Z","temp":16,"dewpoint":10,"windDirection":280,"windSpeed":5.556,"visibility":6.21,"altim":30.177166,"flightCategory":"VFR","metarType":"METAR","geometry_esri":{"x":49.02,"y":2.52,"z":109}}}