{"type":"Feature","geometry":{"type":"Point","coordinates":[53.42,-6.25,85]},"properties":{"stationId":"EIDW","rawText":"EIDW 290730Z 23009KT 190V270 9999 -RA FEW008 SCT018 BKN050 03/02 Q0996 NOSIG","observationTime":"2019-01-29T07:30:00Z","temp":3,"dewpoint":2,"windDirection":230,"windSpeed":16.668,"visibility":6.21,"altim":29.409449,"flightCategory":"VFR","metarType":"METAR","geometry_esri":{"x":53.42,"y":-6.25,"z":85}}}