{"type":"Feature","geometry":{"type":"Point","coordinates":[49.02,2.52,109]},"properties":{"stationId":"LFPG","rawText":"LFPG 280130Z 21009KT 9999 FEW019 SCT053 14/11 Q1014 NOSIG","observationTime":"2019-09-28T01:30:00Z","temp":14,"dewpoint":11,"windDirection":210,"windSpeed":16.668,"visibility":6.21,"altim":29.940945,"flightCategory":"VFR","metarType":"METAR","geometry_esri":{"x":49.02,"y":2.52,"z":109}}}