{"type":"Feature","geometry":{"type":"Point","coordinates":[49.02,2.52,109]},"properties":{"stationId":"LFPG","rawText":"LFPG 190630Z 31005KT 9000 BKN012 07/05 Q1021 NOSIG","observationTime":"2019-02-19T06:30:00Z","temp":7,"dewpoint":5,"windDirection":310,"windSpeed":9.26,"visibility":5.59,"altim":30.147638,"flightCategory":"MVFR","metarType":"METAR","geometry_esri":{"x":49.02,"y":2.52,"z":109}}}