{"type":"Feature","geometry":{"type":"Point","coordinates":[47.78,13.02,430]},"properties":{"stationId":"LOWS","rawText":"LOWS 201150Z 03006KT 340V050 9999 FEW040 SCT300 16/04 Q1027 NOSIG","observationTime":"2019-09-20T11:50:00Z","temp":16,"dewpoint":4,"windDirection":30,"windSpeed":11.112,"visibility":6.21,"altim":30.324802,"flightCategory":"VFR","metarType":"METAR","geometry_esri":{"x":47.78,"y":13.02,"z":430}}}