{"type":"Feature","geometry":{"type":"Point","coordinates":[49.02,2.52,109]},"properties":{"stationId":"LFPG","rawText":"LFPG 011330Z VRB04KT CAVOK 26/11 Q1017 NOSIG","observationTime":"2019-08-01T13:30:00Z","temp":26,"dewpoint":11,"windDirection":0,"windSpeed":7.408,"visibility":6.21,"altim":30.029528,"flightCategory":"VFR","metarType":"METAR","geometry_esri":{"x":49.02,"y":2.52,"z":109}}}