{"type":"Feature","geometry":{"type":"Point","coordinates":[40.48,-3.57,582]},"properties":{"stationId":"LEMD","rawText":"LEMD 101230Z 26006KT 200V330 9999 SCT046 BKN080 13/03 Q1014 NOSIG","observationTime":"2019-04-10T12:30:00Z","temp":13,"dewpoint":3,"windDirection":260,"windSpeed":11.112,"visibility":6.21,"altim":29.940945,"flightCategory":"VFR","metarType":"METAR","geometry_esri":{"x":40.48,"y":-3.57,"z":582}}}