{"type":"Feature","geometry":{"type":"Point","coordinates":[48.35,11.82,447]},"properties":{"stationId":"EDDM","rawText":"EDDM 031850Z 27007KT 3500 -SN SCT010 BKN020 OVC035 M01/M02 Q1020 R26R/290095 R26L/690295 TEMPO 2500 BKN012","observationTime":"2019-02-03T18:50:00Z","temp":-1,"dewpoint":-2,"windDirection":270,"windSpeed":12.964,"visibility":2.17,"altim":30.11811,"flightCategory":"IFR","metarType":"METAR","geometry_esri":{"x":48.35,"y":11.82,"z":447}}}