{"type":"Feature","geometry":{"type":"Point","coordinates":[53.42,-6.25,85]},"properties":{"stationId":"EIDW","rawText":"EIDW 060030Z 20006KT 170V230 9999 FEW020 SCT070 04/02 Q1014 NOSIG","observationTime":"2019-02-06T00:30:00Z","temp":4,"dewpoint":2,"windDirection":200,"windSpeed":11.112,"visibility":6.21,"altim":29.940945,"flightCategory":"VFR","metarType":"METAR","geometry_esri":{"x":53.42,"y":-6.25,"z":85}}}