{"type":"Feature","geometry":{"type":"Point","coordinates":[51.48,-0.45,24]},"properties":{"stationId":"EGLL","rawText":"EGLL 222050Z AUTO 22009KT 190V260 9999 NCD 22/18 Q1021","observationTime":"2019-07-22T20:50:00Z","temp":22,"dewpoint":18,"windDirection":220,"windSpeed":16.668,"visibility":6.21,"altim":30.147638,"flightCategory":"VFR","metarType":"METAR","geometry_esri":{"x":51.48,"y":-0.45,"z":24}}}