{"type":"Feature","geometry":{"type":"Point","coordinates":[51.48,-0.45,24]},"properties":{"stationId":"EGLL","rawText":"EGLL 201050Z AUTO 22012KT 9999 BKN017 BKN040 10/06 Q1020 NOSIG","observationTime":"2019-02-20T10:50:00Z","temp":10,"dewpoint":6,"windDirection":220,"windSpeed":22.224,"visibility":6.21,"altim":30.11811,"flightCategory":"MVFR","metarType":"METAR","geometry_esri":{"x":51.48,"y":-0.45,"z":24}}}