{"type":"Feature","geometry":{"type":"Point","coordinates":[40.48,-3.57,582]},"properties":{"stationId":"LEMD","rawText":"LEMD 250030Z 26008KT 9999 FEW059 20/11 Q1018 NOSIG","observationTime":"2019-09-25T00:30:00Z","temp":20,"dewpoint":11,"windDirection":260,"windSpeed":14.816,"visibility":6.21,"altim":30.059055,"flightCategory":"VFR","metarType":"METAR","geometry_esri":{"x":40.48,"y":-3.57,"z":582}}}