{"type":"Feature","geometry":{"type":"Point","coordinates":[49.02,2.52,109]},"properties":{"stationId":"LFPG","rawText":"LFPG 231730Z 16011KT CAVOK 20/10 Q1015 NOSIG","observationTime":"2019-09-23T17:30:00Z","temp":20,"dewpoint":10,"windDirection":160,"windSpeed":20.372,"visibility":6.21,"altim":29.970472,"flightCategory":"VFR","metarType":"METAR","geometry_esri":{"x":49.02,"y":2.52,"z":109}}}