{"type":"Feature","geometry":{"type":"Point","coordinates":[49.02,2.52,109]},"properties":{"stationId":"LFPG","rawText":"LFPG 160330Z 30004KT CAVOK 14/10 Q1021 NOSIG","observationTime":"2019-09-16T03:30:00Z","temp":14,"dewpoint":10,"windDirection":300,"windSpeed":7.408,"visibility":6.21,"altim":30.147638,"flightCategory":"VFR","metarType":"METAR","geometry_esri":{"x":49.02,"y":2.52,"z":109}}}