{"type":"Feature","geometry":{"type":"Point","coordinates":[53.42,-6.25,85]},"properties":{"stationId":"EIDW","rawText":"EIDW 141630Z 23009KT 200V270 CAVOK 19/07 Q1026 NOSIG","observationTime":"2019-09-14T16:30:00Z","temp":19,"dewpoint":7,"windDirection":230,"windSpeed":16.668,"visibility":6.21,"altim":30.295275,"flightCategory":"VFR","metarType":"METAR","geometry_esri":{"x":53.42,"y":-6.25,"z":85}}}