{"type":"Feature","geometry":{"type":"Point","coordinates":[53.42,-6.25,85]},"properties":{"stationId":"EIDW","rawText":"EIDW 301430Z 02010KT 340V050 9999 SCT014 SCT019CB BKN050 18/15 Q1007 WS RWY28 NOSIG","observationTime":"2019-07-30T14:30:00Z","temp":18,"dewpoint":15,"windDirection":20,"windSpeed":18.52,"visibility":6.21,"altim":29.734253,"flightCategory":"VFR","metarType":"SPECI","geometry_esri":{"x":53.42,"y":-6.25,"z":85}}}