{"type":"Feature","geometry":{"type":"Point","coordinates":[49.02,2.52,109]},"properties":{"stationId":"LFPG","rawText":"LFPG 070530Z 21003KT 180V240 CAVOK 17/16 Q1009 TEMPO SCT025TCU","observationTime":"2019-08-07T05:30:00Z","temp":17,"dewpoint":16,"windDirection":210,"windSpeed":5.556,"visibility":6.21,"altim":29.793306,"flightCategory":"VFR","metarType":"SPECI","geometry_esri":{"x":49.02,"y":2.52,"z":109}}}