{"type":"Feature","geometry":{"type":"Point","coordinates":[53.42,-6.25,85]},"properties":{"stationId":"EIDW","rawText":"EIDW 290030Z 21005KT 9999 FEW020 SCT070 BKN130 10/06 Q1016 NOSIG","observationTime":"2019-05-29T00:30:00Z","temp":10,"dewpoint":6,"windDirection":210,"windSpeed":9.26,"visibility":6.21,"altim":30,"flightCategory":"VFR","metarType":"METAR","geometry_esri":{"x":53.42,"y":-6.25,"z":85}}}