{"type":"Feature","geometry":{"type":"Point","coordinates":[48.35,11.82,447]},"properties":{"stationId":"EDDM","rawText":"EDDM 300550Z VRB01KT 4000 1800NE R26R/0550V0800U BCFG NSC M00/M01 Q1026 TEMPO 1200","observationTime":"2019-03-30T05:50:00Z","temp":0,"dewpoint":-1,"windDirection":0,"windSpeed":1.852,"visibility":2.49,"altim":30.295275,"flightCategory":"IFR","metarType":"METAR","geometry_esri":{"x":48.35,"y":11.82,"z":447}}}