{"type":"Feature","geometry":{"type":"Point","coordinates":[48.35,11.82,447]},"properties":{"stationId":"EDDM","rawText":"EDDM 051550Z 29004KT 260V320 9999 BKN035 10/04 Q1016 NOSIG","observationTime":"2019-10-05T15:50:00Z","temp":10,"dewpoint":4,"windDirection":290,"windSpeed":7.408,"visibility":6.21,"altim":30,"flightCategory":"VFR","metarType":"METAR","geometry_esri":{"x":48.35,"y":11.82,"z":447}}}