{"type":"Feature","geometry":{"type":"Point","coordinates":[51.48,-0.45,24]},"properties":{"stationId":"EGLL","rawText":"EGLL 061550Z AUTO 20007KT 150V250 9999 SCT024 BKN033 10/07 Q1015 NOSIG","observationTime":"2019-02-06T15:50:00Z","temp":10,"dewpoint":7,"windDirection":200,"windSpeed":12.964,"visibility":6.21,"altim":29.970472,"flightCategory":"VFR","metarType":"METAR","geometry_esri":{"x":51.48,"y":-0.45,"z":24}}}