{"type":"Feature","geometry":{"type":"Point","coordinates":[51.48,-0.45,24]},"properties":{"stationId":"EGLL","rawText":"EGLL 201650Z AUTO 10013KT 9999 NCD 18/07 Q1022 NOSIG","observationTime":"2019-09-20T16:50:00Z","temp":18,"dewpoint":7,"windDirection":100,"windSpeed":24.076,"visibility":6.21,"altim":30.177166,"flightCategory":"VFR","metarType":"METAR","geometry_esri":{"x":51.48,"y":-0.45,"z":24}}}