{"type":"Feature","geometry":{"type":"Point","coordinates":[51.48,-0.45,24]},"properties":{"stationId":"EGLL","rawText":"EGLL 111350Z AUTO 01009KT 340V050 9999 BKN013 BKN026 15/12 Q1012 TEMPO SCT013","observationTime":"2019-06-11T13:50:00Z","temp":15,"dewpoint":12,"windDirection":10,"windSpeed":16.668,"visibility":6.21,"altim":29.88189,"flightCategory":"MVFR","metarType":"METAR","geometry_esri":{"x":51.48,"y":-0.45,"z":24}}}