{"type":"Feature","geometry":{"type":"Point","coordinates":[53.42,-6.25,85]},"properties":{"stationId":"EIDW","rawText":"EIDW 241230Z 13010KT 090V170 3000 BR BKN002 BKN020 10/08 Q1032 TEMPO 7000","observationTime":"2019-02-24T12:30:00Z","temp":10,"dewpoint":8,"windDirection":130,"windSpeed":18.52,"visibility":1.86,"altim":30.47244,"flightCategory":"LIFR","metarType":"METAR","geometry_esri":{"x":53.42,"y":-6.25,"z":85}}}