{"type":"Feature","geometry":{"type":"Point","coordinates":[53.42,-6.25,85]},"properties":{"stationId":"EIDW","rawText":"EIDW 261630Z 15011KT 110V180 9999 VCSH FEW015 SCT020 10/07 Q0980 NOSIG","observationTime":"2019-11-26T16:30:00Z","temp":10,"dewpoint":7,"windDirection":150,"windSpeed":20.372,"visibility":6.21,"altim":28.937008,"flightCategory":"VFR","metarType":"METAR","geometry_esri":{"x":53.42,"y":-6.25,"z":85}}}