{"type":"Feature","geometry":{"type":"Point","coordinates":[49.02,2.52,109]},"properties":{"stationId":"LFPG","rawText":"LFPG 250530Z 15014KT 9999 FEW023 BKN046 11/08 Q1000 TEMPO 17015G25KT","observationTime":"2019-04-25T05:30:00Z","temp":11,"dewpoint":8,"windDirection":150,"windSpeed":25.928,"visibility":6.21,"altim":29.52756,"flightCategory":"VFR","metarType":"SPECI","geometry_esri":{"x":49.02,"y":2.52,"z":109}}}