{"type":"Feature","geometry":{"type":"Point","coordinates":[51.48,-0.45,24]},"properties":{"stationId":"EGLL","rawText":"EGLL 121250Z 28023KT 2000 +RA SCT009 BKN011 OVC028 09/08 Q0999 TEMPO 5000 RA","observationTime":"2019-03-12T12:50:00Z","temp":9,"dewpoint":8,"windDirection":280,"windSpeed":42.596000000000004,"visibility":1.24,"altim":29.498032,"flightCategory":"IFR","metarType":"METAR","geometry_esri":{"x":51.48,"y":-0.45,"z":24}}}