{"type":"Feature","geometry":{"type":"Point","coordinates":[49.02,2.52,109]},"properties":{"stationId":"LFPG","rawText":"LFPG 141730Z 16007KT 100V180 CAVOK 22/12 Q1012 NOSIG","observationTime":"2019-06-14T17:30:00Z","temp":22,"dewpoint":12,"windDirection":160,"windSpeed":12.964,"visibility":6.21,"altim":29.88189,"flightCategory":"VFR","metarType":"METAR","geometry_esri":{"x":49.02,"y":2.52,"z":109}}}