{"type":"Feature","geometry":{"type":"Point","coordinates":[48.35,11.82,447]},"properties":{"stationId":"EDDM","rawText":"EDDM 281550Z 25012KT CAVOK 17/08 Q1018 NOSIG","observationTime":"2019-09-28T15:50:00Z","temp":17,"dewpoint":8,"windDirection":250,"windSpeed":22.224,"visibility":6.21,"altim":30.059055,"flightCategory":"VFR","metarType":"METAR","geometry_esri":{"x":48.35,"y":11.82,"z":447}}}