{"type":"Feature","geometry":{"type":"Point","coordinates":[53.42,-6.25,85]},"properties":{"stationId":"EIDW","rawText":"EIDW 251530Z 26014KT 9999 FEW011 SCT013 BKN017 10/08 Q1014 NOSIG","observationTime":"2019-01-25T15:30:00Z","temp":10,"dewpoint":8,"windDirection":260,"windSpeed":25.928,"visibility":6.21,"altim":29.940945,"flightCategory":"MVFR","metarType":"METAR","geometry_esri":{"x":53.42,"y":-6.25,"z":85}}}