{"type":"Feature","geometry":{"type":"Point","coordinates":[40.48,-3.57,582]},"properties":{"stationId":"LEMD","rawText":"LEMD 291630Z 14011KT 100V170 CAVOK 18/M03 Q1020 NOSIG","observationTime":"2019-03-29T16:30:00Z","temp":18,"dewpoint":-3,"windDirection":140,"windSpeed":20.372,"visibility":6.21,"altim":30.11811,"flightCategory":"VFR","metarType":"METAR","geometry_esri":{"x":40.48,"y":-3.57,"z":582}}}