{"type":"Feature","geometry":{"type":"Point","coordinates":[49.02,2.52,109]},"properties":{"stationId":"LFPG","rawText":"LFPG 100930Z 01013KT 300V090 2500 BR BKN006 10/08 Q1012 BECMG 5000 BR BKN010","observationTime":"2019-04-10T09:30:00Z","temp":10,"dewpoint":8,"windDirection":10,"windSpeed":24.076,"visibility":1.55,"altim":29.88189,"flightCategory":"IFR","metarType":"SPECI","geometry_esri":{"x":49.02,"y":2.52,"z":109}}}