{"type":"Feature","geometry":{"type":"Point","coordinates":[40.48,-3.57,582]},"properties":{"stationId":"LEMD","rawText":"LEMD 211230Z 00000KT 6000 FEW007 BKN011 BKN018 08/07 Q1007 NOSIG","observationTime":"2019-11-21T12:30:00Z","temp":8,"dewpoint":7,"windDirection":0,"windSpeed":0,"visibility":3.73,"altim":29.734253,"flightCategory":"MVFR","metarType":"METAR","geometry_esri":{"x":40.48,"y":-3.57,"z":582}}}