{"type":"Feature","geometry":{"type":"Point","coordinates":[53.42,-6.25,85]},"properties":{"stationId":"EIDW","rawText":"EIDW 181630Z 33009KT 9999 FEW013 FEW018CB BKN050 10/08 Q0992 NOSIG","observationTime":"2019-10-18T16:30:00Z","temp":10,"dewpoint":8,"windDirection":330,"windSpeed":16.668,"visibility":6.21,"altim":29.291338,"flightCategory":"VFR","metarType":"METAR","geometry_esri":{"x":53.42,"y":-6.25,"z":85}}}