{"type":"Feature","geometry":{"type":"Point","coordinates":[48.35,11.82,447]},"properties":{"stationId":"EDDM","rawText":"EDDM 160650Z 26003KT 210V290 CAVOK 16/15 Q1021 NOSIG","observationTime":"2019-09-16T06:50:00Z","temp":16,"dewpoint":15,"windDirection":260,"windSpeed":5.556,"visibility":6.21,"altim":30.147638,"flightCategory":"VFR","metarType":"METAR","geometry_esri":{"x":48.35,"y":11.82,"z":447}}}