{"type":"Feature","geometry":{"type":"Point","coordinates":[53.42,-6.25,85]},"properties":{"stationId":"EIDW","rawText":"EIDW 211230Z 16018KT 9999 FEW024 BKN250 19/11 Q1006 NOSIG","observationTime":"2019-09-21T12:30:00Z","temp":19,"dewpoint":11,"windDirection":160,"windSpeed":33.336,"visibility":6.21,"altim":29.704725,"flightCategory":"VFR","metarType":"METAR","geometry_esri":{"x":53.42,"y":-6.25,"z":85}}}