{"type":"Feature","geometry":{"type":"Point","coordinates":[47.78,13.02,430]},"properties":{"stationId":"LOWS","rawText":"LOWS 291450Z 30006KT 9999 -RA FEW005 SCT013 BKN025 06/05 Q1022 TEMPO BKN012","observationTime":"2019-10-29T14:50:00Z","temp":6,"dewpoint":5,"windDirection":300,"windSpeed":11.112,"visibility":6.21,"altim":30.177166,"flightCategory":"MVFR","metarType":"METAR","geometry_esri":{"x":47.78,"y":13.02,"z":430}}}