{"type":"Feature","geometry":{"type":"Point","coordinates":[49.02,2.52,109]},"properties":{"stationId":"LFPG","rawText":"LFPG 171030Z VRB03KT 9999 BKN022 14/07 Q1020 NOSIG","observationTime":"2019-04-17T10:30:00Z","temp":14,"dewpoint":7,"windDirection":0,"windSpeed":5.556,"visibility":6.21,"altim":30.11811,"flightCategory":"MVFR","metarType":"METAR","geometry_esri":{"x":49.02,"y":2.52,"z":109}}}