{"type":"Feature","geometry":{"type":"Point","coordinates":[47.78,13.02,430]},"properties":{"stationId":"LOWS","rawText":"LOWS 291050Z 04005KT 5000 -RADZ FEW006 SCT022 BKN036 17/16 Q1013 NOSIG","observationTime":"2019-07-29T10:50:00Z","temp":17,"dewpoint":16,"windDirection":40,"windSpeed":9.26,"visibility":3.11,"altim":29.911417,"flightCategory":"MVFR","metarType":"METAR","geometry_esri":{"x":47.78,"y":13.02,"z":430}}}