{"type":"Feature","geometry":{"type":"Point","coordinates":[40.48,-3.57,582]},"properties":{"stationId":"LEMD","rawText":"LEMD 112030Z 35005KT CAVOK 10/M00 Q1019 NOSIG","observationTime":"2019-04-11T20:30:00Z","temp":10,"dewpoint":0,"windDirection":350,"windSpeed":9.26,"visibility":6.21,"altim":30.088583,"flightCategory":"VFR","metarType":"METAR","geometry_esri":{"x":40.48,"y":-3.57,"z":582}}}