{"type":"Feature","geometry":{"type":"Point","coordinates":[48.35,11.82,447]},"properties":{"stationId":"EDDM","rawText":"EDDM 290850Z 31006KT 260V350 9999 -RA FEW022 BKN045 09/05 Q1020 NOSIG","observationTime":"2019-04-29T08:50:00Z","temp":9,"dewpoint":5,"windDirection":310,"windSpeed":11.112,"visibility":6.21,"altim":30.11811,"flightCategory":"VFR","metarType":"METAR","geometry_esri":{"x":48.35,"y":11.82,"z":447}}}