{"type":"Feature","geometry":{"type":"Point","coordinates":[48.35,11.82,447]},"properties":{"stationId":"EDDM","rawText":"EDDM 011150Z 26013KT 9999 BKN025 05/02 Q1027 NOSIG","observationTime":"2019-01-01T11:50:00Z","temp":5,"dewpoint":2,"windDirection":260,"windSpeed":24.076,"visibility":6.21,"altim":30.324802,"flightCategory":"MVFR","metarType":"METAR","geometry_esri":{"x":48.35,"y":11.82,"z":447}}}