{"type":"Feature","geometry":{"type":"Point","coordinates":[53.42,-6.25,85]},"properties":{"stationId":"EIDW","rawText":"EIDW 120130Z 19010KT 9999 FEW017 BKN030 BKN130 08/05 Q1027 NOSIG","observationTime":"2019-02-12T01:30:00Z","temp":8,"dewpoint":5,"windDirection":190,"windSpeed":18.52,"visibility":6.21,"altim":30.324802,"flightCategory":"MVFR","metarType":"METAR","geometry_esri":{"x":53.42,"y":-6.25,"z":85}}}