{"type":"Feature","geometry":{"type":"Point","coordinates":[40.48,-3.57,582]},"properties":{"stationId":"LEMD","rawText":"LEMD 310930Z VRB01KT CAVOK 01/M03 Q1033 NOSIG","observationTime":"2018-12-31T09:30:00Z","temp":1,"dewpoint":-3,"windDirection":0,"windSpeed":1.852,"visibility":6.21,"altim":30.501968,"flightCategory":"VFR","metarType":"METAR","geometry_esri":{"x":40.48,"y":-3.57,"z":582}}}