{"type":"Feature","geometry":{"type":"Point","coordinates":[40.48,-3.57,582]},"properties":{"stationId":"LEMD","rawText":"LEMD 031630Z 31014KT 290V350 9999 FEW060 14/M06 Q1003 NOSIG","observationTime":"2019-04-03T16:30:00Z","temp":14,"dewpoint":-6,"windDirection":310,"windSpeed":25.928,"visibility":6.21,"altim":29.616142,"flightCategory":"VFR","metarType":"METAR","geometry_esri":{"x":40.48,"y":-3.57,"z":582}}}