{"type":"Feature","geometry":{"type":"Point","coordinates":[48.35,11.82,447]},"properties":{"stationId":"EDDM","rawText":"EDDM 112150Z 26015KT CAVOK 01/M02 Q1022 NOSIG","observationTime":"2019-03-11T21:50:00Z","temp":1,"dewpoint":-2,"windDirection":260,"windSpeed":27.78,"visibility":6.21,"altim":30.177166,"flightCategory":"VFR","metarType":"METAR","geometry_esri":{"x":48.35,"y":11.82,"z":447}}}