{"type":"Feature","geometry":{"type":"Point","coordinates":[49.02,2.52,109]},"properties":{"stationId":"LFPG","rawText":"LFPG 101030Z VRB07KT CAVOK 20/06 Q1018 NOSIG","observationTime":"2019-09-10T10:30:00Z","temp":20,"dewpoint":6,"windDirection":0,"windSpeed":12.964,"visibility":6.21,"altim":30.059055,"flightCategory":"VFR","metarType":"METAR","geometry_esri":{"x":49.02,"y":2.52,"z":109}}}