{"type":"Feature","geometry":{"type":"Point","coordinates":[48.35,11.82,447]},"properties":{"stationId":"EDDM","rawText":"EDDM 041950Z 25018KT 9999 -SN BKN012 M00/M02 Q1030 R88/290095 TEMPO 26015G25KT","observationTime":"2019-01-04T19:50:00Z","temp":0,"dewpoint":-2,"windDirection":250,"windSpeed":33.336,"visibility":6.21,"altim":30.413385,"flightCategory":"MVFR","metarType":"SPECI","geometry_esri":{"x":48.35,"y":11.82,"z":447}}}