{"type":"Feature","geometry":{"type":"Point","coordinates":[48.35,11.82,447]},"properties":{"stationId":"EDDM","rawText":"EDDM 271650Z 26001KT CAVOK 16/10 Q1019 NOSIG","observationTime":"2019-10-27T16:50:00Z","temp":16,"dewpoint":10,"windDirection":260,"windSpeed":1.852,"visibility":6.21,"altim":30.088583,"flightCategory":"VFR","metarType":"METAR","geometry_esri":{"x":48.35,"y":11.82,"z":447}}}