{"type":"Feature","geometry":{"type":"Point","coordinates":[40.48,-3.57,582]},"properties":{"stationId":"LEMD","rawText":"LEMD 311430Z 13009KT 080V190 9999 FEW060 34/11 Q1014 NOSIG","observationTime":"2019-07-31T14:30:00Z","temp":34,"dewpoint":11,"windDirection":130,"windSpeed":16.668,"visibility":6.21,"altim":29.940945,"flightCategory":"VFR","metarType":"METAR","geometry_esri":{"x":40.48,"y":-3.57,"z":582}}}