{"type":"Feature","geometry":{"type":"Point","coordinates":[53.42,-6.25,85]},"properties":{"stationId":"EIDW","rawText":"EIDW 131230Z 15011KT 9999 FEW018 SCT022 BKN110 06/03 Q0991 NOSIG","observationTime":"2019-11-13T12:30:00Z","temp":6,"dewpoint":3,"windDirection":150,"windSpeed":20.372,"visibility":6.21,"altim":29.26181,"flightCategory":"VFR","metarType":"METAR","geometry_esri":{"x":53.42,"y":-6.25,"z":85}}}