{"type":"Feature","geometry":{"type":"Point","coordinates":[53.42,-6.25,85]},"properties":{"stationId":"EIDW","rawText":"EIDW 111130Z 32011KT 290V010 9999 BKN036 11/03 Q1024 NOSIG","observationTime":"2019-05-11T11:30:00Z","temp":11,"dewpoint":3,"windDirection":320,"windSpeed":20.372,"visibility":6.21,"altim":30.236221,"flightCategory":"VFR","metarType":"METAR","geometry_esri":{"x":53.42,"y":-6.25,"z":85}}}