{"type":"Feature","geometry":{"type":"Point","coordinates":[40.48,-3.57,582]},"properties":{"stationId":"LEMD","rawText":"LEMD 161530Z 21009KT 170V260 CAVOK 25/M02 Q1018 NOSIG","observationTime":"2019-03-16T15:30:00Z","temp":25,"dewpoint":-2,"windDirection":210,"windSpeed":16.668,"visibility":6.21,"altim":30.059055,"flightCategory":"VFR","metarType":"METAR","geometry_esri":{"x":40.48,"y":-3.57,"z":582}}}