{"type":"Feature","geometry":{"type":"Point","coordinates":[47.78,13.02,430]},"properties":{"stationId":"LOWS","rawText":"LOWS 290750Z 27004KT 5000 RA FEW006 SCT020 BKN030 16/15 Q1012 TEMPO -RA","observationTime":"2019-07-29T07:50:00Z","temp":16,"dewpoint":15,"windDirection":270,"windSpeed":7.408,"visibility":3.11,"altim":29.88189,"flightCategory":"MVFR","metarType":"METAR","geometry_esri":{"x":47.78,"y":13.02,"z":430}}}