{"type":"Feature","geometry":{"type":"Point","coordinates":[51.48,-0.45,24]},"properties":{"stationId":"EGLL","rawText":"EGLL 091850Z AUTO 08010KT 8000 -RA BKN030/// //////TCU 07/07 Q1000 NOSIG","observationTime":"2019-11-09T18:50:00Z","temp":7,"dewpoint":7,"windDirection":80,"windSpeed":18.52,"visibility":4.97,"altim":29.52756,"flightCategory":"MVFR","metarType":"METAR","geometry_esri":{"x":51.48,"y":-0.45,"z":24}}}