{"type":"Feature","geometry":{"type":"Point","coordinates":[53.42,-6.25,85]},"properties":{"stationId":"EIDW","rawText":"EIDW 050030Z 24012G23KT 190V270 9999 FEW025 04/01 Q0993 NOSIG","observationTime":"2019-03-05T00:30:00Z","temp":4,"dewpoint":1,"windDirection":240,"windSpeed":22.224,"visibility":6.21,"altim":29.320866,"flightCategory":"VFR","metarType":"METAR","geometry_esri":{"x":53.42,"y":-6.25,"z":85}}}