{"type":"Feature","geometry":{"type":"Point","coordinates":[40.48,-3.57,582]},"properties":{"stationId":"LEMD","rawText":"LEMD 291830Z 27011G21KT 250V330 9999 SCT040 BKN065 12/04 Q1010 NOSIG","observationTime":"2019-01-29T18:30:00Z","temp":12,"dewpoint":4,"windDirection":270,"windSpeed":20.372,"visibility":6.21,"altim":29.822834,"flightCategory":"VFR","metarType":"METAR","geometry_esri":{"x":40.48,"y":-3.57,"z":582}}}