{"type":"Feature","geometry":{"type":"Point","coordinates":[51.48,-0.45,24]},"properties":{"stationId":"EGLL","rawText":"EGLL 190550Z AUTO 02004KT 350V060 8000 NCD 09/06 Q1027 NOSIG","observationTime":"2019-04-19T05:50:00Z","temp":9,"dewpoint":6,"windDirection":20,"windSpeed":7.408,"visibility":4.97,"altim":30.324802,"flightCategory":"MVFR","metarType":"METAR","geometry_esri":{"x":51.48,"y":-0.45,"z":24}}}