{"type":"Feature","geometry":{"type":"Point","coordinates":[47.78,13.02,430]},"properties":{"stationId":"LOWS","rawText":"LOWS 200250Z AUTO VRB01KT 7000 BKN020 00/00 Q1017","observationTime":"2019-11-20T02:50:00Z","temp":0,"dewpoint":0,"windDirection":0,"windSpeed":1.852,"visibility":4.35,"altim":30.029528,"flightCategory":"MVFR","metarType":"METAR","geometry_esri":{"x":47.78,"y":13.02,"z":430}}}