{"type":"Feature","geometry":{"type":"Point","coordinates":[48.35,11.82,447]},"properties":{"stationId":"EDDM","rawText":"EDDM 261550Z 06003KT CAVOK 17/13 Q1020 NOSIG","observationTime":"2019-10-26T15:50:00Z","temp":17,"dewpoint":13,"windDirection":60,"windSpeed":5.556,"visibility":6.21,"altim":30.11811,"flightCategory":"VFR","metarType":"METAR","geometry_esri":{"x":48.35,"y":11.82,"z":447}}}