{"type":"Feature","geometry":{"type":"Point","coordinates":[51.48,-0.45,24]},"properties":{"stationId":"EGLL","rawText":"EGLL 271150Z AUTO 14006KT 100V180 9999 -RA FEW027/// BKN042/// //////TCU 11/10 Q0982 TEMPO 3000 RADZ BKN008","observationTime":"2019-11-27T11:50:00Z","temp":11,"dewpoint":10,"windDirection":140,"windSpeed":11.112,"visibility":6.21,"altim":28.996063,"flightCategory":"VFR","metarType":"METAR","geometry_esri":{"x":51.48,"y":-0.45,"z":24}}}