{"type":"Feature","geometry":{"type":"Point","coordinates":[53.42,-6.25,85]},"properties":{"stationId":"EIDW","rawText":"EIDW 081630Z 07008KT 2000 -DZ BR FEW003 OVC014 09/08 Q1011 NOSIG","observationTime":"2019-04-08T16:30:00Z","temp":9,"dewpoint":8,"windDirection":70,"windSpeed":14.816,"visibility":1.24,"altim":29.852362,"flightCategory":"IFR","metarType":"METAR","geometry_esri":{"x":53.42,"y":-6.25,"z":85}}}