{"type":"Feature","geometry":{"type":"Point","coordinates":[51.48,-0.45,24]},"properties":{"stationId":"EGLL","rawText":"EGLL 122250Z AUTO 22006KT 9999 NCD 07/05 Q1034 NOSIG","observationTime":"2019-02-12T22:50:00Z","temp":7,"dewpoint":5,"windDirection":220,"windSpeed":11.112,"visibility":6.21,"altim":30.531496,"flightCategory":"VFR","metarType":"METAR","geometry_esri":{"x":51.48,"y":-0.45,"z":24}}}