{"type":"Feature","geometry":{"type":"Point","coordinates":[48.35,11.82,447]},"properties":{"stationId":"EDDM","rawText":"EDDM 061050Z 11011KT CAVOK 10/04 Q1010 NOSIG","observationTime":"2019-03-06T10:50:00Z","temp":10,"dewpoint":4,"windDirection":110,"windSpeed":20.372,"visibility":6.21,"altim":29.822834,"flightCategory":"VFR","metarType":"METAR","geometry_esri":{"x":48.35,"y":11.82,"z":447}}}