{"type":"Feature","geometry":{"type":"Point","coordinates":[53.42,-6.25,85]},"properties":{"stationId":"EIDW","rawText":"EIDW 081330Z 13005KT 100V170 9999 FEW020 BKN030 16/11 Q1021 NOSIG","observationTime":"2019-07-08T13:30:00Z","temp":16,"dewpoint":11,"windDirection":130,"windSpeed":9.26,"visibility":6.21,"altim":30.147638,"flightCategory":"MVFR","metarType":"METAR","geometry_esri":{"x":53.42,"y":-6.25,"z":85}}}