{"type":"Feature","geometry":{"type":"Point","coordinates":[47.78,13.02,430]},"properties":{"stationId":"LOWS","rawText":"LOWS 200550Z 15010KT 9999 -RA FEW018 SCT025 BKN036 01/M02 Q1018 R15/19//95 NOSIG","observationTime":"2018-12-20T05:50:00Z","temp":1,"dewpoint":-2,"windDirection":150,"windSpeed":18.52,"visibility":6.21,"altim":30.059055,"flightCategory":"VFR","metarType":"METAR","geometry_esri":{"x":47.78,"y":13.02,"z":430}}}