{"type":"Feature","geometry":{"type":"Point","coordinates":[48.35,11.82,447]},"properties":{"stationId":"EDDM","rawText":"EDDM 210950Z 09013KT CAVOK 18/01 Q1021 NOSIG","observationTime":"2019-04-21T09:50:00Z","temp":18,"dewpoint":1,"windDirection":90,"windSpeed":24.076,"visibility":6.21,"altim":30.147638,"flightCategory":"VFR","metarType":"METAR","geometry_esri":{"x":48.35,"y":11.82,"z":447}}}