{"type":"Feature","geometry":{"type":"Point","coordinates":[40.48,-3.57,582]},"properties":{"stationId":"LEMD","rawText":"LEMD 202030Z VRB01KT 4000 -RA FEW008 BKN013 BKN023 06/05 Q1009 REDZ R88/29//95 NOSIG","observationTime":"2019-11-20T20:30:00Z","temp":6,"dewpoint":5,"windDirection":0,"windSpeed":1.852,"visibility":2.49,"altim":29.793306,"flightCategory":"IFR","metarType":"METAR","geometry_esri":{"x":40.48,"y":-3.57,"z":582}}}