{"type":"Feature","geometry":{"type":"Point","coordinates":[47.78,13.02,430]},"properties":{"stationId":"LOWS","rawText":"LOWS 181850Z 10004KT 070V150 9999 FEW130 16/00 Q1024 NOSIG","observationTime":"2019-04-18T18:50:00Z","temp":16,"dewpoint":0,"windDirection":100,"windSpeed":7.408,"visibility":6.21,"altim":30.236221,"flightCategory":"VFR","metarType":"METAR","geometry_esri":{"x":47.78,"y":13.02,"z":430}}}