{"type":"Feature","geometry":{"type":"Point","coordinates":[49.02,2.52,109]},"properties":{"stationId":"LFPG","rawText":"LFPG 071430Z 15009KT 120V190 CAVOK 15/01 Q1014 NOSIG","observationTime":"2019-05-07T14:30:00Z","temp":15,"dewpoint":1,"windDirection":150,"windSpeed":16.668,"visibility":6.21,"altim":29.940945,"flightCategory":"VFR","metarType":"METAR","geometry_esri":{"x":49.02,"y":2.52,"z":109}}}