{"type":"Feature","geometry":{"type":"Point","coordinates":[40.48,-3.57,582]},"properties":{"stationId":"LEMD","rawText":"LEMD 051730Z 18005KT 130V240 CAVOK 36/05 Q1012 NOSIG","observationTime":"2019-08-05T17:30:00Z","temp":36,"dewpoint":5,"windDirection":180,"windSpeed":9.26,"visibility":6.21,"altim":29.88189,"flightCategory":"VFR","metarType":"METAR","geometry_esri":{"x":40.48,"y":-3.57,"z":582}}}