{"type":"Feature","geometry":{"type":"Point","coordinates":[40.48,-3.57,582]},"properties":{"stationId":"LEMD","rawText":"LEMD 310530Z 36003KT 300V070 9999 BKN035 19/08 Q1018 NOSIG","observationTime":"2019-07-31T05:30:00Z","temp":19,"dewpoint":8,"windDirection":360,"windSpeed":5.556,"visibility":6.21,"altim":30.059055,"flightCategory":"VFR","metarType":"METAR","geometry_esri":{"x":40.48,"y":-3.57,"z":582}}}