{"type":"Feature","geometry":{"type":"Point","coordinates":[53.42,-6.25,85]},"properties":{"stationId":"EIDW","rawText":"EIDW 052130Z 20010KT 170V230 9999 FEW020 SCT090 16/11 Q1003 NOSIG","observationTime":"2019-08-05T21:30:00Z","temp":16,"dewpoint":11,"windDirection":200,"windSpeed":18.52,"visibility":6.21,"altim":29.616142,"flightCategory":"VFR","metarType":"METAR","geometry_esri":{"x":53.42,"y":-6.25,"z":85}}}