{"type":"Feature","geometry":{"type":"Point","coordinates":[53.42,-6.25,85]},"properties":{"stationId":"EIDW","rawText":"EIDW 010730Z VRB03KT 9999 FEW004 SCT024 BKN130 12/10 Q1018 NOSIG","observationTime":"2019-06-01T07:30:00Z","temp":12,"dewpoint":10,"windDirection":0,"windSpeed":5.556,"visibility":6.21,"altim":30.059055,"flightCategory":"VFR","metarType":"METAR","geometry_esri":{"x":53.42,"y":-6.25,"z":85}}}