{"type":"Feature","geometry":{"type":"Point","coordinates":[47.78,13.02,430]},"properties":{"stationId":"LOWS","rawText":"LOWS 031150Z 30011KT 3400 -RASN FEW006 SCT020 BKN030 01/M01 Q1009 R15/29//95 TEMPO 1000 SN BKN008","observationTime":"2019-02-03T11:50:00Z","temp":1,"dewpoint":-1,"windDirection":300,"windSpeed":20.372,"visibility":2.11,"altim":29.793306,"flightCategory":"IFR","metarType":"METAR","geometry_esri":{"x":47.78,"y":13.02,"z":430}}}