{"type":"Feature","geometry":{"type":"Point","coordinates":[40.48,-3.57,582]},"properties":{"stationId":"LEMD","rawText":"LEMD 060930Z 18013G25KT 130V210 9999 RA FEW035 SCT060 BKN070 11/08 Q1006 R88/29//95 NOSIG","observationTime":"2019-03-06T09:30:00Z","temp":11,"dewpoint":8,"windDirection":180,"windSpeed":24.076,"visibility":6.21,"altim":29.704725,"flightCategory":"VFR","metarType":"METAR","geometry_esri":{"x":40.48,"y":-3.57,"z":582}}}