{"type":"Feature","geometry":{"type":"Point","coordinates":[48.35,11.82,447]},"properties":{"stationId":"EDDM","rawText":"EDDM 070450Z 08003KT 050V110 4000 -RA BR FEW003 BKN006 BKN012 06/06 Q1015 NOSIG","observationTime":"2019-10-07T04:50:00Z","temp":6,"dewpoint":6,"windDirection":80,"windSpeed":5.556,"visibility":2.49,"altim":29.970472,"flightCategory":"IFR","metarType":"METAR","geometry_esri":{"x":48.35,"y":11.82,"z":447}}}