{"type":"Feature","geometry":{"type":"Point","coordinates":[40.48,-3.57,582]},"properties":{"stationId":"LEMD","rawText":"LEMD 211330Z 26004KT 170V340 CAVOK 24/01 Q1014 NOSIG","observationTime":"2019-05-21T13:30:00Z","temp":24,"dewpoint":1,"windDirection":260,"windSpeed":7.408,"visibility":6.21,"altim":29.940945,"flightCategory":"VFR","metarType":"METAR","geometry_esri":{"x":40.48,"y":-3.57,"z":582}}}