{"type":"Feature","geometry":{"type":"Point","coordinates":[40.48,-3.57,582]},"properties":{"stationId":"LEMD","rawText":"LEMD 281930Z 35009KT 310V020 CAVOK 20/02 Q1018 NOSIG","observationTime":"2019-05-28T19:30:00Z","temp":20,"dewpoint":2,"windDirection":350,"windSpeed":16.668,"visibility":6.21,"altim":30.059055,"flightCategory":"VFR","metarType":"METAR","geometry_esri":{"x":40.48,"y":-3.57,"z":582}}}