{"type":"Feature","geometry":{"type":"Point","coordinates":[51.48,-0.45,24]},"properties":{"stationId":"EGLL","rawText":"EGLL 170950Z AUTO 32009KT 290V010 9999 NCD 02/M01 Q1011 NOSIG","observationTime":"2019-01-17T09:50:00Z","temp":2,"dewpoint":-1,"windDirection":320,"windSpeed":16.668,"visibility":6.21,"altim":29.852362,"flightCategory":"VFR","metarType":"METAR","geometry_esri":{"x":51.48,"y":-0.45,"z":24}}}