{"type":"Feature","geometry":{"type":"Point","coordinates":[49.02,2.52,109]},"properties":{"stationId":"LFPG","rawText":"LFPG 301230Z 22008G18KT 180V330 9999 SCT025 BKN062 19/12 Q1026 NOSIG","observationTime":"2019-05-30T12:30:00Z","temp":19,"dewpoint":12,"windDirection":220,"windSpeed":14.816,"visibility":6.21,"altim":30.295275,"flightCategory":"VFR","metarType":"METAR","geometry_esri":{"x":49.02,"y":2.52,"z":109}}}