{"type":"Feature","geometry":{"type":"Point","coordinates":[49.02,2.52,109]},"properties":{"stationId":"LFPG","rawText":"LFPG 240830Z 26009KT CAVOK 30/15 Q1014 NOSIG","observationTime":"2019-07-24T08:30:00Z","temp":30,"dewpoint":15,"windDirection":260,"windSpeed":16.668,"visibility":6.21,"altim":29.940945,"flightCategory":"VFR","metarType":"METAR","geometry_esri":{"x":49.02,"y":2.52,"z":109}}}