{"type":"Feature","geometry":{"type":"Point","coordinates":[51.48,-0.45,24]},"properties":{"stationId":"EGLL","rawText":"EGLL 020850Z AUTO 27008KT 9999 SCT007 BKN011 OVC019 10/09 Q1011 BECMG SCT012 BKN019","observationTime":"2019-03-02T08:50:00Z","temp":10,"dewpoint":9,"windDirection":270,"windSpeed":14.816,"visibility":6.21,"altim":29.852362,"flightCategory":"MVFR","metarType":"METAR","geometry_esri":{"x":51.48,"y":-0.45,"z":24}}}