{"type":"Feature","geometry":{"type":"Point","coordinates":[53.42,-6.25,85]},"properties":{"stationId":"EIDW","rawText":"EIDW 010330Z 26012KT CAVOK 09/07 Q1015 NOSIG","observationTime":"2019-09-01T03:30:00Z","temp":9,"dewpoint":7,"windDirection":260,"windSpeed":22.224,"visibility":6.21,"altim":29.970472,"flightCategory":"VFR","metarType":"METAR","geometry_esri":{"x":53.42,"y":-6.25,"z":85}}}