{"type":"Feature","geometry":{"type":"Point","coordinates":[47.78,13.02,430]},"properties":{"stationId":"LOWS","rawText":"LOWS 181750Z 16004KT 8000 MIFG SCT220 01/01 Q1014 TEMPO 1200 BCFG","observationTime":"2019-11-18T17:50:00Z","temp":1,"dewpoint":1,"windDirection":160,"windSpeed":7.408,"visibility":4.97,"altim":29.940945,"flightCategory":"MVFR","metarType":"SPECI","geometry_esri":{"x":47.78,"y":13.02,"z":430}}}