{"type":"Feature","geometry":{"type":"Point","coordinates":[48.35,11.82,447]},"properties":{"stationId":"EDDM","rawText":"EDDM 081350Z 31005KT 260V350 9999 FEW043 25/14 Q1015 NOSIG","observationTime":"2019-08-08T13:50:00Z","temp":25,"dewpoint":14,"windDirection":310,"windSpeed":9.26,"visibility":6.21,"altim":29.970472,"flightCategory":"VFR","metarType":"METAR","geometry_esri":{"x":48.35,"y":11.82,"z":447}}}