{"type":"Feature","geometry":{"type":"Point","coordinates":[48.35,11.82,447]},"properties":{"stationId":"EDDM","rawText":"EDDM 271250Z 34005KT 290V020 9999 FEW046 31/20 Q1022 NOSIG","observationTime":"2019-06-27T12:50:00Z","temp":31,"dewpoint":20,"windDirection":340,"windSpeed":9.26,"visibility":6.21,"altim":30.177166,"flightCategory":"VFR","metarType":"METAR","geometry_esri":{"x":48.35,"y":11.82,"z":447}}}