{"type":"Feature","geometry":{"type":"Point","coordinates":[40.48,-3.57,582]},"properties":{"stationId":"LEMD","rawText":"LEMD 290730Z 04010KT 350V100 CAVOK 14/03 Q1024 NOSIG","observationTime":"2019-05-29T07:30:00Z","temp":14,"dewpoint":3,"windDirection":40,"windSpeed":18.52,"visibility":6.21,"altim":30.236221,"flightCategory":"VFR","metarType":"METAR","geometry_esri":{"x":40.48,"y":-3.57,"z":582}}}