{"type":"Feature","geometry":{"type":"Point","coordinates":[53.42,-6.25,85]},"properties":{"stationId":"EIDW","rawText":"EIDW 291230Z 14011KT 110V170 6000 FEW002 BKN003 BKN005 11/09 Q1023 NOSIG","observationTime":"2019-04-29T12:30:00Z","temp":11,"dewpoint":9,"windDirection":140,"windSpeed":20.372,"visibility":3.73,"altim":30.206694,"flightCategory":"LIFR","metarType":"METAR","geometry_esri":{"x":53.42,"y":-6.25,"z":85}}}