{"type":"Feature","geometry":{"type":"Point","coordinates":[47.78,13.02,430]},"properties":{"stationId":"LOWS","rawText":"LOWS 261850Z 16004KT 110V210 9999 FEW070 BKN080 09/02 Q1032 NOSIG","observationTime":"2019-02-26T18:50:00Z","temp":9,"dewpoint":2,"windDirection":160,"windSpeed":7.408,"visibility":6.21,"altim":30.47244,"flightCategory":"VFR","metarType":"METAR","geometry_esri":{"x":47.78,"y":13.02,"z":430}}}