{"type":"Feature","geometry":{"type":"Point","coordinates":[47.78,13.02,430]},"properties":{"stationId":"LOWS","rawText":"LOWS 251420Z 29004KT 0800 R15/1000D R33/1000D FG BKN002 04/04 Q1010 NOSIG","observationTime":"2019-11-25T14:20:00Z","temp":4,"dewpoint":4,"windDirection":290,"windSpeed":7.408,"visibility":0.5,"altim":29.822834,"flightCategory":"LIFR","metarType":"METAR","geometry_esri":{"x":47.78,"y":13.02,"z":430}}}