{"type":"Feature","geometry":{"type":"Point","coordinates":[51.48,-0.45,24]},"properties":{"stationId":"EGLL","rawText":"EGLL 011650Z AUTO 36006KT 310V040 9999 SCT017/// BKN043/// //////CB 17/14 Q0998","observationTime":"2019-10-01T16:50:00Z","temp":17,"dewpoint":14,"windDirection":360,"windSpeed":11.112,"visibility":6.21,"altim":29.468504,"flightCategory":"VFR","metarType":"METAR","geometry_esri":{"x":51.48,"y":-0.45,"z":24}}}