{"type":"Feature","geometry":{"type":"Point","coordinates":[40.48,-3.57,582]},"properties":{"stationId":"LEMD","rawText":"LEMD 030530Z 32003KT CAVOK M02/M04 Q1027 NOSIG","observationTime":"2019-01-03T05:30:00Z","temp":-2,"dewpoint":-4,"windDirection":320,"windSpeed":5.556,"visibility":6.21,"altim":30.324802,"flightCategory":"VFR","metarType":"METAR","geometry_esri":{"x":40.48,"y":-3.57,"z":582}}}