{"type":"Feature","geometry":{"type":"Point","coordinates":[47.78,13.02,430]},"properties":{"stationId":"LOWS","rawText":"LOWS 300850Z 29018KT 240V320 9999 FEW035 BKN055 20/10 Q1011 TEMPO 29010G20KT","observationTime":"2019-09-30T08:50:00Z","temp":20,"dewpoint":10,"windDirection":290,"windSpeed":33.336,"visibility":6.21,"altim":29.852362,"flightCategory":"VFR","metarType":"METAR","geometry_esri":{"x":47.78,"y":13.02,"z":430}}}