{"type":"Feature","geometry":{"type":"Point","coordinates":[47.78,13.02,430]},"properties":{"stationId":"LOWS","rawText":"LOWS 050450Z VRB02KT 4000 -SNRA FEW003 BKN006 00/M00 Q1013 TEMPO 7000 BKN012","observationTime":"2019-05-05T04:50:00Z","temp":0,"dewpoint":0,"windDirection":0,"windSpeed":3.704,"visibility":2.49,"altim":29.911417,"flightCategory":"IFR","metarType":"METAR","geometry_esri":{"x":47.78,"y":13.02,"z":430}}}