{"type":"Feature","geometry":{"type":"Point","coordinates":[51.48,-0.45,24]},"properties":{"stationId":"EGLL","rawText":"EGLL 290450Z AUTO 17003KT 9999 NCD M01/M03 Q1006 NOSIG","observationTime":"2019-01-29T04:50:00Z","temp":-1,"dewpoint":-3,"windDirection":170,"windSpeed":5.556,"visibility":6.21,"altim":29.704725,"flightCategory":"VFR","metarType":"METAR","geometry_esri":{"x":51.48,"y":-0.45,"z":24}}}