{"type":"Feature","geometry":{"type":"Point","coordinates":[49.02,2.52,109]},"properties":{"stationId":"LFPG","rawText":"LFPG 261130Z 09006KT CAVOK 03/M01 Q1031 NOSIG","observationTime":"2018-12-26T11:30:00Z","temp":3,"dewpoint":-1,"windDirection":90,"windSpeed":11.112,"visibility":6.21,"altim":30.442913,"flightCategory":"VFR","metarType":"METAR","geometry_esri":{"x":49.02,"y":2.52,"z":109}}}