{"type":"Feature","geometry":{"type":"Point","coordinates":[53.42,-6.25,85]},"properties":{"stationId":"EIDW","rawText":"EIDW 190730Z 18006KT 9999 FEW010 BKN040 05/02 Q1013 NOSIG","observationTime":"2019-02-19T07:30:00Z","temp":5,"dewpoint":2,"windDirection":180,"windSpeed":11.112,"visibility":6.21,"altim":29.911417,"flightCategory":"VFR","metarType":"METAR","geometry_esri":{"x":53.42,"y":-6.25,"z":85}}}