{"type":"Feature","geometry":{"type":"Point","coordinates":[51.48,-0.45,24]},"properties":{"stationId":"EGLL","rawText":"EGLL 271250Z AUTO 24005KT 210V280 9000 NCD 17/07 Q1025 NOSIG","observationTime":"2019-02-27T12:50:00Z","temp":17,"dewpoint":7,"windDirection":240,"windSpeed":9.26,"visibility":5.59,"altim":30.265747,"flightCategory":"VFR","metarType":"METAR","geometry_esri":{"x":51.48,"y":-0.45,"z":24}}}