{"type":"Feature","geometry":{"type":"Point","coordinates":[49.02,2.52,109]},"properties":{"stationId":"LFPG","rawText":"LFPG 030130Z 33013KT 9999 BKN019 03/M00 Q1015 NOSIG","observationTime":"2019-02-03T01:30:00Z","temp":3,"dewpoint":0,"windDirection":330,"windSpeed":24.076,"visibility":6.21,"altim":29.970472,"flightCategory":"MVFR","metarType":"METAR","geometry_esri":{"x":49.02,"y":2.52,"z":109}}}