{"type":"Feature","geometry":{"type":"Point","coordinates":[48.35,11.82,447]},"properties":{"stationId":"EDDM","rawText":"EDDM 040350Z VRB01KT CAVOK 03/03 Q1015 NOSIG","observationTime":"2019-10-04T03:50:00Z","temp":3,"dewpoint":3,"windDirection":0,"windSpeed":1.852,"visibility":6.21,"altim":29.970472,"flightCategory":"VFR","metarType":"METAR","geometry_esri":{"x":48.35,"y":11.82,"z":447}}}