{"type":"Feature","geometry":{"type":"Point","coordinates":[51.48,-0.45,24]},"properties":{"stationId":"EGLL","rawText":"EGLL 141350Z AUTO 19014KT 170V240 9999 -RA SCT010/// BKN015/// OVC032/// //////TCU 17/16 Q1011","observationTime":"2019-08-14T13:50:00Z","temp":17,"dewpoint":16,"windDirection":190,"windSpeed":25.928,"visibility":6.21,"altim":29.852362,"flightCategory":"MVFR","metarType":"METAR","geometry_esri":{"x":51.48,"y":-0.45,"z":24}}}