{"type":"Feature","geometry":{"type":"Point","coordinates":[40.48,-3.57,582]},"properties":{"stationId":"LEMD","rawText":"LEMD 211930Z 32003KT CAVOK 04/M04 Q1021 NOSIG","observationTime":"2019-01-21T19:30:00Z","temp":4,"dewpoint":-4,"windDirection":320,"windSpeed":5.556,"visibility":6.21,"altim":30.147638,"flightCategory":"VFR","metarType":"METAR","geometry_esri":{"x":40.48,"y":-3.57,"z":582}}}