{"type":"Feature","geometry":{"type":"Point","coordinates":[49.02,2.52,109]},"properties":{"stationId":"LFPG","rawText":"LFPG 182330Z 36003KT CAVOK 05/02 Q1025 NOSIG","observationTime":"2019-03-18T23:30:00Z","temp":5,"dewpoint":2,"windDirection":360,"windSpeed":5.556,"visibility":6.21,"altim":30.265747,"flightCategory":"VFR","metarType":"METAR","geometry_esri":{"x":49.02,"y":2.52,"z":109}}}