{"type":"Feature","geometry":{"type":"Point","coordinates":[51.48,-0.45,24]},"properties":{"stationId":"EGLL","rawText":"EGLL 092350Z AUTO 18007KT 9999 -RA FEW014 SCT034 BKN046 07/06 Q0998 TEMPO RA BKN008","observationTime":"2019-02-09T23:50:00Z","temp":7,"dewpoint":6,"windDirection":180,"windSpeed":12.964,"visibility":6.21,"altim":29.468504,"flightCategory":"VFR","metarType":"METAR","geometry_esri":{"x":51.48,"y":-0.45,"z":24}}}