{"type":"Feature","geometry":{"type":"Point","coordinates":[40.48,-3.57,582]},"properties":{"stationId":"LEMD","rawText":"LEMD 152230Z 09002KT 9999 FEW065 18/16 Q1021 R88/19//95 NOSIG","observationTime":"2019-09-15T22:30:00Z","temp":18,"dewpoint":16,"windDirection":90,"windSpeed":3.704,"visibility":6.21,"altim":30.147638,"flightCategory":"VFR","metarType":"METAR","geometry_esri":{"x":40.48,"y":-3.57,"z":582}}}