{"type":"Feature","geometry":{"type":"Point","coordinates":[51.48,-0.45,24]},"properties":{"stationId":"EGLL","rawText":"EGLL 150050Z AUTO 04004KT 010V070 9999 NCD 13/10 Q1024","observationTime":"2019-07-15T00:50:00Z","temp":13,"dewpoint":10,"windDirection":40,"windSpeed":7.408,"visibility":6.21,"altim":30.236221,"flightCategory":"VFR","metarType":"METAR","geometry_esri":{"x":51.48,"y":-0.45,"z":24}}}