{"type":"Feature","geometry":{"type":"Point","coordinates":[48.35,11.82,447]},"properties":{"stationId":"EDDM","rawText":"EDDM 170850Z VRB02KT 4500 BR FEW004 OVC005 04/03 Q1005 BECMG 05005KT 6000","observationTime":"2019-11-17T08:50:00Z","temp":4,"dewpoint":3,"windDirection":0,"windSpeed":3.704,"visibility":2.8,"altim":29.675198,"flightCategory":"IFR","metarType":"METAR","geometry_esri":{"x":48.35,"y":11.82,"z":447}}}