{"type":"Feature","geometry":{"type":"Point","coordinates":[49.02,2.52,109]},"properties":{"stationId":"LFPG","rawText":"LFPG 011930Z 36011KT 330V040 CAVOK 23/12 Q1016 NOSIG","observationTime":"2019-08-01T19:30:00Z","temp":23,"dewpoint":12,"windDirection":360,"windSpeed":20.372,"visibility":6.21,"altim":30,"flightCategory":"VFR","metarType":"METAR","geometry_esri":{"x":49.02,"y":2.52,"z":109}}}