{"type":"Feature","geometry":{"type":"Point","coordinates":[40.48,-3.57,582]},"properties":{"stationId":"LEMD","rawText":"LEMD 241430Z 34012KT 300V020 9999 SCT055 15/04 Q1010 NOSIG","observationTime":"2019-01-24T14:30:00Z","temp":15,"dewpoint":4,"windDirection":340,"windSpeed":22.224,"visibility":6.21,"altim":29.822834,"flightCategory":"VFR","metarType":"METAR","geometry_esri":{"x":40.48,"y":-3.57,"z":582}}}