{"type":"Feature","geometry":{"type":"Point","coordinates":[51.48,-0.45,24]},"properties":{"stationId":"EGLL","rawText":"EGLL 012350Z AUTO 21010KT 9999 SCT013 BKN027 OVC033 15/14 Q0987","observationTime":"2019-11-01T23:50:00Z","temp":15,"dewpoint":14,"windDirection":210,"windSpeed":18.52,"visibility":6.21,"altim":29.143702,"flightCategory":"MVFR","metarType":"METAR","geometry_esri":{"x":51.48,"y":-0.45,"z":24}}}