{"type":"Feature","geometry":{"type":"Point","coordinates":[49.02,2.52,109]},"properties":{"stationId":"LFPG","rawText":"LFPG 161130Z 34004KT 280V070 CAVOK 22/10 Q1019 NOSIG","observationTime":"2019-07-16T11:30:00Z","temp":22,"dewpoint":10,"windDirection":340,"windSpeed":7.408,"visibility":6.21,"altim":30.088583,"flightCategory":"VFR","metarType":"METAR","geometry_esri":{"x":49.02,"y":2.52,"z":109}}}