{"type":"Feature","geometry":{"type":"Point","coordinates":[48.35,11.82,447]},"properties":{"stationId":"EDDM","rawText":"EDDM 231250Z 10003KT 070V130 5000 BR OVC012 M04/M07 Q0995 NOSIG","observationTime":"2019-01-23T12:50:00Z","temp":-4,"dewpoint":-7,"windDirection":100,"windSpeed":5.556,"visibility":3.11,"altim":29.379921,"flightCategory":"MVFR","metarType":"METAR","geometry_esri":{"x":48.35,"y":11.82,"z":447}}}