{"type":"Feature","geometry":{"type":"Point","coordinates":[53.42,-6.25,85]},"properties":{"stationId":"EIDW","rawText":"EIDW 311130Z 09010KT 9999 BKN014 BKN026 09/06 Q1027 BECMG SCT011","observationTime":"2019-03-31T11:30:00Z","temp":9,"dewpoint":6,"windDirection":90,"windSpeed":18.52,"visibility":6.21,"altim":30.324802,"flightCategory":"MVFR","metarType":"METAR","geometry_esri":{"x":53.42,"y":-6.25,"z":85}}}