{"type":"Feature","geometry":{"type":"Point","coordinates":[53.42,-6.25,85]},"properties":{"stationId":"EIDW","rawText":"EIDW 140330Z 14006KT 100V160 9999 -RADZ FEW010 SCT017 BKN035 14/13 Q1009 TEMPO BKN012","observationTime":"2019-08-14T03:30:00Z","temp":14,"dewpoint":13,"windDirection":140,"windSpeed":11.112,"visibility":6.21,"altim":29.793306,"flightCategory":"VFR","metarType":"METAR","geometry_esri":{"x":53.42,"y":-6.25,"z":85}}}