{"type":"Feature","geometry":{"type":"Point","coordinates":[40.48,-3.57,582]},"properties":{"stationId":"LEMD","rawText":"LEMD 150730Z 34004KT CAVOK 03/M02 Q1028 NOSIG","observationTime":"2019-03-15T07:30:00Z","temp":3,"dewpoint":-2,"windDirection":340,"windSpeed":7.408,"visibility":6.21,"altim":30.35433,"flightCategory":"VFR","metarType":"METAR","geometry_esri":{"x":40.48,"y":-3.57,"z":582}}}