{"type":"Feature","geometry":{"type":"Point","coordinates":[53.42,-6.25,85]},"properties":{"stationId":"EIDW","rawText":"EIDW 170230Z 08005KT CAVOK 08/06 Q1015 NOSIG","observationTime":"2019-05-17T02:30:00Z","temp":8,"dewpoint":6,"windDirection":80,"windSpeed":9.26,"visibility":6.21,"altim":29.970472,"flightCategory":"VFR","metarType":"METAR","geometry_esri":{"x":53.42,"y":-6.25,"z":85}}}