{"type":"Feature","geometry":{"type":"Point","coordinates":[53.42,-6.25,85]},"properties":{"stationId":"EIDW","rawText":"EIDW 250930Z 27006KT 230V290 4000 BR FEW001 SCT003 BKN005 16/15 Q1017 BECMG 5000 BKN008","observationTime":"2019-08-25T09:30:00Z","temp":16,"dewpoint":15,"windDirection":270,"windSpeed":11.112,"visibility":2.49,"altim":30.029528,"flightCategory":"IFR","metarType":"SPECI","geometry_esri":{"x":53.42,"y":-6.25,"z":85}}}