{"type":"Feature","geometry":{"type":"Point","coordinates":[49.02,2.52,109]},"properties":{"stationId":"LFPG","rawText":"LFPG 290530Z 04009KT 5000 BR NSC 05/03 Q1030 NOSIG","observationTime":"2019-03-29T05:30:00Z","temp":5,"dewpoint":3,"windDirection":40,"windSpeed":16.668,"visibility":3.11,"altim":30.413385,"flightCategory":"MVFR","metarType":"METAR","geometry_esri":{"x":49.02,"y":2.52,"z":109}}}