{"type":"Feature","geometry":{"type":"Point","coordinates":[49.02,2.52,109]},"properties":{"stationId":"LFPG","rawText":"LFPG 291530Z 36005KT 320V060 9999 BKN023 09/04 Q1017 NOSIG","observationTime":"2019-11-29T15:30:00Z","temp":9,"dewpoint":4,"windDirection":360,"windSpeed":9.26,"visibility":6.21,"altim":30.029528,"flightCategory":"MVFR","metarType":"METAR","geometry_esri":{"x":49.02,"y":2.52,"z":109}}}