{"type":"Feature","geometry":{"type":"Point","coordinates":[53.42,-6.25,85]},"properties":{"stationId":"EIDW","rawText":"EIDW 232130Z VRB01KT 9999 FEW023 SCT200 12/10 Q1018 NOSIG","observationTime":"2019-08-23T21:30:00Z","temp":12,"dewpoint":10,"windDirection":0,"windSpeed":1.852,"visibility":6.21,"altim":30.059055,"flightCategory":"VFR","metarType":"METAR","geometry_esri":{"x":53.42,"y":-6.25,"z":85}}}