{"type":"Feature","geometry":{"type":"Point","coordinates":[48.35,11.82,447]},"properties":{"stationId":"EDDM","rawText":"EDDM 281850Z 25005KT CAVOK 01/M02 Q1029 NOSIG","observationTime":"2018-12-28T18:50:00Z","temp":1,"dewpoint":-2,"windDirection":250,"windSpeed":9.26,"visibility":6.21,"altim":30.383858,"flightCategory":"VFR","metarType":"METAR","geometry_esri":{"x":48.35,"y":11.82,"z":447}}}