{"type":"Feature","geometry":{"type":"Point","coordinates":[49.02,2.52,109]},"properties":{"stationId":"LFPG","rawText":"LFPG 040030Z 36004KT 6000 BKN043 02/02 Q1040 BECMG 3000 BR","observationTime":"2019-01-04T00:30:00Z","temp":2,"dewpoint":2,"windDirection":360,"windSpeed":7.408,"visibility":3.73,"altim":30.708662,"flightCategory":"MVFR","metarType":"SPECI","geometry_esri":{"x":49.02,"y":2.52,"z":109}}}