{"type":"Feature","geometry":{"type":"Point","coordinates":[48.35,11.82,447]},"properties":{"stationId":"EDDM","rawText":"EDDM 271450Z 24017KT 9999 FEW048 21/11 Q1013 NOSIG","observationTime":"2019-09-27T14:50:00Z","temp":21,"dewpoint":11,"windDirection":240,"windSpeed":31.484,"visibility":6.21,"altim":29.911417,"flightCategory":"VFR","metarType":"METAR","geometry_esri":{"x":48.35,"y":11.82,"z":447}}}