{"type":"Feature","geometry":{"type":"Point","coordinates":[40.48,-3.57,582]},"properties":{"stationId":"LEMD","rawText":"LEMD 190530Z VRB02KT CAVOK 21/11 Q1015 NOSIG","observationTime":"2019-08-19T05:30:00Z","temp":21,"dewpoint":11,"windDirection":0,"windSpeed":3.704,"visibility":6.21,"altim":29.970472,"flightCategory":"VFR","metarType":"METAR","geometry_esri":{"x":40.48,"y":-3.57,"z":582}}}