{"type":"Feature","geometry":{"type":"Point","coordinates":[49.02,2.52,109]},"properties":{"stationId":"LFPG","rawText":"LFPG 051230Z 23007KT 180V260 9999 SCT007 BKN020 15/14 Q1015 BECMG BKN012","observationTime":"2019-10-05T12:30:00Z","temp":15,"dewpoint":14,"windDirection":230,"windSpeed":12.964,"visibility":6.21,"altim":29.970472,"flightCategory":"MVFR","metarType":"METAR","geometry_esri":{"x":49.02,"y":2.52,"z":109}}}