{"type":"Feature","geometry":{"type":"Point","coordinates":[48.35,11.82,447]},"properties":{"stationId":"EDDM","rawText":"EDDM 021950Z 03006KT 350V060 1500 BCFG BKN003 02/02 Q1001 BECMG 3000 BKN005","observationTime":"2019-02-02T19:50:00Z","temp":2,"dewpoint":2,"windDirection":30,"windSpeed":11.112,"visibility":0.93,"altim":29.557087,"flightCategory":"LIFR","metarType":"METAR","geometry_esri":{"x":48.35,"y":11.82,"z":447}}}