{"type":"Feature","geometry":{"type":"Point","coordinates":[53.42,-6.25,85]},"properties":{"stationId":"EIDW","rawText":"EIDW 132030Z 25015G26KT 210V290 9999 -RADZ FEW011 BKN019 BKN027 07/05 Q1010 NOSIG","observationTime":"2019-03-13T20:30:00Z","temp":7,"dewpoint":5,"windDirection":250,"windSpeed":27.78,"visibility":6.21,"altim":29.822834,"flightCategory":"MVFR","metarType":"METAR","geometry_esri":{"x":53.42,"y":-6.25,"z":85}}}