{"type":"Feature","geometry":{"type":"Point","coordinates":[47.78,13.02,430]},"properties":{"stationId":"LOWS","rawText":"LOWS 160350Z 31003KT 250V010 9999 FEW028 BKN033 17/12 Q1019 NOSIG","observationTime":"2019-06-16T03:50:00Z","temp":17,"dewpoint":12,"windDirection":310,"windSpeed":5.556,"visibility":6.21,"altim":30.088583,"flightCategory":"VFR","metarType":"METAR","geometry_esri":{"x":47.78,"y":13.02,"z":430}}}