{"type":"Feature","geometry":{"type":"Point","coordinates":[51.48,-0.45,24]},"properties":{"stationId":"EGLL","rawText":"EGLL 041750Z AUTO 03009G19KT 360V060 9999 -RA SCT032/// //////CB 09/02 Q1023 TEMPO SHRA","observationTime":"2019-05-04T17:50:00Z","temp":9,"dewpoint":2,"windDirection":30,"windSpeed":16.668,"visibility":6.21,"altim":30.206694,"flightCategory":"VFR","metarType":"METAR","geometry_esri":{"x":51.48,"y":-0.45,"z":24}}}