{"type":"Feature","geometry":{"type":"Point","coordinates":[47.78,13.02,430]},"properties":{"stationId":"LOWS","rawText":"LOWS 061750Z 05012KT CAVOK 14/05 Q1002 BECMG 15004KT","observationTime":"2019-04-06T17:50:00Z","temp":14,"dewpoint":5,"windDirection":50,"windSpeed":22.224,"visibility":6.21,"altim":29.586615,"flightCategory":"VFR","metarType":"METAR","geometry_esri":{"x":47.78,"y":13.02,"z":430}}}