{"type":"Feature","geometry":{"type":"Point","coordinates":[53.42,-6.25,85]},"properties":{"stationId":"EIDW","rawText":"EIDW 111730Z 26010KT 230V290 9999 FEW024 SCT035 BKN041 16/10 Q1019 NOSIG","observationTime":"2019-09-11T17:30:00Z","temp":16,"dewpoint":10,"windDirection":260,"windSpeed":18.52,"visibility":6.21,"altim":30.088583,"flightCategory":"VFR","metarType":"METAR","geometry_esri":{"x":53.42,"y":-6.25,"z":85}}}