{"type":"Feature","geometry":{"type":"Point","coordinates":[40.48,-3.57,582]},"properties":{"stationId":"LEMD","rawText":"LEMD 121730Z 36004KT 310V040 CAVOK 19/M03 Q1016 NOSIG","observationTime":"2019-04-12T17:30:00Z","temp":19,"dewpoint":-3,"windDirection":360,"windSpeed":7.408,"visibility":6.21,"altim":30,"flightCategory":"VFR","metarType":"METAR","geometry_esri":{"x":40.48,"y":-3.57,"z":582}}}