{"type":"Feature","geometry":{"type":"Point","coordinates":[51.48,-0.45,24]},"properties":{"stationId":"EGLL","rawText":"EGLL 292050Z AUTO 02001KT 9000 NCD 03/02 Q1022 NOSIG","observationTime":"2019-11-29T20:50:00Z","temp":3,"dewpoint":2,"windDirection":20,"windSpeed":1.852,"visibility":5.59,"altim":30.177166,"flightCategory":"VFR","metarType":"METAR","geometry_esri":{"x":51.48,"y":-0.45,"z":24}}}