{"type":"Feature","geometry":{"type":"Point","coordinates":[48.35,11.82,447]},"properties":{"stationId":"EDDM","rawText":"EDDM 202150Z 26008KT 6000 RA BKN010 OVC035 12/11 Q1003 TEMPO NSW","observationTime":"2019-05-20T21:50:00Z","temp":12,"dewpoint":11,"windDirection":260,"windSpeed":14.816,"visibility":3.73,"altim":29.616142,"flightCategory":"MVFR","metarType":"METAR","geometry_esri":{"x":48.35,"y":11.82,"z":447}}}