{"type":"Feature","geometry":{"type":"Point","coordinates":[40.48,-3.57,582]},"properties":{"stationId":"LEMD","rawText":"LEMD 161130Z 18007G18KT 100V220 CAVOK 25/10 Q1009 NOSIG","observationTime":"2019-05-16T11:30:00Z","temp":25,"dewpoint":10,"windDirection":180,"windSpeed":12.964,"visibility":6.21,"altim":29.793306,"flightCategory":"VFR","metarType":"METAR","geometry_esri":{"x":40.48,"y":-3.57,"z":582}}}