{"type":"Feature","geometry":{"type":"Point","coordinates":[40.48,-3.57,582]},"properties":{"stationId":"LEMD","rawText":"LEMD 011530Z 18005KT 130V240 CAVOK 20/M01 Q1022 NOSIG","observationTime":"2019-03-01T15:30:00Z","temp":20,"dewpoint":-1,"windDirection":180,"windSpeed":9.26,"visibility":6.21,"altim":30.177166,"flightCategory":"VFR","metarType":"METAR","geometry_esri":{"x":40.48,"y":-3.57,"z":582}}}