{"type":"Feature","geometry":{"type":"Point","coordinates":[48.35,11.82,447]},"properties":{"stationId":"EDDM","rawText":"EDDM 061950Z 29010KT 260V320 9999 VCSH FEW030TCU BKN037 14/08 Q1017 NOSIG","observationTime":"2019-06-06T19:50:00Z","temp":14,"dewpoint":8,"windDirection":290,"windSpeed":18.52,"visibility":6.21,"altim":30.029528,"flightCategory":"VFR","metarType":"METAR","geometry_esri":{"x":48.35,"y":11.82,"z":447}}}