{"type":"Feature","geometry":{"type":"Point","coordinates":[51.48,-0.45,24]},"properties":{"stationId":"EGLL","rawText":"EGLL 151650Z AUTO 22008KT 9999 NCD 15/11 Q1004 NOSIG","observationTime":"2019-10-15T16:50:00Z","temp":15,"dewpoint":11,"windDirection":220,"windSpeed":14.816,"visibility":6.21,"altim":29.64567,"flightCategory":"VFR","metarType":"METAR","geometry_esri":{"x":51.48,"y":-0.45,"z":24}}}