{"type":"Feature","geometry":{"type":"Point","coordinates":[40.48,-3.57,582]},"properties":{"stationId":"LEMD","rawText":"LEMD 070630Z 01006KT 9999 BKN026 BKN035 15/04 Q1021 NOSIG","observationTime":"2019-09-07T06:30:00Z","temp":15,"dewpoint":4,"windDirection":10,"windSpeed":11.112,"visibility":6.21,"altim":30.147638,"flightCategory":"MVFR","metarType":"METAR","geometry_esri":{"x":40.48,"y":-3.57,"z":582}}}