{"type":"Feature","geometry":{"type":"Point","coordinates":[47.78,13.02,430]},"properties":{"stationId":"LOWS","rawText":"LOWS 180550Z 15009KT 110V180 CAVOK 09/07 Q1016 NOSIG","observationTime":"2019-10-18T05:50:00Z","temp":9,"dewpoint":7,"windDirection":150,"windSpeed":16.668,"visibility":6.21,"altim":30,"flightCategory":"VFR","metarType":"METAR","geometry_esri":{"x":47.78,"y":13.02,"z":430}}}