{"type":"Feature","geometry":{"type":"Point","coordinates":[51.48,-0.45,24]},"properties":{"stationId":"EGLL","rawText":"EGLL 161950Z AUTO 22018KT 6000 -RA SCT011 BKN016 OVC021 10/08 Q0996 TEMPO RA BKN011","observationTime":"2019-03-16T19:50:00Z","temp":10,"dewpoint":8,"windDirection":220,"windSpeed":33.336,"visibility":3.73,"altim":29.409449,"flightCategory":"MVFR","metarType":"METAR","geometry_esri":{"x":51.48,"y":-0.45,"z":24}}}