{"type":"Feature","geometry":{"type":"Point","coordinates":[47.78,13.02,430]},"properties":{"stationId":"LOWS","rawText":"LOWS 131650Z 13003KT 100V170 9999 FEW030 SCT070 BKN080 17/14 Q1018 NOSIG","observationTime":"2019-08-13T16:50:00Z","temp":17,"dewpoint":14,"windDirection":130,"windSpeed":5.556,"visibility":6.21,"altim":30.059055,"flightCategory":"VFR","metarType":"METAR","geometry_esri":{"x":47.78,"y":13.02,"z":430}}}