{"type":"Feature","geometry":{"type":"Point","coordinates":[51.48,-0.45,24]},"properties":{"stationId":"EGLL","rawText":"EGLL 190850Z AUTO 19010KT 150V230 9999 SCT031 BKN037 BKN044 17/13 Q1012 BECMG BKN014","observationTime":"2019-07-19T08:50:00Z","temp":17,"dewpoint":13,"windDirection":190,"windSpeed":18.52,"visibility":6.21,"altim":29.88189,"flightCategory":"VFR","metarType":"SPECI","geometry_esri":{"x":51.48,"y":-0.45,"z":24}}}