{"type":"Feature","geometry":{"type":"Point","coordinates":[40.48,-3.57,582]},"properties":{"stationId":"LEMD","rawText":"LEMD 041330Z 22013G24KT 120V260 9999 SCT030 16/07 Q1018 NOSIG","observationTime":"2019-03-04T13:30:00Z","temp":16,"dewpoint":7,"windDirection":220,"windSpeed":24.076,"visibility":6.21,"altim":30.059055,"flightCategory":"VFR","metarType":"METAR","geometry_esri":{"x":40.48,"y":-3.57,"z":582}}}