{"type":"Feature","geometry":{"type":"Point","coordinates":[48.35,11.82,447]},"properties":{"stationId":"EDDM","rawText":"EDDM 110650Z 27013KT 4500 -SNRA SCT007 BKN011 OVC020 01/01 Q1010 TEMPO 27015G25KT BKN007","observationTime":"2019-02-11T06:50:00Z","temp":1,"dewpoint":1,"windDirection":270,"windSpeed":24.076,"visibility":2.8,"altim":29.822834,"flightCategory":"IFR","metarType":"METAR","geometry_esri":{"x":48.35,"y":11.82,"z":447}}}