{"type":"Feature","geometry":{"type":"Point","coordinates":[51.48,-0.45,24]},"properties":{"stationId":"EGLL","rawText":"EGLL 081350Z AUTO 09005KT 040V140 9999 NCD 24/09 Q1021 NOSIG","observationTime":"2019-07-08T13:50:00Z","temp":24,"dewpoint":9,"windDirection":90,"windSpeed":9.26,"visibility":6.21,"altim":30.147638,"flightCategory":"VFR","metarType":"METAR","geometry_esri":{"x":51.48,"y":-0.45,"z":24}}}