{"type":"Feature","geometry":{"type":"Point","coordinates":[51.48,-0.45,24]},"properties":{"stationId":"EGLL","rawText":"EGLL 201050Z AUTO 02006KT 320V060 9999 BKN016/// 11/08 Q1011","observationTime":"2019-10-20T10:50:00Z","temp":11,"dewpoint":8,"windDirection":20,"windSpeed":11.112,"visibility":6.21,"altim":29.852362,"flightCategory":"MVFR","metarType":"METAR","geometry_esri":{"x":51.48,"y":-0.45,"z":24}}}