{"type":"Feature","geometry":{"type":"Point","coordinates":[47.78,13.02,430]},"properties":{"stationId":"LOWS","rawText":"LOWS 132150Z 17004KT 110V270 9999 SCT050 BKN060 05/M02 Q1012 NOSIG","observationTime":"2019-03-13T21:50:00Z","temp":5,"dewpoint":-2,"windDirection":170,"windSpeed":7.408,"visibility":6.21,"altim":29.88189,"flightCategory":"VFR","metarType":"METAR","geometry_esri":{"x":47.78,"y":13.02,"z":430}}}