{"type":"Feature","geometry":{"type":"Point","coordinates":[48.35,11.82,447]},"properties":{"stationId":"EDDM","rawText":"EDDM 211950Z 04003KT CAVOK 11/M02 Q1016 NOSIG","observationTime":"2019-04-21T19:50:00Z","temp":11,"dewpoint":-2,"windDirection":40,"windSpeed":5.556,"visibility":6.21,"altim":30,"flightCategory":"VFR","metarType":"METAR","geometry_esri":{"x":48.35,"y":11.82,"z":447}}}