{"type":"Feature","geometry":{"type":"Point","coordinates":[48.35,11.82,447]},"properties":{"stationId":"EDDM","rawText":"EDDM 260150Z 32001KT 0200 R08L/0250N R08R/0400V0900D FG VV/// 06/06 Q1022 NOSIG","observationTime":"2019-10-26T01:50:00Z","temp":6,"dewpoint":6,"windDirection":320,"windSpeed":1.852,"visibility":0.12,"altim":30.177166,"flightCategory":"LIFR","metarType":"METAR","geometry_esri":{"x":48.35,"y":11.82,"z":447}}}