{"type":"Feature","geometry":{"type":"Point","coordinates":[47.78,13.02,430]},"properties":{"stationId":"LOWS","rawText":"LOWS 172250Z AUTO VRB01KT 9999 NSC 07/06 Q1016","observationTime":"2019-10-17T22:50:00Z","temp":7,"dewpoint":6,"windDirection":0,"windSpeed":1.852,"visibility":6.21,"altim":30,"flightCategory":"VFR","metarType":"METAR","geometry_esri":{"x":47.78,"y":13.02,"z":430}}}