{"type":"Feature","geometry":{"type":"Point","coordinates":[49.02,2.52,109]},"properties":{"stationId":"LFPG","rawText":"LFPG 292030Z 02005KT 360V080 CAVOK 11/04 Q1024 NOSIG","observationTime":"2019-04-29T20:30:00Z","temp":11,"dewpoint":4,"windDirection":20,"windSpeed":9.26,"visibility":6.21,"altim":30.236221,"flightCategory":"VFR","metarType":"METAR","geometry_esri":{"x":49.02,"y":2.52,"z":109}}}