{"type":"Feature","geometry":{"type":"Point","coordinates":[47.78,13.02,430]},"properties":{"stationId":"LOWS","rawText":"LOWS 060150Z AUTO 08003KT 3700 BR BKN001 M07/M08 Q1029","observationTime":"2019-02-06T01:50:00Z","temp":-7,"dewpoint":-8,"windDirection":80,"windSpeed":5.556,"visibility":2.3,"altim":30.383858,"flightCategory":"LIFR","metarType":"METAR","geometry_esri":{"x":47.78,"y":13.02,"z":430}}}