{"type":"Feature","geometry":{"type":"Point","coordinates":[48.35,11.82,447]},"properties":{"stationId":"EDDM","rawText":"EDDM 010450Z 04006KT 6000 NSC 05/03 Q1019 NOSIG","observationTime":"2019-04-01T04:50:00Z","temp":5,"dewpoint":3,"windDirection":40,"windSpeed":11.112,"visibility":3.73,"altim":30.088583,"flightCategory":"MVFR","metarType":"METAR","geometry_esri":{"x":48.35,"y":11.82,"z":447}}}