{"type":"Feature","geometry":{"type":"Point","coordinates":[40.48,-3.57,582]},"properties":{"stationId":"LEMD","rawText":"LEMD 090930Z 05001KT 9999 FEW050 25/10 Q1016 NOSIG","observationTime":"2019-07-09T09:30:00Z","temp":25,"dewpoint":10,"windDirection":50,"windSpeed":1.852,"visibility":6.21,"altim":30,"flightCategory":"VFR","metarType":"METAR","geometry_esri":{"x":40.48,"y":-3.57,"z":582}}}