{"type":"Feature","geometry":{"type":"Point","coordinates":[48.35,11.82,447]},"properties":{"stationId":"EDDM","rawText":"EDDM 141250Z 07008KT 020V110 CAVOK 29/15 Q1016 NOSIG","observationTime":"2019-06-14T12:50:00Z","temp":29,"dewpoint":15,"windDirection":70,"windSpeed":14.816,"visibility":6.21,"altim":30,"flightCategory":"VFR","metarType":"METAR","geometry_esri":{"x":48.35,"y":11.82,"z":447}}}