{"type":"Feature","geometry":{"type":"Point","coordinates":[40.48,-3.57,582]},"properties":{"stationId":"LEMD","rawText":"LEMD 050830Z 04008KT 350V080 CAVOK 12/02 Q1018 NOSIG","observationTime":"2019-05-05T08:30:00Z","temp":12,"dewpoint":2,"windDirection":40,"windSpeed":14.816,"visibility":6.21,"altim":30.059055,"flightCategory":"VFR","metarType":"METAR","geometry_esri":{"x":40.48,"y":-3.57,"z":582}}}