{"type":"Feature","geometry":{"type":"Point","coordinates":[53.42,-6.25,85]},"properties":{"stationId":"EIDW","rawText":"EIDW 282230Z 25004KT 190V280 CAVOK 09/02 Q1030 NOSIG","observationTime":"2019-03-28T22:30:00Z","temp":9,"dewpoint":2,"windDirection":250,"windSpeed":7.408,"visibility":6.21,"altim":30.413385,"flightCategory":"VFR","metarType":"METAR","geometry_esri":{"x":53.42,"y":-6.25,"z":85}}}