{"type":"Feature","geometry":{"type":"Point","coordinates":[49.02,2.52,109]},"properties":{"stationId":"LFPG","rawText":"LFPG 170230Z 23009KT CAVOK 06/05 Q1007 NOSIG","observationTime":"2019-01-17T02:30:00Z","temp":6,"dewpoint":5,"windDirection":230,"windSpeed":16.668,"visibility":6.21,"altim":29.734253,"flightCategory":"VFR","metarType":"METAR","geometry_esri":{"x":49.02,"y":2.52,"z":109}}}