{"type":"Feature","geometry":{"type":"Point","coordinates":[53.42,-6.25,85]},"properties":{"stationId":"EIDW","rawText":"EIDW 201530Z 14011KT 110V170 9999 FEW020 17/10 Q1018 NOSIG","observationTime":"2019-09-20T15:30:00Z","temp":17,"dewpoint":10,"windDirection":140,"windSpeed":20.372,"visibility":6.21,"altim":30.059055,"flightCategory":"VFR","metarType":"METAR","geometry_esri":{"x":53.42,"y":-6.25,"z":85}}}