{"type":"Feature","geometry":{"type":"Point","coordinates":[48.35,11.82,447]},"properties":{"stationId":"EDDM","rawText":"EDDM 042050Z VRB02KT 0150 R08L/0300N R08R/0650N FZFG VV/// M08/M08 Q1028 R88/190095 NOSIG","observationTime":"2019-02-04T20:50:00Z","temp":-8,"dewpoint":-8,"windDirection":0,"windSpeed":3.704,"visibility":0.09,"altim":30.35433,"flightCategory":"LIFR","metarType":"METAR","geometry_esri":{"x":48.35,"y":11.82,"z":447}}}