{"type":"Feature","geometry":{"type":"Point","coordinates":[49.02,2.52,109]},"properties":{"stationId":"LFPG","rawText":"LFPG 312330Z 21010KT 7000 SCT011 SCT029 04/03 Q0985 NOSIG","observationTime":"2019-01-31T23:30:00Z","temp":4,"dewpoint":3,"windDirection":210,"windSpeed":18.52,"visibility":4.35,"altim":29.084646,"flightCategory":"MVFR","metarType":"METAR","geometry_esri":{"x":49.02,"y":2.52,"z":109}}}