{"type":"Feature","geometry":{"type":"Point","coordinates":[48.35,11.82,447]},"properties":{"stationId":"EDDM","rawText":"EDDM 300650Z 26006KT CAVOK 02/00 Q1022 NOSIG","observationTime":"2019-11-30T06:50:00Z","temp":2,"dewpoint":0,"windDirection":260,"windSpeed":11.112,"visibility":6.21,"altim":30.177166,"flightCategory":"VFR","metarType":"METAR","geometry_esri":{"x":48.35,"y":11.82,"z":447}}}