{"type":"Feature","geometry":{"type":"Point","coordinates":[40.48,-3.57,582]},"properties":{"stationId":"LEMD","rawText":"LEMD 231630Z 19005KT 120V250 9999 FEW020 BKN045 11/07 Q1008 NOSIG","observationTime":"2019-10-23T16:30:00Z","temp":11,"dewpoint":7,"windDirection":190,"windSpeed":9.26,"visibility":6.21,"altim":29.763779,"flightCategory":"VFR","metarType":"METAR","geometry_esri":{"x":40.48,"y":-3.57,"z":582}}}