{"type":"Feature","geometry":{"type":"Point","coordinates":[47.78,13.02,430]},"properties":{"stationId":"LOWS","rawText":"LOWS 110050Z AUTO 20003KT 170V250 1600 1200S R15/P1500D R33/P1500D BR BKN001 M00/M00 Q1016","observationTime":"2019-11-11T00:50:00Z","temp":0,"dewpoint":0,"windDirection":200,"windSpeed":5.556,"visibility":0.99,"altim":30,"flightCategory":"LIFR","metarType":"METAR","geometry_esri":{"x":47.78,"y":13.02,"z":430}}}