{"type":"Feature","geometry":{"type":"Point","coordinates":[51.48,-0.45,24]},"properties":{"stationId":"EGLL","rawText":"EGLL 240850Z AUTO VRB03KT 5000 BR NCD M00/M01 Q1011 TEMPO -FZRA","observationTime":"2019-01-24T08:50:00Z","temp":0,"dewpoint":-1,"windDirection":0,"windSpeed":5.556,"visibility":3.11,"altim":29.852362,"flightCategory":"MVFR","metarType":"SPECI","geometry_esri":{"x":51.48,"y":-0.45,"z":24}}}