{"type":"Feature","geometry":{"type":"Point","coordinates":[53.42,-6.25,85]},"properties":{"stationId":"EIDW","rawText":"EIDW 250830Z 29010KT 260V320 9999 FEW013 SCT220 08/05 Q1035 NOSIG","observationTime":"2019-03-25T08:30:00Z","temp":8,"dewpoint":5,"windDirection":290,"windSpeed":18.52,"visibility":6.21,"altim":30.561024,"flightCategory":"VFR","metarType":"METAR","geometry_esri":{"x":53.42,"y":-6.25,"z":85}}}