{"type":"Feature","geometry":{"type":"Point","coordinates":[53.42,-6.25,85]},"properties":{"stationId":"EIDW","rawText":"EIDW 260630Z 25004KT 9999 FEW015 01/00 Q1031 NOSIG","observationTime":"2019-02-26T06:30:00Z","temp":1,"dewpoint":0,"windDirection":250,"windSpeed":7.408,"visibility":6.21,"altim":30.442913,"flightCategory":"VFR","metarType":"METAR","geometry_esri":{"x":53.42,"y":-6.25,"z":85}}}