{"type":"Feature","geometry":{"type":"Point","coordinates":[48.35,11.82,447]},"properties":{"stationId":"EDDM","rawText":"EDDM 201550Z 29005KT 270V330 9999 FEW034 09/03 Q1024 NOSIG","observationTime":"2019-02-20T15:50:00Z","temp":9,"dewpoint":3,"windDirection":290,"windSpeed":9.26,"visibility":6.21,"altim":30.236221,"flightCategory":"VFR","metarType":"METAR","geometry_esri":{"x":48.35,"y":11.82,"z":447}}}