{"type":"Feature","geometry":{"type":"Point","coordinates":[53.42,-6.25,85]},"properties":{"stationId":"EIDW","rawText":"EIDW 252230Z 23003KT 9999 FEW015 BKN180 10/08 Q1027 NOSIG","observationTime":"2018-12-25T22:30:00Z","temp":10,"dewpoint":8,"windDirection":230,"windSpeed":5.556,"visibility":6.21,"altim":30.324802,"flightCategory":"VFR","metarType":"METAR","geometry_esri":{"x":53.42,"y":-6.25,"z":85}}}