{"type":"Feature","geometry":{"type":"Point","coordinates":[40.48,-3.57,582]},"properties":{"stationId":"LEMD","rawText":"LEMD 251630Z 02006KT 340V080 CAVOK 22/M04 Q1017 NOSIG","observationTime":"2019-03-25T16:30:00Z","temp":22,"dewpoint":-4,"windDirection":20,"windSpeed":11.112,"visibility":6.21,"altim":30.029528,"flightCategory":"VFR","metarType":"METAR","geometry_esri":{"x":40.48,"y":-3.57,"z":582}}}