{"type":"Feature","geometry":{"type":"Point","coordinates":[53.42,-6.25,85]},"properties":{"stationId":"EIDW","rawText":"EIDW 222030Z 13004KT 080V170 9999 FEW024 BKN120 BKN160 11/08 Q1017 NOSIG","observationTime":"2019-05-22T20:30:00Z","temp":11,"dewpoint":8,"windDirection":130,"windSpeed":7.408,"visibility":6.21,"altim":30.029528,"flightCategory":"VFR","metarType":"METAR","geometry_esri":{"x":53.42,"y":-6.25,"z":85}}}