{"type":"Feature","geometry":{"type":"Point","coordinates":[48.35,11.82,447]},"properties":{"stationId":"EDDM","rawText":"EDDM 081850Z 23007KT CAVOK 11/06 Q1010 NOSIG","observationTime":"2019-04-08T18:50:00Z","temp":11,"dewpoint":6,"windDirection":230,"windSpeed":12.964,"visibility":6.21,"altim":29.822834,"flightCategory":"VFR","metarType":"METAR","geometry_esri":{"x":48.35,"y":11.82,"z":447}}}