{"type":"Feature","geometry":{"type":"Point","coordinates":[51.48,-0.45,24]},"properties":{"stationId":"EGLL","rawText":"EGLL 271550Z AUTO 16008KT 140V240 9999 NCD 32/13 Q1012 NOSIG","observationTime":"2019-08-27T15:50:00Z","temp":32,"dewpoint":13,"windDirection":160,"windSpeed":14.816,"visibility":6.21,"altim":29.88189,"flightCategory":"VFR","metarType":"METAR","geometry_esri":{"x":51.48,"y":-0.45,"z":24}}}