{"type":"Feature","geometry":{"type":"Point","coordinates":[40.48,-3.57,582]},"properties":{"stationId":"LEMD","rawText":"LEMD 282230Z 30005KT 250V050 CAVOK 08/01 Q1017 NOSIG","observationTime":"2019-01-28T22:30:00Z","temp":8,"dewpoint":1,"windDirection":300,"windSpeed":9.26,"visibility":6.21,"altim":30.029528,"flightCategory":"VFR","metarType":"METAR","geometry_esri":{"x":40.48,"y":-3.57,"z":582}}}