{"type":"Feature","geometry":{"type":"Point","coordinates":[48.35,11.82,447]},"properties":{"stationId":"EDDM","rawText":"EDDM 251050Z 29004KT 240V330 9999 FEW025 16/11 Q1024 NOSIG","observationTime":"2019-10-25T10:50:00Z","temp":16,"dewpoint":11,"windDirection":290,"windSpeed":7.408,"visibility":6.21,"altim":30.236221,"flightCategory":"VFR","metarType":"METAR","geometry_esri":{"x":48.35,"y":11.82,"z":447}}}