{"type":"Feature","geometry":{"type":"Point","coordinates":[48.35,11.82,447]},"properties":{"stationId":"EDDM","rawText":"EDDM 272350Z 20002KT 9999 -RA FEW038 BKN048 12/11 Q1020 NOSIG","observationTime":"2019-10-27T23:50:00Z","temp":12,"dewpoint":11,"windDirection":200,"windSpeed":3.704,"visibility":6.21,"altim":30.11811,"flightCategory":"VFR","metarType":"METAR","geometry_esri":{"x":48.35,"y":11.82,"z":447}}}