{"type":"Feature","geometry":{"type":"Point","coordinates":[51.48,-0.45,24]},"properties":{"stationId":"EGLL","rawText":"EGLL 040950Z AUTO 10010KT 9999 BKN024 16/10 Q1006 NOSIG","observationTime":"2019-06-04T09:50:00Z","temp":16,"dewpoint":10,"windDirection":100,"windSpeed":18.52,"visibility":6.21,"altim":29.704725,"flightCategory":"MVFR","metarType":"METAR","geometry_esri":{"x":51.48,"y":-0.45,"z":24}}}