{"type":"Feature","geometry":{"type":"Point","coordinates":[53.42,-6.25,85]},"properties":{"stationId":"EIDW","rawText":"EIDW 160730Z 21006KT 160V270 9999 SCT018 SCT030 BKN070 18/14 Q1019 NOSIG","observationTime":"2019-07-16T07:30:00Z","temp":18,"dewpoint":14,"windDirection":210,"windSpeed":11.112,"visibility":6.21,"altim":30.088583,"flightCategory":"VFR","metarType":"METAR","geometry_esri":{"x":53.42,"y":-6.25,"z":85}}}