{"type":"Feature","geometry":{"type":"Point","coordinates":[47.78,13.02,430]},"properties":{"stationId":"LOWS","rawText":"LOWS 270950Z 34004KT 310V020 9999 FEW045 BKN050 BKN100 18/12 Q1011 NOSIG","observationTime":"2019-05-27T09:50:00Z","temp":18,"dewpoint":12,"windDirection":340,"windSpeed":7.408,"visibility":6.21,"altim":29.852362,"flightCategory":"VFR","metarType":"METAR","geometry_esri":{"x":47.78,"y":13.02,"z":430}}}