{"type":"Feature","geometry":{"type":"Point","coordinates":[49.02,2.52,109]},"properties":{"stationId":"LFPG","rawText":"LFPG 250930Z 07010KT CAVOK 10/M04 Q1036 NOSIG","observationTime":"2019-02-25T09:30:00Z","temp":10,"dewpoint":-4,"windDirection":70,"windSpeed":18.52,"visibility":6.21,"altim":30.590551,"flightCategory":"VFR","metarType":"METAR","geometry_esri":{"x":49.02,"y":2.52,"z":109}}}