{"type":"Feature","geometry":{"type":"Point","coordinates":[40.48,-3.57,582]},"properties":{"stationId":"LEMD","rawText":"LEMD 170930Z 17003KT 110V240 CAVOK 24/06 Q1018 NOSIG","observationTime":"2019-06-17T09:30:00Z","temp":24,"dewpoint":6,"windDirection":170,"windSpeed":5.556,"visibility":6.21,"altim":30.059055,"flightCategory":"VFR","metarType":"METAR","geometry_esri":{"x":40.48,"y":-3.57,"z":582}}}