{"type":"Feature","geometry":{"type":"Point","coordinates":[51.48,-0.45,24]},"properties":{"stationId":"EGLL","rawText":"EGLL 102050Z AUTO 24009KT 9999 NCD 16/11 Q1021 NOSIG","observationTime":"2019-09-10T20:50:00Z","temp":16,"dewpoint":11,"windDirection":240,"windSpeed":16.668,"visibility":6.21,"altim":30.147638,"flightCategory":"VFR","metarType":"METAR","geometry_esri":{"x":51.48,"y":-0.45,"z":24}}}