{"type":"Feature","geometry":{"type":"Point","coordinates":[47.78,13.02,430]},"properties":{"stationId":"LOWS","rawText":"LOWS 211350Z 02009KT 350V050 CAVOK 22/01 Q1017 NOSIG","observationTime":"2019-04-21T13:50:00Z","temp":22,"dewpoint":1,"windDirection":20,"windSpeed":16.668,"visibility":6.21,"altim":30.029528,"flightCategory":"VFR","metarType":"METAR","geometry_esri":{"x":47.78,"y":13.02,"z":430}}}