{"type":"Feature","geometry":{"type":"Point","coordinates":[51.48,-0.45,24]},"properties":{"stationId":"EGLL","rawText":"EGLL 091950Z AUTO 34004KT 300V030 9999 FEW026 04/01 Q1030 NOSIG","observationTime":"2019-01-09T19:50:00Z","temp":4,"dewpoint":1,"windDirection":340,"windSpeed":7.408,"visibility":6.21,"altim":30.413385,"flightCategory":"VFR","metarType":"METAR","geometry_esri":{"x":51.48,"y":-0.45,"z":24}}}