{"type":"Feature","geometry":{"type":"Point","coordinates":[49.02,2.52,109]},"properties":{"stationId":"LFPG","rawText":"LFPG 272338Z 28008KT CAVOK 12/08 Q1011 NOSIG","observationTime":"2019-05-27T23:38:00Z","temp":12,"dewpoint":8,"windDirection":280,"windSpeed":14.816,"visibility":6.21,"altim":29.852362,"flightCategory":"VFR","metarType":"METAR","geometry_esri":{"x":49.02,"y":2.52,"z":109}}}