{"type":"Feature","geometry":{"type":"Point","coordinates":[51.48,-0.45,24]},"properties":{"stationId":"EGLL","rawText":"EGLL 040050Z AUTO 20009KT 9999 SCT018 BKN033 BKN041 06/04 Q1021 NOSIG","observationTime":"2019-02-04T00:50:00Z","temp":6,"dewpoint":4,"windDirection":200,"windSpeed":16.668,"visibility":6.21,"altim":30.147638,"flightCategory":"VFR","metarType":"METAR","geometry_esri":{"x":51.48,"y":-0.45,"z":24}}}