{"type":"Feature","geometry":{"type":"Point","coordinates":[40.48,-3.57,582]},"properties":{"stationId":"LEMD","rawText":"LEMD 171730Z 21009KT CAVOK 32/M01 Q1013 NOSIG","observationTime":"2019-06-17T17:30:00Z","temp":32,"dewpoint":-1,"windDirection":210,"windSpeed":16.668,"visibility":6.21,"altim":29.911417,"flightCategory":"VFR","metarType":"METAR","geometry_esri":{"x":40.48,"y":-3.57,"z":582}}}