{"type":"Feature","geometry":{"type":"Point","coordinates":[47.78,13.02,430]},"properties":{"stationId":"LOWS","rawText":"LOWS 230450Z 36002KT 4500 -SN BR FEW006 OVC009 M05/M06 Q0998 TEMPO 2500","observationTime":"2019-01-23T04:50:00Z","temp":-5,"dewpoint":-6,"windDirection":360,"windSpeed":3.704,"visibility":2.8,"altim":29.468504,"flightCategory":"IFR","metarType":"METAR","geometry_esri":{"x":47.78,"y":13.02,"z":430}}}