{"type":"Feature","geometry":{"type":"Point","coordinates":[40.48,-3.57,582]},"properties":{"stationId":"LEMD","rawText":"LEMD 030230Z VRB02KT CAVOK 20/06 Q1016 NOSIG","observationTime":"2019-06-03T02:30:00Z","temp":20,"dewpoint":6,"windDirection":0,"windSpeed":3.704,"visibility":6.21,"altim":30,"flightCategory":"VFR","metarType":"METAR","geometry_esri":{"x":40.48,"y":-3.57,"z":582}}}