{"type":"Feature","geometry":{"type":"Point","coordinates":[40.48,-3.57,582]},"properties":{"stationId":"LEMD","rawText":"LEMD 221530Z 12006KT 040V160 CAVOK 19/M02 Q1024 NOSIG","observationTime":"2019-03-22T15:30:00Z","temp":19,"dewpoint":-2,"windDirection":120,"windSpeed":11.112,"visibility":6.21,"altim":30.236221,"flightCategory":"VFR","metarType":"METAR","geometry_esri":{"x":40.48,"y":-3.57,"z":582}}}