{"type":"Feature","geometry":{"type":"Point","coordinates":[48.35,11.82,447]},"properties":{"stationId":"EDDM","rawText":"EDDM 070950Z 25024KT CAVOK 12/03 Q1003 NOSIG","observationTime":"2019-03-07T09:50:00Z","temp":12,"dewpoint":3,"windDirection":250,"windSpeed":44.448,"visibility":6.21,"altim":29.616142,"flightCategory":"VFR","metarType":"METAR","geometry_esri":{"x":48.35,"y":11.82,"z":447}}}