{"type":"Feature","geometry":{"type":"Point","coordinates":[49.02,2.52,109]},"properties":{"stationId":"LFPG","rawText":"LFPG 021630Z 02003KT 350V140 9999 BKN015 BKN040 05/02 Q1030 BECMG 3000 BR BKN005","observationTime":"2019-12-02T16:30:00Z","temp":5,"dewpoint":2,"windDirection":20,"windSpeed":5.556,"visibility":6.21,"altim":30.413385,"flightCategory":"MVFR","metarType":"METAR","geometry_esri":{"x":49.02,"y":2.52,"z":109}}}