{"type":"Feature","geometry":{"type":"Point","coordinates":[47.78,13.02,430]},"properties":{"stationId":"LOWS","rawText":"LOWS 280950Z 13003KT 080V180 9999 -SHRA FEW045 BKN055 08/05 Q1002 NOSIG","observationTime":"2019-11-28T09:50:00Z","temp":8,"dewpoint":5,"windDirection":130,"windSpeed":5.556,"visibility":6.21,"altim":29.586615,"flightCategory":"VFR","metarType":"METAR","geometry_esri":{"x":47.78,"y":13.02,"z":430}}}