{"type":"Feature","geometry":{"type":"Point","coordinates":[51.48,-0.45,24]},"properties":{"stationId":"EGLL","rawText":"EGLL 010750Z AUTO 15006KT 7000 BKN010 BKN016 OVC028 12/12 Q1003 TEMPO BKN006","observationTime":"2019-11-01T07:50:00Z","temp":12,"dewpoint":12,"windDirection":150,"windSpeed":11.112,"visibility":4.35,"altim":29.616142,"flightCategory":"MVFR","metarType":"SPECI","geometry_esri":{"x":51.48,"y":-0.45,"z":24}}}