{"type":"Feature","geometry":{"type":"Point","coordinates":[49.02,2.52,109]},"properties":{"stationId":"LFPG","rawText":"LFPG 261730Z 03014KT CAVOK 29/21 Q1020 TEMPO 03015G25KT","observationTime":"2019-06-26T17:30:00Z","temp":29,"dewpoint":21,"windDirection":30,"windSpeed":25.928,"visibility":6.21,"altim":30.11811,"flightCategory":"VFR","metarType":"METAR","geometry_esri":{"x":49.02,"y":2.52,"z":109}}}