{"type":"Feature","geometry":{"type":"Point","coordinates":[40.48,-3.57,582]},"properties":{"stationId":"LEMD","rawText":"LEMD 202130Z 16003KT 120V190 9999 -RA FEW035CB SCT070 18/16 Q1015 R88/29//95 TEMPO SHRA","observationTime":"2019-09-20T21:30:00Z","temp":18,"dewpoint":16,"windDirection":160,"windSpeed":5.556,"visibility":6.21,"altim":29.970472,"flightCategory":"VFR","metarType":"METAR","geometry_esri":{"x":40.48,"y":-3.57,"z":582}}}