{"type":"Feature","geometry":{"type":"Point","coordinates":[51.48,-0.45,24]},"properties":{"stationId":"EGLL","rawText":"EGLL 140050Z AUTO 18006KT 9999 NCD 11/10 Q1011 NOSIG","observationTime":"2019-10-14T00:50:00Z","temp":11,"dewpoint":10,"windDirection":180,"windSpeed":11.112,"visibility":6.21,"altim":29.852362,"flightCategory":"VFR","metarType":"METAR","geometry_esri":{"x":51.48,"y":-0.45,"z":24}}}