{"type":"Feature","geometry":{"type":"Point","coordinates":[40.48,-3.57,582]},"properties":{"stationId":"LEMD","rawText":"LEMD 141830Z 18005KT 140V210 CAVOK 33/03 Q1018 NOSIG","observationTime":"2019-08-14T18:30:00Z","temp":33,"dewpoint":3,"windDirection":180,"windSpeed":9.26,"visibility":6.21,"altim":30.059055,"flightCategory":"VFR","metarType":"METAR","geometry_esri":{"x":40.48,"y":-3.57,"z":582}}}