{"type":"Feature","geometry":{"type":"Point","coordinates":[53.42,-6.25,85]},"properties":{"stationId":"EIDW","rawText":"EIDW 080930Z 20009KT 9999 -RA FEW018 BKN030 06/03 Q1006 NOSIG","observationTime":"2019-03-08T09:30:00Z","temp":6,"dewpoint":3,"windDirection":200,"windSpeed":16.668,"visibility":6.21,"altim":29.704725,"flightCategory":"MVFR","metarType":"METAR","geometry_esri":{"x":53.42,"y":-6.25,"z":85}}}