{"type":"Feature","geometry":{"type":"Point","coordinates":[51.48,-0.45,24]},"properties":{"stationId":"EGLL","rawText":"EGLL 250850Z AUTO 19013KT 160V230 9999 SCT027 BKN042 13/07 Q0997 TEMPO SHRA","observationTime":"2019-04-25T08:50:00Z","temp":13,"dewpoint":7,"windDirection":190,"windSpeed":24.076,"visibility":6.21,"altim":29.438976,"flightCategory":"VFR","metarType":"METAR","geometry_esri":{"x":51.48,"y":-0.45,"z":24}}}