{"type":"Feature","geometry":{"type":"Point","coordinates":[40.48,-3.57,582]},"properties":{"stationId":"LEMD","rawText":"LEMD 291730Z 14010KT 110V190 CAVOK 17/M02 Q1021 NOSIG","observationTime":"2019-03-29T17:30:00Z","temp":17,"dewpoint":-2,"windDirection":140,"windSpeed":18.52,"visibility":6.21,"altim":30.147638,"flightCategory":"VFR","metarType":"METAR","geometry_esri":{"x":40.48,"y":-3.57,"z":582}}}