{"type":"Feature","geometry":{"type":"Point","coordinates":[48.35,11.82,447]},"properties":{"stationId":"EDDM","rawText":"EDDM 192250Z 09001KT 9999 -RADZ FEW028 OVC035 01/00 Q1016 NOSIG","observationTime":"2018-12-19T22:50:00Z","temp":1,"dewpoint":0,"windDirection":90,"windSpeed":1.852,"visibility":6.21,"altim":30,"flightCategory":"VFR","metarType":"METAR","geometry_esri":{"x":48.35,"y":11.82,"z":447}}}