{"type":"Feature","geometry":{"type":"Point","coordinates":[53.42,-6.25,85]},"properties":{"stationId":"EIDW","rawText":"EIDW 070330Z 15014KT 110V180 9999 -RA FEW010 SCT032 BKN045 11/10 Q1008 TEMPO 4000 BKN012","observationTime":"2019-10-07T03:30:00Z","temp":11,"dewpoint":10,"windDirection":150,"windSpeed":25.928,"visibility":6.21,"altim":29.763779,"flightCategory":"VFR","metarType":"METAR","geometry_esri":{"x":53.42,"y":-6.25,"z":85}}}