{"type":"Feature","geometry":{"type":"Point","coordinates":[48.35,11.82,447]},"properties":{"stationId":"EDDM","rawText":"EDDM 180350Z VRB01KT CAVOK 09/08 Q1015 NOSIG","observationTime":"2019-10-18T03:50:00Z","temp":9,"dewpoint":8,"windDirection":0,"windSpeed":1.852,"visibility":6.21,"altim":29.970472,"flightCategory":"VFR","metarType":"METAR","geometry_esri":{"x":48.35,"y":11.82,"z":447}}}