{"type":"Feature","geometry":{"type":"Point","coordinates":[40.48,-3.57,582]},"properties":{"stationId":"LEMD","rawText":"LEMD 051930Z 20005KT 9999 BKN060 14/06 Q1014 NOSIG","observationTime":"2019-03-05T19:30:00Z","temp":14,"dewpoint":6,"windDirection":200,"windSpeed":9.26,"visibility":6.21,"altim":29.940945,"flightCategory":"VFR","metarType":"METAR","geometry_esri":{"x":40.48,"y":-3.57,"z":582}}}