{"type":"Feature","geometry":{"type":"Point","coordinates":[51.48,-0.45,24]},"properties":{"stationId":"EGLL","rawText":"EGLL 232350Z AUTO VRB02KT 8000 NCD 07/04 Q1034 NOSIG","observationTime":"2019-02-23T23:50:00Z","temp":7,"dewpoint":4,"windDirection":0,"windSpeed":3.704,"visibility":4.97,"altim":30.531496,"flightCategory":"MVFR","metarType":"METAR","geometry_esri":{"x":51.48,"y":-0.45,"z":24}}}