{"type":"Feature","geometry":{"type":"Point","coordinates":[49.02,2.52,109]},"properties":{"stationId":"LFPG","rawText":"LFPG 201330Z 24008KT 200V280 9999 FEW046 22/09 Q1024 NOSIG","observationTime":"2019-08-20T13:30:00Z","temp":22,"dewpoint":9,"windDirection":240,"windSpeed":14.816,"visibility":6.21,"altim":30.236221,"flightCategory":"VFR","metarType":"METAR","geometry_esri":{"x":49.02,"y":2.52,"z":109}}}