{"type":"Feature","geometry":{"type":"Point","coordinates":[40.48,-3.57,582]},"properties":{"stationId":"LEMD","rawText":"LEMD 201430Z 15004KT CAVOK 22/M01 Q1012 NOSIG","observationTime":"2019-05-20T14:30:00Z","temp":22,"dewpoint":-1,"windDirection":150,"windSpeed":7.408,"visibility":6.21,"altim":29.88189,"flightCategory":"VFR","metarType":"METAR","geometry_esri":{"x":40.48,"y":-3.57,"z":582}}}