{"type":"Feature","geometry":{"type":"Point","coordinates":[51.48,-0.45,24]},"properties":{"stationId":"EGLL","rawText":"EGLL 141050Z AUTO 05006KT 010V080 9999 BKN019 OVC025 18/12 Q1024","observationTime":"2019-07-14T10:50:00Z","temp":18,"dewpoint":12,"windDirection":50,"windSpeed":11.112,"visibility":6.21,"altim":30.236221,"flightCategory":"MVFR","metarType":"METAR","geometry_esri":{"x":51.48,"y":-0.45,"z":24}}}