{"type":"Feature","geometry":{"type":"Point","coordinates":[48.35,11.82,447]},"properties":{"stationId":"EDDM","rawText":"EDDM 160550Z VRB01KT 8000 FEW009 SCT013 OVC016 04/03 Q1006 TEMPO BKN010","observationTime":"2019-11-16T05:50:00Z","temp":4,"dewpoint":3,"windDirection":0,"windSpeed":1.852,"visibility":4.97,"altim":29.704725,"flightCategory":"MVFR","metarType":"METAR","geometry_esri":{"x":48.35,"y":11.82,"z":447}}}