{"type":"Feature","geometry":{"type":"Point","coordinates":[47.78,13.02,430]},"properties":{"stationId":"LOWS","rawText":"LOWS 231950Z 26003KT 220V010 9999 FEW032 BKN036 20/17 Q1024 NOSIG","observationTime":"2019-08-23T19:50:00Z","temp":20,"dewpoint":17,"windDirection":260,"windSpeed":5.556,"visibility":6.21,"altim":30.236221,"flightCategory":"VFR","metarType":"METAR","geometry_esri":{"x":47.78,"y":13.02,"z":430}}}