{"type":"Feature","geometry":{"type":"Point","coordinates":[48.35,11.82,447]},"properties":{"stationId":"EDDM","rawText":"EDDM 222350Z 11006KT 4200 BR OVC006 M05/M06 Q1001 TEMPO OVC004","observationTime":"2019-01-22T23:50:00Z","temp":-5,"dewpoint":-6,"windDirection":110,"windSpeed":11.112,"visibility":2.61,"altim":29.557087,"flightCategory":"IFR","metarType":"METAR","geometry_esri":{"x":48.35,"y":11.82,"z":447}}}