{"type":"Feature","geometry":{"type":"Point","coordinates":[51.48,-0.45,24]},"properties":{"stationId":"EGLL","rawText":"EGLL 141850Z AUTO 10006KT 5000 BR SCT009 15/15 Q0999 TEMPO 4000 SHRA BKN009","observationTime":"2019-10-14T18:50:00Z","temp":15,"dewpoint":15,"windDirection":100,"windSpeed":11.112,"visibility":3.11,"altim":29.498032,"flightCategory":"MVFR","metarType":"METAR","geometry_esri":{"x":51.48,"y":-0.45,"z":24}}}