{"type":"Feature","geometry":{"type":"Point","coordinates":[48.35,11.82,447]},"properties":{"stationId":"EDDM","rawText":"EDDM 301650Z 11006KT CAVOK 26/16 Q1021 NOSIG","observationTime":"2019-08-30T16:50:00Z","temp":26,"dewpoint":16,"windDirection":110,"windSpeed":11.112,"visibility":6.21,"altim":30.147638,"flightCategory":"VFR","metarType":"METAR","geometry_esri":{"x":48.35,"y":11.82,"z":447}}}