{"type":"Feature","geometry":{"type":"Point","coordinates":[48.35,11.82,447]},"properties":{"stationId":"EDDM","rawText":"EDDM 170650Z 21002KT CAVOK M04/M05 Q1027 NOSIG","observationTime":"2019-02-17T06:50:00Z","temp":-4,"dewpoint":-5,"windDirection":210,"windSpeed":3.704,"visibility":6.21,"altim":30.324802,"flightCategory":"VFR","metarType":"METAR","geometry_esri":{"x":48.35,"y":11.82,"z":447}}}