{"type":"Feature","geometry":{"type":"Point","coordinates":[48.35,11.82,447]},"properties":{"stationId":"EDDM","rawText":"EDDM 161650Z 33007KT 300V010 CAVOK 24/10 Q1016 NOSIG","observationTime":"2019-07-16T16:50:00Z","temp":24,"dewpoint":10,"windDirection":330,"windSpeed":12.964,"visibility":6.21,"altim":30,"flightCategory":"VFR","metarType":"METAR","geometry_esri":{"x":48.35,"y":11.82,"z":447}}}