{"type":"Feature","geometry":{"type":"Point","coordinates":[40.48,-3.57,582]},"properties":{"stationId":"LEMD","rawText":"LEMD 312130Z 20011KT 180V240 7000 -DZ SCT015 SCT030 10/09 Q0999 NOSIG","observationTime":"2019-01-31T21:30:00Z","temp":10,"dewpoint":9,"windDirection":200,"windSpeed":20.372,"visibility":4.35,"altim":29.498032,"flightCategory":"MVFR","metarType":"METAR","geometry_esri":{"x":40.48,"y":-3.57,"z":582}}}