{"type":"Feature","geometry":{"type":"Point","coordinates":[51.48,-0.45,24]},"properties":{"stationId":"EGLL","rawText":"EGLL 011950Z AUTO 34004KT 300V050 9999 NCD 03/02 Q1027 NOSIG","observationTime":"2019-12-01T19:50:00Z","temp":3,"dewpoint":2,"windDirection":340,"windSpeed":7.408,"visibility":6.21,"altim":30.324802,"flightCategory":"VFR","metarType":"METAR","geometry_esri":{"x":51.48,"y":-0.45,"z":24}}}