{"type":"Feature","geometry":{"type":"Point","coordinates":[49.02,2.52,109]},"properties":{"stationId":"LFPG","rawText":"LFPG 170730Z 24010KT 9999 VCSH SCT016 BKN032 07/05 Q1006 NOSIG","observationTime":"2019-03-17T07:30:00Z","temp":7,"dewpoint":5,"windDirection":240,"windSpeed":18.52,"visibility":6.21,"altim":29.704725,"flightCategory":"VFR","metarType":"METAR","geometry_esri":{"x":49.02,"y":2.52,"z":109}}}