{"type":"Feature","geometry":{"type":"Point","coordinates":[49.02,2.52,109]},"properties":{"stationId":"LFPG","rawText":"LFPG 230830Z 05007KT 020V090 CAVOK 15/06 Q0996 NOSIG","observationTime":"2019-04-23T08:30:00Z","temp":15,"dewpoint":6,"windDirection":50,"windSpeed":12.964,"visibility":6.21,"altim":29.409449,"flightCategory":"VFR","metarType":"METAR","geometry_esri":{"x":49.02,"y":2.52,"z":109}}}