{"type":"Feature","geometry":{"type":"Point","coordinates":[51.48,-0.45,24]},"properties":{"stationId":"EGLL","rawText":"EGLL 151250Z AUTO 07006KT 360V120 9999 BKN034 20/10 Q1023","observationTime":"2019-07-15T12:50:00Z","temp":20,"dewpoint":10,"windDirection":70,"windSpeed":11.112,"visibility":6.21,"altim":30.206694,"flightCategory":"VFR","metarType":"METAR","geometry_esri":{"x":51.48,"y":-0.45,"z":24}}}