{"type":"Feature","geometry":{"type":"Point","coordinates":[49.02,2.52,109]},"properties":{"stationId":"LFPG","rawText":"LFPG 240930Z 26002KT 4000 BR FEW013 BKN040 M00/M02 Q1012 NOSIG","observationTime":"2019-01-24T09:30:00Z","temp":0,"dewpoint":-2,"windDirection":260,"windSpeed":3.704,"visibility":2.49,"altim":29.88189,"flightCategory":"IFR","metarType":"METAR","geometry_esri":{"x":49.02,"y":2.52,"z":109}}}