{"type":"Feature","geometry":{"type":"Point","coordinates":[53.42,-6.25,85]},"properties":{"stationId":"EIDW","rawText":"EIDW 270530Z 26015KT 9999 FEW012 SCT018 BKN045 10/08 Q1010 NOSIG","observationTime":"2019-05-27T05:30:00Z","temp":10,"dewpoint":8,"windDirection":260,"windSpeed":27.78,"visibility":6.21,"altim":29.822834,"flightCategory":"VFR","metarType":"METAR","geometry_esri":{"x":53.42,"y":-6.25,"z":85}}}