{"type":"Feature","geometry":{"type":"Point","coordinates":[49.02,2.52,109]},"properties":{"stationId":"LFPG","rawText":"LFPG 280330Z 18004KT 7000 NSC 08/05 Q1020 NOSIG","observationTime":"2019-02-28T03:30:00Z","temp":8,"dewpoint":5,"windDirection":180,"windSpeed":7.408,"visibility":4.35,"altim":30.11811,"flightCategory":"MVFR","metarType":"METAR","geometry_esri":{"x":49.02,"y":2.52,"z":109}}}