{"type":"Feature","geometry":{"type":"Point","coordinates":[47.78,13.02,430]},"properties":{"stationId":"LOWS","rawText":"LOWS 200950Z VRB01KT 7000 FEW002 SCT015 BKN022 04/02 Q1015 NOSIG","observationTime":"2019-11-20T09:50:00Z","temp":4,"dewpoint":2,"windDirection":0,"windSpeed":1.852,"visibility":4.35,"altim":29.970472,"flightCategory":"MVFR","metarType":"METAR","geometry_esri":{"x":47.78,"y":13.02,"z":430}}}