{"type":"Feature","geometry":{"type":"Point","coordinates":[48.35,11.82,447]},"properties":{"stationId":"EDDM","rawText":"EDDM 120650Z 06009KT CAVOK 03/M04 Q1018 NOSIG","observationTime":"2019-04-12T06:50:00Z","temp":3,"dewpoint":-4,"windDirection":60,"windSpeed":16.668,"visibility":6.21,"altim":30.059055,"flightCategory":"VFR","metarType":"METAR","geometry_esri":{"x":48.35,"y":11.82,"z":447}}}