{"type":"Feature","geometry":{"type":"Point","coordinates":[40.48,-3.57,582]},"properties":{"stationId":"LEMD","rawText":"LEMD 051830Z 23009KT 9999 FEW065 06/02 Q0999 R88/CLRD// NOSIG","observationTime":"2019-04-05T18:30:00Z","temp":6,"dewpoint":2,"windDirection":230,"windSpeed":16.668,"visibility":6.21,"altim":29.498032,"flightCategory":"VFR","metarType":"SPECI","geometry_esri":{"x":40.48,"y":-3.57,"z":582}}}