{"type":"Feature","geometry":{"type":"Point","coordinates":[40.48,-3.57,582]},"properties":{"stationId":"LEMD","rawText":"LEMD 271930Z 34003KT 310V010 CAVOK 17/11 Q1020 NOSIG","observationTime":"2019-10-27T19:30:00Z","temp":17,"dewpoint":11,"windDirection":340,"windSpeed":5.556,"visibility":6.21,"altim":30.11811,"flightCategory":"VFR","metarType":"METAR","geometry_esri":{"x":40.48,"y":-3.57,"z":582}}}