{"type":"Feature","geometry":{"type":"Point","coordinates":[49.02,2.52,109]},"properties":{"stationId":"LFPG","rawText":"LFPG 281230Z VRB02KT 1200 R27L/1900D R09R/2000U R26R/P2000 R08L/P2000 R26L/P2000 R08R/P2000 R27R/1600D R09L/1800U BR BKN003 SCT005 M01/M01 Q1031 NOSIG","observationTime":"2018-12-28T12:30:00Z","temp":-1,"dewpoint":-1,"windDirection":0,"windSpeed":3.704,"visibility":0.75,"altim":30.442913,"flightCategory":"LIFR","metarType":"SPECI","geometry_esri":{"x":49.02,"y":2.52,"z":109}}}