{"type":"Feature","geometry":{"type":"Point","coordinates":[47.78,13.02,430]},"properties":{"stationId":"LOWS","rawText":"LOWS 050550Z 35003KT 320V030 9999 FEW010 SCT016 BKN028 04/02 Q1005 NOSIG","observationTime":"2019-04-05T05:50:00Z","temp":4,"dewpoint":2,"windDirection":350,"windSpeed":5.556,"visibility":6.21,"altim":29.675198,"flightCategory":"MVFR","metarType":"METAR","geometry_esri":{"x":47.78,"y":13.02,"z":430}}}