{"type":"Feature","geometry":{"type":"Point","coordinates":[48.35,11.82,447]},"properties":{"stationId":"EDDM","rawText":"EDDM 192150Z 02003KT 350V050 CAVOK 05/02 Q1029 NOSIG","observationTime":"2019-09-19T21:50:00Z","temp":5,"dewpoint":2,"windDirection":20,"windSpeed":5.556,"visibility":6.21,"altim":30.383858,"flightCategory":"VFR","metarType":"METAR","geometry_esri":{"x":48.35,"y":11.82,"z":447}}}