{"type":"Feature","geometry":{"type":"Point","coordinates":[53.42,-6.25,85]},"properties":{"stationId":"EIDW","rawText":"EIDW 122030Z 27009KT 9999 FEW010 FEW025CB SCT060 12/09 Q1016 NOSIG","observationTime":"2019-08-12T20:30:00Z","temp":12,"dewpoint":9,"windDirection":270,"windSpeed":16.668,"visibility":6.21,"altim":30,"flightCategory":"VFR","metarType":"METAR","geometry_esri":{"x":53.42,"y":-6.25,"z":85}}}