{"type":"Feature","geometry":{"type":"Point","coordinates":[40.48,-3.57,582]},"properties":{"stationId":"LEMD","rawText":"LEMD 220830Z 20001KT 9999 SCT045 13/07 Q1004 NOSIG","observationTime":"2019-04-22T08:30:00Z","temp":13,"dewpoint":7,"windDirection":200,"windSpeed":1.852,"visibility":6.21,"altim":29.64567,"flightCategory":"VFR","metarType":"METAR","geometry_esri":{"x":40.48,"y":-3.57,"z":582}}}