{"type":"Feature","geometry":{"type":"Point","coordinates":[48.35,11.82,447]},"properties":{"stationId":"EDDM","rawText":"EDDM 011150Z 25011KT CAVOK 22/10 Q1008 NOSIG","observationTime":"2019-10-01T11:50:00Z","temp":22,"dewpoint":10,"windDirection":250,"windSpeed":20.372,"visibility":6.21,"altim":29.763779,"flightCategory":"VFR","metarType":"METAR","geometry_esri":{"x":48.35,"y":11.82,"z":447}}}