{"type":"Feature","geometry":{"type":"Point","coordinates":[49.02,2.52,109]},"properties":{"stationId":"LFPG","rawText":"LFPG 312030Z 02005KT 010V070 9000 SCT018 BKN030 BKN037 10/07 Q1017 NOSIG","observationTime":"2019-10-31T20:30:00Z","temp":10,"dewpoint":7,"windDirection":20,"windSpeed":9.26,"visibility":5.59,"altim":30.029528,"flightCategory":"MVFR","metarType":"METAR","geometry_esri":{"x":49.02,"y":2.52,"z":109}}}