{"type":"Feature","geometry":{"type":"Point","coordinates":[53.42,-6.25,85]},"properties":{"stationId":"EIDW","rawText":"EIDW 171130Z 20012KT 160V250 9999 VCSH FEW022 SCT034 BKN042 16/08 Q1010 NOSIG","observationTime":"2019-06-17T11:30:00Z","temp":16,"dewpoint":8,"windDirection":200,"windSpeed":22.224,"visibility":6.21,"altim":29.822834,"flightCategory":"VFR","metarType":"METAR","geometry_esri":{"x":53.42,"y":-6.25,"z":85}}}