{"type":"Feature","geometry":{"type":"Point","coordinates":[48.35,11.82,447]},"properties":{"stationId":"EDDM","rawText":"EDDM 131150Z 01007KT 320V050 CAVOK 13/M00 Q1032 NOSIG","observationTime":"2019-05-13T11:50:00Z","temp":13,"dewpoint":0,"windDirection":10,"windSpeed":12.964,"visibility":6.21,"altim":30.47244,"flightCategory":"VFR","metarType":"METAR","geometry_esri":{"x":48.35,"y":11.82,"z":447}}}