{"type":"Feature","geometry":{"type":"Point","coordinates":[51.48,-0.45,24]},"properties":{"stationId":"EGLL","rawText":"EGLL 070950Z AUTO 02004KT 360V070 2200 HZ OVC004 08/08 Q1009 BECMG 3000 BKN006","observationTime":"2019-04-07T09:50:00Z","temp":8,"dewpoint":8,"windDirection":20,"windSpeed":7.408,"visibility":1.37,"altim":29.793306,"flightCategory":"LIFR","metarType":"SPECI","geometry_esri":{"x":51.48,"y":-0.45,"z":24}}}