{"type":"Feature","geometry":{"type":"Point","coordinates":[48.35,11.82,447]},"properties":{"stationId":"EDDM","rawText":"EDDM 031750Z 24008KT 9999 -SHRA FEW040TCU 09/06 Q1010 NOSIG","observationTime":"2019-05-03T17:50:00Z","temp":9,"dewpoint":6,"windDirection":240,"windSpeed":14.816,"visibility":6.21,"altim":29.822834,"flightCategory":"VFR","metarType":"METAR","geometry_esri":{"x":48.35,"y":11.82,"z":447}}}