{"type":"Feature","geometry":{"type":"Point","coordinates":[51.48,-0.45,24]},"properties":{"stationId":"EGLL","rawText":"EGLL 211050Z AUTO 23004KT 190V260 4600 HZ OVC030 02/01 Q1024 BECMG 5000","observationTime":"2019-01-21T10:50:00Z","temp":2,"dewpoint":1,"windDirection":230,"windSpeed":7.408,"visibility":2.86,"altim":30.236221,"flightCategory":"IFR","metarType":"SPECI","geometry_esri":{"x":51.48,"y":-0.45,"z":24}}}