{"type":"Feature","geometry":{"type":"Point","coordinates":[47.78,13.02,430]},"properties":{"stationId":"LOWS","rawText":"LOWS 071050Z 33007KT 8000 -RA FEW004 BKN008 07/06 Q1019 BECMG BKN014","observationTime":"2019-10-07T10:50:00Z","temp":7,"dewpoint":6,"windDirection":330,"windSpeed":12.964,"visibility":4.97,"altim":30.088583,"flightCategory":"IFR","metarType":"METAR","geometry_esri":{"x":47.78,"y":13.02,"z":430}}}