{"type":"Feature","geometry":{"type":"Point","coordinates":[49.02,2.52,109]},"properties":{"stationId":"LFPG","rawText":"LFPG 090330Z 20009KT 9999 SCT012 11/10 Q1012 NOSIG","observationTime":"2019-10-09T03:30:00Z","temp":11,"dewpoint":10,"windDirection":200,"windSpeed":16.668,"visibility":6.21,"altim":29.88189,"flightCategory":"VFR","metarType":"METAR","geometry_esri":{"x":49.02,"y":2.52,"z":109}}}