{"type":"Feature","geometry":{"type":"Point","coordinates":[49.02,2.52,109]},"properties":{"stationId":"LFPG","rawText":"LFPG 291330Z 26004KT 160V310 9999 BKN038 23/13 Q1022 NOSIG","observationTime":"2019-08-29T13:30:00Z","temp":23,"dewpoint":13,"windDirection":260,"windSpeed":7.408,"visibility":6.21,"altim":30.177166,"flightCategory":"VFR","metarType":"METAR","geometry_esri":{"x":49.02,"y":2.52,"z":109}}}