{"type":"Feature","geometry":{"type":"Point","coordinates":[48.35,11.82,447]},"properties":{"stationId":"EDDM","rawText":"EDDM 311750Z 26007KT 7000 OVC004 05/04 Q1032 TEMPO 4000 -DZRA","observationTime":"2018-12-31T17:50:00Z","temp":5,"dewpoint":4,"windDirection":260,"windSpeed":12.964,"visibility":4.35,"altim":30.47244,"flightCategory":"LIFR","metarType":"METAR","geometry_esri":{"x":48.35,"y":11.82,"z":447}}}