{"type":"Feature","geometry":{"type":"Point","coordinates":[53.42,-6.25,85]},"properties":{"stationId":"EIDW","rawText":"EIDW 200930Z 29008KT 9999 FEW012 SCT022 OVC045 05/05 Q1018 TEMPO 4000 BKN010","observationTime":"2019-01-20T09:30:00Z","temp":5,"dewpoint":5,"windDirection":290,"windSpeed":14.816,"visibility":6.21,"altim":30.059055,"flightCategory":"VFR","metarType":"SPECI","geometry_esri":{"x":53.42,"y":-6.25,"z":85}}}