{"type":"Feature","geometry":{"type":"Point","coordinates":[53.42,-6.25,85]},"properties":{"stationId":"EIDW","rawText":"EIDW 230530Z 16017KT 9999 FEW022 SCT190 10/06 Q1024 NOSIG","observationTime":"2019-02-23T05:30:00Z","temp":10,"dewpoint":6,"windDirection":160,"windSpeed":31.484,"visibility":6.21,"altim":30.236221,"flightCategory":"VFR","metarType":"METAR","geometry_esri":{"x":53.42,"y":-6.25,"z":85}}}