{"type":"Feature","geometry":{"type":"Point","coordinates":[47.78,13.02,430]},"properties":{"stationId":"LOWS","rawText":"LOWS 282350Z AUTO 15006KT 110V190 9999 OVC050 14/11 Q1019","observationTime":"2019-09-28T23:50:00Z","temp":14,"dewpoint":11,"windDirection":150,"windSpeed":11.112,"visibility":6.21,"altim":30.088583,"flightCategory":"VFR","metarType":"METAR","geometry_esri":{"x":47.78,"y":13.02,"z":430}}}