{"type":"Feature","geometry":{"type":"Point","coordinates":[47.78,13.02,430]},"properties":{"stationId":"LOWS","rawText":"LOWS 102250Z AUTO 30004KT 8000 FEW036 BKN046 09/06 Q1011","observationTime":"2019-04-10T22:50:00Z","temp":9,"dewpoint":6,"windDirection":300,"windSpeed":7.408,"visibility":4.97,"altim":29.852362,"flightCategory":"MVFR","metarType":"METAR","geometry_esri":{"x":47.78,"y":13.02,"z":430}}}