{"type":"Feature","geometry":{"type":"Point","coordinates":[48.35,11.82,447]},"properties":{"stationId":"EDDM","rawText":"EDDM 171850Z 32001KT CAVOK 11/09 Q1015 NOSIG","observationTime":"2019-10-17T18:50:00Z","temp":11,"dewpoint":9,"windDirection":320,"windSpeed":1.852,"visibility":6.21,"altim":29.970472,"flightCategory":"VFR","metarType":"METAR","geometry_esri":{"x":48.35,"y":11.82,"z":447}}}