{"type":"Feature","geometry":{"type":"Point","coordinates":[51.48,-0.45,24]},"properties":{"stationId":"EGLL","rawText":"EGLL 010050Z AUTO 05006KT 9999 OVC018 06/03 Q1025 NOSIG","observationTime":"2019-04-01T00:50:00Z","temp":6,"dewpoint":3,"windDirection":50,"windSpeed":11.112,"visibility":6.21,"altim":30.265747,"flightCategory":"MVFR","metarType":"METAR","geometry_esri":{"x":51.48,"y":-0.45,"z":24}}}