{"type":"Feature","geometry":{"type":"Point","coordinates":[47.78,13.02,430]},"properties":{"stationId":"LOWS","rawText":"LOWS 231450Z 15012KT 9999 FEW080 SCT140 BKN300 16/02 Q0999 NOSIG","observationTime":"2019-11-23T14:50:00Z","temp":16,"dewpoint":2,"windDirection":150,"windSpeed":22.224,"visibility":6.21,"altim":29.498032,"flightCategory":"VFR","metarType":"METAR","geometry_esri":{"x":47.78,"y":13.02,"z":430}}}