{"type":"Feature","geometry":{"type":"Point","coordinates":[51.48,-0.45,24]},"properties":{"stationId":"EGLL","rawText":"EGLL 031450Z AUTO 26014KT 9999 BKN030 BKN037 21/13 Q1022","observationTime":"2019-09-03T14:50:00Z","temp":21,"dewpoint":13,"windDirection":260,"windSpeed":25.928,"visibility":6.21,"altim":30.177166,"flightCategory":"MVFR","metarType":"METAR","geometry_esri":{"x":51.48,"y":-0.45,"z":24}}}