{"type":"Feature","geometry":{"type":"Point","coordinates":[51.48,-0.45,24]},"properties":{"stationId":"EGLL","rawText":"EGLL 262050Z AUTO 17004KT 120V240 2900 BR NCD 05/05 Q1028","observationTime":"2018-12-26T20:50:00Z","temp":5,"dewpoint":5,"windDirection":170,"windSpeed":7.408,"visibility":1.8,"altim":30.35433,"flightCategory":"IFR","metarType":"METAR","geometry_esri":{"x":51.48,"y":-0.45,"z":24}}}