{"type":"Feature","geometry":{"type":"Point","coordinates":[53.42,-6.25,85]},"properties":{"stationId":"EIDW","rawText":"EIDW 060930Z 23008KT 190V270 9999 FEW018 BKN023 10/05 Q1006 NOSIG","observationTime":"2019-06-06T09:30:00Z","temp":10,"dewpoint":5,"windDirection":230,"windSpeed":14.816,"visibility":6.21,"altim":29.704725,"flightCategory":"MVFR","metarType":"METAR","geometry_esri":{"x":53.42,"y":-6.25,"z":85}}}