{"type":"Feature","geometry":{"type":"Point","coordinates":[51.48,-0.45,24]},"properties":{"stationId":"EGLL","rawText":"EGLL 211550Z AUTO 18010KT 150V240 9999 SCT046 21/11 Q1025","observationTime":"2019-08-21T15:50:00Z","temp":21,"dewpoint":11,"windDirection":180,"windSpeed":18.52,"visibility":6.21,"altim":30.265747,"flightCategory":"VFR","metarType":"METAR","geometry_esri":{"x":51.48,"y":-0.45,"z":24}}}