{"type":"Feature","geometry":{"type":"Point","coordinates":[47.78,13.02,430]},"properties":{"stationId":"LOWS","rawText":"LOWS 292250Z AUTO 15007KT 120V180 9999 FEW070 SCT080 BKN110 16/12 Q1007","observationTime":"2019-09-29T22:50:00Z","temp":16,"dewpoint":12,"windDirection":150,"windSpeed":12.964,"visibility":6.21,"altim":29.734253,"flightCategory":"VFR","metarType":"METAR","geometry_esri":{"x":47.78,"y":13.02,"z":430}}}