{"type":"Feature","geometry":{"type":"Point","coordinates":[49.02,2.52,109]},"properties":{"stationId":"LFPG","rawText":"LFPG 111930Z 02008KT CAVOK 09/M01 Q1022 NOSIG","observationTime":"2019-04-11T19:30:00Z","temp":9,"dewpoint":-1,"windDirection":20,"windSpeed":14.816,"visibility":6.21,"altim":30.177166,"flightCategory":"VFR","metarType":"METAR","geometry_esri":{"x":49.02,"y":2.52,"z":109}}}