{"type":"Feature","geometry":{"type":"Point","coordinates":[47.78,13.02,430]},"properties":{"stationId":"LOWS","rawText":"LOWS 300950Z 29019G32KT 260V320 9999 FEW040 BKN070 19/10 Q1013 NOSIG","observationTime":"2019-09-30T09:50:00Z","temp":19,"dewpoint":10,"windDirection":290,"windSpeed":35.188,"visibility":6.21,"altim":29.911417,"flightCategory":"VFR","metarType":"METAR","geometry_esri":{"x":47.78,"y":13.02,"z":430}}}