{"type":"Feature","geometry":{"type":"Point","coordinates":[40.48,-3.57,582]},"properties":{"stationId":"LEMD","rawText":"LEMD 120530Z VRB01KT CAVOK 05/01 Q1016 NOSIG","observationTime":"2019-11-12T05:30:00Z","temp":5,"dewpoint":1,"windDirection":0,"windSpeed":1.852,"visibility":6.21,"altim":30,"flightCategory":"VFR","metarType":"METAR","geometry_esri":{"x":40.48,"y":-3.57,"z":582}}}