{"type":"Feature","geometry":{"type":"Point","coordinates":[49.02,2.52,109]},"properties":{"stationId":"LFPG","rawText":"LFPG 090130Z 12007KT CAVOK 24/15 Q1007 NOSIG","observationTime":"2019-08-09T01:30:00Z","temp":24,"dewpoint":15,"windDirection":120,"windSpeed":12.964,"visibility":6.21,"altim":29.734253,"flightCategory":"VFR","metarType":"METAR","geometry_esri":{"x":49.02,"y":2.52,"z":109}}}