{"type":"Feature","geometry":{"type":"Point","coordinates":[51.48,-0.45,24]},"properties":{"stationId":"EGLL","rawText":"EGLL 051050Z AUTO 24014KT 9999 NCD 10/03 Q1004 NOSIG","observationTime":"2019-03-05T10:50:00Z","temp":10,"dewpoint":3,"windDirection":240,"windSpeed":25.928,"visibility":6.21,"altim":29.64567,"flightCategory":"VFR","metarType":"METAR","geometry_esri":{"x":51.48,"y":-0.45,"z":24}}}