{"type":"Feature","geometry":{"type":"Point","coordinates":[49.02,2.52,109]},"properties":{"stationId":"LFPG","rawText":"LFPG 210630Z 29006KT 6000 NSC 12/09 Q1016 NOSIG","observationTime":"2019-05-21T06:30:00Z","temp":12,"dewpoint":9,"windDirection":290,"windSpeed":11.112,"visibility":3.73,"altim":30,"flightCategory":"MVFR","metarType":"METAR","geometry_esri":{"x":49.02,"y":2.52,"z":109}}}