{"type":"Feature","geometry":{"type":"Point","coordinates":[48.35,11.82,447]},"properties":{"stationId":"EDDM","rawText":"EDDM 041050Z 24013KT 1500 R26R/1000V1700N R26L/1400N -SN SCT006 BKN013 M01/M02 Q1033 R88/190095 TEMPO 3000","observationTime":"2019-01-04T10:50:00Z","temp":-1,"dewpoint":-2,"windDirection":240,"windSpeed":24.076,"visibility":0.93,"altim":30.501968,"flightCategory":"LIFR","metarType":"METAR","geometry_esri":{"x":48.35,"y":11.82,"z":447}}}