{"type":"Feature","geometry":{"type":"Point","coordinates":[49.02,2.52,109]},"properties":{"stationId":"LFPG","rawText":"LFPG 070630Z 16005KT CAVOK 08/02 Q1019 NOSIG","observationTime":"2019-05-07T06:30:00Z","temp":8,"dewpoint":2,"windDirection":160,"windSpeed":9.26,"visibility":6.21,"altim":30.088583,"flightCategory":"VFR","metarType":"METAR","geometry_esri":{"x":49.02,"y":2.52,"z":109}}}