{"type":"Feature","geometry":{"type":"Point","coordinates":[51.48,-0.45,24]},"properties":{"stationId":"EGLL","rawText":"EGLL 040250Z 22008KT 6000 RA SCT011 BKN018 OVC029 15/14 Q1016 REDZ TEMPO 9999 -RA","observationTime":"2019-09-04T02:50:00Z","temp":15,"dewpoint":14,"windDirection":220,"windSpeed":14.816,"visibility":3.73,"altim":30,"flightCategory":"MVFR","metarType":"METAR","geometry_esri":{"x":51.48,"y":-0.45,"z":24}}}