{"type":"Feature","geometry":{"type":"Point","coordinates":[49.02,2.52,109]},"properties":{"stationId":"LFPG","rawText":"LFPG 190230Z 19005KT CAVOK 20/16 Q1007 TEMPO VRB05G35KT 3000 TSRA SCT050CB","observationTime":"2019-06-19T02:30:00Z","temp":20,"dewpoint":16,"windDirection":190,"windSpeed":9.26,"visibility":6.21,"altim":29.734253,"flightCategory":"VFR","metarType":"SPECI","geometry_esri":{"x":49.02,"y":2.52,"z":109}}}