{"type":"Feature","geometry":{"type":"Point","coordinates":[51.48,-0.45,24]},"properties":{"stationId":"EGLL","rawText":"EGLL 221450Z AUTO 22010KT 180V250 9999 FEW032 27/18 Q1022 NOSIG","observationTime":"2019-07-22T14:50:00Z","temp":27,"dewpoint":18,"windDirection":220,"windSpeed":18.52,"visibility":6.21,"altim":30.177166,"flightCategory":"VFR","metarType":"METAR","geometry_esri":{"x":51.48,"y":-0.45,"z":24}}}