{"type":"Feature","geometry":{"type":"Point","coordinates":[40.48,-3.57,582]},"properties":{"stationId":"LEMD","rawText":"LEMD 131930Z 01004KT 330V050 CAVOK 10/M03 Q1029 NOSIG","observationTime":"2019-03-13T19:30:00Z","temp":10,"dewpoint":-3,"windDirection":10,"windSpeed":7.408,"visibility":6.21,"altim":30.383858,"flightCategory":"VFR","metarType":"METAR","geometry_esri":{"x":40.48,"y":-3.57,"z":582}}}