{"type":"Feature","geometry":{"type":"Point","coordinates":[53.42,-6.25,85]},"properties":{"stationId":"EIDW","rawText":"EIDW 272030Z 00000KT 9999 FEW018 BKN029 10/06 Q1025 NOSIG","observationTime":"2018-12-27T20:30:00Z","temp":10,"dewpoint":6,"windDirection":0,"windSpeed":0,"visibility":6.21,"altim":30.265747,"flightCategory":"MVFR","metarType":"METAR","geometry_esri":{"x":53.42,"y":-6.25,"z":85}}}