{"type":"Feature","geometry":{"type":"Point","coordinates":[49.02,2.52,109]},"properties":{"stationId":"LFPG","rawText":"LFPG 260930Z 08006KT 7000 NSC 01/M01 Q1032 NOSIG","observationTime":"2018-12-26T09:30:00Z","temp":1,"dewpoint":-1,"windDirection":80,"windSpeed":11.112,"visibility":4.35,"altim":30.47244,"flightCategory":"MVFR","metarType":"METAR","geometry_esri":{"x":49.02,"y":2.52,"z":109}}}