{"type":"Feature","geometry":{"type":"Point","coordinates":[51.48,-0.45,24]},"properties":{"stationId":"EGLL","rawText":"EGLL 121150Z AUTO 10006KT 070V130 9999 BKN042 09/01 Q1027 NOSIG","observationTime":"2019-04-12T11:50:00Z","temp":9,"dewpoint":1,"windDirection":100,"windSpeed":11.112,"visibility":6.21,"altim":30.324802,"flightCategory":"VFR","metarType":"METAR","geometry_esri":{"x":51.48,"y":-0.45,"z":24}}}