{"type":"Feature","geometry":{"type":"Point","coordinates":[40.48,-3.57,582]},"properties":{"stationId":"LEMD","rawText":"LEMD 291330Z 07001KT 8000 FEW060 16/12 Q1020 NOSIG","observationTime":"2019-10-29T13:30:00Z","temp":16,"dewpoint":12,"windDirection":70,"windSpeed":1.852,"visibility":4.97,"altim":30.11811,"flightCategory":"MVFR","metarType":"METAR","geometry_esri":{"x":40.48,"y":-3.57,"z":582}}}