{"type":"Feature","geometry":{"type":"Point","coordinates":[53.42,-6.25,85]},"properties":{"stationId":"EIDW","rawText":"EIDW 302030Z VRB03KT 9999 FEW018 M01/M03 Q0995 NOSIG","observationTime":"2019-01-30T20:30:00Z","temp":-1,"dewpoint":-3,"windDirection":0,"windSpeed":5.556,"visibility":6.21,"altim":29.379921,"flightCategory":"VFR","metarType":"METAR","geometry_esri":{"x":53.42,"y":-6.25,"z":85}}}