{"type":"Feature","geometry":{"type":"Point","coordinates":[49.02,2.52,109]},"properties":{"stationId":"LFPG","rawText":"LFPG 150830Z 10011KT 9000 NSC 09/01 Q1022 NOSIG","observationTime":"2019-04-15T08:30:00Z","temp":9,"dewpoint":1,"windDirection":100,"windSpeed":20.372,"visibility":5.59,"altim":30.177166,"flightCategory":"VFR","metarType":"METAR","geometry_esri":{"x":49.02,"y":2.52,"z":109}}}