{"type":"Feature","geometry":{"type":"Point","coordinates":[47.78,13.02,430]},"properties":{"stationId":"LOWS","rawText":"LOWS 210150Z AUTO 18010KT 9999 FEW140 BKN200 22/07 Q1013","observationTime":"2019-10-21T01:50:00Z","temp":22,"dewpoint":7,"windDirection":180,"windSpeed":18.52,"visibility":6.21,"altim":29.911417,"flightCategory":"VFR","metarType":"METAR","geometry_esri":{"x":47.78,"y":13.02,"z":430}}}