{"type":"Feature","geometry":{"type":"Point","coordinates":[40.48,-3.57,582]},"properties":{"stationId":"LEMD","rawText":"LEMD 272330Z 13012KT 100V180 CAVOK 30/10 Q1019 NOSIG","observationTime":"2019-06-27T23:30:00Z","temp":30,"dewpoint":10,"windDirection":130,"windSpeed":22.224,"visibility":6.21,"altim":30.088583,"flightCategory":"VFR","metarType":"METAR","geometry_esri":{"x":40.48,"y":-3.57,"z":582}}}