{"type":"Feature","geometry":{"type":"Point","coordinates":[49.02,2.52,109]},"properties":{"stationId":"LFPG","rawText":"LFPG 080830Z 20010KT 4000 -DZ BR BKN003 BKN004 15/14 Q1011 NOSIG","observationTime":"2019-10-08T08:30:00Z","temp":15,"dewpoint":14,"windDirection":200,"windSpeed":18.52,"visibility":2.49,"altim":29.852362,"flightCategory":"LIFR","metarType":"METAR","geometry_esri":{"x":49.02,"y":2.52,"z":109}}}