{"type":"Feature","geometry":{"type":"Point","coordinates":[49.02,2.52,109]},"properties":{"stationId":"LFPG","rawText":"LFPG 221830Z 07007KT CAVOK 21/07 Q1001 NOSIG","observationTime":"2019-04-22T18:30:00Z","temp":21,"dewpoint":7,"windDirection":70,"windSpeed":12.964,"visibility":6.21,"altim":29.557087,"flightCategory":"VFR","metarType":"METAR","geometry_esri":{"x":49.02,"y":2.52,"z":109}}}