{"type":"Feature","geometry":{"type":"Point","coordinates":[51.48,-0.45,24]},"properties":{"stationId":"EGLL","rawText":"EGLL 221350Z AUTO 26008KT 200V300 9999 NCD 21/04 Q1019 NOSIG","observationTime":"2019-05-22T13:50:00Z","temp":21,"dewpoint":4,"windDirection":260,"windSpeed":14.816,"visibility":6.21,"altim":30.088583,"flightCategory":"VFR","metarType":"METAR","geometry_esri":{"x":51.48,"y":-0.45,"z":24}}}