{"type":"Feature","geometry":{"type":"Point","coordinates":[48.35,11.82,447]},"properties":{"stationId":"EDDM","rawText":"EDDM 130150Z 02003KT 350V050 9999 SCT045 03/M03 Q1018 NOSIG","observationTime":"2019-04-13T01:50:00Z","temp":3,"dewpoint":-3,"windDirection":20,"windSpeed":5.556,"visibility":6.21,"altim":30.059055,"flightCategory":"VFR","metarType":"METAR","geometry_esri":{"x":48.35,"y":11.82,"z":447}}}