{"type":"Feature","geometry":{"type":"Point","coordinates":[40.48,-3.57,582]},"properties":{"stationId":"LEMD","rawText":"LEMD 061830Z 23017G29KT 200V260 9999 SCT030 10/03 Q1008 WS ALL RWY NOSIG","observationTime":"2019-03-06T18:30:00Z","temp":10,"dewpoint":3,"windDirection":230,"windSpeed":31.484,"visibility":6.21,"altim":29.763779,"flightCategory":"VFR","metarType":"METAR","geometry_esri":{"x":40.48,"y":-3.57,"z":582}}}