{"type":"Feature","geometry":{"type":"Point","coordinates":[51.48,-0.45,24]},"properties":{"stationId":"EGLL","rawText":"EGLL 300450Z AUTO 14005KT 3900 HZ BKN007 08/07 Q1026 BECMG 8000 NSW","observationTime":"2019-04-30T04:50:00Z","temp":8,"dewpoint":7,"windDirection":140,"windSpeed":9.26,"visibility":2.42,"altim":30.295275,"flightCategory":"IFR","metarType":"SPECI","geometry_esri":{"x":51.48,"y":-0.45,"z":24}}}