{"type":"Feature","geometry":{"type":"Point","coordinates":[40.48,-3.57,582]},"properties":{"stationId":"LEMD","rawText":"LEMD 310630Z 01006KT 330V050 9999 BKN030 20/08 Q1017 NOSIG","observationTime":"2019-07-31T06:30:00Z","temp":20,"dewpoint":8,"windDirection":10,"windSpeed":11.112,"visibility":6.21,"altim":30.029528,"flightCategory":"MVFR","metarType":"METAR","geometry_esri":{"x":40.48,"y":-3.57,"z":582}}}