{"type":"Feature","geometry":{"type":"Point","coordinates":[40.48,-3.57,582]},"properties":{"stationId":"LEMD","rawText":"LEMD 021730Z 18007KT 150V210 9999 FEW080 35/09 Q1012 NOSIG","observationTime":"2019-07-02T17:30:00Z","temp":35,"dewpoint":9,"windDirection":180,"windSpeed":12.964,"visibility":6.21,"altim":29.88189,"flightCategory":"VFR","metarType":"METAR","geometry_esri":{"x":40.48,"y":-3.57,"z":582}}}