{"type":"Feature","geometry":{"type":"Point","coordinates":[48.35,11.82,447]},"properties":{"stationId":"EDDM","rawText":"EDDM 221750Z 15004KT 120V180 9999 BKN040 19/14 Q1025 NOSIG","observationTime":"2019-08-22T17:50:00Z","temp":19,"dewpoint":14,"windDirection":150,"windSpeed":7.408,"visibility":6.21,"altim":30.265747,"flightCategory":"VFR","metarType":"METAR","geometry_esri":{"x":48.35,"y":11.82,"z":447}}}