{"type":"Feature","geometry":{"type":"Point","coordinates":[49.02,2.52,109]},"properties":{"stationId":"LFPG","rawText":"LFPG 220630Z VRB01KT CAVOK 14/08 Q1021 NOSIG","observationTime":"2019-05-22T06:30:00Z","temp":14,"dewpoint":8,"windDirection":0,"windSpeed":1.852,"visibility":6.21,"altim":30.147638,"flightCategory":"VFR","metarType":"METAR","geometry_esri":{"x":49.02,"y":2.52,"z":109}}}