{"type":"Feature","geometry":{"type":"Point","coordinates":[53.42,-6.25,85]},"properties":{"stationId":"EIDW","rawText":"EIDW 120230Z 26013G23KT 9999 FEW015 02/00 Q1000 NOSIG","observationTime":"2019-11-12T02:30:00Z","temp":2,"dewpoint":0,"windDirection":260,"windSpeed":24.076,"visibility":6.21,"altim":29.52756,"flightCategory":"VFR","metarType":"METAR","geometry_esri":{"x":53.42,"y":-6.25,"z":85}}}