{"type":"Feature","geometry":{"type":"Point","coordinates":[40.48,-3.57,582]},"properties":{"stationId":"LEMD","rawText":"LEMD 152330Z 36004KT CAVOK 09/00 Q1025 NOSIG","observationTime":"2019-03-15T23:30:00Z","temp":9,"dewpoint":0,"windDirection":360,"windSpeed":7.408,"visibility":6.21,"altim":30.265747,"flightCategory":"VFR","metarType":"METAR","geometry_esri":{"x":40.48,"y":-3.57,"z":582}}}