{"type":"Feature","geometry":{"type":"Point","coordinates":[48.35,11.82,447]},"properties":{"stationId":"EDDM","rawText":"EDDM 040250Z 25001KT CAVOK 01/01 Q1015 NOSIG","observationTime":"2019-10-04T02:50:00Z","temp":1,"dewpoint":1,"windDirection":250,"windSpeed":1.852,"visibility":6.21,"altim":29.970472,"flightCategory":"VFR","metarType":"METAR","geometry_esri":{"x":48.35,"y":11.82,"z":447}}}