{"type":"Feature","geometry":{"type":"Point","coordinates":[40.48,-3.57,582]},"properties":{"stationId":"LEMD","rawText":"LEMD 131430Z 36005KT 310V090 CAVOK 31/M04 Q1017 NOSIG","observationTime":"2019-05-13T14:30:00Z","temp":31,"dewpoint":-4,"windDirection":360,"windSpeed":9.26,"visibility":6.21,"altim":30.029528,"flightCategory":"VFR","metarType":"METAR","geometry_esri":{"x":40.48,"y":-3.57,"z":582}}}