{"type":"Feature","geometry":{"type":"Point","coordinates":[49.02,2.52,109]},"properties":{"stationId":"LFPG","rawText":"LFPG 281630Z 23017KT 8000 -SHRA FEW033CB FEW033 BKN066 13/08 Q1019 NOSIG","observationTime":"2019-02-28T16:30:00Z","temp":13,"dewpoint":8,"windDirection":230,"windSpeed":31.484,"visibility":4.97,"altim":30.088583,"flightCategory":"MVFR","metarType":"METAR","geometry_esri":{"x":49.02,"y":2.52,"z":109}}}