{"type":"Feature","geometry":{"type":"Point","coordinates":[49.02,2.52,109]},"properties":{"stationId":"LFPG","rawText":"LFPG 080430Z 09003KT 080V140 CAVOK 17/13 Q1012 NOSIG","observationTime":"2019-08-08T04:30:00Z","temp":17,"dewpoint":13,"windDirection":90,"windSpeed":5.556,"visibility":6.21,"altim":29.88189,"flightCategory":"VFR","metarType":"METAR","geometry_esri":{"x":49.02,"y":2.52,"z":109}}}