{"type":"Feature","geometry":{"type":"Point","coordinates":[40.48,-3.57,582]},"properties":{"stationId":"LEMD","rawText":"LEMD 020930Z 14003KT CAVOK 28/12 Q1016 NOSIG","observationTime":"2019-07-02T09:30:00Z","temp":28,"dewpoint":12,"windDirection":140,"windSpeed":5.556,"visibility":6.21,"altim":30,"flightCategory":"VFR","metarType":"METAR","geometry_esri":{"x":40.48,"y":-3.57,"z":582}}}