{"type":"Feature","geometry":{"type":"Point","coordinates":[53.42,-6.25,85]},"properties":{"stationId":"EIDW","rawText":"EIDW 190330Z 32002KT CAVOK 07/06 Q1030 NOSIG","observationTime":"2019-09-19T03:30:00Z","temp":7,"dewpoint":6,"windDirection":320,"windSpeed":3.704,"visibility":6.21,"altim":30.413385,"flightCategory":"VFR","metarType":"METAR","geometry_esri":{"x":53.42,"y":-6.25,"z":85}}}