{"type":"Feature","geometry":{"type":"Point","coordinates":[40.48,-3.57,582]},"properties":{"stationId":"LEMD","rawText":"LEMD 221230Z 15005KT CAVOK 35/08 Q1021 NOSIG","observationTime":"2019-07-22T12:30:00Z","temp":35,"dewpoint":8,"windDirection":150,"windSpeed":9.26,"visibility":6.21,"altim":30.147638,"flightCategory":"VFR","metarType":"METAR","geometry_esri":{"x":40.48,"y":-3.57,"z":582}}}