{"type":"Feature","geometry":{"type":"Point","coordinates":[40.48,-3.57,582]},"properties":{"stationId":"LEMD","rawText":"LEMD 011930Z 02012G24KT 320V060 CAVOK 29/10 Q1016 NOSIG","observationTime":"2019-07-01T19:30:00Z","temp":29,"dewpoint":10,"windDirection":20,"windSpeed":22.224,"visibility":6.21,"altim":30,"flightCategory":"VFR","metarType":"METAR","geometry_esri":{"x":40.48,"y":-3.57,"z":582}}}