{"type":"Feature","geometry":{"type":"Point","coordinates":[40.48,-3.57,582]},"properties":{"stationId":"LEMD","rawText":"LEMD 210730Z 02005KT 320V070 CAVOK 21/12 Q1016 NOSIG","observationTime":"2019-06-21T07:30:00Z","temp":21,"dewpoint":12,"windDirection":20,"windSpeed":9.26,"visibility":6.21,"altim":30,"flightCategory":"VFR","metarType":"METAR","geometry_esri":{"x":40.48,"y":-3.57,"z":582}}}