{"type":"Feature","geometry":{"type":"Point","coordinates":[40.48,-3.57,582]},"properties":{"stationId":"LEMD","rawText":"LEMD 021730Z 34010KT 300V010 9999 FEW060 05/M04 Q1015 NOSIG","observationTime":"2019-02-02T17:30:00Z","temp":5,"dewpoint":-4,"windDirection":340,"windSpeed":18.52,"visibility":6.21,"altim":29.970472,"flightCategory":"VFR","metarType":"METAR","geometry_esri":{"x":40.48,"y":-3.57,"z":582}}}