{"type":"Feature","geometry":{"type":"Point","coordinates":[40.48,-3.57,582]},"properties":{"stationId":"LEMD","rawText":"LEMD 281630Z 36016G26KT 340V060 CAVOK 25/01 Q1016 NOSIG","observationTime":"2019-05-28T16:30:00Z","temp":25,"dewpoint":1,"windDirection":360,"windSpeed":29.632,"visibility":6.21,"altim":30,"flightCategory":"VFR","metarType":"METAR","geometry_esri":{"x":40.48,"y":-3.57,"z":582}}}