{"type":"Feature","geometry":{"type":"Point","coordinates":[40.48,-3.57,582]},"properties":{"stationId":"LEMD","rawText":"LEMD 241130Z 21006KT 110V250 CAVOK 24/10 Q1020 NOSIG","observationTime":"2019-09-24T11:30:00Z","temp":24,"dewpoint":10,"windDirection":210,"windSpeed":11.112,"visibility":6.21,"altim":30.11811,"flightCategory":"VFR","metarType":"METAR","geometry_esri":{"x":40.48,"y":-3.57,"z":582}}}