{"type":"Feature","geometry":{"type":"Point","coordinates":[49.02,2.52,109]},"properties":{"stationId":"LFPG","rawText":"LFPG 060130Z 25006KT 9999 FEW025 BKN043 BKN063 09/08 Q1003 NOSIG","observationTime":"2019-11-06T01:30:00Z","temp":9,"dewpoint":8,"windDirection":250,"windSpeed":11.112,"visibility":6.21,"altim":29.616142,"flightCategory":"VFR","metarType":"METAR","geometry_esri":{"x":49.02,"y":2.52,"z":109}}}