{"type":"Feature","geometry":{"type":"Point","coordinates":[47.78,13.02,430]},"properties":{"stationId":"LOWS","rawText":"LOWS 290350Z 16006KT 8000 -RA FEW005 BKN024 BKN040 09/08 Q1015 RERA TEMPO 4000 RA BKN014","observationTime":"2019-05-29T03:50:00Z","temp":9,"dewpoint":8,"windDirection":160,"windSpeed":11.112,"visibility":4.97,"altim":29.970472,"flightCategory":"MVFR","metarType":"METAR","geometry_esri":{"x":47.78,"y":13.02,"z":430}}}