{"type":"Feature","geometry":{"type":"Point","coordinates":[48.35,11.82,447]},"properties":{"stationId":"EDDM","rawText":"EDDM 242150Z 27007KT 9999 SCT018 03/01 Q1032 NOSIG","observationTime":"2018-12-24T21:50:00Z","temp":3,"dewpoint":1,"windDirection":270,"windSpeed":12.964,"visibility":6.21,"altim":30.47244,"flightCategory":"VFR","metarType":"METAR","geometry_esri":{"x":48.35,"y":11.82,"z":447}}}