{"type":"Feature","geometry":{"type":"Point","coordinates":[53.42,-6.25,85]},"properties":{"stationId":"EIDW","rawText":"EIDW 292030Z 14004KT 9999 -DZ FEW004 SCT007 BKN010 11/11 Q1032 NOSIG","observationTime":"2018-12-29T20:30:00Z","temp":11,"dewpoint":11,"windDirection":140,"windSpeed":7.408,"visibility":6.21,"altim":30.47244,"flightCategory":"MVFR","metarType":"METAR","geometry_esri":{"x":53.42,"y":-6.25,"z":85}}}