{"type":"Feature","geometry":{"type":"Point","coordinates":[40.48,-3.57,582]},"properties":{"stationId":"LEMD","rawText":"LEMD 101630Z 15001KT CAVOK 23/07 Q1027 NOSIG","observationTime":"2019-03-10T16:30:00Z","temp":23,"dewpoint":7,"windDirection":150,"windSpeed":1.852,"visibility":6.21,"altim":30.324802,"flightCategory":"VFR","metarType":"METAR","geometry_esri":{"x":40.48,"y":-3.57,"z":582}}}