{"type":"Feature","geometry":{"type":"Point","coordinates":[47.78,13.02,430]},"properties":{"stationId":"LOWS","rawText":"LOWS 240650Z 12002KT CAVOK M05/M06 Q1037 NOSIG","observationTime":"2019-02-24T06:50:00Z","temp":-5,"dewpoint":-6,"windDirection":120,"windSpeed":3.704,"visibility":6.21,"altim":30.620079,"flightCategory":"VFR","metarType":"METAR","geometry_esri":{"x":47.78,"y":13.02,"z":430}}}