{"type":"Feature","geometry":{"type":"Point","coordinates":[49.02,2.52,109]},"properties":{"stationId":"LFPG","rawText":"LFPG 060730Z 21008KT 9999 SCT016 BKN026 BKN250 13/09 Q1013 NOSIG","observationTime":"2019-06-06T07:30:00Z","temp":13,"dewpoint":9,"windDirection":210,"windSpeed":14.816,"visibility":6.21,"altim":29.911417,"flightCategory":"MVFR","metarType":"METAR","geometry_esri":{"x":49.02,"y":2.52,"z":109}}}