{"type":"Feature","geometry":{"type":"Point","coordinates":[51.48,-0.45,24]},"properties":{"stationId":"EGLL","rawText":"EGLL 112050Z AUTO 24011KT 9999 NCD 05/02 Q1002 NOSIG","observationTime":"2019-11-11T20:50:00Z","temp":5,"dewpoint":2,"windDirection":240,"windSpeed":20.372,"visibility":6.21,"altim":29.586615,"flightCategory":"VFR","metarType":"METAR","geometry_esri":{"x":51.48,"y":-0.45,"z":24}}}