{"type":"Feature","geometry":{"type":"Point","coordinates":[49.02,2.52,109]},"properties":{"stationId":"LFPG","rawText":"LFPG 301130Z 23006KT 160V280 9999 SCT025 BKN039 BKN056 19/12 Q1025 NOSIG","observationTime":"2019-05-30T11:30:00Z","temp":19,"dewpoint":12,"windDirection":230,"windSpeed":11.112,"visibility":6.21,"altim":30.265747,"flightCategory":"VFR","metarType":"METAR","geometry_esri":{"x":49.02,"y":2.52,"z":109}}}