{"type":"Feature","geometry":{"type":"Point","coordinates":[40.48,-3.57,582]},"properties":{"stationId":"LEMD","rawText":"LEMD 071530Z 28008KT 240V310 CAVOK 21/M01 Q1018 NOSIG","observationTime":"2019-06-07T15:30:00Z","temp":21,"dewpoint":-1,"windDirection":280,"windSpeed":14.816,"visibility":6.21,"altim":30.059055,"flightCategory":"VFR","metarType":"METAR","geometry_esri":{"x":40.48,"y":-3.57,"z":582}}}