{"type":"Feature","geometry":{"type":"Point","coordinates":[49.02,2.52,109]},"properties":{"stationId":"LFPG","rawText":"LFPG 212030Z 20006KT 180V280 CAVOK 11/09 Q1022 NOSIG","observationTime":"2019-10-21T20:30:00Z","temp":11,"dewpoint":9,"windDirection":200,"windSpeed":11.112,"visibility":6.21,"altim":30.177166,"flightCategory":"VFR","metarType":"METAR","geometry_esri":{"x":49.02,"y":2.52,"z":109}}}