{"type":"Feature","geometry":{"type":"Point","coordinates":[49.02,2.52,109]},"properties":{"stationId":"LFPG","rawText":"LFPG 201930Z 03008KT 010V080 CAVOK 20/05 Q1023 NOSIG","observationTime":"2019-04-20T19:30:00Z","temp":20,"dewpoint":5,"windDirection":30,"windSpeed":14.816,"visibility":6.21,"altim":30.206694,"flightCategory":"VFR","metarType":"METAR","geometry_esri":{"x":49.02,"y":2.52,"z":109}}}