{"type":"Feature","geometry":{"type":"Point","coordinates":[48.35,11.82,447]},"properties":{"stationId":"EDDM","rawText":"EDDM 040650Z 20007KT CAVOK 07/04 Q0996 NOSIG","observationTime":"2019-11-04T06:50:00Z","temp":7,"dewpoint":4,"windDirection":200,"windSpeed":12.964,"visibility":6.21,"altim":29.409449,"flightCategory":"VFR","metarType":"METAR","geometry_esri":{"x":48.35,"y":11.82,"z":447}}}