{"type":"Feature","geometry":{"type":"Point","coordinates":[48.35,11.82,447]},"properties":{"stationId":"EDDM","rawText":"EDDM 211650Z 26013KT 6000 -RA BKN007 BKN011 12/11 Q1011 NOSIG","observationTime":"2019-05-21T16:50:00Z","temp":12,"dewpoint":11,"windDirection":260,"windSpeed":24.076,"visibility":3.73,"altim":29.852362,"flightCategory":"IFR","metarType":"METAR","geometry_esri":{"x":48.35,"y":11.82,"z":447}}}