{"type":"Feature","geometry":{"type":"Point","coordinates":[53.42,-6.25,85]},"properties":{"stationId":"EIDW","rawText":"EIDW 261530Z 25009KT 200V290 9000 -SHRA FEW015 FEW018CB SCT019 08/06 Q0986 NOSIG","observationTime":"2019-01-26T15:30:00Z","temp":8,"dewpoint":6,"windDirection":250,"windSpeed":16.668,"visibility":5.59,"altim":29.114174,"flightCategory":"VFR","metarType":"METAR","geometry_esri":{"x":53.42,"y":-6.25,"z":85}}}