{"type":"Feature","geometry":{"type":"Point","coordinates":[51.48,-0.45,24]},"properties":{"stationId":"EGLL","rawText":"EGLL 121750Z AUTO 23008KT 9999 BKN032 10/06 Q1033 NOSIG","observationTime":"2019-02-12T17:50:00Z","temp":10,"dewpoint":6,"windDirection":230,"windSpeed":14.816,"visibility":6.21,"altim":30.501968,"flightCategory":"VFR","metarType":"METAR","geometry_esri":{"x":51.48,"y":-0.45,"z":24}}}