{"type":"Feature","geometry":{"type":"Point","coordinates":[49.02,2.52,109]},"properties":{"stationId":"LFPG","rawText":"LFPG 162030Z 36006KT CAVOK 18/14 Q1021 NOSIG","observationTime":"2019-09-16T20:30:00Z","temp":18,"dewpoint":14,"windDirection":360,"windSpeed":11.112,"visibility":6.21,"altim":30.147638,"flightCategory":"VFR","metarType":"METAR","geometry_esri":{"x":49.02,"y":2.52,"z":109}}}