{"type":"Feature","geometry":{"type":"Point","coordinates":[40.48,-3.57,582]},"properties":{"stationId":"LEMD","rawText":"LEMD 171530Z 21003KT 150V280 9999 OVC020 16/12 Q1019 NOSIG","observationTime":"2019-10-17T15:30:00Z","temp":16,"dewpoint":12,"windDirection":210,"windSpeed":5.556,"visibility":6.21,"altim":30.088583,"flightCategory":"MVFR","metarType":"METAR","geometry_esri":{"x":40.48,"y":-3.57,"z":582}}}