{"type":"Feature","geometry":{"type":"Point","coordinates":[53.42,-6.25,85]},"properties":{"stationId":"EIDW","rawText":"EIDW 101230Z 21005KT 170V250 9999 FEW020 BKN040 07/04 Q1015 NOSIG","observationTime":"2019-11-10T12:30:00Z","temp":7,"dewpoint":4,"windDirection":210,"windSpeed":9.26,"visibility":6.21,"altim":29.970472,"flightCategory":"VFR","metarType":"METAR","geometry_esri":{"x":53.42,"y":-6.25,"z":85}}}