{"type":"Feature","geometry":{"type":"Point","coordinates":[48.35,11.82,447]},"properties":{"stationId":"EDDM","rawText":"EDDM 190950Z 33006KT 300V010 CAVOK 15/11 Q1013 NOSIG","observationTime":"2019-10-19T09:50:00Z","temp":15,"dewpoint":11,"windDirection":330,"windSpeed":11.112,"visibility":6.21,"altim":29.911417,"flightCategory":"VFR","metarType":"METAR","geometry_esri":{"x":48.35,"y":11.82,"z":447}}}