{"type":"Feature","geometry":{"type":"Point","coordinates":[49.02,2.52,109]},"properties":{"stationId":"LFPG","rawText":"LFPG 021730Z 19019KT 9999 BKN021 BKN033 12/08 Q0990 NOSIG","observationTime":"2019-11-02T17:30:00Z","temp":12,"dewpoint":8,"windDirection":190,"windSpeed":35.188,"visibility":6.21,"altim":29.232283,"flightCategory":"MVFR","metarType":"METAR","geometry_esri":{"x":49.02,"y":2.52,"z":109}}}