{"type":"Feature","geometry":{"type":"Point","coordinates":[49.02,2.52,109]},"properties":{"stationId":"LFPG","rawText":"LFPG 050930Z 19005KT 130V230 9999 BKN010 SCT023 10/07 Q0995 BECMG BKN020","observationTime":"2019-11-05T09:30:00Z","temp":10,"dewpoint":7,"windDirection":190,"windSpeed":9.26,"visibility":6.21,"altim":29.379921,"flightCategory":"MVFR","metarType":"METAR","geometry_esri":{"x":49.02,"y":2.52,"z":109}}}