{"type":"Feature","geometry":{"type":"Point","coordinates":[49.02,2.52,109]},"properties":{"stationId":"LFPG","rawText":"LFPG 052030Z 19010KT 170V320 CAVOK 09/07 Q1009 NOSIG","observationTime":"2019-03-05T20:30:00Z","temp":9,"dewpoint":7,"windDirection":190,"windSpeed":18.52,"visibility":6.21,"altim":29.793306,"flightCategory":"VFR","metarType":"METAR","geometry_esri":{"x":49.02,"y":2.52,"z":109}}}