{"type":"Feature","geometry":{"type":"Point","coordinates":[51.48,-0.45,24]},"properties":{"stationId":"EGLL","rawText":"EGLL 080850Z AUTO 31005KT 270V360 9999 NCD 12/08 Q1025 NOSIG","observationTime":"2019-09-08T08:50:00Z","temp":12,"dewpoint":8,"windDirection":310,"windSpeed":9.26,"visibility":6.21,"altim":30.265747,"flightCategory":"VFR","metarType":"METAR","geometry_esri":{"x":51.48,"y":-0.45,"z":24}}}