{"type":"Feature","geometry":{"type":"Point","coordinates":[49.02,2.52,109]},"properties":{"stationId":"LFPG","rawText":"LFPG 310730Z 08007KT 3000 BR BKN007 08/07 Q1017 TEMPO BKN012","observationTime":"2019-10-31T07:30:00Z","temp":8,"dewpoint":7,"windDirection":80,"windSpeed":12.964,"visibility":1.86,"altim":30.029528,"flightCategory":"IFR","metarType":"SPECI","geometry_esri":{"x":49.02,"y":2.52,"z":109}}}