{"type":"Feature","geometry":{"type":"Point","coordinates":[48.35,11.82,447]},"properties":{"stationId":"EDDM","rawText":"EDDM 210550Z 26019KT 7000 -RA FEW007 BKN011 OVC030 11/10 Q1005 TEMPO 25020G30KT 4000 RA BKN008","observationTime":"2019-05-21T05:50:00Z","temp":11,"dewpoint":10,"windDirection":260,"windSpeed":35.188,"visibility":4.35,"altim":29.675198,"flightCategory":"MVFR","metarType":"METAR","geometry_esri":{"x":48.35,"y":11.82,"z":447}}}