{"type":"Feature","geometry":{"type":"Point","coordinates":[40.48,-3.57,582]},"properties":{"stationId":"LEMD","rawText":"LEMD 250830Z 33008KT CAVOK 10/03 Q1018 NOSIG","observationTime":"2019-01-25T08:30:00Z","temp":10,"dewpoint":3,"windDirection":330,"windSpeed":14.816,"visibility":6.21,"altim":30.059055,"flightCategory":"VFR","metarType":"METAR","geometry_esri":{"x":40.48,"y":-3.57,"z":582}}}