{"type":"Feature","geometry":{"type":"Point","coordinates":[40.48,-3.57,582]},"properties":{"stationId":"LEMD","rawText":"LEMD 181530Z 20007KT CAVOK 08/M00 Q1017 NOSIG","observationTime":"2019-01-18T15:30:00Z","temp":8,"dewpoint":0,"windDirection":200,"windSpeed":12.964,"visibility":6.21,"altim":30.029528,"flightCategory":"VFR","metarType":"METAR","geometry_esri":{"x":40.48,"y":-3.57,"z":582}}}