{"type":"Feature","geometry":{"type":"Point","coordinates":[53.42,-6.25,85]},"properties":{"stationId":"EIDW","rawText":"EIDW 251630Z 33009KT 9999 -RA SCT005 BKN015 BKN022 06/05 Q1003 TEMPO 4000 BKN007","observationTime":"2019-10-25T16:30:00Z","temp":6,"dewpoint":5,"windDirection":330,"windSpeed":16.668,"visibility":6.21,"altim":29.616142,"flightCategory":"MVFR","metarType":"METAR","geometry_esri":{"x":53.42,"y":-6.25,"z":85}}}