{"type":"Feature","geometry":{"type":"Point","coordinates":[40.48,-3.57,582]},"properties":{"stationId":"LEMD","rawText":"LEMD 212230Z 08003KT 050V140 CAVOK 08/M04 Q1026 NOSIG","observationTime":"2019-03-21T22:30:00Z","temp":8,"dewpoint":-4,"windDirection":80,"windSpeed":5.556,"visibility":6.21,"altim":30.295275,"flightCategory":"VFR","metarType":"METAR","geometry_esri":{"x":40.48,"y":-3.57,"z":582}}}