{"type":"Feature","geometry":{"type":"Point","coordinates":[49.02,2.52,109]},"properties":{"stationId":"LFPG","rawText":"LFPG 022130Z 26004KT CAVOK 08/02 Q1022 NOSIG","observationTime":"2019-10-02T21:30:00Z","temp":8,"dewpoint":2,"windDirection":260,"windSpeed":7.408,"visibility":6.21,"altim":30.177166,"flightCategory":"VFR","metarType":"METAR","geometry_esri":{"x":49.02,"y":2.52,"z":109}}}