{"type":"Feature","geometry":{"type":"Point","coordinates":[53.42,-6.25,85]},"properties":{"stationId":"EIDW","rawText":"EIDW 081730Z 07005KT 030V110 2000 -RADZ BR SCT002 BKN003 BKN004 09/08 Q1011 NOSIG","observationTime":"2019-04-08T17:30:00Z","temp":9,"dewpoint":8,"windDirection":70,"windSpeed":9.26,"visibility":1.24,"altim":29.852362,"flightCategory":"LIFR","metarType":"METAR","geometry_esri":{"x":53.42,"y":-6.25,"z":85}}}