{"type":"Feature","geometry":{"type":"Point","coordinates":[40.48,-3.57,582]},"properties":{"stationId":"LEMD","rawText":"LEMD 020130Z 36003KT 340V060 9999 FEW030 14/08 Q1014 NOSIG","observationTime":"2019-05-02T01:30:00Z","temp":14,"dewpoint":8,"windDirection":360,"windSpeed":5.556,"visibility":6.21,"altim":29.940945,"flightCategory":"VFR","metarType":"METAR","geometry_esri":{"x":40.48,"y":-3.57,"z":582}}}