{"type":"Feature","geometry":{"type":"Point","coordinates":[48.35,11.82,447]},"properties":{"stationId":"EDDM","rawText":"EDDM 020350Z 27003KT 2500 -SN SCT006 BKN020 00/M00 Q1018 TEMPO 4000 BKN006","observationTime":"2019-12-02T03:50:00Z","temp":0,"dewpoint":0,"windDirection":270,"windSpeed":5.556,"visibility":1.55,"altim":30.059055,"flightCategory":"IFR","metarType":"METAR","geometry_esri":{"x":48.35,"y":11.82,"z":447}}}