{"type":"Feature","geometry":{"type":"Point","coordinates":[53.42,-6.25,85]},"properties":{"stationId":"EIDW","rawText":"EIDW 212030Z 26009KT 230V290 7000 -RA FEW006 SCT008 BKN019 13/12 Q1018 BECMG 9999 BKN020","observationTime":"2019-08-21T20:30:00Z","temp":13,"dewpoint":12,"windDirection":260,"windSpeed":16.668,"visibility":4.35,"altim":30.059055,"flightCategory":"MVFR","metarType":"SPECI","geometry_esri":{"x":53.42,"y":-6.25,"z":85}}}