{"type":"Feature","geometry":{"type":"Point","coordinates":[47.78,13.02,430]},"properties":{"stationId":"LOWS","rawText":"LOWS 071150Z 35006KT 290V070 9999 FEW060 15/06 Q1003 NOSIG","observationTime":"2019-04-07T11:50:00Z","temp":15,"dewpoint":6,"windDirection":350,"windSpeed":11.112,"visibility":6.21,"altim":29.616142,"flightCategory":"VFR","metarType":"METAR","geometry_esri":{"x":47.78,"y":13.02,"z":430}}}