{"type":"Feature","geometry":{"type":"Point","coordinates":[49.02,2.52,109]},"properties":{"stationId":"LFPG","rawText":"LFPG 121630Z 32006KT 9999 -SHRA FEW026 FEW040CB FEW043TCU BKN076 17/10 Q1016 TEMPO 25015G30KT 3000 TSRA SCT030CB","observationTime":"2019-08-12T16:30:00Z","temp":17,"dewpoint":10,"windDirection":320,"windSpeed":11.112,"visibility":6.21,"altim":30,"flightCategory":"VFR","metarType":"METAR","geometry_esri":{"x":49.02,"y":2.52,"z":109}}}