{"type":"Feature","geometry":{"type":"Point","coordinates":[48.35,11.82,447]},"properties":{"stationId":"EDDM","rawText":"EDDM 151450Z 04005KT 350V080 9999 SCT036 BKN042 09/02 Q1020 NOSIG","observationTime":"2019-05-15T14:50:00Z","temp":9,"dewpoint":2,"windDirection":40,"windSpeed":9.26,"visibility":6.21,"altim":30.11811,"flightCategory":"VFR","metarType":"METAR","geometry_esri":{"x":48.35,"y":11.82,"z":447}}}