{"type":"Feature","geometry":{"type":"Point","coordinates":[49.02,2.52,109]},"properties":{"stationId":"LFPG","rawText":"LFPG 042130Z 14009KT CAVOK 07/M02 Q1002 NOSIG","observationTime":"2019-04-04T21:30:00Z","temp":7,"dewpoint":-2,"windDirection":140,"windSpeed":16.668,"visibility":6.21,"altim":29.586615,"flightCategory":"VFR","metarType":"METAR","geometry_esri":{"x":49.02,"y":2.52,"z":109}}}