{"type":"Feature","geometry":{"type":"Point","coordinates":[49.02,2.52,109]},"properties":{"stationId":"LFPG","rawText":"LFPG 242030Z 17007KT 6000 -RASN FEW027 BKN042 02/M00 Q1014 NOSIG","observationTime":"2019-01-24T20:30:00Z","temp":2,"dewpoint":0,"windDirection":170,"windSpeed":12.964,"visibility":3.73,"altim":29.940945,"flightCategory":"MVFR","metarType":"METAR","geometry_esri":{"x":49.02,"y":2.52,"z":109}}}