{"type":"Feature","geometry":{"type":"Point","coordinates":[51.48,-0.45,24]},"properties":{"stationId":"EGLL","rawText":"EGLL 131250Z AUTO 05006KT 280V090 9999 NCD 21/06 Q1035","observationTime":"2019-09-13T12:50:00Z","temp":21,"dewpoint":6,"windDirection":50,"windSpeed":11.112,"visibility":6.21,"altim":30.561024,"flightCategory":"VFR","metarType":"METAR","geometry_esri":{"x":51.48,"y":-0.45,"z":24}}}