{"type":"Feature","geometry":{"type":"Point","coordinates":[40.48,-3.57,582]},"properties":{"stationId":"LEMD","rawText":"LEMD 212130Z 36008KT CAVOK 04/M03 Q1021 NOSIG","observationTime":"2019-01-21T21:30:00Z","temp":4,"dewpoint":-3,"windDirection":360,"windSpeed":14.816,"visibility":6.21,"altim":30.147638,"flightCategory":"VFR","metarType":"METAR","geometry_esri":{"x":40.48,"y":-3.57,"z":582}}}