{"type":"Feature","geometry":{"type":"Point","coordinates":[48.35,11.82,447]},"properties":{"stationId":"EDDM","rawText":"EDDM 090850Z VRB04KT 9999 FEW037 16/07 Q1018 NOSIG","observationTime":"2019-07-09T08:50:00Z","temp":16,"dewpoint":7,"windDirection":0,"windSpeed":7.408,"visibility":6.21,"altim":30.059055,"flightCategory":"VFR","metarType":"METAR","geometry_esri":{"x":48.35,"y":11.82,"z":447}}}