{"type":"Feature","geometry":{"type":"Point","coordinates":[51.48,-0.45,24]},"properties":{"stationId":"EGLL","rawText":"EGLL 071250Z AUTO 19012KT 9999 -RA BKN024 BKN035 OVC043 15/11 Q1014 TEMPO BKN010","observationTime":"2019-10-07T12:50:00Z","temp":15,"dewpoint":11,"windDirection":190,"windSpeed":22.224,"visibility":6.21,"altim":29.940945,"flightCategory":"MVFR","metarType":"METAR","geometry_esri":{"x":51.48,"y":-0.45,"z":24}}}