{"type":"Feature","geometry":{"type":"Point","coordinates":[40.48,-3.57,582]},"properties":{"stationId":"LEMD","rawText":"LEMD 021630Z VRB01KT CAVOK 11/02 Q1026 NOSIG","observationTime":"2019-01-02T16:30:00Z","temp":11,"dewpoint":2,"windDirection":0,"windSpeed":1.852,"visibility":6.21,"altim":30.295275,"flightCategory":"VFR","metarType":"METAR","geometry_esri":{"x":40.48,"y":-3.57,"z":582}}}