{"type":"Feature","geometry":{"type":"Point","coordinates":[48.35,11.82,447]},"properties":{"stationId":"EDDM","rawText":"EDDM 101150Z 06008KT 010V080 9999 FEW027 17/10 Q1018 NOSIG","observationTime":"2019-09-10T11:50:00Z","temp":17,"dewpoint":10,"windDirection":60,"windSpeed":14.816,"visibility":6.21,"altim":30.059055,"flightCategory":"VFR","metarType":"METAR","geometry_esri":{"x":48.35,"y":11.82,"z":447}}}