{"type":"Feature","geometry":{"type":"Point","coordinates":[51.48,-0.45,24]},"properties":{"stationId":"EGLL","rawText":"EGLL 140450Z 24007KT 180V260 9999 SCT021 BKN030 04/04 Q0988","observationTime":"2019-11-14T04:50:00Z","temp":4,"dewpoint":4,"windDirection":240,"windSpeed":12.964,"visibility":6.21,"altim":29.17323,"flightCategory":"MVFR","metarType":"METAR","geometry_esri":{"x":51.48,"y":-0.45,"z":24}}}