{"type":"Feature","geometry":{"type":"Point","coordinates":[51.48,-0.45,24]},"properties":{"stationId":"EGLL","rawText":"EGLL 211250Z AUTO 08009KT 5000 HZ OVC007 05/04 Q1002 NOSIG","observationTime":"2019-11-21T12:50:00Z","temp":5,"dewpoint":4,"windDirection":80,"windSpeed":16.668,"visibility":3.11,"altim":29.586615,"flightCategory":"IFR","metarType":"METAR","geometry_esri":{"x":51.48,"y":-0.45,"z":24}}}