{"type":"Feature","geometry":{"type":"Point","coordinates":[53.42,-6.25,85]},"properties":{"stationId":"EIDW","rawText":"EIDW 302130Z 24008KT 200V270 9999 -RADZ FEW017 BKN032 BKN039 16/13 Q1019 NOSIG","observationTime":"2019-05-30T21:30:00Z","temp":16,"dewpoint":13,"windDirection":240,"windSpeed":14.816,"visibility":6.21,"altim":30.088583,"flightCategory":"VFR","metarType":"METAR","geometry_esri":{"x":53.42,"y":-6.25,"z":85}}}