{"type":"Feature","geometry":{"type":"Point","coordinates":[40.48,-3.57,582]},"properties":{"stationId":"LEMD","rawText":"LEMD 180030Z VRB01KT CAVOK 23/02 Q1014 NOSIG","observationTime":"2019-06-18T00:30:00Z","temp":23,"dewpoint":2,"windDirection":0,"windSpeed":1.852,"visibility":6.21,"altim":29.940945,"flightCategory":"VFR","metarType":"METAR","geometry_esri":{"x":40.48,"y":-3.57,"z":582}}}