{"type":"Feature","geometry":{"type":"Point","coordinates":[47.78,13.02,430]},"properties":{"stationId":"LOWS","rawText":"LOWS 271550Z 33005KT 9999 FEW040 BKN120 BKN300 20/14 Q1014 NOSIG","observationTime":"2019-09-27T15:50:00Z","temp":20,"dewpoint":14,"windDirection":330,"windSpeed":9.26,"visibility":6.21,"altim":29.940945,"flightCategory":"VFR","metarType":"METAR","geometry_esri":{"x":47.78,"y":13.02,"z":430}}}