{"type":"Feature","geometry":{"type":"Point","coordinates":[51.48,-0.45,24]},"properties":{"stationId":"EGLL","rawText":"EGLL 091450Z AUTO 36007KT 320V020 9999 SCT027 BKN035 06/01 Q1029 NOSIG","observationTime":"2019-01-09T14:50:00Z","temp":6,"dewpoint":1,"windDirection":360,"windSpeed":12.964,"visibility":6.21,"altim":30.383858,"flightCategory":"VFR","metarType":"METAR","geometry_esri":{"x":51.48,"y":-0.45,"z":24}}}