{"type":"Feature","geometry":{"type":"Point","coordinates":[53.42,-6.25,85]},"properties":{"stationId":"EIDW","rawText":"EIDW 241930Z 29017KT 9999 FEW017 BKN038 BKN043 09/03 Q1031 NOSIG","observationTime":"2019-03-24T19:30:00Z","temp":9,"dewpoint":3,"windDirection":290,"windSpeed":31.484,"visibility":6.21,"altim":30.442913,"flightCategory":"VFR","metarType":"METAR","geometry_esri":{"x":53.42,"y":-6.25,"z":85}}}