{"type":"Feature","geometry":{"type":"Point","coordinates":[53.42,-6.25,85]},"properties":{"stationId":"EIDW","rawText":"EIDW 271630Z 23005KT 190V260 7000 -SHRA FEW012 BKN018CB 10/08 Q1009 NOSIG","observationTime":"2019-05-27T16:30:00Z","temp":10,"dewpoint":8,"windDirection":230,"windSpeed":9.26,"visibility":4.35,"altim":29.793306,"flightCategory":"MVFR","metarType":"METAR","geometry_esri":{"x":53.42,"y":-6.25,"z":85}}}