{"type":"Feature","geometry":{"type":"Point","coordinates":[40.48,-3.57,582]},"properties":{"stationId":"LEMD","rawText":"LEMD 210530Z 15005KT 4000 BR FEW005 OVC012 06/06 Q1007 R88/29//95 NOSIG","observationTime":"2019-11-21T05:30:00Z","temp":6,"dewpoint":6,"windDirection":150,"windSpeed":9.26,"visibility":2.49,"altim":29.734253,"flightCategory":"IFR","metarType":"METAR","geometry_esri":{"x":40.48,"y":-3.57,"z":582}}}