{"type":"Feature","geometry":{"type":"Point","coordinates":[49.02,2.52,109]},"properties":{"stationId":"LFPG","rawText":"LFPG 270830Z 15006KT 8000 NSC M01/M02 Q1027 NOSIG","observationTime":"2018-12-27T08:30:00Z","temp":-1,"dewpoint":-2,"windDirection":150,"windSpeed":11.112,"visibility":4.97,"altim":30.324802,"flightCategory":"MVFR","metarType":"METAR","geometry_esri":{"x":49.02,"y":2.52,"z":109}}}