{"type":"Feature","geometry":{"type":"Point","coordinates":[49.02,2.52,109]},"properties":{"stationId":"LFPG","rawText":"LFPG 191230Z 21007KT 150V270 9999 BKN043 BKN260 25/14 Q1015 NOSIG","observationTime":"2019-07-19T12:30:00Z","temp":25,"dewpoint":14,"windDirection":210,"windSpeed":12.964,"visibility":6.21,"altim":29.970472,"flightCategory":"VFR","metarType":"METAR","geometry_esri":{"x":49.02,"y":2.52,"z":109}}}