{"type":"Feature","geometry":{"type":"Point","coordinates":[40.48,-3.57,582]},"properties":{"stationId":"LEMD","rawText":"LEMD 191530Z 17003KT 9999 FEW060 29/10 Q1016 NOSIG","observationTime":"2019-09-19T15:30:00Z","temp":29,"dewpoint":10,"windDirection":170,"windSpeed":5.556,"visibility":6.21,"altim":30,"flightCategory":"VFR","metarType":"METAR","geometry_esri":{"x":40.48,"y":-3.57,"z":582}}}