{"type":"Feature","geometry":{"type":"Point","coordinates":[49.02,2.52,109]},"properties":{"stationId":"LFPG","rawText":"LFPG 011230Z 17012KT 4500 -DZ BR BKN003 13/13 Q1004 BECMG 19015G25KT","observationTime":"2019-11-01T12:30:00Z","temp":13,"dewpoint":13,"windDirection":170,"windSpeed":22.224,"visibility":2.8,"altim":29.64567,"flightCategory":"LIFR","metarType":"SPECI","geometry_esri":{"x":49.02,"y":2.52,"z":109}}}