{"type":"Feature","geometry":{"type":"Point","coordinates":[40.48,-3.57,582]},"properties":{"stationId":"LEMD","rawText":"LEMD 120230Z 14003KT 100V160 CAVOK 19/12 Q1017 NOSIG","observationTime":"2019-10-12T02:30:00Z","temp":19,"dewpoint":12,"windDirection":140,"windSpeed":5.556,"visibility":6.21,"altim":30.029528,"flightCategory":"VFR","metarType":"METAR","geometry_esri":{"x":40.48,"y":-3.57,"z":582}}}