{"type":"Feature","geometry":{"type":"Point","coordinates":[49.02,2.52,109]},"properties":{"stationId":"LFPG","rawText":"LFPG 161430Z 18017G28KT 160V220 5000 -DZ BKN012 BKN021 15/13 Q1009 TEMPO 200G20G30KT","observationTime":"2019-10-16T14:30:00Z","temp":15,"dewpoint":13,"windDirection":180,"windSpeed":31.484,"visibility":3.11,"altim":29.793306,"flightCategory":"MVFR","metarType":"SPECI","geometry_esri":{"x":49.02,"y":2.52,"z":109}}}