{"type":"Feature","geometry":{"type":"Point","coordinates":[40.48,-3.57,582]},"properties":{"stationId":"LEMD","rawText":"LEMD 301830Z VRB01KT CAVOK 31/M01 Q1014 NOSIG","observationTime":"2019-07-30T18:30:00Z","temp":31,"dewpoint":-1,"windDirection":0,"windSpeed":1.852,"visibility":6.21,"altim":29.940945,"flightCategory":"VFR","metarType":"METAR","geometry_esri":{"x":40.48,"y":-3.57,"z":582}}}