{"type":"Feature","geometry":{"type":"Point","coordinates":[48.35,11.82,447]},"properties":{"stationId":"EDDM","rawText":"EDDM 011450Z 26013KT 190V290 9999 -SHRA SCT037CB 23/15 Q1018 TEMPO 22020G35KT 4000 TSRA SCT020 BKN040CB","observationTime":"2019-07-01T14:50:00Z","temp":23,"dewpoint":15,"windDirection":260,"windSpeed":24.076,"visibility":6.21,"altim":30.059055,"flightCategory":"VFR","metarType":"METAR","geometry_esri":{"x":48.35,"y":11.82,"z":447}}}