{"type":"Feature","geometry":{"type":"Point","coordinates":[48.35,11.82,447]},"properties":{"stationId":"EDDM","rawText":"EDDM 252250Z 00000KT CAVOK 16/15 Q1021 NOSIG","observationTime":"2019-08-25T22:50:00Z","temp":16,"dewpoint":15,"windDirection":0,"windSpeed":0,"visibility":6.21,"altim":30.147638,"flightCategory":"VFR","metarType":"METAR","geometry_esri":{"x":48.35,"y":11.82,"z":447}}}