{"type":"Feature","geometry":{"type":"Point","coordinates":[48.35,11.82,447]},"properties":{"stationId":"EDDM","rawText":"EDDM 290850Z 26007KT 6000 OVC006 M02/M03 Q1032 NOSIG","observationTime":"2018-12-29T08:50:00Z","temp":-2,"dewpoint":-3,"windDirection":260,"windSpeed":12.964,"visibility":3.73,"altim":30.47244,"flightCategory":"IFR","metarType":"METAR","geometry_esri":{"x":48.35,"y":11.82,"z":447}}}