{"type":"Feature","geometry":{"type":"Point","coordinates":[48.35,11.82,447]},"properties":{"stationId":"EDDM","rawText":"EDDM 100150Z 00000KT CAVOK 11/05 Q1019 NOSIG","observationTime":"2019-07-10T01:50:00Z","temp":11,"dewpoint":5,"windDirection":0,"windSpeed":0,"visibility":6.21,"altim":30.088583,"flightCategory":"VFR","metarType":"METAR","geometry_esri":{"x":48.35,"y":11.82,"z":447}}}