{"type":"Feature","geometry":{"type":"Point","coordinates":[48.35,11.82,447]},"properties":{"stationId":"EDDM","rawText":"EDDM 150550Z 02003KT 310V060 9999 SCT035 BKN042 05/01 Q1022 NOSIG","observationTime":"2019-05-15T05:50:00Z","temp":5,"dewpoint":1,"windDirection":20,"windSpeed":5.556,"visibility":6.21,"altim":30.177166,"flightCategory":"VFR","metarType":"METAR","geometry_esri":{"x":48.35,"y":11.82,"z":447}}}