{"type":"Feature","geometry":{"type":"Point","coordinates":[49.02,2.52,109]},"properties":{"stationId":"LFPG","rawText":"LFPG 292030Z 10014KT 4000 -SN BKN005 SCT012 01/00 Q0990 TEMPO 0800 SN BKN003","observationTime":"2019-01-29T20:30:00Z","temp":1,"dewpoint":0,"windDirection":100,"windSpeed":25.928,"visibility":2.49,"altim":29.232283,"flightCategory":"IFR","metarType":"METAR","geometry_esri":{"x":49.02,"y":2.52,"z":109}}}