{"type":"Feature","geometry":{"type":"Point","coordinates":[40.48,-3.57,582]},"properties":{"stationId":"LEMD","rawText":"LEMD 240330Z VRB02KT CAVOK 17/10 Q1014 NOSIG","observationTime":"2019-05-24T03:30:00Z","temp":17,"dewpoint":10,"windDirection":0,"windSpeed":3.704,"visibility":6.21,"altim":29.940945,"flightCategory":"VFR","metarType":"METAR","geometry_esri":{"x":40.48,"y":-3.57,"z":582}}}