{"type":"Feature","geometry":{"type":"Point","coordinates":[49.02,2.52,109]},"properties":{"stationId":"LFPG","rawText":"LFPG 130730Z 24018KT 9999 SCT021 05/02 Q1013 NOSIG","observationTime":"2019-03-13T07:30:00Z","temp":5,"dewpoint":2,"windDirection":240,"windSpeed":33.336,"visibility":6.21,"altim":29.911417,"flightCategory":"VFR","metarType":"METAR","geometry_esri":{"x":49.02,"y":2.52,"z":109}}}