{"type":"Feature","geometry":{"type":"Point","coordinates":[51.48,-0.45,24]},"properties":{"stationId":"EGLL","rawText":"EGLL 100650Z AUTO 30004KT 8000 NCD 11/11 Q1018 NOSIG","observationTime":"2019-09-10T06:50:00Z","temp":11,"dewpoint":11,"windDirection":300,"windSpeed":7.408,"visibility":4.97,"altim":30.059055,"flightCategory":"MVFR","metarType":"METAR","geometry_esri":{"x":51.48,"y":-0.45,"z":24}}}