{"type":"Feature","geometry":{"type":"Point","coordinates":[48.35,11.82,447]},"properties":{"stationId":"EDDM","rawText":"EDDM 211350Z 08011KT CAVOK 20/05 Q1019 NOSIG","observationTime":"2019-09-21T13:50:00Z","temp":20,"dewpoint":5,"windDirection":80,"windSpeed":20.372,"visibility":6.21,"altim":30.088583,"flightCategory":"VFR","metarType":"METAR","geometry_esri":{"x":48.35,"y":11.82,"z":447}}}