{"type":"Feature","geometry":{"type":"Point","coordinates":[40.48,-3.57,582]},"properties":{"stationId":"LEMD","rawText":"LEMD 311830Z 12012KT 080V160 9999 FEW080 33/15 Q1012 NOSIG","observationTime":"2019-07-31T18:30:00Z","temp":33,"dewpoint":15,"windDirection":120,"windSpeed":22.224,"visibility":6.21,"altim":29.88189,"flightCategory":"VFR","metarType":"METAR","geometry_esri":{"x":40.48,"y":-3.57,"z":582}}}