{"type":"Feature","geometry":{"type":"Point","coordinates":[40.48,-3.57,582]},"properties":{"stationId":"LEMD","rawText":"LEMD 121030Z 19003KT 120V250 CAVOK 13/01 Q1027 NOSIG","observationTime":"2019-03-12T10:30:00Z","temp":13,"dewpoint":1,"windDirection":190,"windSpeed":5.556,"visibility":6.21,"altim":30.324802,"flightCategory":"VFR","metarType":"METAR","geometry_esri":{"x":40.48,"y":-3.57,"z":582}}}