{"type":"Feature","geometry":{"type":"Point","coordinates":[48.35,11.82,447]},"properties":{"stationId":"EDDM","rawText":"EDDM 050150Z VRB01KT CAVOK 11/11 Q1010 NOSIG","observationTime":"2019-06-05T01:50:00Z","temp":11,"dewpoint":11,"windDirection":0,"windSpeed":1.852,"visibility":6.21,"altim":29.822834,"flightCategory":"VFR","metarType":"METAR","geometry_esri":{"x":48.35,"y":11.82,"z":447}}}