{"type":"Feature","geometry":{"type":"Point","coordinates":[40.48,-3.57,582]},"properties":{"stationId":"LEMD","rawText":"LEMD 051530Z 22013G23KT 190V250 9999 BKN049 16/05 Q1015 NOSIG","observationTime":"2019-03-05T15:30:00Z","temp":16,"dewpoint":5,"windDirection":220,"windSpeed":24.076,"visibility":6.21,"altim":29.970472,"flightCategory":"VFR","metarType":"METAR","geometry_esri":{"x":40.48,"y":-3.57,"z":582}}}