{"type":"Feature","geometry":{"type":"Point","coordinates":[51.48,-0.45,24]},"properties":{"stationId":"EGLL","rawText":"EGLL 210950Z AUTO 09008KT 7000 OVC009 04/02 Q1004 NOSIG","observationTime":"2019-11-21T09:50:00Z","temp":4,"dewpoint":2,"windDirection":90,"windSpeed":14.816,"visibility":4.35,"altim":29.64567,"flightCategory":"IFR","metarType":"METAR","geometry_esri":{"x":51.48,"y":-0.45,"z":24}}}