{"type":"Feature","geometry":{"type":"Point","coordinates":[49.02,2.52,109]},"properties":{"stationId":"LFPG","rawText":"LFPG 040130Z 25006KT 9999 BKN012 BKN050 08/06 Q1011 NOSIG","observationTime":"2019-05-04T01:30:00Z","temp":8,"dewpoint":6,"windDirection":250,"windSpeed":11.112,"visibility":6.21,"altim":29.852362,"flightCategory":"MVFR","metarType":"METAR","geometry_esri":{"x":49.02,"y":2.52,"z":109}}}