{"type":"Feature","geometry":{"type":"Point","coordinates":[48.35,11.82,447]},"properties":{"stationId":"EDDM","rawText":"EDDM 141350Z 05008KT 010V090 CAVOK 29/16 Q1015 NOSIG","observationTime":"2019-06-14T13:50:00Z","temp":29,"dewpoint":16,"windDirection":50,"windSpeed":14.816,"visibility":6.21,"altim":29.970472,"flightCategory":"VFR","metarType":"METAR","geometry_esri":{"x":48.35,"y":11.82,"z":447}}}