{"type":"Feature","geometry":{"type":"Point","coordinates":[51.48,-0.45,24]},"properties":{"stationId":"EGLL","rawText":"EGLL 312350Z 14004KT 5000 HZ BKN008 OVC011 09/08 Q1013 BECMG 4000 BR","observationTime":"2019-10-31T23:50:00Z","temp":9,"dewpoint":8,"windDirection":140,"windSpeed":7.408,"visibility":3.11,"altim":29.911417,"flightCategory":"IFR","metarType":"METAR","geometry_esri":{"x":51.48,"y":-0.45,"z":24}}}