{"type":"Feature","geometry":{"type":"Point","coordinates":[47.78,13.02,430]},"properties":{"stationId":"LOWS","rawText":"LOWS 150250Z AUTO 27008KT 210V310 8000 -SHRA FEW013 SCT026 BKN036 05/02 Q1009","observationTime":"2019-03-15T02:50:00Z","temp":5,"dewpoint":2,"windDirection":270,"windSpeed":14.816,"visibility":4.97,"altim":29.793306,"flightCategory":"MVFR","metarType":"METAR","geometry_esri":{"x":47.78,"y":13.02,"z":430}}}