{"type":"Feature","geometry":{"type":"Point","coordinates":[51.48,-0.45,24]},"properties":{"stationId":"EGLL","rawText":"EGLL 160050Z AUTO 21009KT 9999 BKN033 09/06 Q1012 NOSIG","observationTime":"2019-01-16T00:50:00Z","temp":9,"dewpoint":6,"windDirection":210,"windSpeed":16.668,"visibility":6.21,"altim":29.88189,"flightCategory":"VFR","metarType":"METAR","geometry_esri":{"x":51.48,"y":-0.45,"z":24}}}