{"type":"Feature","geometry":{"type":"Point","coordinates":[47.78,13.02,430]},"properties":{"stationId":"LOWS","rawText":"LOWS 171450Z 35003KT 300V030 CAVOK 19/08 Q1015 NOSIG","observationTime":"2019-10-17T14:50:00Z","temp":19,"dewpoint":8,"windDirection":350,"windSpeed":5.556,"visibility":6.21,"altim":29.970472,"flightCategory":"VFR","metarType":"METAR","geometry_esri":{"x":47.78,"y":13.02,"z":430}}}