{"type":"Feature","geometry":{"type":"Point","coordinates":[47.78,13.02,430]},"properties":{"stationId":"LOWS","rawText":"LOWS 251250Z 13004KT 9999 VCTS FEW030 FEW045CB SCT050 BKN070 21/19 Q1020 RERA TEMPO TSRA","observationTime":"2019-08-25T12:50:00Z","temp":21,"dewpoint":19,"windDirection":130,"windSpeed":7.408,"visibility":6.21,"altim":30.11811,"flightCategory":"VFR","metarType":"SPECI","geometry_esri":{"x":47.78,"y":13.02,"z":430}}}