{"type":"Feature","geometry":{"type":"Point","coordinates":[48.35,11.82,447]},"properties":{"stationId":"EDDM","rawText":"EDDM 100750Z 36005KT 290V040 CAVOK 16/04 Q1020 NOSIG","observationTime":"2019-07-10T07:50:00Z","temp":16,"dewpoint":4,"windDirection":360,"windSpeed":9.26,"visibility":6.21,"altim":30.11811,"flightCategory":"VFR","metarType":"METAR","geometry_esri":{"x":48.35,"y":11.82,"z":447}}}