{"type":"Feature","geometry":{"type":"Point","coordinates":[51.48,-0.45,24]},"properties":{"stationId":"EGLL","rawText":"EGLL 141850Z AUTO 24009KT 9999 BKN008 BKN011 OVC023 17/17 Q1008 TEMPO SHRA","observationTime":"2019-08-14T18:50:00Z","temp":17,"dewpoint":17,"windDirection":240,"windSpeed":16.668,"visibility":6.21,"altim":29.763779,"flightCategory":"IFR","metarType":"METAR","geometry_esri":{"x":51.48,"y":-0.45,"z":24}}}