{"type":"Feature","geometry":{"type":"Point","coordinates":[48.35,11.82,447]},"properties":{"stationId":"EDDM","rawText":"EDDM 040950Z 24018KT CAVOK 16/M01 Q1001 TEMPO 26020G40KT","observationTime":"2019-03-04T09:50:00Z","temp":16,"dewpoint":-1,"windDirection":240,"windSpeed":33.336,"visibility":6.21,"altim":29.557087,"flightCategory":"VFR","metarType":"METAR","geometry_esri":{"x":48.35,"y":11.82,"z":447}}}