{"type":"Feature","geometry":{"type":"Point","coordinates":[48.35,11.82,447]},"properties":{"stationId":"EDDM","rawText":"EDDM 112250Z 05007KT 9999 FEW035 05/M01 Q1018 NOSIG","observationTime":"2019-04-11T22:50:00Z","temp":5,"dewpoint":-1,"windDirection":50,"windSpeed":12.964,"visibility":6.21,"altim":30.059055,"flightCategory":"VFR","metarType":"METAR","geometry_esri":{"x":48.35,"y":11.82,"z":447}}}