{"type":"Feature","geometry":{"type":"Point","coordinates":[47.78,13.02,430]},"properties":{"stationId":"LOWS","rawText":"LOWS 232350Z AUTO VRB02KT 7000 FEW210 17/16 Q1022","observationTime":"2019-08-23T23:50:00Z","temp":17,"dewpoint":16,"windDirection":0,"windSpeed":3.704,"visibility":4.35,"altim":30.177166,"flightCategory":"MVFR","metarType":"METAR","geometry_esri":{"x":47.78,"y":13.02,"z":430}}}