{"type":"Feature","geometry":{"type":"Point","coordinates":[53.42,-6.25,85]},"properties":{"stationId":"EIDW","rawText":"EIDW 240330Z VRB02KT 9999 FEW030 SCT150 BKN200 10/10 Q1017 NOSIG","observationTime":"2019-08-24T03:30:00Z","temp":10,"dewpoint":10,"windDirection":0,"windSpeed":3.704,"visibility":6.21,"altim":30.029528,"flightCategory":"VFR","metarType":"METAR","geometry_esri":{"x":53.42,"y":-6.25,"z":85}}}