{"type":"Feature","geometry":{"type":"Point","coordinates":[48.35,11.82,447]},"properties":{"stationId":"EDDM","rawText":"EDDM 101750Z 02006KT 350V050 9999 SCT045 11/05 Q1010 NOSIG","observationTime":"2019-04-10T17:50:00Z","temp":11,"dewpoint":5,"windDirection":20,"windSpeed":11.112,"visibility":6.21,"altim":29.822834,"flightCategory":"VFR","metarType":"METAR","geometry_esri":{"x":48.35,"y":11.82,"z":447}}}