{"type":"Feature","geometry":{"type":"Point","coordinates":[40.48,-3.57,582]},"properties":{"stationId":"LEMD","rawText":"LEMD 040930Z 12003KT 030V180 CAVOK 08/M05 Q1006 BECMG 23012KT","observationTime":"2019-04-04T09:30:00Z","temp":8,"dewpoint":-5,"windDirection":120,"windSpeed":5.556,"visibility":6.21,"altim":29.704725,"flightCategory":"VFR","metarType":"METAR","geometry_esri":{"x":40.48,"y":-3.57,"z":582}}}