{"type":"Feature","geometry":{"type":"Point","coordinates":[48.35,11.82,447]},"properties":{"stationId":"EDDM","rawText":"EDDM 230950Z 10008KT 070V130 9999 FEW029 BKN037 21/15 Q1026 NOSIG","observationTime":"2019-08-23T09:50:00Z","temp":21,"dewpoint":15,"windDirection":100,"windSpeed":14.816,"visibility":6.21,"altim":30.295275,"flightCategory":"VFR","metarType":"METAR","geometry_esri":{"x":48.35,"y":11.82,"z":447}}}