{"type":"Feature","geometry":{"type":"Point","coordinates":[53.42,-6.25,85]},"properties":{"stationId":"EIDW","rawText":"EIDW 311830Z 11017KT 9999 -RA FEW008 BKN017 BKN025 02/M00 Q0984 TEMPO BKN012","observationTime":"2019-01-31T18:30:00Z","temp":2,"dewpoint":0,"windDirection":110,"windSpeed":31.484,"visibility":6.21,"altim":29.055119,"flightCategory":"MVFR","metarType":"SPECI","geometry_esri":{"x":53.42,"y":-6.25,"z":85}}}