{"type":"Feature","geometry":{"type":"Point","coordinates":[53.42,-6.25,85]},"properties":{"stationId":"EIDW","rawText":"EIDW 072330Z 11004KT 9999 FEW022 BKN140 12/09 Q1020 NOSIG","observationTime":"2019-07-07T23:30:00Z","temp":12,"dewpoint":9,"windDirection":110,"windSpeed":7.408,"visibility":6.21,"altim":30.11811,"flightCategory":"VFR","metarType":"METAR","geometry_esri":{"x":53.42,"y":-6.25,"z":85}}}