{"type":"Feature","geometry":{"type":"Point","coordinates":[49.02,2.52,109]},"properties":{"stationId":"LFPG","rawText":"LFPG 162230Z 01002KT CAVOK 17/10 Q1021 NOSIG","observationTime":"2019-06-16T22:30:00Z","temp":17,"dewpoint":10,"windDirection":10,"windSpeed":3.704,"visibility":6.21,"altim":30.147638,"flightCategory":"VFR","metarType":"METAR","geometry_esri":{"x":49.02,"y":2.52,"z":109}}}