{"type":"Feature","geometry":{"type":"Point","coordinates":[40.48,-3.57,582]},"properties":{"stationId":"LEMD","rawText":"LEMD 280030Z 35003KT 4000 BR NSC 01/01 Q1026 NOSIG","observationTime":"2018-12-28T00:30:00Z","temp":1,"dewpoint":1,"windDirection":350,"windSpeed":5.556,"visibility":2.49,"altim":30.295275,"flightCategory":"IFR","metarType":"METAR","geometry_esri":{"x":40.48,"y":-3.57,"z":582}}}