{"type":"Feature","geometry":{"type":"Point","coordinates":[48.35,11.82,447]},"properties":{"stationId":"EDDM","rawText":"EDDM 020450Z 09002KT CAVOK 13/12 Q1021 NOSIG","observationTime":"2019-06-02T04:50:00Z","temp":13,"dewpoint":12,"windDirection":90,"windSpeed":3.704,"visibility":6.21,"altim":30.147638,"flightCategory":"VFR","metarType":"METAR","geometry_esri":{"x":48.35,"y":11.82,"z":447}}}