{"type":"Feature","geometry":{"type":"Point","coordinates":[47.78,13.02,430]},"properties":{"stationId":"LOWS","rawText":"LOWS 212050Z VRB01KT 9999 FEW014 BKN060 M02/M05 Q1017 NOSIG","observationTime":"2019-01-21T20:50:00Z","temp":-2,"dewpoint":-5,"windDirection":0,"windSpeed":1.852,"visibility":6.21,"altim":30.029528,"flightCategory":"VFR","metarType":"METAR","geometry_esri":{"x":47.78,"y":13.02,"z":430}}}