{"type":"Feature","geometry":{"type":"Point","coordinates":[48.35,11.82,447]},"properties":{"stationId":"EDDM","rawText":"EDDM 221050Z 26021G35KT 9999 -SHRA FEW027 SCT036TCU 11/05 Q1016 TEMPO 26030G45KT SHRA","observationTime":"2018-12-22T10:50:00Z","temp":11,"dewpoint":5,"windDirection":260,"windSpeed":38.892,"visibility":6.21,"altim":30,"flightCategory":"VFR","metarType":"METAR","geometry_esri":{"x":48.35,"y":11.82,"z":447}}}