{"type":"Feature","geometry":{"type":"Point","coordinates":[51.48,-0.45,24]},"properties":{"stationId":"EGLL","rawText":"EGLL 211150Z AUTO 33008KT 290V030 9999 NCD 19/06 Q1018 NOSIG","observationTime":"2019-05-21T11:50:00Z","temp":19,"dewpoint":6,"windDirection":330,"windSpeed":14.816,"visibility":6.21,"altim":30.059055,"flightCategory":"VFR","metarType":"METAR","geometry_esri":{"x":51.48,"y":-0.45,"z":24}}}