{"type":"Feature","geometry":{"type":"Point","coordinates":[53.42,-6.25,85]},"properties":{"stationId":"EIDW","rawText":"EIDW 122330Z 19004KT 9999 FEW022 BKN200 07/06 Q1003 NOSIG","observationTime":"2019-10-12T23:30:00Z","temp":7,"dewpoint":6,"windDirection":190,"windSpeed":7.408,"visibility":6.21,"altim":29.616142,"flightCategory":"VFR","metarType":"METAR","geometry_esri":{"x":53.42,"y":-6.25,"z":85}}}