{"type":"Feature","geometry":{"type":"Point","coordinates":[51.48,-0.45,24]},"properties":{"stationId":"EGLL","rawText":"EGLL 300350Z AUTO VRB02KT 5000 HZ NCD 06/04 Q1022 TEMPO 4000","observationTime":"2019-03-30T03:50:00Z","temp":6,"dewpoint":4,"windDirection":0,"windSpeed":3.704,"visibility":3.11,"altim":30.177166,"flightCategory":"MVFR","metarType":"METAR","geometry_esri":{"x":51.48,"y":-0.45,"z":24}}}