{"type":"Feature","geometry":{"type":"Point","coordinates":[51.48,-0.45,24]},"properties":{"stationId":"EGLL","rawText":"EGLL 130050Z AUTO 24018G29KT 9999 NCD 06/02 Q1003","observationTime":"2019-03-13T00:50:00Z","temp":6,"dewpoint":2,"windDirection":240,"windSpeed":33.336,"visibility":6.21,"altim":29.616142,"flightCategory":"VFR","metarType":"METAR","geometry_esri":{"x":51.48,"y":-0.45,"z":24}}}