{"type":"Feature","geometry":{"type":"Point","coordinates":[40.48,-3.57,582]},"properties":{"stationId":"LEMD","rawText":"LEMD 210630Z 36003KT 330V040 CAVOK M00/M01 Q1027 NOSIG","observationTime":"2019-02-21T06:30:00Z","temp":0,"dewpoint":-1,"windDirection":360,"windSpeed":5.556,"visibility":6.21,"altim":30.324802,"flightCategory":"VFR","metarType":"METAR","geometry_esri":{"x":40.48,"y":-3.57,"z":582}}}