{"type":"Feature","geometry":{"type":"Point","coordinates":[49.02,2.52,109]},"properties":{"stationId":"LFPG","rawText":"LFPG 160430Z 23013KT 9999 BKN018 10/07 Q1016 NOSIG","observationTime":"2019-03-16T04:30:00Z","temp":10,"dewpoint":7,"windDirection":230,"windSpeed":24.076,"visibility":6.21,"altim":30,"flightCategory":"MVFR","metarType":"METAR","geometry_esri":{"x":49.02,"y":2.52,"z":109}}}