{"type":"Feature","geometry":{"type":"Point","coordinates":[40.48,-3.57,582]},"properties":{"stationId":"LEMD","rawText":"LEMD 311630Z 22023KT 9999 SCT020 SCT076 12/09 Q0999 NOSIG","observationTime":"2019-01-31T16:30:00Z","temp":12,"dewpoint":9,"windDirection":220,"windSpeed":42.596000000000004,"visibility":6.21,"altim":29.498032,"flightCategory":"VFR","metarType":"METAR","geometry_esri":{"x":40.48,"y":-3.57,"z":582}}}