{"type":"Feature","geometry":{"type":"Point","coordinates":[49.02,2.52,109]},"properties":{"stationId":"LFPG","rawText":"LFPG 290830Z 29008KT 9999 -RA FEW009 BKN012 09/07 Q1011 TEMPO SCT010TCU","observationTime":"2019-11-29T08:30:00Z","temp":9,"dewpoint":7,"windDirection":290,"windSpeed":14.816,"visibility":6.21,"altim":29.852362,"flightCategory":"MVFR","metarType":"METAR","geometry_esri":{"x":49.02,"y":2.52,"z":109}}}