{"type":"Feature","geometry":{"type":"Point","coordinates":[48.35,11.82,447]},"properties":{"stationId":"EDDM","rawText":"EDDM 251150Z 02004KT 280V070 9999 FEW030 25/16 Q1020 NOSIG","observationTime":"2019-08-25T11:50:00Z","temp":25,"dewpoint":16,"windDirection":20,"windSpeed":7.408,"visibility":6.21,"altim":30.11811,"flightCategory":"VFR","metarType":"METAR","geometry_esri":{"x":48.35,"y":11.82,"z":447}}}