{"type":"Feature","geometry":{"type":"Point","coordinates":[48.35,11.82,447]},"properties":{"stationId":"EDDM","rawText":"EDDM 021450Z VRB02KT 9999 FEW035 18/11 Q1022 NOSIG","observationTime":"2019-09-02T14:50:00Z","temp":18,"dewpoint":11,"windDirection":0,"windSpeed":3.704,"visibility":6.21,"altim":30.177166,"flightCategory":"VFR","metarType":"METAR","geometry_esri":{"x":48.35,"y":11.82,"z":447}}}