{"type":"Feature","geometry":{"type":"Point","coordinates":[47.78,13.02,430]},"properties":{"stationId":"LOWS","rawText":"LOWS 060450Z 29006KT 240V330 9999 FEW070 SCT100 BKN140 21/12 Q1009 TEMPO 30010KT","observationTime":"2019-06-06T04:50:00Z","temp":21,"dewpoint":12,"windDirection":290,"windSpeed":11.112,"visibility":6.21,"altim":29.793306,"flightCategory":"VFR","metarType":"METAR","geometry_esri":{"x":47.78,"y":13.02,"z":430}}}