{"type":"Feature","geometry":{"type":"Point","coordinates":[47.78,13.02,430]},"properties":{"stationId":"LOWS","rawText":"LOWS 250750Z 16003KT 140V200 CAVOK 26/17 Q1021 NOSIG","observationTime":"2019-06-25T07:50:00Z","temp":26,"dewpoint":17,"windDirection":160,"windSpeed":5.556,"visibility":6.21,"altim":30.147638,"flightCategory":"VFR","metarType":"METAR","geometry_esri":{"x":47.78,"y":13.02,"z":430}}}