{"type":"Feature","geometry":{"type":"Point","coordinates":[53.42,-6.25,85]},"properties":{"stationId":"EIDW","rawText":"EIDW 260830Z 20003KT CAVOK 09/07 Q1026 NOSIG","observationTime":"2018-12-26T08:30:00Z","temp":9,"dewpoint":7,"windDirection":200,"windSpeed":5.556,"visibility":6.21,"altim":30.295275,"flightCategory":"VFR","metarType":"METAR","geometry_esri":{"x":53.42,"y":-6.25,"z":85}}}