{"type":"Feature","geometry":{"type":"Point","coordinates":[40.48,-3.57,582]},"properties":{"stationId":"LEMD","rawText":"LEMD 180730Z 19006KT 130V280 9000 SCT008 OVC015 16/15 Q1018 R32L/19//95 R32R/19//95 NOSIG","observationTime":"2019-10-18T07:30:00Z","temp":16,"dewpoint":15,"windDirection":190,"windSpeed":11.112,"visibility":5.59,"altim":30.059055,"flightCategory":"MVFR","metarType":"SPECI","geometry_esri":{"x":40.48,"y":-3.57,"z":582}}}