{"type":"Feature","geometry":{"type":"Point","coordinates":[49.02,2.52,109]},"properties":{"stationId":"LFPG","rawText":"LFPG 182330Z 25004KT 9999 FEW007 BKN035 BKN067 18/16 Q1015 NOSIG","observationTime":"2019-07-18T23:30:00Z","temp":18,"dewpoint":16,"windDirection":250,"windSpeed":7.408,"visibility":6.21,"altim":29.970472,"flightCategory":"VFR","metarType":"METAR","geometry_esri":{"x":49.02,"y":2.52,"z":109}}}