{"type":"Feature","geometry":{"type":"Point","coordinates":[49.02,2.52,109]},"properties":{"stationId":"LFPG","rawText":"LFPG 101730Z 06007KT 7000 -RA FEW011 SCT015 BKN023 12/10 Q1009 TEMPO 4000 RA BKN012","observationTime":"2019-05-10T17:30:00Z","temp":12,"dewpoint":10,"windDirection":60,"windSpeed":12.964,"visibility":4.35,"altim":29.793306,"flightCategory":"MVFR","metarType":"SPECI","geometry_esri":{"x":49.02,"y":2.52,"z":109}}}