{"type":"Feature","geometry":{"type":"Point","coordinates":[47.78,13.02,430]},"properties":{"stationId":"LOWS","rawText":"LOWS 181750Z 18003KT 140V200 CAVOK 04/M03 Q1019 NOSIG","observationTime":"2019-02-18T17:50:00Z","temp":4,"dewpoint":-3,"windDirection":180,"windSpeed":5.556,"visibility":6.21,"altim":30.088583,"flightCategory":"VFR","metarType":"METAR","geometry_esri":{"x":47.78,"y":13.02,"z":430}}}