{"type":"Feature","geometry":{"type":"Point","coordinates":[48.35,11.82,447]},"properties":{"stationId":"EDDM","rawText":"EDDM 170750Z 10009KT CAVOK 11/01 Q1022 NOSIG","observationTime":"2019-04-17T07:50:00Z","temp":11,"dewpoint":1,"windDirection":100,"windSpeed":16.668,"visibility":6.21,"altim":30.177166,"flightCategory":"VFR","metarType":"METAR","geometry_esri":{"x":48.35,"y":11.82,"z":447}}}