{"type":"Feature","geometry":{"type":"Point","coordinates":[49.02,2.52,109]},"properties":{"stationId":"LFPG","rawText":"LFPG 191030Z 05016KT 9999 FEW043 17/05 Q1029 NOSIG","observationTime":"2019-09-19T10:30:00Z","temp":17,"dewpoint":5,"windDirection":50,"windSpeed":29.632,"visibility":6.21,"altim":30.383858,"flightCategory":"VFR","metarType":"METAR","geometry_esri":{"x":49.02,"y":2.52,"z":109}}}