{"type":"Feature","geometry":{"type":"Point","coordinates":[51.48,-0.45,24]},"properties":{"stationId":"EGLL","rawText":"EGLL 020850Z AUTO 27006KT 7000 NCD 00/M01 Q1032","observationTime":"2019-12-02T08:50:00Z","temp":0,"dewpoint":-1,"windDirection":270,"windSpeed":11.112,"visibility":4.35,"altim":30.47244,"flightCategory":"MVFR","metarType":"METAR","geometry_esri":{"x":51.48,"y":-0.45,"z":24}}}