{"type":"Feature","geometry":{"type":"Point","coordinates":[47.78,13.02,430]},"properties":{"stationId":"LOWS","rawText":"LOWS 021250Z 36005KT 330V030 9999 FEW009 SCT016 BKN030 05/03 Q0997 R15/29//95 NOSIG","observationTime":"2019-02-02T12:50:00Z","temp":5,"dewpoint":3,"windDirection":360,"windSpeed":9.26,"visibility":6.21,"altim":29.438976,"flightCategory":"MVFR","metarType":"METAR","geometry_esri":{"x":47.78,"y":13.02,"z":430}}}