{"type":"Feature","geometry":{"type":"Point","coordinates":[53.42,-6.25,85]},"properties":{"stationId":"EIDW","rawText":"EIDW 131130Z 30006KT 250V350 9999 SCT024 BKN250 16/08 Q1037 NOSIG","observationTime":"2019-09-13T11:30:00Z","temp":16,"dewpoint":8,"windDirection":300,"windSpeed":11.112,"visibility":6.21,"altim":30.620079,"flightCategory":"VFR","metarType":"METAR","geometry_esri":{"x":53.42,"y":-6.25,"z":85}}}