{"type":"Feature","geometry":{"type":"Point","coordinates":[47.78,13.02,430]},"properties":{"stationId":"LOWS","rawText":"LOWS 172050Z 18003KT 150V210 CAVOK 08/07 Q1016","observationTime":"2019-10-17T20:50:00Z","temp":8,"dewpoint":7,"windDirection":180,"windSpeed":5.556,"visibility":6.21,"altim":30,"flightCategory":"VFR","metarType":"METAR","geometry_esri":{"x":47.78,"y":13.02,"z":430}}}