{"type":"Feature","geometry":{"type":"Point","coordinates":[53.42,-6.25,85]},"properties":{"stationId":"EIDW","rawText":"EIDW 262230Z 19009KT 170V230 9999 FEW012 SCT017 BKN022 06/02 Q0988 NOSIG","observationTime":"2019-04-26T22:30:00Z","temp":6,"dewpoint":2,"windDirection":190,"windSpeed":16.668,"visibility":6.21,"altim":29.17323,"flightCategory":"MVFR","metarType":"METAR","geometry_esri":{"x":53.42,"y":-6.25,"z":85}}}