{"type":"Feature","geometry":{"type":"Point","coordinates":[47.78,13.02,430]},"properties":{"stationId":"LOWS","rawText":"LOWS 030550Z 01003KT 9999 FEW001 BKN240 05/04 Q0993 NOSIG","observationTime":"2019-11-03T05:50:00Z","temp":5,"dewpoint":4,"windDirection":10,"windSpeed":5.556,"visibility":6.21,"altim":29.320866,"flightCategory":"VFR","metarType":"METAR","geometry_esri":{"x":47.78,"y":13.02,"z":430}}}