{"type":"Feature","geometry":{"type":"Point","coordinates":[49.02,2.52,109]},"properties":{"stationId":"LFPG","rawText":"LFPG 112330Z 23011KT 9999 FEW013 SCT042 BKN075 05/03 Q1007 NOSIG","observationTime":"2019-11-11T23:30:00Z","temp":5,"dewpoint":3,"windDirection":230,"windSpeed":20.372,"visibility":6.21,"altim":29.734253,"flightCategory":"VFR","metarType":"METAR","geometry_esri":{"x":49.02,"y":2.52,"z":109}}}