{"type":"Feature","geometry":{"type":"Point","coordinates":[49.02,2.52,109]},"properties":{"stationId":"LFPG","rawText":"LFPG 122030Z 14007KT 080V190 CAVOK 17/15 Q1010 NOSIG","observationTime":"2019-10-12T20:30:00Z","temp":17,"dewpoint":15,"windDirection":140,"windSpeed":12.964,"visibility":6.21,"altim":29.822834,"flightCategory":"VFR","metarType":"METAR","geometry_esri":{"x":49.02,"y":2.52,"z":109}}}