{"type":"Feature","geometry":{"type":"Point","coordinates":[53.42,-6.25,85]},"properties":{"stationId":"EIDW","rawText":"EIDW 261730Z 28020KT 9999 VCSH FEW024 SCT044 BKN050 15/07 Q1012 NOSIG","observationTime":"2019-05-26T17:30:00Z","temp":15,"dewpoint":7,"windDirection":280,"windSpeed":37.04,"visibility":6.21,"altim":29.88189,"flightCategory":"VFR","metarType":"METAR","geometry_esri":{"x":53.42,"y":-6.25,"z":85}}}