{"type":"Feature","geometry":{"type":"Point","coordinates":[48.35,11.82,447]},"properties":{"stationId":"EDDM","rawText":"EDDM 092050Z 25013KT 9999 FEW040TCU 12/06 Q1006 NOSIG","observationTime":"2019-05-09T20:50:00Z","temp":12,"dewpoint":6,"windDirection":250,"windSpeed":24.076,"visibility":6.21,"altim":29.704725,"flightCategory":"VFR","metarType":"METAR","geometry_esri":{"x":48.35,"y":11.82,"z":447}}}