{"type":"Feature","geometry":{"type":"Point","coordinates":[48.35,11.82,447]},"properties":{"stationId":"EDDM","rawText":"EDDM 100250Z 01004KT 340V040 CAVOK 07/04 Q1007 NOSIG","observationTime":"2019-04-10T02:50:00Z","temp":7,"dewpoint":4,"windDirection":10,"windSpeed":7.408,"visibility":6.21,"altim":29.734253,"flightCategory":"VFR","metarType":"METAR","geometry_esri":{"x":48.35,"y":11.82,"z":447}}}