{"type":"Feature","geometry":{"type":"Point","coordinates":[48.35,11.82,447]},"properties":{"stationId":"EDDM","rawText":"EDDM 110850Z 16005KT 4500 BR FEW003 OVC004 00/M00 Q1013 BECMG 6000 OVC005","observationTime":"2019-11-11T08:50:00Z","temp":0,"dewpoint":0,"windDirection":160,"windSpeed":9.26,"visibility":2.8,"altim":29.911417,"flightCategory":"LIFR","metarType":"METAR","geometry_esri":{"x":48.35,"y":11.82,"z":447}}}