{"type":"Feature","geometry":{"type":"Point","coordinates":[47.78,13.02,430]},"properties":{"stationId":"LOWS","rawText":"LOWS 201350Z 36004KT 290V030 9999 FEW050 FEW060CB SCT070 BKN140 26/14 Q1012 TEMPO 29015G25KT TSRA","observationTime":"2019-06-20T13:50:00Z","temp":26,"dewpoint":14,"windDirection":360,"windSpeed":7.408,"visibility":6.21,"altim":29.88189,"flightCategory":"VFR","metarType":"METAR","geometry_esri":{"x":47.78,"y":13.02,"z":430}}}