{"type":"Feature","geometry":{"type":"Point","coordinates":[53.42,-6.25,85]},"properties":{"stationId":"EIDW","rawText":"EIDW 251030Z 04010KT 010V160 9999 FEW008 SCT012 BKN020 17/14 Q1022 NOSIG","observationTime":"2019-06-25T10:30:00Z","temp":17,"dewpoint":14,"windDirection":40,"windSpeed":18.52,"visibility":6.21,"altim":30.177166,"flightCategory":"MVFR","metarType":"METAR","geometry_esri":{"x":53.42,"y":-6.25,"z":85}}}