{"type":"Feature","geometry":{"type":"Point","coordinates":[40.48,-3.57,582]},"properties":{"stationId":"LEMD","rawText":"LEMD 062330Z 02006KT 330V060 CAVOK 17/04 Q1021 NOSIG","observationTime":"2019-09-06T23:30:00Z","temp":17,"dewpoint":4,"windDirection":20,"windSpeed":11.112,"visibility":6.21,"altim":30.147638,"flightCategory":"VFR","metarType":"METAR","geometry_esri":{"x":40.48,"y":-3.57,"z":582}}}