{"type":"Feature","geometry":{"type":"Point","coordinates":[49.02,2.52,109]},"properties":{"stationId":"LFPG","rawText":"LFPG 242230Z 04009KT CAVOK 29/16 Q1013 NOSIG","observationTime":"2019-07-24T22:30:00Z","temp":29,"dewpoint":16,"windDirection":40,"windSpeed":16.668,"visibility":6.21,"altim":29.911417,"flightCategory":"VFR","metarType":"METAR","geometry_esri":{"x":49.02,"y":2.52,"z":109}}}