{"type":"Feature","geometry":{"type":"Point","coordinates":[48.35,11.82,447]},"properties":{"stationId":"EDDM","rawText":"EDDM 011050Z 26009KT 250V310 9999 FEW040 26/16 Q1015 NOSIG","observationTime":"2019-09-01T10:50:00Z","temp":26,"dewpoint":16,"windDirection":260,"windSpeed":16.668,"visibility":6.21,"altim":29.970472,"flightCategory":"VFR","metarType":"METAR","geometry_esri":{"x":48.35,"y":11.82,"z":447}}}