{"type":"Feature","geometry":{"type":"Point","coordinates":[47.78,13.02,430]},"properties":{"stationId":"LOWS","rawText":"LOWS 152350Z AUTO 16009KT 9999 -SHRA FEW038 BKN040 15/13 Q1019","observationTime":"2019-08-15T23:50:00Z","temp":15,"dewpoint":13,"windDirection":160,"windSpeed":16.668,"visibility":6.21,"altim":30.088583,"flightCategory":"VFR","metarType":"METAR","geometry_esri":{"x":47.78,"y":13.02,"z":430}}}