{"type":"Feature","geometry":{"type":"Point","coordinates":[49.02,2.52,109]},"properties":{"stationId":"LFPG","rawText":"LFPG 191330Z 02015KT CAVOK 19/03 Q1028 NOSIG","observationTime":"2019-09-19T13:30:00Z","temp":19,"dewpoint":3,"windDirection":20,"windSpeed":27.78,"visibility":6.21,"altim":30.35433,"flightCategory":"VFR","metarType":"METAR","geometry_esri":{"x":49.02,"y":2.52,"z":109}}}