{"type":"Feature","geometry":{"type":"Point","coordinates":[53.42,-6.25,85]},"properties":{"stationId":"EIDW","rawText":"EIDW 041530Z 16004KT 9999 BKN024 06/01 Q1041 NOSIG","observationTime":"2019-01-04T15:30:00Z","temp":6,"dewpoint":1,"windDirection":160,"windSpeed":7.408,"visibility":6.21,"altim":30.73819,"flightCategory":"MVFR","metarType":"METAR","geometry_esri":{"x":53.42,"y":-6.25,"z":85}}}