{"type":"Feature","geometry":{"type":"Point","coordinates":[48.35,11.82,447]},"properties":{"stationId":"EDDM","rawText":"EDDM 231550Z 24009KT 9999 -RA FEW012 SCT025 07/06 Q1019 NOSIG","observationTime":"2018-12-23T15:50:00Z","temp":7,"dewpoint":6,"windDirection":240,"windSpeed":16.668,"visibility":6.21,"altim":30.088583,"flightCategory":"VFR","metarType":"METAR","geometry_esri":{"x":48.35,"y":11.82,"z":447}}}