{"type":"Feature","geometry":{"type":"Point","coordinates":[48.35,11.82,447]},"properties":{"stationId":"EDDM","rawText":"EDDM 231550Z 09003KT 040V170 CAVOK 30/14 Q1020 NOSIG","observationTime":"2019-07-23T15:50:00Z","temp":30,"dewpoint":14,"windDirection":90,"windSpeed":5.556,"visibility":6.21,"altim":30.11811,"flightCategory":"VFR","metarType":"METAR","geometry_esri":{"x":48.35,"y":11.82,"z":447}}}