{"type":"Feature","geometry":{"type":"Point","coordinates":[48.35,11.82,447]},"properties":{"stationId":"EDDM","rawText":"EDDM 121450Z VRB03KT 9999 BKN008 16/14 Q1017 TEMPO 15005KT SCT008","observationTime":"2019-08-12T14:50:00Z","temp":16,"dewpoint":14,"windDirection":0,"windSpeed":5.556,"visibility":6.21,"altim":30.029528,"flightCategory":"IFR","metarType":"METAR","geometry_esri":{"x":48.35,"y":11.82,"z":447}}}