{"type":"Feature","geometry":{"type":"Point","coordinates":[49.02,2.52,109]},"properties":{"stationId":"LFPG","rawText":"LFPG 261830Z 19017KT 9999 -RA BKN029 20/13 Q1010 NOSIG","observationTime":"2019-09-26T18:30:00Z","temp":20,"dewpoint":13,"windDirection":190,"windSpeed":31.484,"visibility":6.21,"altim":29.822834,"flightCategory":"MVFR","metarType":"METAR","geometry_esri":{"x":49.02,"y":2.52,"z":109}}}