{"type":"Feature","geometry":{"type":"Point","coordinates":[48.35,11.82,447]},"properties":{"stationId":"EDDM","rawText":"EDDM 280050Z 16004KT 140V200 9999 -SHRA FEW028 SCT050TCU 13/13 Q1016 RESHRA TEMPO SHRA","observationTime":"2019-09-28T00:50:00Z","temp":13,"dewpoint":13,"windDirection":160,"windSpeed":7.408,"visibility":6.21,"altim":30,"flightCategory":"VFR","metarType":"METAR","geometry_esri":{"x":48.35,"y":11.82,"z":447}}}