{"type":"Feature","geometry":{"type":"Point","coordinates":[47.78,13.02,430]},"properties":{"stationId":"LOWS","rawText":"LOWS 290850Z 15005KT 120V180 8000 -RA FEW004 SCT009 BKN024 10/08 Q1018 TEMPO RA","observationTime":"2019-05-29T08:50:00Z","temp":10,"dewpoint":8,"windDirection":150,"windSpeed":9.26,"visibility":4.97,"altim":30.059055,"flightCategory":"MVFR","metarType":"METAR","geometry_esri":{"x":47.78,"y":13.02,"z":430}}}