{"type":"Feature","geometry":{"type":"Point","coordinates":[48.35,11.82,447]},"properties":{"stationId":"EDDM","rawText":"EDDM 200850Z 01003KT 300V070 9999 -RA SCT011 SCT035 19/17 Q1021 TEMPO RA BKN011","observationTime":"2019-08-20T08:50:00Z","temp":19,"dewpoint":17,"windDirection":10,"windSpeed":5.556,"visibility":6.21,"altim":30.147638,"flightCategory":"VFR","metarType":"METAR","geometry_esri":{"x":48.35,"y":11.82,"z":447}}}