{"type":"Feature","geometry":{"type":"Point","coordinates":[51.48,-0.45,24]},"properties":{"stationId":"EGLL","rawText":"EGLL 061450Z AUTO 17005KT 120V240 9999 NCD 09/05 Q1003 NOSIG","observationTime":"2019-11-06T14:50:00Z","temp":9,"dewpoint":5,"windDirection":170,"windSpeed":9.26,"visibility":6.21,"altim":29.616142,"flightCategory":"VFR","metarType":"METAR","geometry_esri":{"x":51.48,"y":-0.45,"z":24}}}