{"type":"Feature","geometry":{"type":"Point","coordinates":[47.78,13.02,430]},"properties":{"stationId":"LOWS","rawText":"LOWS 060450Z 17005KT CAVOK 03/02 Q1002 NOSIG","observationTime":"2019-11-06T04:50:00Z","temp":3,"dewpoint":2,"windDirection":170,"windSpeed":9.26,"visibility":6.21,"altim":29.586615,"flightCategory":"VFR","metarType":"METAR","geometry_esri":{"x":47.78,"y":13.02,"z":430}}}