{"type":"Feature","geometry":{"type":"Point","coordinates":[47.78,13.02,430]},"properties":{"stationId":"LOWS","rawText":"LOWS 272350Z AUTO 26011KT 230V290 9999 FEW046 BKN050 08/02 Q1020","observationTime":"2019-04-27T23:50:00Z","temp":8,"dewpoint":2,"windDirection":260,"windSpeed":20.372,"visibility":6.21,"altim":30.11811,"flightCategory":"VFR","metarType":"METAR","geometry_esri":{"x":47.78,"y":13.02,"z":430}}}