{"type":"Feature","geometry":{"type":"Point","coordinates":[48.35,11.82,447]},"properties":{"stationId":"EDDM","rawText":"EDDM 191550Z 07009KT 030V100 CAVOK 20/M03 Q1027 NOSIG","observationTime":"2019-04-19T15:50:00Z","temp":20,"dewpoint":-3,"windDirection":70,"windSpeed":16.668,"visibility":6.21,"altim":30.324802,"flightCategory":"VFR","metarType":"METAR","geometry_esri":{"x":48.35,"y":11.82,"z":447}}}