{"type":"Feature","geometry":{"type":"Point","coordinates":[49.02,2.52,109]},"properties":{"stationId":"LFPG","rawText":"LFPG 111430Z 25013KT CAVOK 24/06 Q1025 NOSIG","observationTime":"2019-09-11T14:30:00Z","temp":24,"dewpoint":6,"windDirection":250,"windSpeed":24.076,"visibility":6.21,"altim":30.265747,"flightCategory":"VFR","metarType":"METAR","geometry_esri":{"x":49.02,"y":2.52,"z":109}}}