{"type":"Feature","geometry":{"type":"Point","coordinates":[47.78,13.02,430]},"properties":{"stationId":"LOWS","rawText":"LOWS 101050Z 33004KT 300V360 4500 BR BKN003 01/01 Q1012 TEMPO 6000 BKN005","observationTime":"2019-11-10T10:50:00Z","temp":1,"dewpoint":1,"windDirection":330,"windSpeed":7.408,"visibility":2.8,"altim":29.88189,"flightCategory":"LIFR","metarType":"METAR","geometry_esri":{"x":47.78,"y":13.02,"z":430}}}