{"type":"Feature","geometry":{"type":"Point","coordinates":[40.48,-3.57,582]},"properties":{"stationId":"LEMD","rawText":"LEMD 181430Z 23013G28KT 200V280 9999 FEW030 BKN050 21/14 Q1016 NOSIG","observationTime":"2019-10-18T14:30:00Z","temp":21,"dewpoint":14,"windDirection":230,"windSpeed":24.076,"visibility":6.21,"altim":30,"flightCategory":"VFR","metarType":"METAR","geometry_esri":{"x":40.48,"y":-3.57,"z":582}}}