{"type":"Feature","geometry":{"type":"Point","coordinates":[51.48,-0.45,24]},"properties":{"stationId":"EGLL","rawText":"EGLL 061250Z AUTO 29008KT 270V340 9999 NCD 11/M02 Q1022","observationTime":"2019-05-06T12:50:00Z","temp":11,"dewpoint":-2,"windDirection":290,"windSpeed":14.816,"visibility":6.21,"altim":30.177166,"flightCategory":"VFR","metarType":"METAR","geometry_esri":{"x":51.48,"y":-0.45,"z":24}}}