{"type":"Feature","geometry":{"type":"Point","coordinates":[47.78,13.02,430]},"properties":{"stationId":"LOWS","rawText":"LOWS 062250Z AUTO 15009KT 9999 FEW070 BKN080 21/15 Q1012","observationTime":"2019-07-06T22:50:00Z","temp":21,"dewpoint":15,"windDirection":150,"windSpeed":16.668,"visibility":6.21,"altim":29.88189,"flightCategory":"VFR","metarType":"METAR","geometry_esri":{"x":47.78,"y":13.02,"z":430}}}