{"type":"Feature","geometry":{"type":"Point","coordinates":[47.78,13.02,430]},"properties":{"stationId":"LOWS","rawText":"LOWS 160750Z 31008KT 280V340 9999 FEW028 BKN044 17/12 Q1021 NOSIG","observationTime":"2019-06-16T07:50:00Z","temp":17,"dewpoint":12,"windDirection":310,"windSpeed":14.816,"visibility":6.21,"altim":30.147638,"flightCategory":"VFR","metarType":"METAR","geometry_esri":{"x":47.78,"y":13.02,"z":430}}}