{"type":"Feature","geometry":{"type":"Point","coordinates":[40.48,-3.57,582]},"properties":{"stationId":"LEMD","rawText":"LEMD 021730Z 00000KT CAVOK 09/00 Q1026 NOSIG","observationTime":"2019-01-02T17:30:00Z","temp":9,"dewpoint":0,"windDirection":0,"windSpeed":0,"visibility":6.21,"altim":30.295275,"flightCategory":"VFR","metarType":"METAR","geometry_esri":{"x":40.48,"y":-3.57,"z":582}}}