{"type":"Feature","geometry":{"type":"Point","coordinates":[53.42,-6.25,85]},"properties":{"stationId":"EIDW","rawText":"EIDW 021130Z 11007KT 060V150 9999 FEW018 BKN230 21/15 Q1020 NOSIG","observationTime":"2019-08-02T11:30:00Z","temp":21,"dewpoint":15,"windDirection":110,"windSpeed":12.964,"visibility":6.21,"altim":30.11811,"flightCategory":"VFR","metarType":"METAR","geometry_esri":{"x":53.42,"y":-6.25,"z":85}}}