{"type":"Feature","geometry":{"type":"Point","coordinates":[48.35,11.82,447]},"properties":{"stationId":"EDDM","rawText":"EDDM 301250Z 29016KT CAVOK 18/07 Q1015 NOSIG","observationTime":"2019-09-30T12:50:00Z","temp":18,"dewpoint":7,"windDirection":290,"windSpeed":29.632,"visibility":6.21,"altim":29.970472,"flightCategory":"VFR","metarType":"METAR","geometry_esri":{"x":48.35,"y":11.82,"z":447}}}