{"type":"Feature","geometry":{"type":"Point","coordinates":[49.02,2.52,109]},"properties":{"stationId":"LFPG","rawText":"LFPG 162030Z 24009KT 200V280 CAVOK 21/11 Q1012 NOSIG","observationTime":"2019-08-16T20:30:00Z","temp":21,"dewpoint":11,"windDirection":240,"windSpeed":16.668,"visibility":6.21,"altim":29.88189,"flightCategory":"VFR","metarType":"METAR","geometry_esri":{"x":49.02,"y":2.52,"z":109}}}