{"type":"Feature","geometry":{"type":"Point","coordinates":[48.35,11.82,447]},"properties":{"stationId":"EDDM","rawText":"EDDM 301550Z 27008KT CAVOK 33/12 Q1017 NOSIG","observationTime":"2019-06-30T15:50:00Z","temp":33,"dewpoint":12,"windDirection":270,"windSpeed":14.816,"visibility":6.21,"altim":30.029528,"flightCategory":"VFR","metarType":"METAR","geometry_esri":{"x":48.35,"y":11.82,"z":447}}}