{"type":"Feature","geometry":{"type":"Point","coordinates":[53.42,-6.25,85]},"properties":{"stationId":"EIDW","rawText":"EIDW 221430Z 24014G25KT 190V270 7000 -DZ SCT012 BKN030 18/16 Q1018 NOSIG","observationTime":"2019-08-22T14:30:00Z","temp":18,"dewpoint":16,"windDirection":240,"windSpeed":25.928,"visibility":4.35,"altim":30.059055,"flightCategory":"MVFR","metarType":"METAR","geometry_esri":{"x":53.42,"y":-6.25,"z":85}}}