{"type":"Feature","geometry":{"type":"Point","coordinates":[49.02,2.52,109]},"properties":{"stationId":"LFPG","rawText":"LFPG 140730Z 36012KT 330V030 9999 FEW018 BKN024 BKN140 16/11 Q1020 NOSIG","observationTime":"2019-07-14T07:30:00Z","temp":16,"dewpoint":11,"windDirection":360,"windSpeed":22.224,"visibility":6.21,"altim":30.11811,"flightCategory":"MVFR","metarType":"METAR","geometry_esri":{"x":49.02,"y":2.52,"z":109}}}