{"type":"Feature","geometry":{"type":"Point","coordinates":[40.48,-3.57,582]},"properties":{"stationId":"LEMD","rawText":"LEMD 160630Z 35003KT CAVOK 03/M01 Q1024 NOSIG","observationTime":"2019-03-16T06:30:00Z","temp":3,"dewpoint":-1,"windDirection":350,"windSpeed":5.556,"visibility":6.21,"altim":30.236221,"flightCategory":"VFR","metarType":"METAR","geometry_esri":{"x":40.48,"y":-3.57,"z":582}}}