{"type":"Feature","geometry":{"type":"Point","coordinates":[40.48,-3.57,582]},"properties":{"stationId":"LEMD","rawText":"LEMD 291130Z 35002KT CAVOK 23/07 Q1018 NOSIG","observationTime":"2019-04-29T11:30:00Z","temp":23,"dewpoint":7,"windDirection":350,"windSpeed":3.704,"visibility":6.21,"altim":30.059055,"flightCategory":"VFR","metarType":"METAR","geometry_esri":{"x":40.48,"y":-3.57,"z":582}}}