{"type":"Feature","geometry":{"type":"Point","coordinates":[53.42,-6.25,85]},"properties":{"stationId":"EIDW","rawText":"EIDW 242230Z 09008KT 060V150 9999 SCT004 BKN130 16/15 Q1009 TEMPO BKN007","observationTime":"2019-07-24T22:30:00Z","temp":16,"dewpoint":15,"windDirection":90,"windSpeed":14.816,"visibility":6.21,"altim":29.793306,"flightCategory":"VFR","metarType":"SPECI","geometry_esri":{"x":53.42,"y":-6.25,"z":85}}}