{"type":"Feature","geometry":{"type":"Point","coordinates":[51.48,-0.45,24]},"properties":{"stationId":"EGLL","rawText":"EGLL 091750Z AUTO 06009KT 020V090 9999 NCD 11/04 Q1014 NOSIG","observationTime":"2019-04-09T17:50:00Z","temp":11,"dewpoint":4,"windDirection":60,"windSpeed":16.668,"visibility":6.21,"altim":29.940945,"flightCategory":"VFR","metarType":"METAR","geometry_esri":{"x":51.48,"y":-0.45,"z":24}}}