{"type":"Feature","geometry":{"type":"Point","coordinates":[40.48,-3.57,582]},"properties":{"stationId":"LEMD","rawText":"LEMD 091530Z 36015KT CAVOK 13/00 Q1019 NOSIG","observationTime":"2019-01-09T15:30:00Z","temp":13,"dewpoint":0,"windDirection":360,"windSpeed":27.78,"visibility":6.21,"altim":30.088583,"flightCategory":"VFR","metarType":"METAR","geometry_esri":{"x":40.48,"y":-3.57,"z":582}}}