{"type":"Feature","geometry":{"type":"Point","coordinates":[51.48,-0.45,24]},"properties":{"stationId":"EGLL","rawText":"EGLL 150950Z AUTO 27027G41KT 9999 BKN021 BKN026 14/10 Q1006 NOSIG","observationTime":"2019-03-15T09:50:00Z","temp":14,"dewpoint":10,"windDirection":270,"windSpeed":50.004000000000005,"visibility":6.21,"altim":29.704725,"flightCategory":"MVFR","metarType":"METAR","geometry_esri":{"x":51.48,"y":-0.45,"z":24}}}