{"type":"Feature","geometry":{"type":"Point","coordinates":[47.78,13.02,430]},"properties":{"stationId":"LOWS","rawText":"LOWS 110750Z VRB04KT 9999 FEW090 SCT100 BKN300 15/07 Q1011 NOSIG","observationTime":"2019-05-11T07:50:00Z","temp":15,"dewpoint":7,"windDirection":0,"windSpeed":7.408,"visibility":6.21,"altim":29.852362,"flightCategory":"VFR","metarType":"METAR","geometry_esri":{"x":47.78,"y":13.02,"z":430}}}