{"type":"Feature","geometry":{"type":"Point","coordinates":[48.35,11.82,447]},"properties":{"stationId":"EDDM","rawText":"EDDM 201250Z 31005KT 270V350 CAVOK 23/14 Q1014 NOSIG","observationTime":"2019-06-20T12:50:00Z","temp":23,"dewpoint":14,"windDirection":310,"windSpeed":9.26,"visibility":6.21,"altim":29.940945,"flightCategory":"VFR","metarType":"METAR","geometry_esri":{"x":48.35,"y":11.82,"z":447}}}