{"type":"Feature","geometry":{"type":"Point","coordinates":[51.48,-0.45,24]},"properties":{"stationId":"EGLL","rawText":"EGLL 121650Z AUTO 26015KT 9999 FEW014 06/04 Q1002 NOSIG","observationTime":"2019-03-12T16:50:00Z","temp":6,"dewpoint":4,"windDirection":260,"windSpeed":27.78,"visibility":6.21,"altim":29.586615,"flightCategory":"VFR","metarType":"METAR","geometry_esri":{"x":51.48,"y":-0.45,"z":24}}}