{"type":"Feature","geometry":{"type":"Point","coordinates":[53.42,-6.25,85]},"properties":{"stationId":"EIDW","rawText":"EIDW 181430Z 26009G19KT 200V290 9999 FEW025 SCT040 19/10 Q1008 NOSIG","observationTime":"2019-07-18T14:30:00Z","temp":19,"dewpoint":10,"windDirection":260,"windSpeed":16.668,"visibility":6.21,"altim":29.763779,"flightCategory":"VFR","metarType":"METAR","geometry_esri":{"x":53.42,"y":-6.25,"z":85}}}