{"type":"Feature","geometry":{"type":"Point","coordinates":[48.35,11.82,447]},"properties":{"stationId":"EDDM","rawText":"EDDM 181750Z 09011KT 2500 BR FEW001 OVC002 01/01 Q1022 TEMPO 0500 FG","observationTime":"2018-12-18T17:50:00Z","temp":1,"dewpoint":1,"windDirection":90,"windSpeed":20.372,"visibility":1.55,"altim":30.177166,"flightCategory":"LIFR","metarType":"METAR","geometry_esri":{"x":48.35,"y":11.82,"z":447}}}