{"type":"Feature","geometry":{"type":"Point","coordinates":[49.02,2.52,109]},"properties":{"stationId":"LFPG","rawText":"LFPG 101530Z 24011KT 9999 FEW047 SCT260 18/07 Q1018 NOSIG","observationTime":"2019-10-10T15:30:00Z","temp":18,"dewpoint":7,"windDirection":240,"windSpeed":20.372,"visibility":6.21,"altim":30.059055,"flightCategory":"VFR","metarType":"METAR","geometry_esri":{"x":49.02,"y":2.52,"z":109}}}