{"type":"Feature","geometry":{"type":"Point","coordinates":[51.48,-0.45,24]},"properties":{"stationId":"EGLL","rawText":"EGLL 110650Z AUTO VRB03KT 8000 BKN009 OVC036 10/08 Q1016 BECMG BKN014","observationTime":"2019-05-11T06:50:00Z","temp":10,"dewpoint":8,"windDirection":0,"windSpeed":5.556,"visibility":4.97,"altim":30,"flightCategory":"IFR","metarType":"METAR","geometry_esri":{"x":51.48,"y":-0.45,"z":24}}}