{"type":"Feature","geometry":{"type":"Point","coordinates":[49.02,2.52,109]},"properties":{"stationId":"LFPG","rawText":"LFPG 300130Z 32004KT CAVOK 22/15 Q1013 NOSIG","observationTime":"2019-06-30T01:30:00Z","temp":22,"dewpoint":15,"windDirection":320,"windSpeed":7.408,"visibility":6.21,"altim":29.911417,"flightCategory":"VFR","metarType":"METAR","geometry_esri":{"x":49.02,"y":2.52,"z":109}}}