{"type":"Feature","geometry":{"type":"Point","coordinates":[48.35,11.82,447]},"properties":{"stationId":"EDDM","rawText":"EDDM 211550Z 27007KT 240V310 9999 FEW030 25/15 Q1022 NOSIG","observationTime":"2019-07-21T15:50:00Z","temp":25,"dewpoint":15,"windDirection":270,"windSpeed":12.964,"visibility":6.21,"altim":30.177166,"flightCategory":"VFR","metarType":"METAR","geometry_esri":{"x":48.35,"y":11.82,"z":447}}}