{"type":"Feature","geometry":{"type":"Point","coordinates":[51.48,-0.45,24]},"properties":{"stationId":"EGLL","rawText":"EGLL 010150Z AUTO 10006KT 2300 DZ BKN005 OVC011 09/09 Q1010 RERA TEMPO -RADZ BKN004","observationTime":"2019-11-01T01:50:00Z","temp":9,"dewpoint":9,"windDirection":100,"windSpeed":11.112,"visibility":1.43,"altim":29.822834,"flightCategory":"IFR","metarType":"METAR","geometry_esri":{"x":51.48,"y":-0.45,"z":24}}}