{"type":"Feature","geometry":{"type":"Point","coordinates":[40.48,-3.57,582]},"properties":{"stationId":"LEMD","rawText":"LEMD 100730Z 35001KT CAVOK 05/03 Q1031 NOSIG","observationTime":"2019-03-10T07:30:00Z","temp":5,"dewpoint":3,"windDirection":350,"windSpeed":1.852,"visibility":6.21,"altim":30.442913,"flightCategory":"VFR","metarType":"METAR","geometry_esri":{"x":40.48,"y":-3.57,"z":582}}}