{"type":"Feature","geometry":{"type":"Point","coordinates":[51.48,-0.45,24]},"properties":{"stationId":"EGLL","rawText":"EGLL 151850Z AUTO 04004KT 010V080 9999 NCD 20/10 Q1021","observationTime":"2019-07-15T18:50:00Z","temp":20,"dewpoint":10,"windDirection":40,"windSpeed":7.408,"visibility":6.21,"altim":30.147638,"flightCategory":"VFR","metarType":"METAR","geometry_esri":{"x":51.48,"y":-0.45,"z":24}}}