{"type":"Feature","geometry":{"type":"Point","coordinates":[47.78,13.02,430]},"properties":{"stationId":"LOWS","rawText":"LOWS 051450Z 20005KT 160V220 9999 -RA FEW006 SCT042 BKN050 06/05 Q1001 NOSIG","observationTime":"2019-11-05T14:50:00Z","temp":6,"dewpoint":5,"windDirection":200,"windSpeed":9.26,"visibility":6.21,"altim":29.557087,"flightCategory":"VFR","metarType":"METAR","geometry_esri":{"x":47.78,"y":13.02,"z":430}}}