{"type":"Feature","geometry":{"type":"Point","coordinates":[40.48,-3.57,582]},"properties":{"stationId":"LEMD","rawText":"LEMD 070630Z 25015KT 210V290 CAVOK 12/02 Q1014 NOSIG","observationTime":"2019-06-07T06:30:00Z","temp":12,"dewpoint":2,"windDirection":250,"windSpeed":27.78,"visibility":6.21,"altim":29.940945,"flightCategory":"VFR","metarType":"METAR","geometry_esri":{"x":40.48,"y":-3.57,"z":582}}}