{"type":"Feature","geometry":{"type":"Point","coordinates":[51.48,-0.45,24]},"properties":{"stationId":"EGLL","rawText":"EGLL 081450Z AUTO 32008KT 280V010 9999 NCD 09/01 Q1028 NOSIG","observationTime":"2019-01-08T14:50:00Z","temp":9,"dewpoint":1,"windDirection":320,"windSpeed":14.816,"visibility":6.21,"altim":30.35433,"flightCategory":"VFR","metarType":"METAR","geometry_esri":{"x":51.48,"y":-0.45,"z":24}}}