{"type":"Feature","geometry":{"type":"Point","coordinates":[51.48,-0.45,24]},"properties":{"stationId":"EGLL","rawText":"EGLL 221750Z AUTO 18010KT 9999 NCD 21/05 Q1002 NOSIG","observationTime":"2019-04-22T17:50:00Z","temp":21,"dewpoint":5,"windDirection":180,"windSpeed":18.52,"visibility":6.21,"altim":29.586615,"flightCategory":"VFR","metarType":"METAR","geometry_esri":{"x":51.48,"y":-0.45,"z":24}}}