{"type":"Feature","geometry":{"type":"Point","coordinates":[48.35,11.82,447]},"properties":{"stationId":"EDDM","rawText":"EDDM 270850Z 26008KT 7000 FEW002 BKN004 04/03 Q1001 TEMPO RA BKN005","observationTime":"2019-11-27T08:50:00Z","temp":4,"dewpoint":3,"windDirection":260,"windSpeed":14.816,"visibility":4.35,"altim":29.557087,"flightCategory":"LIFR","metarType":"METAR","geometry_esri":{"x":48.35,"y":11.82,"z":447}}}