{"type":"Feature","geometry":{"type":"Point","coordinates":[48.35,11.82,447]},"properties":{"stationId":"EDDM","rawText":"EDDM 190450Z 15003KT 110V190 CAVOK 18/14 Q1014 NOSIG","observationTime":"2019-06-19T04:50:00Z","temp":18,"dewpoint":14,"windDirection":150,"windSpeed":5.556,"visibility":6.21,"altim":29.940945,"flightCategory":"VFR","metarType":"METAR","geometry_esri":{"x":48.35,"y":11.82,"z":447}}}