{"type":"Feature","geometry":{"type":"Point","coordinates":[48.35,11.82,447]},"properties":{"stationId":"EDDM","rawText":"EDDM 270550Z 24002KT CAVOK 01/M01 Q1030 NOSIG","observationTime":"2019-02-27T05:50:00Z","temp":1,"dewpoint":-1,"windDirection":240,"windSpeed":3.704,"visibility":6.21,"altim":30.413385,"flightCategory":"VFR","metarType":"METAR","geometry_esri":{"x":48.35,"y":11.82,"z":447}}}