{"type":"Feature","geometry":{"type":"Point","coordinates":[51.48,-0.45,24]},"properties":{"stationId":"EGLL","rawText":"EGLL 240650Z AUTO 08004KT 5000 HZ SCT048 13/09 Q0992 NOSIG","observationTime":"2019-04-24T06:50:00Z","temp":13,"dewpoint":9,"windDirection":80,"windSpeed":7.408,"visibility":3.11,"altim":29.291338,"flightCategory":"MVFR","metarType":"METAR","geometry_esri":{"x":51.48,"y":-0.45,"z":24}}}