{"type":"Feature","geometry":{"type":"Point","coordinates":[40.48,-3.57,582]},"properties":{"stationId":"LEMD","rawText":"LEMD 040530Z 15005KT 100V220 CAVOK 19/10 Q1012 NOSIG","observationTime":"2019-06-04T05:30:00Z","temp":19,"dewpoint":10,"windDirection":150,"windSpeed":9.26,"visibility":6.21,"altim":29.88189,"flightCategory":"VFR","metarType":"METAR","geometry_esri":{"x":40.48,"y":-3.57,"z":582}}}