{"type":"Feature","geometry":{"type":"Point","coordinates":[47.78,13.02,430]},"properties":{"stationId":"LOWS","rawText":"LOWS 241050Z 14010KT 100V170 9999 FEW130 SCT300 24/05 Q1005 NOSIG","observationTime":"2019-04-24T10:50:00Z","temp":24,"dewpoint":5,"windDirection":140,"windSpeed":18.52,"visibility":6.21,"altim":29.675198,"flightCategory":"VFR","metarType":"METAR","geometry_esri":{"x":47.78,"y":13.02,"z":430}}}