{"type":"Feature","geometry":{"type":"Point","coordinates":[48.35,11.82,447]},"properties":{"stationId":"EDDM","rawText":"EDDM 271350Z 22005KT 160V290 9999 SCT025 07/02 Q1031 NOSIG","observationTime":"2019-03-27T13:50:00Z","temp":7,"dewpoint":2,"windDirection":220,"windSpeed":9.26,"visibility":6.21,"altim":30.442913,"flightCategory":"VFR","metarType":"METAR","geometry_esri":{"x":48.35,"y":11.82,"z":447}}}