{"type":"Feature","geometry":{"type":"Point","coordinates":[49.02,2.52,109]},"properties":{"stationId":"LFPG","rawText":"LFPG 081230Z VRB04KT 9999 FEW038 SCT076 BKN260 16/06 Q1011 TEMPO FEW035TCU","observationTime":"2019-04-08T12:30:00Z","temp":16,"dewpoint":6,"windDirection":0,"windSpeed":7.408,"visibility":6.21,"altim":29.852362,"flightCategory":"VFR","metarType":"METAR","geometry_esri":{"x":49.02,"y":2.52,"z":109}}}