{"type":"Feature","geometry":{"type":"Point","coordinates":[49.02,2.52,109]},"properties":{"stationId":"LFPG","rawText":"LFPG 290230Z 07003KT CAVOK 15/10 Q1011 NOSIG","observationTime":"2019-07-29T02:30:00Z","temp":15,"dewpoint":10,"windDirection":70,"windSpeed":5.556,"visibility":6.21,"altim":29.852362,"flightCategory":"VFR","metarType":"METAR","geometry_esri":{"x":49.02,"y":2.52,"z":109}}}