{"type":"Feature","geometry":{"type":"Point","coordinates":[48.35,11.82,447]},"properties":{"stationId":"EDDM","rawText":"EDDM 071050Z VRB02KT 6000 FEW005 M05/M06 Q1017 NOSIG","observationTime":"2019-02-07T10:50:00Z","temp":-5,"dewpoint":-6,"windDirection":0,"windSpeed":3.704,"visibility":3.73,"altim":30.029528,"flightCategory":"MVFR","metarType":"METAR","geometry_esri":{"x":48.35,"y":11.82,"z":447}}}