{"type":"Feature","geometry":{"type":"Point","coordinates":[40.48,-3.57,582]},"properties":{"stationId":"LEMD","rawText":"LEMD 100330Z 34008KT 310V010 CAVOK 08/M01 Q1016 NOSIG","observationTime":"2019-11-10T03:30:00Z","temp":8,"dewpoint":-1,"windDirection":340,"windSpeed":14.816,"visibility":6.21,"altim":30,"flightCategory":"VFR","metarType":"METAR","geometry_esri":{"x":40.48,"y":-3.57,"z":582}}}