{"type":"Feature","geometry":{"type":"Point","coordinates":[51.48,-0.45,24]},"properties":{"stationId":"EGLL","rawText":"EGLL 151750Z AUTO 16005KT 090V220 9999 NCD 10/03 Q1025 NOSIG","observationTime":"2019-02-15T17:50:00Z","temp":10,"dewpoint":3,"windDirection":160,"windSpeed":9.26,"visibility":6.21,"altim":30.265747,"flightCategory":"VFR","metarType":"METAR","geometry_esri":{"x":51.48,"y":-0.45,"z":24}}}