{"type":"Feature","geometry":{"type":"Point","coordinates":[48.35,11.82,447]},"properties":{"stationId":"EDDM","rawText":"EDDM 082250Z 02002KT CAVOK 11/08 Q1025 NOSIG","observationTime":"2019-06-08T22:50:00Z","temp":11,"dewpoint":8,"windDirection":20,"windSpeed":3.704,"visibility":6.21,"altim":30.265747,"flightCategory":"VFR","metarType":"METAR","geometry_esri":{"x":48.35,"y":11.82,"z":447}}}