{"type":"Feature","geometry":{"type":"Point","coordinates":[47.78,13.02,430]},"properties":{"stationId":"LOWS","rawText":"LOWS 071450Z 04010KT 010V070 9999 FEW070 28/15 Q1010 NOSIG","observationTime":"2019-06-07T14:50:00Z","temp":28,"dewpoint":15,"windDirection":40,"windSpeed":18.52,"visibility":6.21,"altim":29.822834,"flightCategory":"VFR","metarType":"METAR","geometry_esri":{"x":47.78,"y":13.02,"z":430}}}