{"type":"Feature","geometry":{"type":"Point","coordinates":[53.42,-6.25,85]},"properties":{"stationId":"EIDW","rawText":"EIDW 061830Z 22010KT 180V260 9999 -SHRA SCT018CB SCT050 BKN080 12/05 Q1007 WS RWY28 NOSIG","observationTime":"2019-06-06T18:30:00Z","temp":12,"dewpoint":5,"windDirection":220,"windSpeed":18.52,"visibility":6.21,"altim":29.734253,"flightCategory":"VFR","metarType":"SPECI","geometry_esri":{"x":53.42,"y":-6.25,"z":85}}}