{"type":"Feature","geometry":{"type":"Point","coordinates":[49.02,2.52,109]},"properties":{"stationId":"LFPG","rawText":"LFPG 091130Z 06010KT 020V120 CAVOK 21/05 Q1021 NOSIG","observationTime":"2019-07-09T11:30:00Z","temp":21,"dewpoint":5,"windDirection":60,"windSpeed":18.52,"visibility":6.21,"altim":30.147638,"flightCategory":"VFR","metarType":"METAR","geometry_esri":{"x":49.02,"y":2.52,"z":109}}}