{"type":"Feature","geometry":{"type":"Point","coordinates":[49.02,2.52,109]},"properties":{"stationId":"LFPG","rawText":"LFPG 311930Z 27004KT CAVOK 22/08 Q1018 NOSIG","observationTime":"2019-07-31T19:30:00Z","temp":22,"dewpoint":8,"windDirection":270,"windSpeed":7.408,"visibility":6.21,"altim":30.059055,"flightCategory":"VFR","metarType":"METAR","geometry_esri":{"x":49.02,"y":2.52,"z":109}}}