{"type":"Feature","geometry":{"type":"Point","coordinates":[48.35,11.82,447]},"properties":{"stationId":"EDDM","rawText":"EDDM 302050Z VRB01KT CAVOK 12/06 Q1026 NOSIG","observationTime":"2019-05-30T20:50:00Z","temp":12,"dewpoint":6,"windDirection":0,"windSpeed":1.852,"visibility":6.21,"altim":30.295275,"flightCategory":"VFR","metarType":"METAR","geometry_esri":{"x":48.35,"y":11.82,"z":447}}}