{"type":"Feature","geometry":{"type":"Point","coordinates":[47.78,13.02,430]},"properties":{"stationId":"LOWS","rawText":"LOWS 281750Z 33007KT CAVOK 26/11 Q1021 NOSIG","observationTime":"2019-06-28T17:50:00Z","temp":26,"dewpoint":11,"windDirection":330,"windSpeed":12.964,"visibility":6.21,"altim":30.147638,"flightCategory":"VFR","metarType":"METAR","geometry_esri":{"x":47.78,"y":13.02,"z":430}}}