{"type":"Feature","geometry":{"type":"Point","coordinates":[47.78,13.02,430]},"properties":{"stationId":"LOWS","rawText":"LOWS 090150Z AUTO VRB02KT 9999 -RA FEW028 BKN034 09/08 Q1014","observationTime":"2019-09-09T01:50:00Z","temp":9,"dewpoint":8,"windDirection":0,"windSpeed":3.704,"visibility":6.21,"altim":29.940945,"flightCategory":"VFR","metarType":"METAR","geometry_esri":{"x":47.78,"y":13.02,"z":430}}}