{"type":"Feature","geometry":{"type":"Point","coordinates":[49.02,2.52,109]},"properties":{"stationId":"LFPG","rawText":"LFPG 141930Z 29016KT 9999 SCT021 SCT029 11/08 Q1011 NOSIG","observationTime":"2019-03-14T19:30:00Z","temp":11,"dewpoint":8,"windDirection":290,"windSpeed":29.632,"visibility":6.21,"altim":29.852362,"flightCategory":"VFR","metarType":"METAR","geometry_esri":{"x":49.02,"y":2.52,"z":109}}}