{"type":"Feature","geometry":{"type":"Point","coordinates":[48.35,11.82,447]},"properties":{"stationId":"EDDM","rawText":"EDDM 220750Z 07008KT 040V100 9999 FEW018 17/12 Q1026 NOSIG","observationTime":"2019-08-22T07:50:00Z","temp":17,"dewpoint":12,"windDirection":70,"windSpeed":14.816,"visibility":6.21,"altim":30.295275,"flightCategory":"VFR","metarType":"METAR","geometry_esri":{"x":48.35,"y":11.82,"z":447}}}