{"type":"Feature","geometry":{"type":"Point","coordinates":[40.48,-3.57,582]},"properties":{"stationId":"LEMD","rawText":"LEMD 260630Z 12004KT 100V170 CAVOK 24/16 Q1018 NOSIG","observationTime":"2019-06-26T06:30:00Z","temp":24,"dewpoint":16,"windDirection":120,"windSpeed":7.408,"visibility":6.21,"altim":30.059055,"flightCategory":"VFR","metarType":"METAR","geometry_esri":{"x":40.48,"y":-3.57,"z":582}}}