{"type":"Feature","geometry":{"type":"Point","coordinates":[47.78,13.02,430]},"properties":{"stationId":"LOWS","rawText":"LOWS 030250Z AUTO 16008KT 9999 NSC 15/10 Q1017","observationTime":"2019-06-03T02:50:00Z","temp":15,"dewpoint":10,"windDirection":160,"windSpeed":14.816,"visibility":6.21,"altim":30.029528,"flightCategory":"VFR","metarType":"METAR","geometry_esri":{"x":47.78,"y":13.02,"z":430}}}