{"type":"Feature","geometry":{"type":"Point","coordinates":[49.02,2.52,109]},"properties":{"stationId":"LFPG","rawText":"LFPG 030730Z 08003KT 0250 R27L/0650N R09R/0650N R26R/0800D R08L/0900D R26L/0800N R08R/1000N R27R/0600N R09L/0450N FG VV/// 02/02 Q1030 NOSIG","observationTime":"2019-12-03T07:30:00Z","temp":2,"dewpoint":2,"windDirection":80,"windSpeed":5.556,"visibility":0.16,"altim":30.413385,"flightCategory":"LIFR","metarType":"SPECI","geometry_esri":{"x":49.02,"y":2.52,"z":109}}}