{"type":"Feature","geometry":{"type":"Point","coordinates":[51.48,-0.45,24]},"properties":{"stationId":"EGLL","rawText":"EGLL 242250Z AUTO 06002KT 8000 NCD 06/03 Q1037 NOSIG","observationTime":"2019-02-24T22:50:00Z","temp":6,"dewpoint":3,"windDirection":60,"windSpeed":3.704,"visibility":4.97,"altim":30.620079,"flightCategory":"MVFR","metarType":"METAR","geometry_esri":{"x":51.48,"y":-0.45,"z":24}}}