{"type":"Feature","geometry":{"type":"Point","coordinates":[48.35,11.82,447]},"properties":{"stationId":"EDDM","rawText":"EDDM 230650Z VRB02KT CAVOK 22/15 Q1024 NOSIG","observationTime":"2019-07-23T06:50:00Z","temp":22,"dewpoint":15,"windDirection":0,"windSpeed":3.704,"visibility":6.21,"altim":30.236221,"flightCategory":"VFR","metarType":"METAR","geometry_esri":{"x":48.35,"y":11.82,"z":447}}}