{"type":"Feature","geometry":{"type":"Point","coordinates":[49.02,2.52,109]},"properties":{"stationId":"LFPG","rawText":"LFPG 240630Z AUTO 15014KT 9999 FEW041 BKN140 16/12 Q1009 TEMPO 22015G25KT 2000 RA OVC008","observationTime":"2019-09-24T06:30:00Z","temp":16,"dewpoint":12,"windDirection":150,"windSpeed":25.928,"visibility":6.21,"altim":29.793306,"flightCategory":"VFR","metarType":"METAR","geometry_esri":{"x":49.02,"y":2.52,"z":109}}}