{"type":"Feature","geometry":{"type":"Point","coordinates":[51.48,-0.45,24]},"properties":{"stationId":"EGLL","rawText":"EGLL 200050Z AUTO 19008KT 9999 FEW046 07/05 Q1019","observationTime":"2019-02-20T00:50:00Z","temp":7,"dewpoint":5,"windDirection":190,"windSpeed":14.816,"visibility":6.21,"altim":30.088583,"flightCategory":"VFR","metarType":"METAR","geometry_esri":{"x":51.48,"y":-0.45,"z":24}}}