{"type":"Feature","geometry":{"type":"Point","coordinates":[40.48,-3.57,582]},"properties":{"stationId":"LEMD","rawText":"LEMD 071830Z 33006KT 310V010 CAVOK 09/M06 Q1028 NOSIG","observationTime":"2019-01-07T18:30:00Z","temp":9,"dewpoint":-6,"windDirection":330,"windSpeed":11.112,"visibility":6.21,"altim":30.35433,"flightCategory":"VFR","metarType":"METAR","geometry_esri":{"x":40.48,"y":-3.57,"z":582}}}