{"type":"Feature","geometry":{"type":"Point","coordinates":[53.42,-6.25,85]},"properties":{"stationId":"EIDW","rawText":"EIDW 220930Z 25011KT 9999 FEW010 SCT150 02/00 Q1001 R88/CLRD// NOSIG","observationTime":"2019-01-22T09:30:00Z","temp":2,"dewpoint":0,"windDirection":250,"windSpeed":20.372,"visibility":6.21,"altim":29.557087,"flightCategory":"VFR","metarType":"METAR","geometry_esri":{"x":53.42,"y":-6.25,"z":85}}}