{"type":"Feature","geometry":{"type":"Point","coordinates":[48.35,11.82,447]},"properties":{"stationId":"EDDM","rawText":"EDDM 011150Z 31005KT 250V350 9999 FEW047CB FEW050 30/17 Q1017 TEMPO 32020G30KT TSRA BKN040CB","observationTime":"2019-07-01T11:50:00Z","temp":30,"dewpoint":17,"windDirection":310,"windSpeed":9.26,"visibility":6.21,"altim":30.029528,"flightCategory":"VFR","metarType":"METAR","geometry_esri":{"x":48.35,"y":11.82,"z":447}}}