{"type":"Feature","geometry":{"type":"Point","coordinates":[47.78,13.02,430]},"properties":{"stationId":"LOWS","rawText":"LOWS 120150Z AUTO 30010KT 9999 FEW017 BKN022 02/M01 Q1027","observationTime":"2019-02-12T01:50:00Z","temp":2,"dewpoint":-1,"windDirection":300,"windSpeed":18.52,"visibility":6.21,"altim":30.324802,"flightCategory":"MVFR","metarType":"METAR","geometry_esri":{"x":47.78,"y":13.02,"z":430}}}