{"type":"Feature","geometry":{"type":"Point","coordinates":[53.42,-6.25,85]},"properties":{"stationId":"EIDW","rawText":"EIDW 250930Z 10004KT 0500 R16/P2000 R28/0275V0350N R10/1700U FG FEW001 BKN200 05/05 Q1029","observationTime":"2018-12-25T09:30:00Z","temp":5,"dewpoint":5,"windDirection":100,"windSpeed":7.408,"visibility":0.31,"altim":30.383858,"flightCategory":"LIFR","metarType":"SPECI","geometry_esri":{"x":53.42,"y":-6.25,"z":85}}}