{"type":"Feature","geometry":{"type":"Point","coordinates":[40.48,-3.57,582]},"properties":{"stationId":"LEMD","rawText":"LEMD 041730Z 12009KT 9999 FEW080 34/07 Q1014 NOSIG","observationTime":"2019-07-04T17:30:00Z","temp":34,"dewpoint":7,"windDirection":120,"windSpeed":16.668,"visibility":6.21,"altim":29.940945,"flightCategory":"VFR","metarType":"METAR","geometry_esri":{"x":40.48,"y":-3.57,"z":582}}}