{"type":"Feature","geometry":{"type":"Point","coordinates":[49.02,2.52,109]},"properties":{"stationId":"LFPG","rawText":"LFPG 031830Z 15008KT CAVOK 11/03 Q1016 NOSIG","observationTime":"2019-10-03T18:30:00Z","temp":11,"dewpoint":3,"windDirection":150,"windSpeed":14.816,"visibility":6.21,"altim":30,"flightCategory":"VFR","metarType":"METAR","geometry_esri":{"x":49.02,"y":2.52,"z":109}}}