{"type":"Feature","geometry":{"type":"Point","coordinates":[48.35,11.82,447]},"properties":{"stationId":"EDDM","rawText":"EDDM 121650Z 28008KT CAVOK 02/M03 Q1034 R88/190095 NOSIG","observationTime":"2019-02-12T16:50:00Z","temp":2,"dewpoint":-3,"windDirection":280,"windSpeed":14.816,"visibility":6.21,"altim":30.531496,"flightCategory":"VFR","metarType":"SPECI","geometry_esri":{"x":48.35,"y":11.82,"z":447}}}