{"type":"Feature","geometry":{"type":"Point","coordinates":[49.02,2.52,109]},"properties":{"stationId":"LFPG","rawText":"LFPG 201230Z 06017KT CAVOK 22/M01 Q1022 NOSIG","observationTime":"2019-09-20T12:30:00Z","temp":22,"dewpoint":-1,"windDirection":60,"windSpeed":31.484,"visibility":6.21,"altim":30.177166,"flightCategory":"VFR","metarType":"METAR","geometry_esri":{"x":49.02,"y":2.52,"z":109}}}