{"type":"Feature","geometry":{"type":"Point","coordinates":[51.48,-0.45,24]},"properties":{"stationId":"EGLL","rawText":"EGLL 091650Z AUTO 05009KT 020V080 9999 NCD 11/05 Q1014","observationTime":"2019-04-09T16:50:00Z","temp":11,"dewpoint":5,"windDirection":50,"windSpeed":16.668,"visibility":6.21,"altim":29.940945,"flightCategory":"VFR","metarType":"METAR","geometry_esri":{"x":51.48,"y":-0.45,"z":24}}}