{"type":"Feature","geometry":{"type":"Point","coordinates":[49.02,2.52,109]},"properties":{"stationId":"LFPG","rawText":"LFPG 201330Z VRB02KT 9999 FEW035 BKN045 13/04 Q1034 NOSIG","observationTime":"2019-03-20T13:30:00Z","temp":13,"dewpoint":4,"windDirection":0,"windSpeed":3.704,"visibility":6.21,"altim":30.531496,"flightCategory":"VFR","metarType":"METAR","geometry_esri":{"x":49.02,"y":2.52,"z":109}}}