{"type":"Feature","geometry":{"type":"Point","coordinates":[51.48,-0.45,24]},"properties":{"stationId":"EGLL","rawText":"EGLL 231050Z AUTO 32007KT 280V350 9999 BKN013 BKN017 02/00 Q1003 BECMG SCT012 BKN018","observationTime":"2019-01-23T10:50:00Z","temp":2,"dewpoint":0,"windDirection":320,"windSpeed":12.964,"visibility":6.21,"altim":29.616142,"flightCategory":"MVFR","metarType":"SPECI","geometry_esri":{"x":51.48,"y":-0.45,"z":24}}}