{"type":"Feature","geometry":{"type":"Point","coordinates":[48.35,11.82,447]},"properties":{"stationId":"EDDM","rawText":"EDDM 090250Z VRB02KT CAVOK M03/M04 Q1012 NOSIG","observationTime":"2019-02-09T02:50:00Z","temp":-3,"dewpoint":-4,"windDirection":0,"windSpeed":3.704,"visibility":6.21,"altim":29.88189,"flightCategory":"VFR","metarType":"METAR","geometry_esri":{"x":48.35,"y":11.82,"z":447}}}