{"type":"Feature","geometry":{"type":"Point","coordinates":[51.48,-0.45,24]},"properties":{"stationId":"EGLL","rawText":"EGLL 250650Z AUTO 20008KT 170V240 9999 NCD 10/10 Q1014 NOSIG","observationTime":"2019-10-25T06:50:00Z","temp":10,"dewpoint":10,"windDirection":200,"windSpeed":14.816,"visibility":6.21,"altim":29.940945,"flightCategory":"VFR","metarType":"METAR","geometry_esri":{"x":51.48,"y":-0.45,"z":24}}}