{"type":"Feature","geometry":{"type":"Point","coordinates":[51.48,-0.45,24]},"properties":{"stationId":"EGLL","rawText":"EGLL 271150Z AUTO 33004KT 270V040 9999 OVC035 11/03 Q1036","observationTime":"2019-03-27T11:50:00Z","temp":11,"dewpoint":3,"windDirection":330,"windSpeed":7.408,"visibility":6.21,"altim":30.590551,"flightCategory":"VFR","metarType":"METAR","geometry_esri":{"x":51.48,"y":-0.45,"z":24}}}