{"type":"Feature","geometry":{"type":"Point","coordinates":[40.48,-3.57,582]},"properties":{"stationId":"LEMD","rawText":"LEMD 222130Z 00000KT CAVOK 15/08 Q1019 NOSIG","observationTime":"2019-09-22T21:30:00Z","temp":15,"dewpoint":8,"windDirection":0,"windSpeed":0,"visibility":6.21,"altim":30.088583,"flightCategory":"VFR","metarType":"METAR","geometry_esri":{"x":40.48,"y":-3.57,"z":582}}}