{"type":"Feature","geometry":{"type":"Point","coordinates":[47.78,13.02,430]},"properties":{"stationId":"LOWS","rawText":"LOWS 080550Z 17004KT 9999 FEW004 SCT026 BKN034 17/16 Q1016 NOSIG","observationTime":"2019-08-08T05:50:00Z","temp":17,"dewpoint":16,"windDirection":170,"windSpeed":7.408,"visibility":6.21,"altim":30,"flightCategory":"VFR","metarType":"METAR","geometry_esri":{"x":47.78,"y":13.02,"z":430}}}