{"type":"Feature","geometry":{"type":"Point","coordinates":[53.42,-6.25,85]},"properties":{"stationId":"EIDW","rawText":"EIDW 270130Z 04009KT 9999 FEW024 12/11 Q1031 NOSIG","observationTime":"2019-06-27T01:30:00Z","temp":12,"dewpoint":11,"windDirection":40,"windSpeed":16.668,"visibility":6.21,"altim":30.442913,"flightCategory":"VFR","metarType":"METAR","geometry_esri":{"x":53.42,"y":-6.25,"z":85}}}