{"type":"Feature","geometry":{"type":"Point","coordinates":[51.48,-0.45,24]},"properties":{"stationId":"EGLL","rawText":"EGLL 260150Z 15003KT 3000 -DZ BR SCT004 BKN008 OVC024 07/07 Q1032 NOSIG","observationTime":"2018-12-26T01:50:00Z","temp":7,"dewpoint":7,"windDirection":150,"windSpeed":5.556,"visibility":1.86,"altim":30.47244,"flightCategory":"IFR","metarType":"METAR","geometry_esri":{"x":51.48,"y":-0.45,"z":24}}}