{"type":"Feature","geometry":{"type":"Point","coordinates":[49.02,2.52,109]},"properties":{"stationId":"LFPG","rawText":"LFPG 011730Z 29009KT 250V310 9999 FEW030 FEW050CB 23/13 Q1020 NOSIG","observationTime":"2019-07-01T17:30:00Z","temp":23,"dewpoint":13,"windDirection":290,"windSpeed":16.668,"visibility":6.21,"altim":30.11811,"flightCategory":"VFR","metarType":"METAR","geometry_esri":{"x":49.02,"y":2.52,"z":109}}}