{"type":"Feature","geometry":{"type":"Point","coordinates":[40.48,-3.57,582]},"properties":{"stationId":"LEMD","rawText":"LEMD 081230Z 32004KT 250V010 CAVOK 10/M05 Q1029 NOSIG","observationTime":"2019-01-08T12:30:00Z","temp":10,"dewpoint":-5,"windDirection":320,"windSpeed":7.408,"visibility":6.21,"altim":30.383858,"flightCategory":"VFR","metarType":"METAR","geometry_esri":{"x":40.48,"y":-3.57,"z":582}}}