{"type":"Feature","geometry":{"type":"Point","coordinates":[51.48,-0.45,24]},"properties":{"stationId":"EGLL","rawText":"EGLL 152250Z AUTO 06005KT 6000 NCD 09/04 Q1015 NOSIG","observationTime":"2019-04-15T22:50:00Z","temp":9,"dewpoint":4,"windDirection":60,"windSpeed":9.26,"visibility":3.73,"altim":29.970472,"flightCategory":"MVFR","metarType":"METAR","geometry_esri":{"x":51.48,"y":-0.45,"z":24}}}