{"type":"Feature","geometry":{"type":"Point","coordinates":[53.42,-6.25,85]},"properties":{"stationId":"EIDW","rawText":"EIDW 121230Z 28014KT 9999 BKN020 BKN030 17/13 Q1020 NOSIG","observationTime":"2019-07-12T12:30:00Z","temp":17,"dewpoint":13,"windDirection":280,"windSpeed":25.928,"visibility":6.21,"altim":30.11811,"flightCategory":"MVFR","metarType":"METAR","geometry_esri":{"x":53.42,"y":-6.25,"z":85}}}