{"type":"Feature","geometry":{"type":"Point","coordinates":[40.48,-3.57,582]},"properties":{"stationId":"LEMD","rawText":"LEMD 231130Z 23003KT CAVOK 29/11 Q1021 NOSIG","observationTime":"2019-08-23T11:30:00Z","temp":29,"dewpoint":11,"windDirection":230,"windSpeed":5.556,"visibility":6.21,"altim":30.147638,"flightCategory":"VFR","metarType":"METAR","geometry_esri":{"x":40.48,"y":-3.57,"z":582}}}