{"type":"Feature","geometry":{"type":"Point","coordinates":[47.78,13.02,430]},"properties":{"stationId":"LOWS","rawText":"LOWS 241350Z 33006KT 9999 FEW045 FEW050CB SCT055 BKN300 27/20 Q1019 TEMPO TSRA","observationTime":"2019-08-24T13:50:00Z","temp":27,"dewpoint":20,"windDirection":330,"windSpeed":11.112,"visibility":6.21,"altim":30.088583,"flightCategory":"VFR","metarType":"METAR","geometry_esri":{"x":47.78,"y":13.02,"z":430}}}