{"type":"Feature","geometry":{"type":"Point","coordinates":[53.42,-6.25,85]},"properties":{"stationId":"EIDW","rawText":"EIDW 120030Z 24009KT 200V280 9999 FEW015 03/01 Q1001 NOSIG","observationTime":"2019-11-12T00:30:00Z","temp":3,"dewpoint":1,"windDirection":240,"windSpeed":16.668,"visibility":6.21,"altim":29.557087,"flightCategory":"VFR","metarType":"METAR","geometry_esri":{"x":53.42,"y":-6.25,"z":85}}}