{"type":"Feature","geometry":{"type":"Point","coordinates":[53.42,-6.25,85]},"properties":{"stationId":"EIDW","rawText":"EIDW 011830Z 30009KT 9999 FEW020 M00/M03 Q1001 NOSIG","observationTime":"2019-02-01T18:30:00Z","temp":0,"dewpoint":-3,"windDirection":300,"windSpeed":16.668,"visibility":6.21,"altim":29.557087,"flightCategory":"VFR","metarType":"METAR","geometry_esri":{"x":53.42,"y":-6.25,"z":85}}}