{"type":"Feature","geometry":{"type":"Point","coordinates":[40.48,-3.57,582]},"properties":{"stationId":"LEMD","rawText":"LEMD 151130Z 21002KT CAVOK 11/02 Q1029 NOSIG","observationTime":"2019-02-15T11:30:00Z","temp":11,"dewpoint":2,"windDirection":210,"windSpeed":3.704,"visibility":6.21,"altim":30.383858,"flightCategory":"VFR","metarType":"METAR","geometry_esri":{"x":40.48,"y":-3.57,"z":582}}}