{"type":"Feature","geometry":{"type":"Point","coordinates":[53.42,-6.25,85]},"properties":{"stationId":"EIDW","rawText":"EIDW 291630Z 13011KT 9999 SCT007 SCT009 BKN016 11/08 Q1023 NOSIG","observationTime":"2019-04-29T16:30:00Z","temp":11,"dewpoint":8,"windDirection":130,"windSpeed":20.372,"visibility":6.21,"altim":30.206694,"flightCategory":"MVFR","metarType":"METAR","geometry_esri":{"x":53.42,"y":-6.25,"z":85}}}