{"type":"Feature","geometry":{"type":"Point","coordinates":[49.02,2.52,109]},"properties":{"stationId":"LFPG","rawText":"LFPG 101830Z 05005KT CAVOK 03/01 Q1028 NOSIG","observationTime":"2019-01-10T18:30:00Z","temp":3,"dewpoint":1,"windDirection":50,"windSpeed":9.26,"visibility":6.21,"altim":30.35433,"flightCategory":"VFR","metarType":"METAR","geometry_esri":{"x":49.02,"y":2.52,"z":109}}}