{"type":"Feature","geometry":{"type":"Point","coordinates":[47.78,13.02,430]},"properties":{"stationId":"LOWS","rawText":"LOWS 291750Z 16004KT 9999 FEW070 15/13 Q1008 NOSIG","observationTime":"2019-09-29T17:50:00Z","temp":15,"dewpoint":13,"windDirection":160,"windSpeed":7.408,"visibility":6.21,"altim":29.763779,"flightCategory":"VFR","metarType":"METAR","geometry_esri":{"x":47.78,"y":13.02,"z":430}}}