{"type":"Feature","geometry":{"type":"Point","coordinates":[51.48,-0.45,24]},"properties":{"stationId":"EGLL","rawText":"EGLL 170150Z AUTO 17002KT 9999 NCD 10/08 Q1007 NOSIG","observationTime":"2019-10-17T01:50:00Z","temp":10,"dewpoint":8,"windDirection":170,"windSpeed":3.704,"visibility":6.21,"altim":29.734253,"flightCategory":"VFR","metarType":"METAR","geometry_esri":{"x":51.48,"y":-0.45,"z":24}}}