{"type":"Feature","geometry":{"type":"Point","coordinates":[48.35,11.82,447]},"properties":{"stationId":"EDDM","rawText":"EDDM 311150Z 20005KT 160V230 9999 VCSH SCT032CB 18/11 Q1027 NOSIG","observationTime":"2019-05-31T11:50:00Z","temp":18,"dewpoint":11,"windDirection":200,"windSpeed":9.26,"visibility":6.21,"altim":30.324802,"flightCategory":"VFR","metarType":"METAR","geometry_esri":{"x":48.35,"y":11.82,"z":447}}}