{"type":"Feature","geometry":{"type":"Point","coordinates":[40.48,-3.57,582]},"properties":{"stationId":"LEMD","rawText":"LEMD 120930Z 03008KT 330V080 CAVOK 23/09 Q1028 NOSIG","observationTime":"2019-09-12T09:30:00Z","temp":23,"dewpoint":9,"windDirection":30,"windSpeed":14.816,"visibility":6.21,"altim":30.35433,"flightCategory":"VFR","metarType":"METAR","geometry_esri":{"x":40.48,"y":-3.57,"z":582}}}