{"type":"Feature","geometry":{"type":"Point","coordinates":[47.78,13.02,430]},"properties":{"stationId":"LOWS","rawText":"LOWS 221050Z 33006KT 300V360 9999 FEW018 BKN027 19/14 Q1026 NOSIG","observationTime":"2019-08-22T10:50:00Z","temp":19,"dewpoint":14,"windDirection":330,"windSpeed":11.112,"visibility":6.21,"altim":30.295275,"flightCategory":"MVFR","metarType":"METAR","geometry_esri":{"x":47.78,"y":13.02,"z":430}}}