{"type":"Feature","geometry":{"type":"Point","coordinates":[49.02,2.52,109]},"properties":{"stationId":"LFPG","rawText":"LFPG 080130Z 32002KT CAVOK 08/05 Q1009 NOSIG","observationTime":"2019-04-08T01:30:00Z","temp":8,"dewpoint":5,"windDirection":320,"windSpeed":3.704,"visibility":6.21,"altim":29.793306,"flightCategory":"VFR","metarType":"METAR","geometry_esri":{"x":49.02,"y":2.52,"z":109}}}