{"type":"Feature","geometry":{"type":"Point","coordinates":[48.35,11.82,447]},"properties":{"stationId":"EDDM","rawText":"EDDM 061350Z 10009KT CAVOK 12/04 Q1007 NOSIG","observationTime":"2019-03-06T13:50:00Z","temp":12,"dewpoint":4,"windDirection":100,"windSpeed":16.668,"visibility":6.21,"altim":29.734253,"flightCategory":"VFR","metarType":"METAR","geometry_esri":{"x":48.35,"y":11.82,"z":447}}}