{"type":"Feature","geometry":{"type":"Point","coordinates":[48.35,11.82,447]},"properties":{"stationId":"EDDM","rawText":"EDDM 151250Z 06005KT 030V100 CAVOK 10/02 Q1033 NOSIG","observationTime":"2019-02-15T12:50:00Z","temp":10,"dewpoint":2,"windDirection":60,"windSpeed":9.26,"visibility":6.21,"altim":30.501968,"flightCategory":"VFR","metarType":"METAR","geometry_esri":{"x":48.35,"y":11.82,"z":447}}}