{"type":"Feature","geometry":{"type":"Point","coordinates":[53.42,-6.25,85]},"properties":{"stationId":"EIDW","rawText":"EIDW 081730Z 09011KT 9999 FEW012 BKN220 16/13 Q1007 NOSIG","observationTime":"2019-08-08T17:30:00Z","temp":16,"dewpoint":13,"windDirection":90,"windSpeed":20.372,"visibility":6.21,"altim":29.734253,"flightCategory":"VFR","metarType":"METAR","geometry_esri":{"x":53.42,"y":-6.25,"z":85}}}