{"type":"Feature","geometry":{"type":"Point","coordinates":[48.35,11.82,447]},"properties":{"stationId":"EDDM","rawText":"EDDM 180850Z 25011KT 9999 VCSH FEW020TCU SCT045 00/M03 Q1018 TEMPO 4000 -SHSN","observationTime":"2019-01-18T08:50:00Z","temp":0,"dewpoint":-3,"windDirection":250,"windSpeed":20.372,"visibility":6.21,"altim":30.059055,"flightCategory":"VFR","metarType":"METAR","geometry_esri":{"x":48.35,"y":11.82,"z":447}}}