{"type":"Feature","geometry":{"type":"Point","coordinates":[48.35,11.82,447]},"properties":{"stationId":"EDDM","rawText":"EDDM 020950Z 12010G24KT 060V150 9999 FEW042 24/14 Q1020 NOSIG","observationTime":"2019-06-02T09:50:00Z","temp":24,"dewpoint":14,"windDirection":120,"windSpeed":18.52,"visibility":6.21,"altim":30.11811,"flightCategory":"VFR","metarType":"METAR","geometry_esri":{"x":48.35,"y":11.82,"z":447}}}