{"type":"Feature","geometry":{"type":"Point","coordinates":[53.42,-6.25,85]},"properties":{"stationId":"EIDW","rawText":"EIDW 180630Z 24012G22KT 190V270 9999 FEW015 SCT140 BKN200 12/09 Q0997 NOSIG","observationTime":"2019-08-18T06:30:00Z","temp":12,"dewpoint":9,"windDirection":240,"windSpeed":22.224,"visibility":6.21,"altim":29.438976,"flightCategory":"VFR","metarType":"METAR","geometry_esri":{"x":53.42,"y":-6.25,"z":85}}}