{"type":"Feature","geometry":{"type":"Point","coordinates":[40.48,-3.57,582]},"properties":{"stationId":"LEMD","rawText":"LEMD 272030Z 34006KT CAVOK 22/05 Q1020 NOSIG","observationTime":"2019-09-27T20:30:00Z","temp":22,"dewpoint":5,"windDirection":340,"windSpeed":11.112,"visibility":6.21,"altim":30.11811,"flightCategory":"VFR","metarType":"METAR","geometry_esri":{"x":40.48,"y":-3.57,"z":582}}}