{"type":"Feature","geometry":{"type":"Point","coordinates":[51.48,-0.45,24]},"properties":{"stationId":"EGLL","rawText":"EGLL 271550Z AUTO 29005KT 9999 FEW012 BKN033 BKN040 11/10 Q0982 TEMPO BKN008","observationTime":"2019-11-27T15:50:00Z","temp":11,"dewpoint":10,"windDirection":290,"windSpeed":9.26,"visibility":6.21,"altim":28.996063,"flightCategory":"VFR","metarType":"METAR","geometry_esri":{"x":51.48,"y":-0.45,"z":24}}}