{"type":"Feature","geometry":{"type":"Point","coordinates":[47.78,13.02,430]},"properties":{"stationId":"LOWS","rawText":"LOWS 062150Z AUTO 33007KT 9999 FEW022 BKN030 14/11 Q1017","observationTime":"2019-06-06T21:50:00Z","temp":14,"dewpoint":11,"windDirection":330,"windSpeed":12.964,"visibility":6.21,"altim":30.029528,"flightCategory":"MVFR","metarType":"METAR","geometry_esri":{"x":47.78,"y":13.02,"z":430}}}