{"type":"Feature","geometry":{"type":"Point","coordinates":[40.48,-3.57,582]},"properties":{"stationId":"LEMD","rawText":"LEMD 260330Z 02008KT 330V090 CAVOK 07/M01 Q1020 WS R32L NOSIG","observationTime":"2019-03-26T03:30:00Z","temp":7,"dewpoint":-1,"windDirection":20,"windSpeed":14.816,"visibility":6.21,"altim":30.11811,"flightCategory":"VFR","metarType":"SPECI","geometry_esri":{"x":40.48,"y":-3.57,"z":582}}}