{"type":"Feature","geometry":{"type":"Point","coordinates":[49.02,2.52,109]},"properties":{"stationId":"LFPG","rawText":"LFPG 242330Z VRB06KT 3000 -RA FEW004 SCT013 BKN022 01/01 Q1014 NOSIG","observationTime":"2019-01-24T23:30:00Z","temp":1,"dewpoint":1,"windDirection":0,"windSpeed":11.112,"visibility":1.86,"altim":29.940945,"flightCategory":"IFR","metarType":"METAR","geometry_esri":{"x":49.02,"y":2.52,"z":109}}}