{"type":"Feature","geometry":{"type":"Point","coordinates":[49.02,2.52,109]},"properties":{"stationId":"LFPG","rawText":"LFPG 130730Z 04010KT 360V090 CAVOK 10/04 Q1037 NOSIG","observationTime":"2019-05-13T07:30:00Z","temp":10,"dewpoint":4,"windDirection":40,"windSpeed":18.52,"visibility":6.21,"altim":30.620079,"flightCategory":"VFR","metarType":"METAR","geometry_esri":{"x":49.02,"y":2.52,"z":109}}}