{"type":"Feature","geometry":{"type":"Point","coordinates":[51.48,-0.45,24]},"properties":{"stationId":"EGLL","rawText":"EGLL 052050Z AUTO 36007KT 320V030 9999 BKN011 BKN016 OVC022 10/09 Q1004 TEMPO BKN009","observationTime":"2019-11-05T20:50:00Z","temp":10,"dewpoint":9,"windDirection":360,"windSpeed":12.964,"visibility":6.21,"altim":29.64567,"flightCategory":"MVFR","metarType":"SPECI","geometry_esri":{"x":51.48,"y":-0.45,"z":24}}}