{"type":"Feature","geometry":{"type":"Point","coordinates":[49.02,2.52,109]},"properties":{"stationId":"LFPG","rawText":"LFPG 270430Z 29007KT 9999 SCT012 BKN020 15/12 Q1012 TEMPO BKN013","observationTime":"2019-05-27T04:30:00Z","temp":15,"dewpoint":12,"windDirection":290,"windSpeed":12.964,"visibility":6.21,"altim":29.88189,"flightCategory":"MVFR","metarType":"SPECI","geometry_esri":{"x":49.02,"y":2.52,"z":109}}}