{"type":"Feature","geometry":{"type":"Point","coordinates":[49.02,2.52,109]},"properties":{"stationId":"LFPG","rawText":"LFPG 211530Z VRB03KT CAVOK 15/07 Q1029 NOSIG","observationTime":"2019-02-21T15:30:00Z","temp":15,"dewpoint":7,"windDirection":0,"windSpeed":5.556,"visibility":6.21,"altim":30.383858,"flightCategory":"VFR","metarType":"METAR","geometry_esri":{"x":49.02,"y":2.52,"z":109}}}