{"type":"Feature","geometry":{"type":"Point","coordinates":[49.02,2.52,109]},"properties":{"stationId":"LFPG","rawText":"LFPG 161430Z 06013KT 030V090 CAVOK 17/04 Q1013 NOSIG","observationTime":"2019-05-16T14:30:00Z","temp":17,"dewpoint":4,"windDirection":60,"windSpeed":24.076,"visibility":6.21,"altim":29.911417,"flightCategory":"VFR","metarType":"METAR","geometry_esri":{"x":49.02,"y":2.52,"z":109}}}