{"type":"Feature","geometry":{"type":"Point","coordinates":[49.02,2.52,109]},"properties":{"stationId":"LFPG","rawText":"LFPG 271930Z 20010KT 180V240 9999 FEW064TCU BKN120 BKN200 28/13 Q1015 RETS TEMPO VRB15G25KT 4000 TSRA SCT060CB","observationTime":"2019-08-27T19:30:00Z","temp":28,"dewpoint":13,"windDirection":200,"windSpeed":18.52,"visibility":6.21,"altim":29.970472,"flightCategory":"VFR","metarType":"SPECI","geometry_esri":{"x":49.02,"y":2.52,"z":109}}}