{"type":"Feature","geometry":{"type":"Point","coordinates":[48.35,11.82,447]},"properties":{"stationId":"EDDM","rawText":"EDDM 261250Z 28010KT 250V310 9999 FEW030 06/M02 Q1028 NOSIG","observationTime":"2019-03-26T12:50:00Z","temp":6,"dewpoint":-2,"windDirection":280,"windSpeed":18.52,"visibility":6.21,"altim":30.35433,"flightCategory":"VFR","metarType":"METAR","geometry_esri":{"x":48.35,"y":11.82,"z":447}}}