{"type":"Feature","geometry":{"type":"Point","coordinates":[51.48,-0.45,24]},"properties":{"stationId":"EGLL","rawText":"EGLL 191350Z AUTO 11005KT 030V150 9999 NCD 21/08 Q1030 NOSIG","observationTime":"2019-09-19T13:50:00Z","temp":21,"dewpoint":8,"windDirection":110,"windSpeed":9.26,"visibility":6.21,"altim":30.413385,"flightCategory":"VFR","metarType":"METAR","geometry_esri":{"x":51.48,"y":-0.45,"z":24}}}