{"type":"Feature","geometry":{"type":"Point","coordinates":[40.48,-3.57,582]},"properties":{"stationId":"LEMD","rawText":"LEMD 080430Z VRB02KT CAVOK 05/04 Q1018 NOSIG","observationTime":"2019-03-08T04:30:00Z","temp":5,"dewpoint":4,"windDirection":0,"windSpeed":3.704,"visibility":6.21,"altim":30.059055,"flightCategory":"VFR","metarType":"METAR","geometry_esri":{"x":40.48,"y":-3.57,"z":582}}}