{"type":"Feature","geometry":{"type":"Point","coordinates":[40.48,-3.57,582]},"properties":{"stationId":"LEMD","rawText":"LEMD 022030Z 01005KT 340V050 CAVOK 19/06 Q1020 NOSIG","observationTime":"2019-10-02T20:30:00Z","temp":19,"dewpoint":6,"windDirection":10,"windSpeed":9.26,"visibility":6.21,"altim":30.11811,"flightCategory":"VFR","metarType":"METAR","geometry_esri":{"x":40.48,"y":-3.57,"z":582}}}