{"type":"Feature","geometry":{"type":"Point","coordinates":[40.48,-3.57,582]},"properties":{"stationId":"LEMD","rawText":"LEMD 030730Z 11003KT 020V180 CAVOK 22/06 Q1018 NOSIG","observationTime":"2019-06-03T07:30:00Z","temp":22,"dewpoint":6,"windDirection":110,"windSpeed":5.556,"visibility":6.21,"altim":30.059055,"flightCategory":"VFR","metarType":"METAR","geometry_esri":{"x":40.48,"y":-3.57,"z":582}}}