{"type":"Feature","geometry":{"type":"Point","coordinates":[49.02,2.52,109]},"properties":{"stationId":"LFPG","rawText":"LFPG 141130Z 17010KT 130V190 9999 SCT036 21/11 Q1018 NOSIG","observationTime":"2019-08-14T11:30:00Z","temp":21,"dewpoint":11,"windDirection":170,"windSpeed":18.52,"visibility":6.21,"altim":30.059055,"flightCategory":"VFR","metarType":"METAR","geometry_esri":{"x":49.02,"y":2.52,"z":109}}}