{"type":"Feature","geometry":{"type":"Point","coordinates":[47.78,13.02,430]},"properties":{"stationId":"LOWS","rawText":"LOWS 240050Z AUTO VRB01KT 7000 FEW002 SCT250 16/15 Q1022","observationTime":"2019-08-24T00:50:00Z","temp":16,"dewpoint":15,"windDirection":0,"windSpeed":1.852,"visibility":4.35,"altim":30.177166,"flightCategory":"MVFR","metarType":"METAR","geometry_esri":{"x":47.78,"y":13.02,"z":430}}}