{"type":"Feature","geometry":{"type":"Point","coordinates":[48.35,11.82,447]},"properties":{"stationId":"EDDM","rawText":"EDDM 161350Z 08005KT 010V110 9999 BKN027 10/05 Q1013 NOSIG","observationTime":"2019-05-16T13:50:00Z","temp":10,"dewpoint":5,"windDirection":80,"windSpeed":9.26,"visibility":6.21,"altim":29.911417,"flightCategory":"MVFR","metarType":"METAR","geometry_esri":{"x":48.35,"y":11.82,"z":447}}}