{"type":"Feature","geometry":{"type":"Point","coordinates":[53.42,-6.25,85]},"properties":{"stationId":"EIDW","rawText":"EIDW 151630Z 12009KT CAVOK 17/06 Q1023 NOSIG","observationTime":"2019-05-15T16:30:00Z","temp":17,"dewpoint":6,"windDirection":120,"windSpeed":16.668,"visibility":6.21,"altim":30.206694,"flightCategory":"VFR","metarType":"METAR","geometry_esri":{"x":53.42,"y":-6.25,"z":85}}}