{"type":"Feature","geometry":{"type":"Point","coordinates":[40.48,-3.57,582]},"properties":{"stationId":"LEMD","rawText":"LEMD 251630Z 21003KT 160V270 CAVOK 20/01 Q1028 NOSIG","observationTime":"2019-02-25T16:30:00Z","temp":20,"dewpoint":1,"windDirection":210,"windSpeed":5.556,"visibility":6.21,"altim":30.35433,"flightCategory":"VFR","metarType":"METAR","geometry_esri":{"x":40.48,"y":-3.57,"z":582}}}