{"type":"Feature","geometry":{"type":"Point","coordinates":[40.48,-3.57,582]},"properties":{"stationId":"LEMD","rawText":"LEMD 201130Z VRB01KT 9000 SCT009 BKN012 08/06 Q1027 NOSIG","observationTime":"2018-12-20T11:30:00Z","temp":8,"dewpoint":6,"windDirection":0,"windSpeed":1.852,"visibility":5.59,"altim":30.324802,"flightCategory":"MVFR","metarType":"METAR","geometry_esri":{"x":40.48,"y":-3.57,"z":582}}}