{"type":"Feature","geometry":{"type":"Point","coordinates":[40.48,-3.57,582]},"properties":{"stationId":"LEMD","rawText":"LEMD 011530Z 23023G38KT 190V250 9999 FEW020 BKN035 07/04 Q0991 RERA NOSIG","observationTime":"2019-02-01T15:30:00Z","temp":7,"dewpoint":4,"windDirection":230,"windSpeed":42.596000000000004,"visibility":6.21,"altim":29.26181,"flightCategory":"VFR","metarType":"METAR","geometry_esri":{"x":40.48,"y":-3.57,"z":582}}}