{"type":"Feature","geometry":{"type":"Point","coordinates":[40.48,-3.57,582]},"properties":{"stationId":"LEMD","rawText":"LEMD 181030Z 02011KT 340V100 CAVOK 11/M03 Q1025 NOSIG","observationTime":"2019-03-18T10:30:00Z","temp":11,"dewpoint":-3,"windDirection":20,"windSpeed":20.372,"visibility":6.21,"altim":30.265747,"flightCategory":"VFR","metarType":"METAR","geometry_esri":{"x":40.48,"y":-3.57,"z":582}}}