{"type":"Feature","geometry":{"type":"Point","coordinates":[47.78,13.02,430]},"properties":{"stationId":"LOWS","rawText":"LOWS 131850Z 17006KT 9999 FEW060 SCT130 04/M01 Q1012 NOSIG","observationTime":"2019-03-13T18:50:00Z","temp":4,"dewpoint":-1,"windDirection":170,"windSpeed":11.112,"visibility":6.21,"altim":29.88189,"flightCategory":"VFR","metarType":"METAR","geometry_esri":{"x":47.78,"y":13.02,"z":430}}}