{"type":"Feature","geometry":{"type":"Point","coordinates":[48.35,11.82,447]},"properties":{"stationId":"EDDM","rawText":"EDDM 051350Z 06004KT 020V100 9999 BKN023 08/02 Q1003 NOSIG","observationTime":"2019-04-05T13:50:00Z","temp":8,"dewpoint":2,"windDirection":60,"windSpeed":7.408,"visibility":6.21,"altim":29.616142,"flightCategory":"MVFR","metarType":"METAR","geometry_esri":{"x":48.35,"y":11.82,"z":447}}}