{"type":"Feature","geometry":{"type":"Point","coordinates":[48.35,11.82,447]},"properties":{"stationId":"EDDM","rawText":"EDDM 201150Z 29005KT 240V330 9999 FEW024 BKN032 08/03 Q1025 NOSIG","observationTime":"2019-02-20T11:50:00Z","temp":8,"dewpoint":3,"windDirection":290,"windSpeed":9.26,"visibility":6.21,"altim":30.265747,"flightCategory":"VFR","metarType":"METAR","geometry_esri":{"x":48.35,"y":11.82,"z":447}}}