{"type":"Feature","geometry":{"type":"Point","coordinates":[47.78,13.02,430]},"properties":{"stationId":"LOWS","rawText":"LOWS 160150Z AUTO 26013G23KT 220V290 9999 FEW044 SCT050 BKN070 11/06 Q1011","observationTime":"2019-03-16T01:50:00Z","temp":11,"dewpoint":6,"windDirection":260,"windSpeed":24.076,"visibility":6.21,"altim":29.852362,"flightCategory":"VFR","metarType":"METAR","geometry_esri":{"x":47.78,"y":13.02,"z":430}}}