{"type":"Feature","geometry":{"type":"Point","coordinates":[47.78,13.02,430]},"properties":{"stationId":"LOWS","rawText":"LOWS 011450Z 29005KT 270V330 9999 FEW060 SCT110 BKN150 26/17 Q1013 NOSIG","observationTime":"2019-09-01T14:50:00Z","temp":26,"dewpoint":17,"windDirection":290,"windSpeed":9.26,"visibility":6.21,"altim":29.911417,"flightCategory":"VFR","metarType":"METAR","geometry_esri":{"x":47.78,"y":13.02,"z":430}}}