{"type":"Feature","geometry":{"type":"Point","coordinates":[40.48,-3.57,582]},"properties":{"stationId":"LEMD","rawText":"LEMD 210830Z 02008KT 340V070 9999 SCT025 BKN075 11/06 Q1013 NOSIG","observationTime":"2019-04-21T08:30:00Z","temp":11,"dewpoint":6,"windDirection":20,"windSpeed":14.816,"visibility":6.21,"altim":29.911417,"flightCategory":"VFR","metarType":"METAR","geometry_esri":{"x":40.48,"y":-3.57,"z":582}}}