{"type":"Feature","geometry":{"type":"Point","coordinates":[40.48,-3.57,582]},"properties":{"stationId":"LEMD","rawText":"LEMD 262130Z 01009KT 330V040 CAVOK 22/07 Q1017 NOSIG","observationTime":"2019-05-26T21:30:00Z","temp":22,"dewpoint":7,"windDirection":10,"windSpeed":16.668,"visibility":6.21,"altim":30.029528,"flightCategory":"VFR","metarType":"METAR","geometry_esri":{"x":40.48,"y":-3.57,"z":582}}}