{"type":"Feature","geometry":{"type":"Point","coordinates":[49.02,2.52,109]},"properties":{"stationId":"LFPG","rawText":"LFPG 201730Z 13004KT 9999 FEW032 11/05 Q1024 NOSIG","observationTime":"2019-02-20T17:30:00Z","temp":11,"dewpoint":5,"windDirection":130,"windSpeed":7.408,"visibility":6.21,"altim":30.236221,"flightCategory":"VFR","metarType":"METAR","geometry_esri":{"x":49.02,"y":2.52,"z":109}}}