{"type":"Feature","geometry":{"type":"Point","coordinates":[40.48,-3.57,582]},"properties":{"stationId":"LEMD","rawText":"LEMD 250830Z 04005KT 350V100 CAVOK 18/09 Q1020 NOSIG","observationTime":"2019-09-25T08:30:00Z","temp":18,"dewpoint":9,"windDirection":40,"windSpeed":9.26,"visibility":6.21,"altim":30.11811,"flightCategory":"VFR","metarType":"METAR","geometry_esri":{"x":40.48,"y":-3.57,"z":582}}}