{"type":"Feature","geometry":{"type":"Point","coordinates":[51.48,-0.45,24]},"properties":{"stationId":"EGLL","rawText":"EGLL 130850Z 22013KT 8000 -SHRA FEW024CB SCT039 BKN046 12/11 Q1005 TEMPO SHRA BKN010","observationTime":"2019-06-13T08:50:00Z","temp":12,"dewpoint":11,"windDirection":220,"windSpeed":24.076,"visibility":4.97,"altim":29.675198,"flightCategory":"MVFR","metarType":"METAR","geometry_esri":{"x":51.48,"y":-0.45,"z":24}}}