{"type":"Feature","geometry":{"type":"Point","coordinates":[49.02,2.52,109]},"properties":{"stationId":"LFPG","rawText":"LFPG 231130Z 08005KT 030V130 CAVOK 18/07 Q0995 NOSIG","observationTime":"2019-04-23T11:30:00Z","temp":18,"dewpoint":7,"windDirection":80,"windSpeed":9.26,"visibility":6.21,"altim":29.379921,"flightCategory":"VFR","metarType":"METAR","geometry_esri":{"x":49.02,"y":2.52,"z":109}}}