{"type":"Feature","geometry":{"type":"Point","coordinates":[47.78,13.02,430]},"properties":{"stationId":"LOWS","rawText":"LOWS 060650Z 31010KT 280V340 9999 FEW045 SCT130 21/13 Q1011 NOSIG","observationTime":"2019-06-06T06:50:00Z","temp":21,"dewpoint":13,"windDirection":310,"windSpeed":18.52,"visibility":6.21,"altim":29.852362,"flightCategory":"VFR","metarType":"METAR","geometry_esri":{"x":47.78,"y":13.02,"z":430}}}