{"type":"Feature","geometry":{"type":"Point","coordinates":[49.02,2.52,109]},"properties":{"stationId":"LFPG","rawText":"LFPG 050630Z 12009KT CAVOK 05/M01 Q1004 NOSIG","observationTime":"2019-04-05T06:30:00Z","temp":5,"dewpoint":-1,"windDirection":120,"windSpeed":16.668,"visibility":6.21,"altim":29.64567,"flightCategory":"VFR","metarType":"METAR","geometry_esri":{"x":49.02,"y":2.52,"z":109}}}