{"type":"Feature","geometry":{"type":"Point","coordinates":[48.35,11.82,447]},"properties":{"stationId":"EDDM","rawText":"EDDM 290350Z VRB02KT 8000 1600NW R08L/0550D BCFG NSC 03/02 Q1031 TEMPO 3000 BCFG","observationTime":"2019-03-29T03:50:00Z","temp":3,"dewpoint":2,"windDirection":0,"windSpeed":3.704,"visibility":4.97,"altim":30.442913,"flightCategory":"MVFR","metarType":"METAR","geometry_esri":{"x":48.35,"y":11.82,"z":447}}}