{"type":"Feature","geometry":{"type":"Point","coordinates":[48.35,11.82,447]},"properties":{"stationId":"EDDM","rawText":"EDDM 171950Z 25020KT 9999 FEW022 04/00 Q1009 NOSIG","observationTime":"2019-01-17T19:50:00Z","temp":4,"dewpoint":0,"windDirection":250,"windSpeed":37.04,"visibility":6.21,"altim":29.793306,"flightCategory":"VFR","metarType":"METAR","geometry_esri":{"x":48.35,"y":11.82,"z":447}}}