{"type":"Feature","geometry":{"type":"Point","coordinates":[51.48,-0.45,24]},"properties":{"stationId":"EGLL","rawText":"EGLL 291650Z AUTO 21004KT 160V240 9999 NCD 17/05 Q1025 NOSIG","observationTime":"2019-03-29T16:50:00Z","temp":17,"dewpoint":5,"windDirection":210,"windSpeed":7.408,"visibility":6.21,"altim":30.265747,"flightCategory":"VFR","metarType":"METAR","geometry_esri":{"x":51.48,"y":-0.45,"z":24}}}