{"type":"Feature","geometry":{"type":"Point","coordinates":[48.35,11.82,447]},"properties":{"stationId":"EDDM","rawText":"EDDM 101650Z 02006KT 350V060 9999 -RA FEW021 BKN035 11/06 Q1009 NOSIG","observationTime":"2019-04-10T16:50:00Z","temp":11,"dewpoint":6,"windDirection":20,"windSpeed":11.112,"visibility":6.21,"altim":29.793306,"flightCategory":"VFR","metarType":"METAR","geometry_esri":{"x":48.35,"y":11.82,"z":447}}}