{"type":"Feature","geometry":{"type":"Point","coordinates":[48.35,11.82,447]},"properties":{"stationId":"EDDM","rawText":"EDDM 052350Z VRB01KT 0200 R26R/0600N R26L/0600N FZFG VV/// M04/M04 Q1029 NOSIG","observationTime":"2019-02-05T23:50:00Z","temp":-4,"dewpoint":-4,"windDirection":0,"windSpeed":1.852,"visibility":0.12,"altim":30.383858,"flightCategory":"LIFR","metarType":"METAR","geometry_esri":{"x":48.35,"y":11.82,"z":447}}}