{"type":"Feature","geometry":{"type":"Point","coordinates":[47.78,13.02,430]},"properties":{"stationId":"LOWS","rawText":"LOWS 131250Z VRB02KT 9999 FEW015 SCT029 FEW040CB BKN050 16/12 Q1017 TEMPO 28015G25KT TSRA","observationTime":"2019-07-13T12:50:00Z","temp":16,"dewpoint":12,"windDirection":0,"windSpeed":3.704,"visibility":6.21,"altim":30.029528,"flightCategory":"VFR","metarType":"METAR","geometry_esri":{"x":47.78,"y":13.02,"z":430}}}