{"type":"Feature","geometry":{"type":"Point","coordinates":[40.48,-3.57,582]},"properties":{"stationId":"LEMD","rawText":"LEMD 180830Z 02003KT 310V070 CAVOK 07/01 Q1013 NOSIG","observationTime":"2019-11-18T08:30:00Z","temp":7,"dewpoint":1,"windDirection":20,"windSpeed":5.556,"visibility":6.21,"altim":29.911417,"flightCategory":"VFR","metarType":"METAR","geometry_esri":{"x":40.48,"y":-3.57,"z":582}}}