{"type":"Feature","geometry":{"type":"Point","coordinates":[47.78,13.02,430]},"properties":{"stationId":"LOWS","rawText":"LOWS 291050Z 34004KT 310V010 8000 -RA FEW005 SCT008 BKN012 07/06 Q1020 TEMPO BKN018","observationTime":"2019-10-29T10:50:00Z","temp":7,"dewpoint":6,"windDirection":340,"windSpeed":7.408,"visibility":4.97,"altim":30.11811,"flightCategory":"MVFR","metarType":"METAR","geometry_esri":{"x":47.78,"y":13.02,"z":430}}}