{"type":"Feature","geometry":{"type":"Point","coordinates":[49.02,2.52,109]},"properties":{"stationId":"LFPG","rawText":"LFPG 131230Z 04013KT 010V070 CAVOK 16/02 Q1035 NOSIG","observationTime":"2019-05-13T12:30:00Z","temp":16,"dewpoint":2,"windDirection":40,"windSpeed":24.076,"visibility":6.21,"altim":30.561024,"flightCategory":"VFR","metarType":"METAR","geometry_esri":{"x":49.02,"y":2.52,"z":109}}}