{"type":"Feature","geometry":{"type":"Point","coordinates":[40.48,-3.57,582]},"properties":{"stationId":"LEMD","rawText":"LEMD 020430Z 02006KT 330V070 9999 FEW060 BKN070 07/03 Q1013 R88/29//95 NOSIG","observationTime":"2019-12-02T04:30:00Z","temp":7,"dewpoint":3,"windDirection":20,"windSpeed":11.112,"visibility":6.21,"altim":29.911417,"flightCategory":"VFR","metarType":"METAR","geometry_esri":{"x":40.48,"y":-3.57,"z":582}}}