{"type":"Feature","geometry":{"type":"Point","coordinates":[49.02,2.52,109]},"properties":{"stationId":"LFPG","rawText":"LFPG 310830Z 17007KT 120V200 4500 BR SCT003 OVC004 M01/M01 Q0996 BECMG 6000 BKN008","observationTime":"2019-01-31T08:30:00Z","temp":-1,"dewpoint":-1,"windDirection":170,"windSpeed":12.964,"visibility":2.8,"altim":29.409449,"flightCategory":"LIFR","metarType":"SPECI","geometry_esri":{"x":49.02,"y":2.52,"z":109}}}