{"type":"Feature","geometry":{"type":"Point","coordinates":[49.02,2.52,109]},"properties":{"stationId":"LFPG","rawText":"LFPG 122130Z 24008KT CAVOK 14/11 Q1019 NOSIG","observationTime":"2019-08-12T21:30:00Z","temp":14,"dewpoint":11,"windDirection":240,"windSpeed":14.816,"visibility":6.21,"altim":30.088583,"flightCategory":"VFR","metarType":"METAR","geometry_esri":{"x":49.02,"y":2.52,"z":109}}}