{"type":"Feature","geometry":{"type":"Point","coordinates":[53.42,-6.25,85]},"properties":{"stationId":"EIDW","rawText":"EIDW 251730Z 30008KT 9999 FEW022 BKN040 10/04 Q1035 NOSIG","observationTime":"2019-03-25T17:30:00Z","temp":10,"dewpoint":4,"windDirection":300,"windSpeed":14.816,"visibility":6.21,"altim":30.561024,"flightCategory":"VFR","metarType":"METAR","geometry_esri":{"x":53.42,"y":-6.25,"z":85}}}