{"type":"Feature","geometry":{"type":"Point","coordinates":[40.48,-3.57,582]},"properties":{"stationId":"LEMD","rawText":"LEMD 041430Z 14007KT 070V220 CAVOK 33/08 Q1015 NOSIG","observationTime":"2019-07-04T14:30:00Z","temp":33,"dewpoint":8,"windDirection":140,"windSpeed":12.964,"visibility":6.21,"altim":29.970472,"flightCategory":"VFR","metarType":"METAR","geometry_esri":{"x":40.48,"y":-3.57,"z":582}}}