{"type":"Feature","geometry":{"type":"Point","coordinates":[51.48,-0.45,24]},"properties":{"stationId":"EGLL","rawText":"EGLL 310450Z 07004KT 2000 PRFG BR NSC M05/M05 Q0995 TEMPO 1200","observationTime":"2019-01-31T04:50:00Z","temp":-5,"dewpoint":-5,"windDirection":70,"windSpeed":7.408,"visibility":1.24,"altim":29.379921,"flightCategory":"IFR","metarType":"METAR","geometry_esri":{"x":51.48,"y":-0.45,"z":24}}}