{"type":"Feature","geometry":{"type":"Point","coordinates":[49.02,2.52,109]},"properties":{"stationId":"LFPG","rawText":"LFPG 250930Z 21009KT 180V240 CAVOK 28/19 Q1016 NOSIG","observationTime":"2019-06-25T09:30:00Z","temp":28,"dewpoint":19,"windDirection":210,"windSpeed":16.668,"visibility":6.21,"altim":30,"flightCategory":"VFR","metarType":"METAR","geometry_esri":{"x":49.02,"y":2.52,"z":109}}}