{"type":"Feature","geometry":{"type":"Point","coordinates":[40.48,-3.57,582]},"properties":{"stationId":"LEMD","rawText":"LEMD 261630Z 18005KT CAVOK 13/02 Q1017 NOSIG","observationTime":"2019-01-26T16:30:00Z","temp":13,"dewpoint":2,"windDirection":180,"windSpeed":9.26,"visibility":6.21,"altim":30.029528,"flightCategory":"VFR","metarType":"METAR","geometry_esri":{"x":40.48,"y":-3.57,"z":582}}}