{"type":"Feature","geometry":{"type":"Point","coordinates":[40.48,-3.57,582]},"properties":{"stationId":"LEMD","rawText":"LEMD 081730Z 21008KT CAVOK 14/M00 Q1020 NOSIG","observationTime":"2019-02-08T17:30:00Z","temp":14,"dewpoint":0,"windDirection":210,"windSpeed":14.816,"visibility":6.21,"altim":30.11811,"flightCategory":"VFR","metarType":"METAR","geometry_esri":{"x":40.48,"y":-3.57,"z":582}}}