{"type":"Feature","geometry":{"type":"Point","coordinates":[53.42,-6.25,85]},"properties":{"stationId":"EIDW","rawText":"EIDW 290930Z 30005KT 250V320 9000 FEW006 BKN010 08/06 Q1028 NOSIG","observationTime":"2019-03-29T09:30:00Z","temp":8,"dewpoint":6,"windDirection":300,"windSpeed":9.26,"visibility":5.59,"altim":30.35433,"flightCategory":"MVFR","metarType":"METAR","geometry_esri":{"x":53.42,"y":-6.25,"z":85}}}