{"type":"Feature","geometry":{"type":"Point","coordinates":[49.02,2.52,109]},"properties":{"stationId":"LFPG","rawText":"LFPG 271630Z 29017G28KT 260V320 9999 -SHRA BKN014 BKN033 SCT040TCU 04/01 Q0997 TEMPO 26018G30KT","observationTime":"2019-01-27T16:30:00Z","temp":4,"dewpoint":1,"windDirection":290,"windSpeed":31.484,"visibility":6.21,"altim":29.438976,"flightCategory":"MVFR","metarType":"METAR","geometry_esri":{"x":49.02,"y":2.52,"z":109}}}