{"type":"Feature","geometry":{"type":"Point","coordinates":[40.48,-3.57,582]},"properties":{"stationId":"LEMD","rawText":"LEMD 030630Z 35003KT CAVOK 11/08 Q1012 NOSIG","observationTime":"2019-05-03T06:30:00Z","temp":11,"dewpoint":8,"windDirection":350,"windSpeed":5.556,"visibility":6.21,"altim":29.88189,"flightCategory":"VFR","metarType":"METAR","geometry_esri":{"x":40.48,"y":-3.57,"z":582}}}