{"type":"Feature","geometry":{"type":"Point","coordinates":[48.35,11.82,447]},"properties":{"stationId":"EDDM","rawText":"EDDM 142350Z 36002KT 5000 0600N R08L/0500V0700D R08R/0900V1900D BCFG NSC 11/10 Q1028 BECMG 1200","observationTime":"2019-09-14T23:50:00Z","temp":11,"dewpoint":10,"windDirection":360,"windSpeed":3.704,"visibility":3.11,"altim":30.35433,"flightCategory":"MVFR","metarType":"METAR","geometry_esri":{"x":48.35,"y":11.82,"z":447}}}