{"type":"Feature","geometry":{"type":"Point","coordinates":[51.48,-0.45,24]},"properties":{"stationId":"EGLL","rawText":"EGLL 192250Z AUTO 25005KT 9999 -RA FEW044 16/15 Q1009 NOSIG","observationTime":"2019-06-19T22:50:00Z","temp":16,"dewpoint":15,"windDirection":250,"windSpeed":9.26,"visibility":6.21,"altim":29.793306,"flightCategory":"VFR","metarType":"METAR","geometry_esri":{"x":51.48,"y":-0.45,"z":24}}}