{"type":"Feature","geometry":{"type":"Point","coordinates":[49.02,2.52,109]},"properties":{"stationId":"LFPG","rawText":"LFPG 210430Z 25004KT 6000 NSC 10/08 Q1015 NOSIG","observationTime":"2019-05-21T04:30:00Z","temp":10,"dewpoint":8,"windDirection":250,"windSpeed":7.408,"visibility":3.73,"altim":29.970472,"flightCategory":"MVFR","metarType":"METAR","geometry_esri":{"x":49.02,"y":2.52,"z":109}}}