{"type":"Feature","geometry":{"type":"Point","coordinates":[48.35,11.82,447]},"properties":{"stationId":"EDDM","rawText":"EDDM 290150Z VRB01KT CAVOK 10/08 Q1017 NOSIG","observationTime":"2019-09-29T01:50:00Z","temp":10,"dewpoint":8,"windDirection":0,"windSpeed":1.852,"visibility":6.21,"altim":30.029528,"flightCategory":"VFR","metarType":"METAR","geometry_esri":{"x":48.35,"y":11.82,"z":447}}}