{"type":"Feature","geometry":{"type":"Point","coordinates":[48.35,11.82,447]},"properties":{"stationId":"EDDM","rawText":"EDDM 051450Z 10007KT CAVOK 28/12 Q1007 NOSIG","observationTime":"2019-06-05T14:50:00Z","temp":28,"dewpoint":12,"windDirection":100,"windSpeed":12.964,"visibility":6.21,"altim":29.734253,"flightCategory":"VFR","metarType":"METAR","geometry_esri":{"x":48.35,"y":11.82,"z":447}}}