{"type":"Feature","geometry":{"type":"Point","coordinates":[49.02,2.52,109]},"properties":{"stationId":"LFPG","rawText":"LFPG 131430Z 11006KT 070V150 CAVOK 08/02 Q1035 NOSIG","observationTime":"2019-02-13T14:30:00Z","temp":8,"dewpoint":2,"windDirection":110,"windSpeed":11.112,"visibility":6.21,"altim":30.561024,"flightCategory":"VFR","metarType":"METAR","geometry_esri":{"x":49.02,"y":2.52,"z":109}}}