{"type":"Feature","geometry":{"type":"Point","coordinates":[51.48,-0.45,24]},"properties":{"stationId":"EGLL","rawText":"EGLL 031450Z AUTO 04006KT 310V080 9999 NCD 23/07 Q1026 NOSIG","observationTime":"2019-07-03T14:50:00Z","temp":23,"dewpoint":7,"windDirection":40,"windSpeed":11.112,"visibility":6.21,"altim":30.295275,"flightCategory":"VFR","metarType":"METAR","geometry_esri":{"x":51.48,"y":-0.45,"z":24}}}