{"type":"Feature","geometry":{"type":"Point","coordinates":[49.02,2.52,109]},"properties":{"stationId":"LFPG","rawText":"LFPG 292130Z 06010KT CAVOK 09/06 Q1022 NOSIG","observationTime":"2019-10-29T21:30:00Z","temp":9,"dewpoint":6,"windDirection":60,"windSpeed":18.52,"visibility":6.21,"altim":30.177166,"flightCategory":"VFR","metarType":"METAR","geometry_esri":{"x":49.02,"y":2.52,"z":109}}}