{"type":"Feature","geometry":{"type":"Point","coordinates":[40.48,-3.57,582]},"properties":{"stationId":"LEMD","rawText":"LEMD 122230Z 33004KT CAVOK 21/10 Q1027 NOSIG","observationTime":"2019-09-12T22:30:00Z","temp":21,"dewpoint":10,"windDirection":330,"windSpeed":7.408,"visibility":6.21,"altim":30.324802,"flightCategory":"VFR","metarType":"METAR","geometry_esri":{"x":40.48,"y":-3.57,"z":582}}}