{"type":"Feature","geometry":{"type":"Point","coordinates":[40.48,-3.57,582]},"properties":{"stationId":"LEMD","rawText":"LEMD 131830Z 06003KT 010V120 CAVOK 30/M02 Q1016 NOSIG","observationTime":"2019-05-13T18:30:00Z","temp":30,"dewpoint":-2,"windDirection":60,"windSpeed":5.556,"visibility":6.21,"altim":30,"flightCategory":"VFR","metarType":"METAR","geometry_esri":{"x":40.48,"y":-3.57,"z":582}}}