{"type":"Feature","geometry":{"type":"Point","coordinates":[47.78,13.02,430]},"properties":{"stationId":"LOWS","rawText":"LOWS 200250Z AUTO 19005KT 9999 -SHRA FEW019 SCT020 BKN026 M00/M02 Q1017","observationTime":"2018-12-20T02:50:00Z","temp":0,"dewpoint":-2,"windDirection":190,"windSpeed":9.26,"visibility":6.21,"altim":30.029528,"flightCategory":"MVFR","metarType":"METAR","geometry_esri":{"x":47.78,"y":13.02,"z":430}}}