{"type":"Feature","geometry":{"type":"Point","coordinates":[51.48,-0.45,24]},"properties":{"stationId":"EGLL","rawText":"EGLL 091050Z AUTO 34007KT 290V020 9999 NCD 05/00 Q1030","observationTime":"2019-01-09T10:50:00Z","temp":5,"dewpoint":0,"windDirection":340,"windSpeed":12.964,"visibility":6.21,"altim":30.413385,"flightCategory":"VFR","metarType":"METAR","geometry_esri":{"x":51.48,"y":-0.45,"z":24}}}