{"type":"Feature","geometry":{"type":"Point","coordinates":[48.35,11.82,447]},"properties":{"stationId":"EDDM","rawText":"EDDM 271250Z 30003KT 260V340 9999 SCT043 20/10 Q1010 NOSIG","observationTime":"2019-05-27T12:50:00Z","temp":20,"dewpoint":10,"windDirection":300,"windSpeed":5.556,"visibility":6.21,"altim":29.822834,"flightCategory":"VFR","metarType":"METAR","geometry_esri":{"x":48.35,"y":11.82,"z":447}}}