{"type":"Feature","geometry":{"type":"Point","coordinates":[49.02,2.52,109]},"properties":{"stationId":"LFPG","rawText":"LFPG 162130Z 03007KT 010V110 CAVOK 13/05 Q1010 NOSIG","observationTime":"2019-05-16T21:30:00Z","temp":13,"dewpoint":5,"windDirection":30,"windSpeed":12.964,"visibility":6.21,"altim":29.822834,"flightCategory":"VFR","metarType":"METAR","geometry_esri":{"x":49.02,"y":2.52,"z":109}}}