{"type":"Feature","geometry":{"type":"Point","coordinates":[48.35,11.82,447]},"properties":{"stationId":"EDDM","rawText":"EDDM 210250Z 27013KT 6000 RA BKN008 OVC013 12/11 Q1004 BECMG 28015G25KT","observationTime":"2019-05-21T02:50:00Z","temp":12,"dewpoint":11,"windDirection":270,"windSpeed":24.076,"visibility":3.73,"altim":29.64567,"flightCategory":"IFR","metarType":"METAR","geometry_esri":{"x":48.35,"y":11.82,"z":447}}}