{"type":"Feature","geometry":{"type":"Point","coordinates":[40.48,-3.57,582]},"properties":{"stationId":"LEMD","rawText":"LEMD 251530Z 13007KT 100V160 9999 FEW080TCU 33/08 Q1015 NOSIG","observationTime":"2019-08-25T15:30:00Z","temp":33,"dewpoint":8,"windDirection":130,"windSpeed":12.964,"visibility":6.21,"altim":29.970472,"flightCategory":"VFR","metarType":"METAR","geometry_esri":{"x":40.48,"y":-3.57,"z":582}}}