{"type":"Feature","geometry":{"type":"Point","coordinates":[40.48,-3.57,582]},"properties":{"stationId":"LEMD","rawText":"LEMD 290430Z 34004KT 9000 NSC 09/08 Q1018 NOSIG","observationTime":"2019-10-29T04:30:00Z","temp":9,"dewpoint":8,"windDirection":340,"windSpeed":7.408,"visibility":5.59,"altim":30.059055,"flightCategory":"VFR","metarType":"METAR","geometry_esri":{"x":40.48,"y":-3.57,"z":582}}}