{"type":"Feature","geometry":{"type":"Point","coordinates":[40.48,-3.57,582]},"properties":{"stationId":"LEMD","rawText":"LEMD 171130Z 20007KT CAVOK 31/09 Q1015 NOSIG","observationTime":"2019-07-17T11:30:00Z","temp":31,"dewpoint":9,"windDirection":200,"windSpeed":12.964,"visibility":6.21,"altim":29.970472,"flightCategory":"VFR","metarType":"METAR","geometry_esri":{"x":40.48,"y":-3.57,"z":582}}}