{"type":"Feature","geometry":{"type":"Point","coordinates":[40.48,-3.57,582]},"properties":{"stationId":"LEMD","rawText":"LEMD 210630Z 16003KT 140V210 2500 BR -RA SCT003 BKN010 06/06 Q1008 R88/29//95 NOSIG","observationTime":"2019-11-21T06:30:00Z","temp":6,"dewpoint":6,"windDirection":160,"windSpeed":5.556,"visibility":1.55,"altim":29.763779,"flightCategory":"IFR","metarType":"METAR","geometry_esri":{"x":40.48,"y":-3.57,"z":582}}}