{"type":"Feature","geometry":{"type":"Point","coordinates":[40.48,-3.57,582]},"properties":{"stationId":"LEMD","rawText":"LEMD 300430Z 32004KT 300V360 CAVOK 23/03 Q1017 NOSIG","observationTime":"2019-06-30T04:30:00Z","temp":23,"dewpoint":3,"windDirection":320,"windSpeed":7.408,"visibility":6.21,"altim":30.029528,"flightCategory":"VFR","metarType":"METAR","geometry_esri":{"x":40.48,"y":-3.57,"z":582}}}