{"type":"Feature","geometry":{"type":"Point","coordinates":[48.35,11.82,447]},"properties":{"stationId":"EDDM","rawText":"EDDM 212050Z 26005KT CAVOK 08/04 Q1028 NOSIG","observationTime":"2019-02-21T20:50:00Z","temp":8,"dewpoint":4,"windDirection":260,"windSpeed":9.26,"visibility":6.21,"altim":30.35433,"flightCategory":"VFR","metarType":"METAR","geometry_esri":{"x":48.35,"y":11.82,"z":447}}}