{"type":"Feature","geometry":{"type":"Point","coordinates":[51.48,-0.45,24]},"properties":{"stationId":"EGLL","rawText":"EGLL 261150Z AUTO 25013KT 9999 BKN024 20/13 Q1013","observationTime":"2019-05-26T11:50:00Z","temp":20,"dewpoint":13,"windDirection":250,"windSpeed":24.076,"visibility":6.21,"altim":29.911417,"flightCategory":"MVFR","metarType":"METAR","geometry_esri":{"x":51.48,"y":-0.45,"z":24}}}