{"type":"Feature","geometry":{"type":"Point","coordinates":[48.35,11.82,447]},"properties":{"stationId":"EDDM","rawText":"EDDM 172150Z 07004KT CAVOK 17/13 Q1018 NOSIG","observationTime":"2019-06-17T21:50:00Z","temp":17,"dewpoint":13,"windDirection":70,"windSpeed":7.408,"visibility":6.21,"altim":30.059055,"flightCategory":"VFR","metarType":"METAR","geometry_esri":{"x":48.35,"y":11.82,"z":447}}}