{"type":"Feature","geometry":{"type":"Point","coordinates":[40.48,-3.57,582]},"properties":{"stationId":"LEMD","rawText":"LEMD 201430Z 17005KT 130V250 9999 SCT035 BKN050 09/03 Q1008 TEMPO RA","observationTime":"2019-11-20T14:30:00Z","temp":9,"dewpoint":3,"windDirection":170,"windSpeed":9.26,"visibility":6.21,"altim":29.763779,"flightCategory":"VFR","metarType":"METAR","geometry_esri":{"x":40.48,"y":-3.57,"z":582}}}