{"type":"Feature","geometry":{"type":"Point","coordinates":[40.48,-3.57,582]},"properties":{"stationId":"LEMD","rawText":"LEMD 312130Z 23007KT 190V280 9999 FEW040 SCT070 19/13 Q1024 NOSIG","observationTime":"2019-10-31T21:30:00Z","temp":19,"dewpoint":13,"windDirection":230,"windSpeed":12.964,"visibility":6.21,"altim":30.236221,"flightCategory":"VFR","metarType":"METAR","geometry_esri":{"x":40.48,"y":-3.57,"z":582}}}