{"type":"Feature","geometry":{"type":"Point","coordinates":[40.48,-3.57,582]},"properties":{"stationId":"LEMD","rawText":"LEMD 171530Z 14015KT CAVOK 24/07 Q1008 NOSIG","observationTime":"2019-04-17T15:30:00Z","temp":24,"dewpoint":7,"windDirection":140,"windSpeed":27.78,"visibility":6.21,"altim":29.763779,"flightCategory":"VFR","metarType":"METAR","geometry_esri":{"x":40.48,"y":-3.57,"z":582}}}