{"type":"Feature","geometry":{"type":"Point","coordinates":[51.48,-0.45,24]},"properties":{"stationId":"EGLL","rawText":"EGLL 091350Z AUTO 27012KT 3000 +RA BKN017/// BKN029/// //////CB 12/11 Q0998 TEMPO SHRA","observationTime":"2019-05-09T13:50:00Z","temp":12,"dewpoint":11,"windDirection":270,"windSpeed":22.224,"visibility":1.86,"altim":29.468504,"flightCategory":"IFR","metarType":"METAR","geometry_esri":{"x":51.48,"y":-0.45,"z":24}}}