{"type":"Feature","geometry":{"type":"Point","coordinates":[53.42,-6.25,85]},"properties":{"stationId":"EIDW","rawText":"EIDW 281730Z 06012KT 9999 FEW012 SCT020 BKN030 08/05 Q1003 NOSIG","observationTime":"2019-11-28T17:30:00Z","temp":8,"dewpoint":5,"windDirection":60,"windSpeed":22.224,"visibility":6.21,"altim":29.616142,"flightCategory":"MVFR","metarType":"METAR","geometry_esri":{"x":53.42,"y":-6.25,"z":85}}}