{"type":"Feature","geometry":{"type":"Point","coordinates":[47.78,13.02,430]},"properties":{"stationId":"LOWS","rawText":"LOWS 281850Z 27011KT 240V300 9999 FEW070 BKN080 16/M01 Q1016 NOSIG","observationTime":"2019-02-28T18:50:00Z","temp":16,"dewpoint":-1,"windDirection":270,"windSpeed":20.372,"visibility":6.21,"altim":30,"flightCategory":"VFR","metarType":"METAR","geometry_esri":{"x":47.78,"y":13.02,"z":430}}}