{"type":"Feature","geometry":{"type":"Point","coordinates":[53.42,-6.25,85]},"properties":{"stationId":"EIDW","rawText":"EIDW 120730Z 26019G29KT 9999 FEW015 SCT060 BKN080 04/01 Q0999 NOSIG","observationTime":"2019-11-12T07:30:00Z","temp":4,"dewpoint":1,"windDirection":260,"windSpeed":35.188,"visibility":6.21,"altim":29.498032,"flightCategory":"VFR","metarType":"METAR","geometry_esri":{"x":53.42,"y":-6.25,"z":85}}}