{"type":"Feature","geometry":{"type":"Point","coordinates":[53.42,-6.25,85]},"properties":{"stationId":"EIDW","rawText":"EIDW 180930Z 25011KT 200V280 9999 FEW008 BKN010 BKN013 07/05 Q1018 NOSIG","observationTime":"2019-03-18T09:30:00Z","temp":7,"dewpoint":5,"windDirection":250,"windSpeed":20.372,"visibility":6.21,"altim":30.059055,"flightCategory":"MVFR","metarType":"METAR","geometry_esri":{"x":53.42,"y":-6.25,"z":85}}}