{"type":"Feature","geometry":{"type":"Point","coordinates":[51.48,-0.45,24]},"properties":{"stationId":"EGLL","rawText":"EGLL 230850Z AUTO 32004KT 280V360 9000 BKN014 BKN018 02/M00 Q1001 TEMPO BKN018","observationTime":"2019-01-23T08:50:00Z","temp":2,"dewpoint":0,"windDirection":320,"windSpeed":7.408,"visibility":5.59,"altim":29.557087,"flightCategory":"MVFR","metarType":"METAR","geometry_esri":{"x":51.48,"y":-0.45,"z":24}}}