{"type":"Feature","geometry":{"type":"Point","coordinates":[51.48,-0.45,24]},"properties":{"stationId":"EGLL","rawText":"EGLL 111750Z AUTO 08006KT 040V130 9999 NCD 11/M00 Q1025","observationTime":"2019-04-11T17:50:00Z","temp":11,"dewpoint":0,"windDirection":80,"windSpeed":11.112,"visibility":6.21,"altim":30.265747,"flightCategory":"VFR","metarType":"METAR","geometry_esri":{"x":51.48,"y":-0.45,"z":24}}}