{"type":"Feature","geometry":{"type":"Point","coordinates":[49.02,2.52,109]},"properties":{"stationId":"LFPG","rawText":"LFPG 252330Z 09005KT 8000 NSC 00/M01 Q1034 NOSIG","observationTime":"2018-12-25T23:30:00Z","temp":0,"dewpoint":-1,"windDirection":90,"windSpeed":9.26,"visibility":4.97,"altim":30.531496,"flightCategory":"MVFR","metarType":"METAR","geometry_esri":{"x":49.02,"y":2.52,"z":109}}}