{"type":"Feature","geometry":{"type":"Point","coordinates":[49.02,2.52,109]},"properties":{"stationId":"LFPG","rawText":"LFPG 150930Z 01008KT 320V050 9999 SCT029 19/10 Q1020 NOSIG","observationTime":"2019-07-15T09:30:00Z","temp":19,"dewpoint":10,"windDirection":10,"windSpeed":14.816,"visibility":6.21,"altim":30.11811,"flightCategory":"VFR","metarType":"METAR","geometry_esri":{"x":49.02,"y":2.52,"z":109}}}