{"type":"Feature","geometry":{"type":"Point","coordinates":[47.78,13.02,430]},"properties":{"stationId":"LOWS","rawText":"LOWS 261350Z 02006KT 330V050 9999 FEW070 SCT300 33/11 Q1009 NOSIG","observationTime":"2019-07-26T13:50:00Z","temp":33,"dewpoint":11,"windDirection":20,"windSpeed":11.112,"visibility":6.21,"altim":29.793306,"flightCategory":"VFR","metarType":"METAR","geometry_esri":{"x":47.78,"y":13.02,"z":430}}}