{"type":"Feature","geometry":{"type":"Point","coordinates":[48.35,11.82,447]},"properties":{"stationId":"EDDM","rawText":"EDDM 260550Z 17003KT 0200 R08L/0500V0750N R08R/0275V0650D FG VV/// 06/06 Q1022 BECMG 0800 SCT001 BKN002","observationTime":"2019-10-26T05:50:00Z","temp":6,"dewpoint":6,"windDirection":170,"windSpeed":5.556,"visibility":0.12,"altim":30.177166,"flightCategory":"LIFR","metarType":"METAR","geometry_esri":{"x":48.35,"y":11.82,"z":447}}}