{"type":"Feature","geometry":{"type":"Point","coordinates":[40.48,-3.57,582]},"properties":{"stationId":"LEMD","rawText":"LEMD 220830Z 13004KT CAVOK 00/M01 Q1017 NOSIG","observationTime":"2019-01-22T08:30:00Z","temp":0,"dewpoint":-1,"windDirection":130,"windSpeed":7.408,"visibility":6.21,"altim":30.029528,"flightCategory":"VFR","metarType":"METAR","geometry_esri":{"x":40.48,"y":-3.57,"z":582}}}