{"type":"Feature","geometry":{"type":"Point","coordinates":[47.78,13.02,430]},"properties":{"stationId":"LOWS","rawText":"LOWS 220150Z AUTO 31006KT 9999 FEW008 BKN150 13/12 Q1025","observationTime":"2019-08-22T01:50:00Z","temp":13,"dewpoint":12,"windDirection":310,"windSpeed":11.112,"visibility":6.21,"altim":30.265747,"flightCategory":"VFR","metarType":"METAR","geometry_esri":{"x":47.78,"y":13.02,"z":430}}}