{"type":"Feature","geometry":{"type":"Point","coordinates":[47.78,13.02,430]},"properties":{"stationId":"LOWS","rawText":"LOWS 150250Z AUTO 22003KT 9999 -RA FEW013 SCT016 BKN028 04/03 Q1022","observationTime":"2019-05-15T02:50:00Z","temp":4,"dewpoint":3,"windDirection":220,"windSpeed":5.556,"visibility":6.21,"altim":30.177166,"flightCategory":"MVFR","metarType":"METAR","geometry_esri":{"x":47.78,"y":13.02,"z":430}}}