{"type":"Feature","geometry":{"type":"Point","coordinates":[47.78,13.02,430]},"properties":{"stationId":"LOWS","rawText":"LOWS 261450Z 29013KT 250V310 9999 SHRA FEW020 BKN035 08/04 Q1017 TEMPO -SHRA","observationTime":"2019-04-26T14:50:00Z","temp":8,"dewpoint":4,"windDirection":290,"windSpeed":24.076,"visibility":6.21,"altim":30.029528,"flightCategory":"VFR","metarType":"METAR","geometry_esri":{"x":47.78,"y":13.02,"z":430}}}