{"type":"Feature","geometry":{"type":"Point","coordinates":[48.35,11.82,447]},"properties":{"stationId":"EDDM","rawText":"EDDM 220250Z 16003KT 120V260 2500 BR OVC004 M04/M05 Q1015 NOSIG","observationTime":"2019-01-22T02:50:00Z","temp":-4,"dewpoint":-5,"windDirection":160,"windSpeed":5.556,"visibility":1.55,"altim":29.970472,"flightCategory":"LIFR","metarType":"METAR","geometry_esri":{"x":48.35,"y":11.82,"z":447}}}