{"type":"Feature","geometry":{"type":"Point","coordinates":[48.35,11.82,447]},"properties":{"stationId":"EDDM","rawText":"EDDM 191050Z 01006KT 340V040 9999 FEW046 15/04 Q1027 NOSIG","observationTime":"2019-09-19T10:50:00Z","temp":15,"dewpoint":4,"windDirection":10,"windSpeed":11.112,"visibility":6.21,"altim":30.324802,"flightCategory":"VFR","metarType":"METAR","geometry_esri":{"x":48.35,"y":11.82,"z":447}}}