{"type":"Feature","geometry":{"type":"Point","coordinates":[48.35,11.82,447]},"properties":{"stationId":"EDDM","rawText":"EDDM 050350Z VRB02KT 2500 BR SCT002 OVC007 M05/M06 Q1027 R88/190095 NOSIG","observationTime":"2019-02-05T03:50:00Z","temp":-5,"dewpoint":-6,"windDirection":0,"windSpeed":3.704,"visibility":1.55,"altim":30.324802,"flightCategory":"IFR","metarType":"METAR","geometry_esri":{"x":48.35,"y":11.82,"z":447}}}