{"type":"Feature","geometry":{"type":"Point","coordinates":[53.42,-6.25,85]},"properties":{"stationId":"EIDW","rawText":"EIDW 222230Z 21007KT 180V250 9999 FEW024 BKN060 BKN240 18/15 Q1021 NOSIG","observationTime":"2019-08-22T22:30:00Z","temp":18,"dewpoint":15,"windDirection":210,"windSpeed":12.964,"visibility":6.21,"altim":30.147638,"flightCategory":"VFR","metarType":"METAR","geometry_esri":{"x":53.42,"y":-6.25,"z":85}}}