{"type":"Feature","geometry":{"type":"Point","coordinates":[53.42,-6.25,85]},"properties":{"stationId":"EIDW","rawText":"EIDW 180530Z 02005KT 320V050 2000 BR FEW005 BKN250 06/06 Q1022","observationTime":"2019-04-18T05:30:00Z","temp":6,"dewpoint":6,"windDirection":20,"windSpeed":9.26,"visibility":1.24,"altim":30.177166,"flightCategory":"IFR","metarType":"METAR","geometry_esri":{"x":53.42,"y":-6.25,"z":85}}}