{"type":"Feature","geometry":{"type":"Point","coordinates":[53.42,-6.25,85]},"properties":{"stationId":"EIDW","rawText":"EIDW 060630Z 19010KT 9999 FEW018 BKN042 10/07 Q0978 NOSIG","observationTime":"2019-03-06T06:30:00Z","temp":10,"dewpoint":7,"windDirection":190,"windSpeed":18.52,"visibility":6.21,"altim":28.877953,"flightCategory":"VFR","metarType":"METAR","geometry_esri":{"x":53.42,"y":-6.25,"z":85}}}