{"type":"Feature","geometry":{"type":"Point","coordinates":[51.48,-0.45,24]},"properties":{"stationId":"EGLL","rawText":"EGLL 070850Z AUTO 24018KT 9999 BKN031 BKN039 07/03 Q1005","observationTime":"2019-02-07T08:50:00Z","temp":7,"dewpoint":3,"windDirection":240,"windSpeed":33.336,"visibility":6.21,"altim":29.675198,"flightCategory":"VFR","metarType":"METAR","geometry_esri":{"x":51.48,"y":-0.45,"z":24}}}