{"type":"Feature","geometry":{"type":"Point","coordinates":[53.42,-6.25,85]},"properties":{"stationId":"EIDW","rawText":"EIDW 261030Z 23004KT 180V270 CAVOK 10/08 Q1026 NOSIG","observationTime":"2018-12-26T10:30:00Z","temp":10,"dewpoint":8,"windDirection":230,"windSpeed":7.408,"visibility":6.21,"altim":30.295275,"flightCategory":"VFR","metarType":"METAR","geometry_esri":{"x":53.42,"y":-6.25,"z":85}}}