{"type":"Feature","geometry":{"type":"Point","coordinates":[48.35,11.82,447]},"properties":{"stationId":"EDDM","rawText":"EDDM 261650Z 29007KT 250V310 CAVOK 21/10 Q1014 NOSIG","observationTime":"2019-05-26T16:50:00Z","temp":21,"dewpoint":10,"windDirection":290,"windSpeed":12.964,"visibility":6.21,"altim":29.940945,"flightCategory":"VFR","metarType":"METAR","geometry_esri":{"x":48.35,"y":11.82,"z":447}}}