{"type":"Feature","geometry":{"type":"Point","coordinates":[49.02,2.52,109]},"properties":{"stationId":"LFPG","rawText":"LFPG 232030Z 03008KT 020V080 CAVOK 21/12 Q1021 NOSIG","observationTime":"2019-08-23T20:30:00Z","temp":21,"dewpoint":12,"windDirection":30,"windSpeed":14.816,"visibility":6.21,"altim":30.147638,"flightCategory":"VFR","metarType":"METAR","geometry_esri":{"x":49.02,"y":2.52,"z":109}}}