{"type":"Feature","geometry":{"type":"Point","coordinates":[51.48,-0.45,24]},"properties":{"stationId":"EGLL","rawText":"EGLL 080350Z AUTO 30002KT 6000 NCD 01/01 Q1001 BECMG 3000 BR","observationTime":"2019-11-08T03:50:00Z","temp":1,"dewpoint":1,"windDirection":300,"windSpeed":3.704,"visibility":3.73,"altim":29.557087,"flightCategory":"MVFR","metarType":"METAR","geometry_esri":{"x":51.48,"y":-0.45,"z":24}}}