{"type":"Feature","geometry":{"type":"Point","coordinates":[53.42,-6.25,85]},"properties":{"stationId":"EIDW","rawText":"EIDW 040330Z 06015KT 9999 FEW012 BKN022 05/01 Q0992 NOSIG","observationTime":"2019-04-04T03:30:00Z","temp":5,"dewpoint":1,"windDirection":60,"windSpeed":27.78,"visibility":6.21,"altim":29.291338,"flightCategory":"MVFR","metarType":"METAR","geometry_esri":{"x":53.42,"y":-6.25,"z":85}}}