{"type":"Feature","geometry":{"type":"Point","coordinates":[49.02,2.52,109]},"properties":{"stationId":"LFPG","rawText":"LFPG 131430Z 28022KT 9999 BKN023 BKN260 11/06 Q1014 NOSIG","observationTime":"2019-01-13T14:30:00Z","temp":11,"dewpoint":6,"windDirection":280,"windSpeed":40.744,"visibility":6.21,"altim":29.940945,"flightCategory":"MVFR","metarType":"METAR","geometry_esri":{"x":49.02,"y":2.52,"z":109}}}