{"type":"Feature","geometry":{"type":"Point","coordinates":[48.35,11.82,447]},"properties":{"stationId":"EDDM","rawText":"EDDM 140050Z 08002KT 9999 2500NE R26R/1300D BCFG NSC M01/M02 Q1006 NOSIG","observationTime":"2019-11-14T00:50:00Z","temp":-1,"dewpoint":-2,"windDirection":80,"windSpeed":3.704,"visibility":6.21,"altim":29.704725,"flightCategory":"VFR","metarType":"METAR","geometry_esri":{"x":48.35,"y":11.82,"z":447}}}