{"type":"Feature","geometry":{"type":"Point","coordinates":[40.48,-3.57,582]},"properties":{"stationId":"LEMD","rawText":"LEMD 301130Z 26010KT 230V290 9999 FEW070 08/M03 Q1013 NOSIG","observationTime":"2019-01-30T11:30:00Z","temp":8,"dewpoint":-3,"windDirection":260,"windSpeed":18.52,"visibility":6.21,"altim":29.911417,"flightCategory":"VFR","metarType":"METAR","geometry_esri":{"x":40.48,"y":-3.57,"z":582}}}