{"type":"Feature","geometry":{"type":"Point","coordinates":[40.48,-3.57,582]},"properties":{"stationId":"LEMD","rawText":"LEMD 181530Z 20012G23KT CAVOK 30/M06 Q1013 NOSIG","observationTime":"2019-06-18T15:30:00Z","temp":30,"dewpoint":-6,"windDirection":200,"windSpeed":22.224,"visibility":6.21,"altim":29.911417,"flightCategory":"VFR","metarType":"METAR","geometry_esri":{"x":40.48,"y":-3.57,"z":582}}}