{"type":"Feature","geometry":{"type":"Point","coordinates":[49.02,2.52,109]},"properties":{"stationId":"LFPG","rawText":"LFPG 121430Z 23004KT 180V280 9999 3000E SHRA FEW016CB BKN020 05/04 Q1004 TEMPO 25020G35KT 2000 TSRAGS BKN015CB","observationTime":"2019-11-12T14:30:00Z","temp":5,"dewpoint":4,"windDirection":230,"windSpeed":7.408,"visibility":6.21,"altim":29.64567,"flightCategory":"MVFR","metarType":"SPECI","geometry_esri":{"x":49.02,"y":2.52,"z":109}}}