{"type":"Feature","geometry":{"type":"Point","coordinates":[40.48,-3.57,582]},"properties":{"stationId":"LEMD","rawText":"LEMD 212130Z 03002KT 9999 BKN055 18/16 Q1014 NOSIG","observationTime":"2019-09-21T21:30:00Z","temp":18,"dewpoint":16,"windDirection":30,"windSpeed":3.704,"visibility":6.21,"altim":29.940945,"flightCategory":"VFR","metarType":"METAR","geometry_esri":{"x":40.48,"y":-3.57,"z":582}}}