{"type":"Feature","geometry":{"type":"Point","coordinates":[53.42,-6.25,85]},"properties":{"stationId":"EIDW","rawText":"EIDW 220730Z 23014G25KT 190V260 9999 FEW018 SCT160 BKN220 20/16 Q1013 NOSIG","observationTime":"2019-07-22T07:30:00Z","temp":20,"dewpoint":16,"windDirection":230,"windSpeed":25.928,"visibility":6.21,"altim":29.911417,"flightCategory":"VFR","metarType":"METAR","geometry_esri":{"x":53.42,"y":-6.25,"z":85}}}