{"type":"Feature","geometry":{"type":"Point","coordinates":[48.35,11.82,447]},"properties":{"stationId":"EDDM","rawText":"EDDM 201650Z 04004KT 8000 OVC008 03/01 Q1013 NOSIG","observationTime":"2019-11-20T16:50:00Z","temp":3,"dewpoint":1,"windDirection":40,"windSpeed":7.408,"visibility":4.97,"altim":29.911417,"flightCategory":"IFR","metarType":"METAR","geometry_esri":{"x":48.35,"y":11.82,"z":447}}}