{"type":"Feature","geometry":{"type":"Point","coordinates":[51.48,-0.45,24]},"properties":{"stationId":"EGLL","rawText":"EGLL 302150Z AUTO 22010G20KT 180V250 3700 -DZ BKN005 BKN009 OVC014 17/16 Q1002 BECMG 6000 NSW SCT005 BKN010","observationTime":"2019-09-30T21:50:00Z","temp":17,"dewpoint":16,"windDirection":220,"windSpeed":18.52,"visibility":2.3,"altim":29.586615,"flightCategory":"IFR","metarType":"METAR","geometry_esri":{"x":51.48,"y":-0.45,"z":24}}}