{"type":"Feature","geometry":{"type":"Point","coordinates":[40.48,-3.57,582]},"properties":{"stationId":"LEMD","rawText":"LEMD 140730Z VRB01KT CAVOK 02/M02 Q1030 NOSIG","observationTime":"2019-03-14T07:30:00Z","temp":2,"dewpoint":-2,"windDirection":0,"windSpeed":1.852,"visibility":6.21,"altim":30.413385,"flightCategory":"VFR","metarType":"METAR","geometry_esri":{"x":40.48,"y":-3.57,"z":582}}}