{"type":"Feature","geometry":{"type":"Point","coordinates":[53.42,-6.25,85]},"properties":{"stationId":"EIDW","rawText":"EIDW 031530Z 23009KT 160V270 9999 VCSH FEW018CB SCT080 BKN220 15/06 Q1007 NOSIG","observationTime":"2019-06-03T15:30:00Z","temp":15,"dewpoint":6,"windDirection":230,"windSpeed":16.668,"visibility":6.21,"altim":29.734253,"flightCategory":"VFR","metarType":"METAR","geometry_esri":{"x":53.42,"y":-6.25,"z":85}}}