{"type":"Feature","geometry":{"type":"Point","coordinates":[53.42,-6.25,85]},"properties":{"stationId":"EIDW","rawText":"EIDW 311130Z 14009KT 110V170 6000 -DZ FEW007 BKN009 OVC011 09/08 Q1016 NOSIG","observationTime":"2019-10-31T11:30:00Z","temp":9,"dewpoint":8,"windDirection":140,"windSpeed":16.668,"visibility":3.73,"altim":30,"flightCategory":"IFR","metarType":"METAR","geometry_esri":{"x":53.42,"y":-6.25,"z":85}}}