{"type":"Feature","geometry":{"type":"Point","coordinates":[47.78,13.02,430]},"properties":{"stationId":"LOWS","rawText":"LOWS 061750Z 32003KT 8000 SCT300 M04/M05 Q1024 BECMG 4000 BR","observationTime":"2019-02-06T17:50:00Z","temp":-4,"dewpoint":-5,"windDirection":320,"windSpeed":5.556,"visibility":4.97,"altim":30.236221,"flightCategory":"MVFR","metarType":"SPECI","geometry_esri":{"x":47.78,"y":13.02,"z":430}}}