{"type":"Feature","geometry":{"type":"Point","coordinates":[51.48,-0.45,24]},"properties":{"stationId":"EGLL","rawText":"EGLL 190450Z AUTO VRB02KT 0100 R27R/1400 FZFG VV/// M01/M01 Q1017 TEMPO 0300","observationTime":"2019-11-19T04:50:00Z","temp":-1,"dewpoint":-1,"windDirection":0,"windSpeed":3.704,"visibility":0.06,"altim":30.029528,"flightCategory":"LIFR","metarType":"METAR","geometry_esri":{"x":51.48,"y":-0.45,"z":24}}}