{"type":"Feature","geometry":{"type":"Point","coordinates":[47.78,13.02,430]},"properties":{"stationId":"LOWS","rawText":"LOWS 231350Z 13013KT 100V160 9999 FEW080 SCT140 BKN300 17/02 Q0999 NOSIG","observationTime":"2019-11-23T13:50:00Z","temp":17,"dewpoint":2,"windDirection":130,"windSpeed":24.076,"visibility":6.21,"altim":29.498032,"flightCategory":"VFR","metarType":"METAR","geometry_esri":{"x":47.78,"y":13.02,"z":430}}}