{"type":"Feature","geometry":{"type":"Point","coordinates":[40.48,-3.57,582]},"properties":{"stationId":"LEMD","rawText":"LEMD 121830Z 24012KT CAVOK 19/08 Q1022 NOSIG","observationTime":"2019-03-12T18:30:00Z","temp":19,"dewpoint":8,"windDirection":240,"windSpeed":22.224,"visibility":6.21,"altim":30.177166,"flightCategory":"VFR","metarType":"METAR","geometry_esri":{"x":40.48,"y":-3.57,"z":582}}}