{"type":"Feature","geometry":{"type":"Point","coordinates":[53.42,-6.25,85]},"properties":{"stationId":"EIDW","rawText":"EIDW 311230Z 14010KT 110V170 5000 -DZ BR SCT007 BKN008 BKN009 10/09 Q1015 NOSIG","observationTime":"2019-10-31T12:30:00Z","temp":10,"dewpoint":9,"windDirection":140,"windSpeed":18.52,"visibility":3.11,"altim":29.970472,"flightCategory":"IFR","metarType":"METAR","geometry_esri":{"x":53.42,"y":-6.25,"z":85}}}