{"type":"Feature","geometry":{"type":"Point","coordinates":[48.35,11.82,447]},"properties":{"stationId":"EDDM","rawText":"EDDM 201550Z 24010KT CAVOK 05/00 Q1019 NOSIG","observationTime":"2018-12-20T15:50:00Z","temp":5,"dewpoint":0,"windDirection":240,"windSpeed":18.52,"visibility":6.21,"altim":30.088583,"flightCategory":"VFR","metarType":"METAR","geometry_esri":{"x":48.35,"y":11.82,"z":447}}}