{"type":"Feature","geometry":{"type":"Point","coordinates":[53.42,-6.25,85]},"properties":{"stationId":"EIDW","rawText":"EIDW 131130Z 28026G36KT 9999 FEW022 SCT040 10/03 Q1011 NOSIG","observationTime":"2019-03-13T11:30:00Z","temp":10,"dewpoint":3,"windDirection":280,"windSpeed":48.152,"visibility":6.21,"altim":29.852362,"flightCategory":"VFR","metarType":"METAR","geometry_esri":{"x":53.42,"y":-6.25,"z":85}}}