{"type":"Feature","geometry":{"type":"Point","coordinates":[40.48,-3.57,582]},"properties":{"stationId":"LEMD","rawText":"LEMD 170630Z 00000KT 6000 SCT008 BKN012 03/02 Q1017 NOSIG","observationTime":"2019-01-17T06:30:00Z","temp":3,"dewpoint":2,"windDirection":0,"windSpeed":0,"visibility":3.73,"altim":30.029528,"flightCategory":"MVFR","metarType":"METAR","geometry_esri":{"x":40.48,"y":-3.57,"z":582}}}