{"type":"Feature","geometry":{"type":"Point","coordinates":[51.48,-0.45,24]},"properties":{"stationId":"EGLL","rawText":"EGLL 242050Z AUTO 17002KT 5000 BR NCD 04/03 Q1035 BECMG 4000","observationTime":"2018-12-24T20:50:00Z","temp":4,"dewpoint":3,"windDirection":170,"windSpeed":3.704,"visibility":3.11,"altim":30.561024,"flightCategory":"MVFR","metarType":"METAR","geometry_esri":{"x":51.48,"y":-0.45,"z":24}}}