{"type":"Feature","geometry":{"type":"Point","coordinates":[49.02,2.52,109]},"properties":{"stationId":"LFPG","rawText":"LFPG 310030Z 28004KT 5000 BR FEW035 M00/M01 Q0997 NOSIG","observationTime":"2019-01-31T00:30:00Z","temp":0,"dewpoint":-1,"windDirection":280,"windSpeed":7.408,"visibility":3.11,"altim":29.438976,"flightCategory":"MVFR","metarType":"METAR","geometry_esri":{"x":49.02,"y":2.52,"z":109}}}