{"type":"Feature","geometry":{"type":"Point","coordinates":[40.48,-3.57,582]},"properties":{"stationId":"LEMD","rawText":"LEMD 022330Z 35005KT CAVOK 01/M02 Q1027 NOSIG","observationTime":"2019-01-02T23:30:00Z","temp":1,"dewpoint":-2,"windDirection":350,"windSpeed":9.26,"visibility":6.21,"altim":30.324802,"flightCategory":"VFR","metarType":"METAR","geometry_esri":{"x":40.48,"y":-3.57,"z":582}}}