{"type":"Feature","geometry":{"type":"Point","coordinates":[53.42,-6.25,85]},"properties":{"stationId":"EIDW","rawText":"EIDW 292230Z 23009KT 060V040 9999 FEW032 16/12 Q1011 NOSIG","observationTime":"2019-06-29T22:30:00Z","temp":16,"dewpoint":12,"windDirection":230,"windSpeed":16.668,"visibility":6.21,"altim":29.852362,"flightCategory":"VFR","metarType":"METAR","geometry_esri":{"x":53.42,"y":-6.25,"z":85}}}