{"type":"Feature","geometry":{"type":"Point","coordinates":[48.35,11.82,447]},"properties":{"stationId":"EDDM","rawText":"EDDM 180850Z VRB02KT 9999 FEW030 15/08 Q1005 NOSIG","observationTime":"2019-05-18T08:50:00Z","temp":15,"dewpoint":8,"windDirection":0,"windSpeed":3.704,"visibility":6.21,"altim":29.675198,"flightCategory":"VFR","metarType":"METAR","geometry_esri":{"x":48.35,"y":11.82,"z":447}}}