{"type":"Feature","geometry":{"type":"Point","coordinates":[51.48,-0.45,24]},"properties":{"stationId":"EGLL","rawText":"EGLL 281150Z AUTO VRB02KT 9999 BKN039 15/05 Q1036 NOSIG","observationTime":"2019-03-28T11:50:00Z","temp":15,"dewpoint":5,"windDirection":0,"windSpeed":3.704,"visibility":6.21,"altim":30.590551,"flightCategory":"VFR","metarType":"METAR","geometry_esri":{"x":51.48,"y":-0.45,"z":24}}}