{"type":"Feature","geometry":{"type":"Point","coordinates":[48.35,11.82,447]},"properties":{"stationId":"EDDM","rawText":"EDDM 142350Z VRB01KT 4000 R08L/0550V0750N R08R/0750D BCFG NSC 07/07 Q1012 BECMG 2000","observationTime":"2019-10-14T23:50:00Z","temp":7,"dewpoint":7,"windDirection":0,"windSpeed":1.852,"visibility":2.49,"altim":29.88189,"flightCategory":"IFR","metarType":"METAR","geometry_esri":{"x":48.35,"y":11.82,"z":447}}}