{"type":"Feature","geometry":{"type":"Point","coordinates":[53.42,-6.25,85]},"properties":{"stationId":"EIDW","rawText":"EIDW 270430Z 25008KT 200V290 CAVOK 03/01 Q1021 NOSIG","observationTime":"2019-10-27T04:30:00Z","temp":3,"dewpoint":1,"windDirection":250,"windSpeed":14.816,"visibility":6.21,"altim":30.147638,"flightCategory":"VFR","metarType":"METAR","geometry_esri":{"x":53.42,"y":-6.25,"z":85}}}