{"type":"Feature","geometry":{"type":"Point","coordinates":[47.78,13.02,430]},"properties":{"stationId":"LOWS","rawText":"LOWS 042250Z AUTO 31010KT 8000 RA FEW005 SCT009 BKN018 02/01 Q1010","observationTime":"2019-05-04T22:50:00Z","temp":2,"dewpoint":1,"windDirection":310,"windSpeed":18.52,"visibility":4.97,"altim":29.822834,"flightCategory":"MVFR","metarType":"METAR","geometry_esri":{"x":47.78,"y":13.02,"z":430}}}