{"type":"Feature","geometry":{"type":"Point","coordinates":[40.48,-3.57,582]},"properties":{"stationId":"LEMD","rawText":"LEMD 031930Z 23009KT 190V280 CAVOK 17/04 Q1020 NOSIG","observationTime":"2019-03-03T19:30:00Z","temp":17,"dewpoint":4,"windDirection":230,"windSpeed":16.668,"visibility":6.21,"altim":30.11811,"flightCategory":"VFR","metarType":"METAR","geometry_esri":{"x":40.48,"y":-3.57,"z":582}}}