{"type":"Feature","geometry":{"type":"Point","coordinates":[49.02,2.52,109]},"properties":{"stationId":"LFPG","rawText":"LFPG 210930Z 01009KT 9999 SCT030 18/09 Q1017 NOSIG","observationTime":"2019-05-21T09:30:00Z","temp":18,"dewpoint":9,"windDirection":10,"windSpeed":16.668,"visibility":6.21,"altim":30.029528,"flightCategory":"VFR","metarType":"METAR","geometry_esri":{"x":49.02,"y":2.52,"z":109}}}