{"type":"Feature","geometry":{"type":"Point","coordinates":[40.48,-3.57,582]},"properties":{"stationId":"LEMD","rawText":"LEMD 050330Z 17008KT 130V210 CAVOK 09/05 Q1017 NOSIG","observationTime":"2019-03-05T03:30:00Z","temp":9,"dewpoint":5,"windDirection":170,"windSpeed":14.816,"visibility":6.21,"altim":30.029528,"flightCategory":"VFR","metarType":"METAR","geometry_esri":{"x":40.48,"y":-3.57,"z":582}}}