{"type":"Feature","geometry":{"type":"Point","coordinates":[53.42,-6.25,85]},"properties":{"stationId":"EIDW","rawText":"EIDW 101030Z 09012KT 9999 FEW018 SCT200 08/02 Q1022","observationTime":"2019-04-10T10:30:00Z","temp":8,"dewpoint":2,"windDirection":90,"windSpeed":22.224,"visibility":6.21,"altim":30.177166,"flightCategory":"VFR","metarType":"METAR","geometry_esri":{"x":53.42,"y":-6.25,"z":85}}}