{"type":"Feature","geometry":{"type":"Point","coordinates":[40.48,-3.57,582]},"properties":{"stationId":"LEMD","rawText":"LEMD 281430Z 35012KT 310V030 CAVOK 27/M03 Q1016 NOSIG","observationTime":"2019-05-28T14:30:00Z","temp":27,"dewpoint":-3,"windDirection":350,"windSpeed":22.224,"visibility":6.21,"altim":30,"flightCategory":"VFR","metarType":"METAR","geometry_esri":{"x":40.48,"y":-3.57,"z":582}}}