{"type":"Feature","geometry":{"type":"Point","coordinates":[53.42,-6.25,85]},"properties":{"stationId":"EIDW","rawText":"EIDW 040230Z 06016KT 9999 FEW012 BKN025 05/02 Q0992 NOSIG","observationTime":"2019-04-04T02:30:00Z","temp":5,"dewpoint":2,"windDirection":60,"windSpeed":29.632,"visibility":6.21,"altim":29.291338,"flightCategory":"MVFR","metarType":"METAR","geometry_esri":{"x":53.42,"y":-6.25,"z":85}}}