{"type":"Feature","geometry":{"type":"Point","coordinates":[48.35,11.82,447]},"properties":{"stationId":"EDDM","rawText":"EDDM 032050Z 24013KT 9999 -RA SCT015 OVC046 10/09 Q0992 TEMPO 24015G25KT","observationTime":"2019-11-03T20:50:00Z","temp":10,"dewpoint":9,"windDirection":240,"windSpeed":24.076,"visibility":6.21,"altim":29.291338,"flightCategory":"VFR","metarType":"METAR","geometry_esri":{"x":48.35,"y":11.82,"z":447}}}