{"type":"Feature","geometry":{"type":"Point","coordinates":[47.78,13.02,430]},"properties":{"stationId":"LOWS","rawText":"LOWS 171350Z 36005KT 310V050 9999 FEW070 19/06 Q1015 NOSIG","observationTime":"2019-10-17T13:50:00Z","temp":19,"dewpoint":6,"windDirection":360,"windSpeed":9.26,"visibility":6.21,"altim":29.970472,"flightCategory":"VFR","metarType":"METAR","geometry_esri":{"x":47.78,"y":13.02,"z":430}}}