{"type":"Feature","geometry":{"type":"Point","coordinates":[48.35,11.82,447]},"properties":{"stationId":"EDDM","rawText":"EDDM 251250Z 25012KT 230V290 9999 SCT036TCU 19/10 Q1010 NOSIG","observationTime":"2019-09-25T12:50:00Z","temp":19,"dewpoint":10,"windDirection":250,"windSpeed":22.224,"visibility":6.21,"altim":29.822834,"flightCategory":"VFR","metarType":"METAR","geometry_esri":{"x":48.35,"y":11.82,"z":447}}}