{"type":"Feature","geometry":{"type":"Point","coordinates":[49.02,2.52,109]},"properties":{"stationId":"LFPG","rawText":"LFPG 051430Z 21012KT 190V280 9999 FEW020 SCT025 BKN040 11/07 Q1009 TEMPO 23015G25KT","observationTime":"2019-03-05T14:30:00Z","temp":11,"dewpoint":7,"windDirection":210,"windSpeed":22.224,"visibility":6.21,"altim":29.793306,"flightCategory":"VFR","metarType":"SPECI","geometry_esri":{"x":49.02,"y":2.52,"z":109}}}