{"type":"Feature","geometry":{"type":"Point","coordinates":[53.42,-6.25,85]},"properties":{"stationId":"EIDW","rawText":"EIDW 122130Z 19007KT 160V220 9999 SCT017 SCT021 BKN049 11/08 Q1026 NOSIG","observationTime":"2019-02-12T21:30:00Z","temp":11,"dewpoint":8,"windDirection":190,"windSpeed":12.964,"visibility":6.21,"altim":30.295275,"flightCategory":"VFR","metarType":"METAR","geometry_esri":{"x":53.42,"y":-6.25,"z":85}}}