{"type":"Feature","geometry":{"type":"Point","coordinates":[40.48,-3.57,582]},"properties":{"stationId":"LEMD","rawText":"LEMD 060830Z 34005KT 300V010 CAVOK M04/M06 Q1031 NOSIG","observationTime":"2019-01-06T08:30:00Z","temp":-4,"dewpoint":-6,"windDirection":340,"windSpeed":9.26,"visibility":6.21,"altim":30.442913,"flightCategory":"VFR","metarType":"METAR","geometry_esri":{"x":40.48,"y":-3.57,"z":582}}}