{"type":"Feature","geometry":{"type":"Point","coordinates":[40.48,-3.57,582]},"properties":{"stationId":"LEMD","rawText":"LEMD 032330Z 32003KT CAVOK 00/M02 Q1029 NOSIG","observationTime":"2019-01-03T23:30:00Z","temp":0,"dewpoint":-2,"windDirection":320,"windSpeed":5.556,"visibility":6.21,"altim":30.383858,"flightCategory":"VFR","metarType":"METAR","geometry_esri":{"x":40.48,"y":-3.57,"z":582}}}