{"type":"Feature","geometry":{"type":"Point","coordinates":[48.35,11.82,447]},"properties":{"stationId":"EDDM","rawText":"EDDM 252050Z 26002KT 9999 FEW034 M02/M03 Q1034 NOSIG","observationTime":"2018-12-25T20:50:00Z","temp":-2,"dewpoint":-3,"windDirection":260,"windSpeed":3.704,"visibility":6.21,"altim":30.531496,"flightCategory":"VFR","metarType":"METAR","geometry_esri":{"x":48.35,"y":11.82,"z":447}}}