{"type":"Feature","geometry":{"type":"Point","coordinates":[49.02,2.52,109]},"properties":{"stationId":"LFPG","rawText":"LFPG 071130Z 17018G29KT 9999 FEW033 SCT050 OVC083 15/08 Q1006 NOSIG","observationTime":"2019-06-07T11:30:00Z","temp":15,"dewpoint":8,"windDirection":170,"windSpeed":33.336,"visibility":6.21,"altim":29.704725,"flightCategory":"VFR","metarType":"METAR","geometry_esri":{"x":49.02,"y":2.52,"z":109}}}