{"type":"Feature","geometry":{"type":"Point","coordinates":[47.78,13.02,430]},"properties":{"stationId":"LOWS","rawText":"LOWS 271050Z 12006KT 080V150 9999 FEW043 BKN300 20/14 Q1014 NOSIG","observationTime":"2019-09-27T10:50:00Z","temp":20,"dewpoint":14,"windDirection":120,"windSpeed":11.112,"visibility":6.21,"altim":29.940945,"flightCategory":"VFR","metarType":"METAR","geometry_esri":{"x":47.78,"y":13.02,"z":430}}}