{"type":"Feature","geometry":{"type":"Point","coordinates":[49.02,2.52,109]},"properties":{"stationId":"LFPG","rawText":"LFPG 090130Z 20005KT 9999 -RA SCT050TCU SCT066 BKN083 11/07 Q1010 NOSIG","observationTime":"2019-04-09T01:30:00Z","temp":11,"dewpoint":7,"windDirection":200,"windSpeed":9.26,"visibility":6.21,"altim":29.822834,"flightCategory":"VFR","metarType":"METAR","geometry_esri":{"x":49.02,"y":2.52,"z":109}}}