{"type":"Feature","geometry":{"type":"Point","coordinates":[51.48,-0.45,24]},"properties":{"stationId":"EGLL","rawText":"EGLL 310150Z AUTO 24013KT 9999 SCT015 BKN024 17/15 Q1009","observationTime":"2019-07-31T01:50:00Z","temp":17,"dewpoint":15,"windDirection":240,"windSpeed":24.076,"visibility":6.21,"altim":29.793306,"flightCategory":"MVFR","metarType":"METAR","geometry_esri":{"x":51.48,"y":-0.45,"z":24}}}