{"type":"Feature","geometry":{"type":"Point","coordinates":[47.78,13.02,430]},"properties":{"stationId":"LOWS","rawText":"LOWS 151250Z 35010KT 310V020 9999 FEW050 FEW060CB SCT120 BKN300 28/14 Q1014 TEMPO SHRA","observationTime":"2019-06-15T12:50:00Z","temp":28,"dewpoint":14,"windDirection":350,"windSpeed":18.52,"visibility":6.21,"altim":29.940945,"flightCategory":"VFR","metarType":"METAR","geometry_esri":{"x":47.78,"y":13.02,"z":430}}}