{"type":"Feature","geometry":{"type":"Point","coordinates":[47.78,13.02,430]},"properties":{"stationId":"LOWS","rawText":"LOWS 120650Z VRB03KT 9999 FEW060 BKN250 21/16 Q1006 WS ALL RWY TEMPO 33008KT","observationTime":"2019-06-12T06:50:00Z","temp":21,"dewpoint":16,"windDirection":0,"windSpeed":5.556,"visibility":6.21,"altim":29.704725,"flightCategory":"VFR","metarType":"METAR","geometry_esri":{"x":47.78,"y":13.02,"z":430}}}