{"type":"Feature","geometry":{"type":"Point","coordinates":[53.42,-6.25,85]},"properties":{"stationId":"EIDW","rawText":"EIDW 041130Z 03010KT 010V100 5000 -RA SCT005 SCT010 BKN020 08/08 Q0982 NOSIG","observationTime":"2019-11-04T11:30:00Z","temp":8,"dewpoint":8,"windDirection":30,"windSpeed":18.52,"visibility":3.11,"altim":28.996063,"flightCategory":"MVFR","metarType":"METAR","geometry_esri":{"x":53.42,"y":-6.25,"z":85}}}