{"type":"Feature","geometry":{"type":"Point","coordinates":[49.02,2.52,109]},"properties":{"stationId":"LFPG","rawText":"LFPG 102030Z 04010KT 5000 -RA BR BKN004 SCT011 BKN018 11/10 Q1008 TEMPO 2500 RA BKN003","observationTime":"2019-05-10T20:30:00Z","temp":11,"dewpoint":10,"windDirection":40,"windSpeed":18.52,"visibility":3.11,"altim":29.763779,"flightCategory":"LIFR","metarType":"SPECI","geometry_esri":{"x":49.02,"y":2.52,"z":109}}}