{"type":"Feature","geometry":{"type":"Point","coordinates":[40.48,-3.57,582]},"properties":{"stationId":"LEMD","rawText":"LEMD 170130Z 26011KT 220V300 9999 FEW045 SCT055 12/04 Q1007 NOSIG","observationTime":"2019-05-17T01:30:00Z","temp":12,"dewpoint":4,"windDirection":260,"windSpeed":20.372,"visibility":6.21,"altim":29.734253,"flightCategory":"VFR","metarType":"METAR","geometry_esri":{"x":40.48,"y":-3.57,"z":582}}}