{"type":"Feature","geometry":{"type":"Point","coordinates":[40.48,-3.57,582]},"properties":{"stationId":"LEMD","rawText":"LEMD 062230Z 18003KT 130V220 CAVOK 18/05 Q1017 NOSIG","observationTime":"2019-05-06T22:30:00Z","temp":18,"dewpoint":5,"windDirection":180,"windSpeed":5.556,"visibility":6.21,"altim":30.029528,"flightCategory":"VFR","metarType":"METAR","geometry_esri":{"x":40.48,"y":-3.57,"z":582}}}