{"type":"Feature","geometry":{"type":"Point","coordinates":[40.48,-3.57,582]},"properties":{"stationId":"LEMD","rawText":"LEMD 260130Z 31001KT CAVOK 02/00 Q1021 NOSIG","observationTime":"2019-01-26T01:30:00Z","temp":2,"dewpoint":0,"windDirection":310,"windSpeed":1.852,"visibility":6.21,"altim":30.147638,"flightCategory":"VFR","metarType":"METAR","geometry_esri":{"x":40.48,"y":-3.57,"z":582}}}