{"type":"Feature","geometry":{"type":"Point","coordinates":[40.48,-3.57,582]},"properties":{"stationId":"LEMD","rawText":"LEMD 260630Z 34003KT 330V030 CAVOK M02/M02 Q1021 NOSIG","observationTime":"2019-01-26T06:30:00Z","temp":-2,"dewpoint":-2,"windDirection":340,"windSpeed":5.556,"visibility":6.21,"altim":30.147638,"flightCategory":"VFR","metarType":"METAR","geometry_esri":{"x":40.48,"y":-3.57,"z":582}}}