{"type":"Feature","geometry":{"type":"Point","coordinates":[49.02,2.52,109]},"properties":{"stationId":"LFPG","rawText":"LFPG 190430Z 19012KT 9999 SCT010 08/06 Q1011 NOSIG","observationTime":"2018-12-19T04:30:00Z","temp":8,"dewpoint":6,"windDirection":190,"windSpeed":22.224,"visibility":6.21,"altim":29.852362,"flightCategory":"VFR","metarType":"METAR","geometry_esri":{"x":49.02,"y":2.52,"z":109}}}