{"type":"Feature","geometry":{"type":"Point","coordinates":[47.78,13.02,430]},"properties":{"stationId":"LOWS","rawText":"LOWS 230250Z AUTO 15009KT 9999 NSC 10/M01 Q1003","observationTime":"2019-11-23T02:50:00Z","temp":10,"dewpoint":-1,"windDirection":150,"windSpeed":16.668,"visibility":6.21,"altim":29.616142,"flightCategory":"VFR","metarType":"METAR","geometry_esri":{"x":47.78,"y":13.02,"z":430}}}