{"type":"Feature","geometry":{"type":"Point","coordinates":[49.02,2.52,109]},"properties":{"stationId":"LFPG","rawText":"LFPG 062330Z 19012KT 6000 -DZ BKN004 BKN005 09/09 Q1015 NOSIG","observationTime":"2019-02-06T23:30:00Z","temp":9,"dewpoint":9,"windDirection":190,"windSpeed":22.224,"visibility":3.73,"altim":29.970472,"flightCategory":"LIFR","metarType":"METAR","geometry_esri":{"x":49.02,"y":2.52,"z":109}}}