{"type":"Feature","geometry":{"type":"Point","coordinates":[51.48,-0.45,24]},"properties":{"stationId":"EGLL","rawText":"EGLL 140550Z AUTO 24016KT 6000 -RA SCT014 OVC019 08/07 Q1004 NOSIG","observationTime":"2019-03-14T05:50:00Z","temp":8,"dewpoint":7,"windDirection":240,"windSpeed":29.632,"visibility":3.73,"altim":29.64567,"flightCategory":"MVFR","metarType":"METAR","geometry_esri":{"x":51.48,"y":-0.45,"z":24}}}