{"type":"Feature","geometry":{"type":"Point","coordinates":[49.02,2.52,109]},"properties":{"stationId":"LFPG","rawText":"LFPG 241430Z 19014KT 170V270 9999 SCT028 BKN038 16/10 Q1009 NOSIG","observationTime":"2019-10-24T14:30:00Z","temp":16,"dewpoint":10,"windDirection":190,"windSpeed":25.928,"visibility":6.21,"altim":29.793306,"flightCategory":"VFR","metarType":"METAR","geometry_esri":{"x":49.02,"y":2.52,"z":109}}}