{"type":"Feature","geometry":{"type":"Point","coordinates":[47.78,13.02,430]},"properties":{"stationId":"LOWS","rawText":"LOWS 130750Z 26005KT 230V290 9999 VCSH FEW012 SCT028 BKN040 14/12 Q1016 NOSIG","observationTime":"2019-07-13T07:50:00Z","temp":14,"dewpoint":12,"windDirection":260,"windSpeed":9.26,"visibility":6.21,"altim":30,"flightCategory":"VFR","metarType":"METAR","geometry_esri":{"x":47.78,"y":13.02,"z":430}}}