{"type":"Feature","geometry":{"type":"Point","coordinates":[48.35,11.82,447]},"properties":{"stationId":"EDDM","rawText":"EDDM 082250Z 26007KT 9999 -RA FEW006 BKN035 09/08 Q1015 NOSIG","observationTime":"2019-09-08T22:50:00Z","temp":9,"dewpoint":8,"windDirection":260,"windSpeed":12.964,"visibility":6.21,"altim":29.970472,"flightCategory":"VFR","metarType":"METAR","geometry_esri":{"x":48.35,"y":11.82,"z":447}}}