{"type":"Feature","geometry":{"type":"Point","coordinates":[51.48,-0.45,24]},"properties":{"stationId":"EGLL","rawText":"EGLL 231350Z AUTO 20012KT 160V240 9999 SCT049 18/13 Q1011","observationTime":"2019-09-23T13:50:00Z","temp":18,"dewpoint":13,"windDirection":200,"windSpeed":22.224,"visibility":6.21,"altim":29.852362,"flightCategory":"VFR","metarType":"METAR","geometry_esri":{"x":51.48,"y":-0.45,"z":24}}}