{"type":"Feature","geometry":{"type":"Point","coordinates":[48.35,11.82,447]},"properties":{"stationId":"EDDM","rawText":"EDDM 011450Z 27004KT CAVOK 22/11 Q1007 NOSIG","observationTime":"2019-10-01T14:50:00Z","temp":22,"dewpoint":11,"windDirection":270,"windSpeed":7.408,"visibility":6.21,"altim":29.734253,"flightCategory":"VFR","metarType":"METAR","geometry_esri":{"x":48.35,"y":11.82,"z":447}}}