{"type":"Feature","geometry":{"type":"Point","coordinates":[48.35,11.82,447]},"properties":{"stationId":"EDDM","rawText":"EDDM 091550Z 27009KT 230V300 CAVOK 16/05 Q1003 TEMPO 27015G25KT SHRA SCT040CB","observationTime":"2019-05-09T15:50:00Z","temp":16,"dewpoint":5,"windDirection":270,"windSpeed":16.668,"visibility":6.21,"altim":29.616142,"flightCategory":"VFR","metarType":"METAR","geometry_esri":{"x":48.35,"y":11.82,"z":447}}}