{"type":"Feature","geometry":{"type":"Point","coordinates":[48.35,11.82,447]},"properties":{"stationId":"EDDM","rawText":"EDDM 210050Z VRB02KT CAVOK 11/10 Q1012 NOSIG","observationTime":"2019-10-21T00:50:00Z","temp":11,"dewpoint":10,"windDirection":0,"windSpeed":3.704,"visibility":6.21,"altim":29.88189,"flightCategory":"VFR","metarType":"METAR","geometry_esri":{"x":48.35,"y":11.82,"z":447}}}