{"type":"Feature","geometry":{"type":"Point","coordinates":[49.02,2.52,109]},"properties":{"stationId":"LFPG","rawText":"LFPG 261130Z 08007KT 050V110 CAVOK 15/03 Q1033 NOSIG","observationTime":"2019-02-26T11:30:00Z","temp":15,"dewpoint":3,"windDirection":80,"windSpeed":12.964,"visibility":6.21,"altim":30.501968,"flightCategory":"VFR","metarType":"METAR","geometry_esri":{"x":49.02,"y":2.52,"z":109}}}