{"type":"Feature","geometry":{"type":"Point","coordinates":[47.78,13.02,430]},"properties":{"stationId":"LOWS","rawText":"LOWS 030650Z 31005KT 7000 -RA FEW005 SCT012 BKN017 01/M00 Q1004 R15/590295 NOSIG","observationTime":"2019-02-03T06:50:00Z","temp":1,"dewpoint":0,"windDirection":310,"windSpeed":9.26,"visibility":4.35,"altim":29.64567,"flightCategory":"MVFR","metarType":"METAR","geometry_esri":{"x":47.78,"y":13.02,"z":430}}}