{"type":"Feature","geometry":{"type":"Point","coordinates":[47.78,13.02,430]},"properties":{"stationId":"LOWS","rawText":"LOWS 200850Z 15006KT 120V200 9999 -RA FEW003 SCT035 BKN060 13/11 Q1002 TEMPO RA","observationTime":"2019-05-20T08:50:00Z","temp":13,"dewpoint":11,"windDirection":150,"windSpeed":11.112,"visibility":6.21,"altim":29.586615,"flightCategory":"VFR","metarType":"METAR","geometry_esri":{"x":47.78,"y":13.02,"z":430}}}