{"type":"Feature","geometry":{"type":"Point","coordinates":[40.48,-3.57,582]},"properties":{"stationId":"LEMD","rawText":"LEMD 111130Z 36012KT 330V060 9999 FEW050 14/01 Q1018 NOSIG","observationTime":"2019-04-11T11:30:00Z","temp":14,"dewpoint":1,"windDirection":360,"windSpeed":22.224,"visibility":6.21,"altim":30.059055,"flightCategory":"VFR","metarType":"METAR","geometry_esri":{"x":40.48,"y":-3.57,"z":582}}}