{"type":"Feature","geometry":{"type":"Point","coordinates":[47.78,13.02,430]},"properties":{"stationId":"LOWS","rawText":"LOWS 130350Z 35003KT 9999 FEW020 BKN040 15/12 Q1015 NOSIG","observationTime":"2019-06-13T03:50:00Z","temp":15,"dewpoint":12,"windDirection":350,"windSpeed":5.556,"visibility":6.21,"altim":29.970472,"flightCategory":"VFR","metarType":"METAR","geometry_esri":{"x":47.78,"y":13.02,"z":430}}}