{"type":"Feature","geometry":{"type":"Point","coordinates":[49.02,2.52,109]},"properties":{"stationId":"LFPG","rawText":"LFPG 081130Z 19008KT 140V260 CAVOK 26/13 Q1012 NOSIG","observationTime":"2019-08-08T11:30:00Z","temp":26,"dewpoint":13,"windDirection":190,"windSpeed":14.816,"visibility":6.21,"altim":29.88189,"flightCategory":"VFR","metarType":"METAR","geometry_esri":{"x":49.02,"y":2.52,"z":109}}}