{"type":"Feature","geometry":{"type":"Point","coordinates":[47.78,13.02,430]},"properties":{"stationId":"LOWS","rawText":"LOWS 091850Z 18003KT 160V220 CAVOK 24/18 Q1012 NOSIG","observationTime":"2019-08-09T18:50:00Z","temp":24,"dewpoint":18,"windDirection":180,"windSpeed":5.556,"visibility":6.21,"altim":29.88189,"flightCategory":"VFR","metarType":"METAR","geometry_esri":{"x":47.78,"y":13.02,"z":430}}}