{"type":"Feature","geometry":{"type":"Point","coordinates":[49.02,2.52,109]},"properties":{"stationId":"LFPG","rawText":"LFPG 050930Z 14007KT 9999 BKN015 04/01 Q1028 NOSIG","observationTime":"2019-02-05T09:30:00Z","temp":4,"dewpoint":1,"windDirection":140,"windSpeed":12.964,"visibility":6.21,"altim":30.35433,"flightCategory":"MVFR","metarType":"METAR","geometry_esri":{"x":49.02,"y":2.52,"z":109}}}