{"type":"Feature","geometry":{"type":"Point","coordinates":[40.48,-3.57,582]},"properties":{"stationId":"LEMD","rawText":"LEMD 200830Z 16008KT 9999 FEW070 20/15 Q1018 NOSIG","observationTime":"2019-09-20T08:30:00Z","temp":20,"dewpoint":15,"windDirection":160,"windSpeed":14.816,"visibility":6.21,"altim":30.059055,"flightCategory":"VFR","metarType":"METAR","geometry_esri":{"x":40.48,"y":-3.57,"z":582}}}