{"type":"Feature","geometry":{"type":"Point","coordinates":[47.78,13.02,430]},"properties":{"stationId":"LOWS","rawText":"LOWS 100650Z VRB01KT 0300 R15/0650N R33/0550N FZFG BKN002 M01/M01 Q1010 TEMPO 0800 FZBCFG BKN005","observationTime":"2019-11-10T06:50:00Z","temp":-1,"dewpoint":-1,"windDirection":0,"windSpeed":1.852,"visibility":0.19,"altim":29.822834,"flightCategory":"LIFR","metarType":"SPECI","geometry_esri":{"x":47.78,"y":13.02,"z":430}}}