{"type":"Feature","geometry":{"type":"Point","coordinates":[53.42,-6.25,85]},"properties":{"stationId":"EIDW","rawText":"EIDW 010730Z 22004KT 190V260 CAVOK 06/05 Q1017 NOSIG","observationTime":"2019-03-01T07:30:00Z","temp":6,"dewpoint":5,"windDirection":220,"windSpeed":7.408,"visibility":6.21,"altim":30.029528,"flightCategory":"VFR","metarType":"METAR","geometry_esri":{"x":53.42,"y":-6.25,"z":85}}}