{"type":"Feature","geometry":{"type":"Point","coordinates":[48.35,11.82,447]},"properties":{"stationId":"EDDM","rawText":"EDDM 191250Z 26006KT 240V320 9999 FEW040 07/M03 Q1026 NOSIG","observationTime":"2019-03-19T12:50:00Z","temp":7,"dewpoint":-3,"windDirection":260,"windSpeed":11.112,"visibility":6.21,"altim":30.295275,"flightCategory":"VFR","metarType":"METAR","geometry_esri":{"x":48.35,"y":11.82,"z":447}}}