{"type":"Feature","geometry":{"type":"Point","coordinates":[48.35,11.82,447]},"properties":{"stationId":"EDDM","rawText":"EDDM 192350Z VRB01KT CAVOK 15/13 Q1011 BECMG 23015G25KT","observationTime":"2019-06-19T23:50:00Z","temp":15,"dewpoint":13,"windDirection":0,"windSpeed":1.852,"visibility":6.21,"altim":29.852362,"flightCategory":"VFR","metarType":"METAR","geometry_esri":{"x":48.35,"y":11.82,"z":447}}}