{"type":"Feature","geometry":{"type":"Point","coordinates":[48.35,11.82,447]},"properties":{"stationId":"EDDM","rawText":"EDDM 030850Z 26009KT 7000 -RA BKN011 BKN030 09/07 Q1010 RERA TEMPO 4000 SHRA BKN008 BKN030TCU","observationTime":"2019-05-03T08:50:00Z","temp":9,"dewpoint":7,"windDirection":260,"windSpeed":16.668,"visibility":4.35,"altim":29.822834,"flightCategory":"MVFR","metarType":"METAR","geometry_esri":{"x":48.35,"y":11.82,"z":447}}}