{"type":"Feature","geometry":{"type":"Point","coordinates":[51.48,-0.45,24]},"properties":{"stationId":"EGLL","rawText":"EGLL 241050Z AUTO 06003KT 5000 HZ NCD 06/05 Q1033","observationTime":"2018-12-24T10:50:00Z","temp":6,"dewpoint":5,"windDirection":60,"windSpeed":5.556,"visibility":3.11,"altim":30.501968,"flightCategory":"MVFR","metarType":"METAR","geometry_esri":{"x":51.48,"y":-0.45,"z":24}}}