{"type":"Feature","geometry":{"type":"Point","coordinates":[51.48,-0.45,24]},"properties":{"stationId":"EGLL","rawText":"EGLL 011250Z AUTO 27005KT 210V320 9999 FEW026 OVC042 11/06 Q1020 NOSIG","observationTime":"2019-03-01T12:50:00Z","temp":11,"dewpoint":6,"windDirection":270,"windSpeed":9.26,"visibility":6.21,"altim":30.11811,"flightCategory":"VFR","metarType":"METAR","geometry_esri":{"x":51.48,"y":-0.45,"z":24}}}