{"type":"Feature","geometry":{"type":"Point","coordinates":[48.35,11.82,447]},"properties":{"stationId":"EDDM","rawText":"EDDM 171150Z 27018KT CAVOK 18/M03 Q1005 NOSIG","observationTime":"2019-03-17T11:50:00Z","temp":18,"dewpoint":-3,"windDirection":270,"windSpeed":33.336,"visibility":6.21,"altim":29.675198,"flightCategory":"VFR","metarType":"METAR","geometry_esri":{"x":48.35,"y":11.82,"z":447}}}