{"type":"Feature","geometry":{"type":"Point","coordinates":[51.48,-0.45,24]},"properties":{"stationId":"EGLL","rawText":"EGLL 221550Z AUTO VRB05KT 9999 NCD 15/07 Q1034 NOSIG","observationTime":"2019-02-22T15:50:00Z","temp":15,"dewpoint":7,"windDirection":0,"windSpeed":9.26,"visibility":6.21,"altim":30.531496,"flightCategory":"VFR","metarType":"METAR","geometry_esri":{"x":51.48,"y":-0.45,"z":24}}}