{"type":"Feature","geometry":{"type":"Point","coordinates":[40.48,-3.57,582]},"properties":{"stationId":"LEMD","rawText":"LEMD 271730Z 13016KT 090V150 CAVOK 39/11 Q1015 NOSIG","observationTime":"2019-06-27T17:30:00Z","temp":39,"dewpoint":11,"windDirection":130,"windSpeed":29.632,"visibility":6.21,"altim":29.970472,"flightCategory":"VFR","metarType":"METAR","geometry_esri":{"x":40.48,"y":-3.57,"z":582}}}