{"type":"Feature","geometry":{"type":"Point","coordinates":[40.48,-3.57,582]},"properties":{"stationId":"LEMD","rawText":"LEMD 261130Z 20013G23KT 9999 SCT060 30/13 Q1012 NOSIG","observationTime":"2019-07-26T11:30:00Z","temp":30,"dewpoint":13,"windDirection":200,"windSpeed":24.076,"visibility":6.21,"altim":29.88189,"flightCategory":"VFR","metarType":"METAR","geometry_esri":{"x":40.48,"y":-3.57,"z":582}}}