{"type":"Feature","geometry":{"type":"Point","coordinates":[53.42,-6.25,85]},"properties":{"stationId":"EIDW","rawText":"EIDW 231930Z 17004KT 9999 FEW022 09/06 Q1031 NOSIG","observationTime":"2019-02-23T19:30:00Z","temp":9,"dewpoint":6,"windDirection":170,"windSpeed":7.408,"visibility":6.21,"altim":30.442913,"flightCategory":"VFR","metarType":"METAR","geometry_esri":{"x":53.42,"y":-6.25,"z":85}}}