{"type":"Feature","geometry":{"type":"Point","coordinates":[48.35,11.82,447]},"properties":{"stationId":"EDDM","rawText":"EDDM 221750Z VRB02KT 9999 SCT030 07/04 Q1035 BECMG 02005KT","observationTime":"2019-02-22T17:50:00Z","temp":7,"dewpoint":4,"windDirection":0,"windSpeed":3.704,"visibility":6.21,"altim":30.561024,"flightCategory":"VFR","metarType":"METAR","geometry_esri":{"x":48.35,"y":11.82,"z":447}}}