{"type":"Feature","geometry":{"type":"Point","coordinates":[53.42,-6.25,85]},"properties":{"stationId":"EIDW","rawText":"EIDW 220230Z 10010KT 8000 -RA FEW006 BKN009 BKN016 06/06 Q0993 NOSIG","observationTime":"2019-11-22T02:30:00Z","temp":6,"dewpoint":6,"windDirection":100,"windSpeed":18.52,"visibility":4.97,"altim":29.320866,"flightCategory":"IFR","metarType":"METAR","geometry_esri":{"x":53.42,"y":-6.25,"z":85}}}