{"type":"Feature","geometry":{"type":"Point","coordinates":[53.42,-6.25,85]},"properties":{"stationId":"EIDW","rawText":"EIDW 110630Z 24007KT 200V270 9999 FEW010 02/M01 Q1022 NOSIG","observationTime":"2019-03-11T06:30:00Z","temp":2,"dewpoint":-1,"windDirection":240,"windSpeed":12.964,"visibility":6.21,"altim":30.177166,"flightCategory":"VFR","metarType":"METAR","geometry_esri":{"x":53.42,"y":-6.25,"z":85}}}