{"type":"Feature","geometry":{"type":"Point","coordinates":[48.35,11.82,447]},"properties":{"stationId":"EDDM","rawText":"EDDM 300350Z 26017KT 5000 -RADZ BKN009 02/01 Q1026 TEMPO 25015G25KT BKN012","observationTime":"2018-12-30T03:50:00Z","temp":2,"dewpoint":1,"windDirection":260,"windSpeed":31.484,"visibility":3.11,"altim":30.295275,"flightCategory":"IFR","metarType":"METAR","geometry_esri":{"x":48.35,"y":11.82,"z":447}}}