{"type":"Feature","geometry":{"type":"Point","coordinates":[47.78,13.02,430]},"properties":{"stationId":"LOWS","rawText":"LOWS 140750Z 13007KT 100V160 CAVOK 01/M03 Q1037 NOSIG","observationTime":"2019-02-14T07:50:00Z","temp":1,"dewpoint":-3,"windDirection":130,"windSpeed":12.964,"visibility":6.21,"altim":30.620079,"flightCategory":"VFR","metarType":"METAR","geometry_esri":{"x":47.78,"y":13.02,"z":430}}}