{"type":"Feature","geometry":{"type":"Point","coordinates":[40.48,-3.57,582]},"properties":{"stationId":"LEMD","rawText":"LEMD 210830Z VRB01KT CAVOK 07/M03 Q1028 NOSIG","observationTime":"2019-03-21T08:30:00Z","temp":7,"dewpoint":-3,"windDirection":0,"windSpeed":1.852,"visibility":6.21,"altim":30.35433,"flightCategory":"VFR","metarType":"METAR","geometry_esri":{"x":40.48,"y":-3.57,"z":582}}}