{"type":"Feature","geometry":{"type":"Point","coordinates":[49.02,2.52,109]},"properties":{"stationId":"LFPG","rawText":"LFPG 191930Z 30005KT CAVOK 25/13 Q1012 NOSIG","observationTime":"2019-07-19T19:30:00Z","temp":25,"dewpoint":13,"windDirection":300,"windSpeed":9.26,"visibility":6.21,"altim":29.88189,"flightCategory":"VFR","metarType":"METAR","geometry_esri":{"x":49.02,"y":2.52,"z":109}}}