{"type":"Feature","geometry":{"type":"Point","coordinates":[51.48,-0.45,24]},"properties":{"stationId":"EGLL","rawText":"EGLL 190950Z AUTO 34004KT 270V040 9999 BKN014 17/14 Q1008 TEMPO SCT014","observationTime":"2019-06-19T09:50:00Z","temp":17,"dewpoint":14,"windDirection":340,"windSpeed":7.408,"visibility":6.21,"altim":29.763779,"flightCategory":"MVFR","metarType":"METAR","geometry_esri":{"x":51.48,"y":-0.45,"z":24}}}