{"type":"Feature","geometry":{"type":"Point","coordinates":[51.48,-0.45,24]},"properties":{"stationId":"EGLL","rawText":"EGLL 151150Z AUTO 18005KT 120V250 9999 SCT012 BKN016 BKN025 16/12 Q1004 NOSIG","observationTime":"2019-10-15T11:50:00Z","temp":16,"dewpoint":12,"windDirection":180,"windSpeed":9.26,"visibility":6.21,"altim":29.64567,"flightCategory":"MVFR","metarType":"METAR","geometry_esri":{"x":51.48,"y":-0.45,"z":24}}}