{"type":"Feature","geometry":{"type":"Point","coordinates":[53.42,-6.25,85]},"properties":{"stationId":"EIDW","rawText":"EIDW 080830Z 15004KT 100V190 9999 FEW022 SCT050 BKN070 15/11 Q1020 NOSIG","observationTime":"2019-07-08T08:30:00Z","temp":15,"dewpoint":11,"windDirection":150,"windSpeed":7.408,"visibility":6.21,"altim":30.11811,"flightCategory":"VFR","metarType":"METAR","geometry_esri":{"x":53.42,"y":-6.25,"z":85}}}