{"type":"Feature","geometry":{"type":"Point","coordinates":[53.42,-6.25,85]},"properties":{"stationId":"EIDW","rawText":"EIDW 261630Z 13009KT CAVOK 12/05 Q1027 NOSIG","observationTime":"2019-02-26T16:30:00Z","temp":12,"dewpoint":5,"windDirection":130,"windSpeed":16.668,"visibility":6.21,"altim":30.324802,"flightCategory":"VFR","metarType":"METAR","geometry_esri":{"x":53.42,"y":-6.25,"z":85}}}