{"type":"Feature","geometry":{"type":"Point","coordinates":[49.02,2.52,109]},"properties":{"stationId":"LFPG","rawText":"LFPG 100730Z 06009KT 5000 -RA BKN011 05/04 Q1006 NOSIG","observationTime":"2019-11-10T07:30:00Z","temp":5,"dewpoint":4,"windDirection":60,"windSpeed":16.668,"visibility":3.11,"altim":29.704725,"flightCategory":"MVFR","metarType":"METAR","geometry_esri":{"x":49.02,"y":2.52,"z":109}}}