{"type":"Feature","geometry":{"type":"Point","coordinates":[53.42,-6.25,85]},"properties":{"stationId":"EIDW","rawText":"EIDW 290030Z 22008KT 190V260 9999 FEW018 SCT110 BKN140 03/00 Q1005 NOSIG","observationTime":"2019-01-29T00:30:00Z","temp":3,"dewpoint":0,"windDirection":220,"windSpeed":14.816,"visibility":6.21,"altim":29.675198,"flightCategory":"VFR","metarType":"METAR","geometry_esri":{"x":53.42,"y":-6.25,"z":85}}}