{"type":"Feature","geometry":{"type":"Point","coordinates":[51.48,-0.45,24]},"properties":{"stationId":"EGLL","rawText":"EGLL 150850Z AUTO 26028KT 9999 BKN019 13/09 Q1006 NOSIG","observationTime":"2019-03-15T08:50:00Z","temp":13,"dewpoint":9,"windDirection":260,"windSpeed":51.856,"visibility":6.21,"altim":29.704725,"flightCategory":"MVFR","metarType":"METAR","geometry_esri":{"x":51.48,"y":-0.45,"z":24}}}