{"type":"Feature","geometry":{"type":"Point","coordinates":[49.02,2.52,109]},"properties":{"stationId":"LFPG","rawText":"LFPG 271330Z 14007KT 050V180 CAVOK 33/14 Q1014 NOSIG","observationTime":"2019-08-27T13:30:00Z","temp":33,"dewpoint":14,"windDirection":140,"windSpeed":12.964,"visibility":6.21,"altim":29.940945,"flightCategory":"VFR","metarType":"METAR","geometry_esri":{"x":49.02,"y":2.52,"z":109}}}