{"type":"Feature","geometry":{"type":"Point","coordinates":[51.48,-0.45,24]},"properties":{"stationId":"EGLL","rawText":"EGLL 100850Z AUTO 04004KT 350V080 9999 SCT030 06/04 Q1012","observationTime":"2019-11-10T08:50:00Z","temp":6,"dewpoint":4,"windDirection":40,"windSpeed":7.408,"visibility":6.21,"altim":29.88189,"flightCategory":"VFR","metarType":"METAR","geometry_esri":{"x":51.48,"y":-0.45,"z":24}}}