{"type":"Feature","geometry":{"type":"Point","coordinates":[48.35,11.82,447]},"properties":{"stationId":"EDDM","rawText":"EDDM 071750Z 27003KT 250V310 5000 -RA BR SCT015 BKN025 01/01 Q1016 REFZRA NOSIG","observationTime":"2019-02-07T17:50:00Z","temp":1,"dewpoint":1,"windDirection":270,"windSpeed":5.556,"visibility":3.11,"altim":30,"flightCategory":"MVFR","metarType":"METAR","geometry_esri":{"x":48.35,"y":11.82,"z":447}}}