{"type":"Feature","geometry":{"type":"Point","coordinates":[47.78,13.02,430]},"properties":{"stationId":"LOWS","rawText":"LOWS 011950Z 13009KT 100V160 9999 -SHRA FEW012 SCT036 BKN050 FEW050CB 17/16 Q1016 TEMPO SHRA","observationTime":"2019-09-01T19:50:00Z","temp":17,"dewpoint":16,"windDirection":130,"windSpeed":16.668,"visibility":6.21,"altim":30,"flightCategory":"VFR","metarType":"METAR","geometry_esri":{"x":47.78,"y":13.02,"z":430}}}