{"type":"Feature","geometry":{"type":"Point","coordinates":[48.35,11.82,447]},"properties":{"stationId":"EDDM","rawText":"EDDM 220550Z 04006KT CAVOK 13/12 Q1026 NOSIG","observationTime":"2019-08-22T05:50:00Z","temp":13,"dewpoint":12,"windDirection":40,"windSpeed":11.112,"visibility":6.21,"altim":30.295275,"flightCategory":"VFR","metarType":"METAR","geometry_esri":{"x":48.35,"y":11.82,"z":447}}}