{"type":"Feature","geometry":{"type":"Point","coordinates":[48.35,11.82,447]},"properties":{"stationId":"EDDM","rawText":"EDDM 092350Z 32005KT CAVOK 24/18 Q1014 NOSIG","observationTime":"2019-08-09T23:50:00Z","temp":24,"dewpoint":18,"windDirection":320,"windSpeed":9.26,"visibility":6.21,"altim":29.940945,"flightCategory":"VFR","metarType":"METAR","geometry_esri":{"x":48.35,"y":11.82,"z":447}}}