{"type":"Feature","geometry":{"type":"Point","coordinates":[47.78,13.02,430]},"properties":{"stationId":"LOWS","rawText":"LOWS 041450Z 29024G39KT 250V320 9999 -SHRA SCT040 BKN050 BKN060 08/00 Q1005 TEMPO 29020G45KT SHRA","observationTime":"2019-03-04T14:50:00Z","temp":8,"dewpoint":0,"windDirection":290,"windSpeed":44.448,"visibility":6.21,"altim":29.675198,"flightCategory":"VFR","metarType":"SPECI","geometry_esri":{"x":47.78,"y":13.02,"z":430}}}