{"type":"Feature","geometry":{"type":"Point","coordinates":[40.48,-3.57,582]},"properties":{"stationId":"LEMD","rawText":"LEMD 191730Z 17004KT 130V230 9999 FEW060 28/11 Q1016 NOSIG","observationTime":"2019-09-19T17:30:00Z","temp":28,"dewpoint":11,"windDirection":170,"windSpeed":7.408,"visibility":6.21,"altim":30,"flightCategory":"VFR","metarType":"METAR","geometry_esri":{"x":40.48,"y":-3.57,"z":582}}}