{"type":"Feature","geometry":{"type":"Point","coordinates":[48.35,11.82,447]},"properties":{"stationId":"EDDM","rawText":"EDDM 061050Z 24011KT 9999 -SHRA FEW011 SCT017TCU BKN040 08/06 Q1005 NOSIG","observationTime":"2019-11-06T10:50:00Z","temp":8,"dewpoint":6,"windDirection":240,"windSpeed":20.372,"visibility":6.21,"altim":29.675198,"flightCategory":"VFR","metarType":"METAR","geometry_esri":{"x":48.35,"y":11.82,"z":447}}}