{"type":"Feature","geometry":{"type":"Point","coordinates":[47.78,13.02,430]},"properties":{"stationId":"LOWS","rawText":"LOWS 280950Z VRB02KT 9999 -RA FEW004 SCT013 BKN035 14/12 Q1006 TEMPO RA BKN012","observationTime":"2019-05-28T09:50:00Z","temp":14,"dewpoint":12,"windDirection":0,"windSpeed":3.704,"visibility":6.21,"altim":29.704725,"flightCategory":"VFR","metarType":"METAR","geometry_esri":{"x":47.78,"y":13.02,"z":430}}}