{"type":"Feature","geometry":{"type":"Point","coordinates":[49.02,2.52,109]},"properties":{"stationId":"LFPG","rawText":"LFPG 032030Z 03003KT CAVOK 17/11 Q1024 NOSIG","observationTime":"2019-09-03T20:30:00Z","temp":17,"dewpoint":11,"windDirection":30,"windSpeed":5.556,"visibility":6.21,"altim":30.236221,"flightCategory":"VFR","metarType":"METAR","geometry_esri":{"x":49.02,"y":2.52,"z":109}}}