{"type":"Feature","geometry":{"type":"Point","coordinates":[48.35,11.82,447]},"properties":{"stationId":"EDDM","rawText":"EDDM 181250Z 11004KT 070V150 CAVOK 10/M01 Q1020 NOSIG","observationTime":"2019-02-18T12:50:00Z","temp":10,"dewpoint":-1,"windDirection":110,"windSpeed":7.408,"visibility":6.21,"altim":30.11811,"flightCategory":"VFR","metarType":"METAR","geometry_esri":{"x":48.35,"y":11.82,"z":447}}}