{"type":"Feature","geometry":{"type":"Point","coordinates":[40.48,-3.57,582]},"properties":{"stationId":"LEMD","rawText":"LEMD 141330Z 18004KT 060V230 CAVOK 15/M02 Q1028 NOSIG","observationTime":"2019-03-14T13:30:00Z","temp":15,"dewpoint":-2,"windDirection":180,"windSpeed":7.408,"visibility":6.21,"altim":30.35433,"flightCategory":"VFR","metarType":"METAR","geometry_esri":{"x":40.48,"y":-3.57,"z":582}}}