{"type":"Feature","geometry":{"type":"Point","coordinates":[49.02,2.52,109]},"properties":{"stationId":"LFPG","rawText":"LFPG 092130Z 20013KT CAVOK 12/09 Q1012 TEMPO 24015G25KT -SHRA SCT030TCU","observationTime":"2019-10-09T21:30:00Z","temp":12,"dewpoint":9,"windDirection":200,"windSpeed":24.076,"visibility":6.21,"altim":29.88189,"flightCategory":"VFR","metarType":"METAR","geometry_esri":{"x":49.02,"y":2.52,"z":109}}}