{"type":"Feature","geometry":{"type":"Point","coordinates":[51.48,-0.45,24]},"properties":{"stationId":"EGLL","rawText":"EGLL 252150Z AUTO 01005KT 340V060 8000 OVC007 18/17 Q1023 NOSIG","observationTime":"2019-06-25T21:50:00Z","temp":18,"dewpoint":17,"windDirection":10,"windSpeed":9.26,"visibility":4.97,"altim":30.206694,"flightCategory":"IFR","metarType":"METAR","geometry_esri":{"x":51.48,"y":-0.45,"z":24}}}