{"type":"Feature","geometry":{"type":"Point","coordinates":[53.42,-6.25,85]},"properties":{"stationId":"EIDW","rawText":"EIDW 280630Z 32011KT 9999 FEW015 09/06 Q1014 NOSIG","observationTime":"2019-05-28T06:30:00Z","temp":9,"dewpoint":6,"windDirection":320,"windSpeed":20.372,"visibility":6.21,"altim":29.940945,"flightCategory":"VFR","metarType":"METAR","geometry_esri":{"x":53.42,"y":-6.25,"z":85}}}