{"type":"Feature","geometry":{"type":"Point","coordinates":[53.42,-6.25,85]},"properties":{"stationId":"EIDW","rawText":"EIDW 300730Z 26005KT 7000 FEW035 BKN250 07/06 Q1021 NOSIG","observationTime":"2019-03-30T07:30:00Z","temp":7,"dewpoint":6,"windDirection":260,"windSpeed":9.26,"visibility":4.35,"altim":30.147638,"flightCategory":"MVFR","metarType":"METAR","geometry_esri":{"x":53.42,"y":-6.25,"z":85}}}