{"type":"Feature","geometry":{"type":"Point","coordinates":[40.48,-3.57,582]},"properties":{"stationId":"LEMD","rawText":"LEMD 310630Z 23012KT 200V260 9999 BKN014 11/10 Q1002 R88/29//95 NOSIG","observationTime":"2019-01-31T06:30:00Z","temp":11,"dewpoint":10,"windDirection":230,"windSpeed":22.224,"visibility":6.21,"altim":29.586615,"flightCategory":"MVFR","metarType":"METAR","geometry_esri":{"x":40.48,"y":-3.57,"z":582}}}