{"type":"Feature","geometry":{"type":"Point","coordinates":[40.48,-3.57,582]},"properties":{"stationId":"LEMD","rawText":"LEMD 140730Z 21012KT 110V240 9999 FEW045 SCT060 19/11 Q1012 WS R14L WS R14R NOSIG","observationTime":"2019-10-14T07:30:00Z","temp":19,"dewpoint":11,"windDirection":210,"windSpeed":22.224,"visibility":6.21,"altim":29.88189,"flightCategory":"VFR","metarType":"SPECI","geometry_esri":{"x":40.48,"y":-3.57,"z":582}}}