{"type":"Feature","geometry":{"type":"Point","coordinates":[49.02,2.52,109]},"properties":{"stationId":"LFPG","rawText":"LFPG 101230Z 01011KT 4000 BR BKN008 BKN018 09/06 Q1013 NOSIG","observationTime":"2019-04-10T12:30:00Z","temp":9,"dewpoint":6,"windDirection":10,"windSpeed":20.372,"visibility":2.49,"altim":29.911417,"flightCategory":"IFR","metarType":"METAR","geometry_esri":{"x":49.02,"y":2.52,"z":109}}}