{"type":"Feature","geometry":{"type":"Point","coordinates":[48.35,11.82,447]},"properties":{"stationId":"EDDM","rawText":"EDDM 281450Z 36003KT 330V030 9999 FEW015 BKN029 08/05 Q1020 NOSIG","observationTime":"2019-10-28T14:50:00Z","temp":8,"dewpoint":5,"windDirection":360,"windSpeed":5.556,"visibility":6.21,"altim":30.11811,"flightCategory":"MVFR","metarType":"METAR","geometry_esri":{"x":48.35,"y":11.82,"z":447}}}