{"type":"Feature","geometry":{"type":"Point","coordinates":[49.02,2.52,109]},"properties":{"stationId":"LFPG","rawText":"LFPG 230230Z 03006KT CAVOK 19/13 Q1021 NOSIG","observationTime":"2019-07-23T02:30:00Z","temp":19,"dewpoint":13,"windDirection":30,"windSpeed":11.112,"visibility":6.21,"altim":30.147638,"flightCategory":"VFR","metarType":"METAR","geometry_esri":{"x":49.02,"y":2.52,"z":109}}}