{"type":"Feature","geometry":{"type":"Point","coordinates":[47.78,13.02,430]},"properties":{"stationId":"LOWS","rawText":"LOWS 022150Z 12004KT 060V160 CAVOK 08/07 Q0998","observationTime":"2019-11-02T21:50:00Z","temp":8,"dewpoint":7,"windDirection":120,"windSpeed":7.408,"visibility":6.21,"altim":29.468504,"flightCategory":"VFR","metarType":"METAR","geometry_esri":{"x":47.78,"y":13.02,"z":430}}}