{"type":"Feature","geometry":{"type":"Point","coordinates":[51.48,-0.45,24]},"properties":{"stationId":"EGLL","rawText":"EGLL 310250Z AUTO 21004KT 9999 NCD 14/12 Q1015 NOSIG","observationTime":"2019-08-31T02:50:00Z","temp":14,"dewpoint":12,"windDirection":210,"windSpeed":7.408,"visibility":6.21,"altim":29.970472,"flightCategory":"VFR","metarType":"METAR","geometry_esri":{"x":51.48,"y":-0.45,"z":24}}}