{"type":"Feature","geometry":{"type":"Point","coordinates":[40.48,-3.57,582]},"properties":{"stationId":"LEMD","rawText":"LEMD 291430Z 16011KT 140V200 CAVOK 18/M04 Q1022 WS R18L WS R18R NOSIG","observationTime":"2019-03-29T14:30:00Z","temp":18,"dewpoint":-4,"windDirection":160,"windSpeed":20.372,"visibility":6.21,"altim":30.177166,"flightCategory":"VFR","metarType":"SPECI","geometry_esri":{"x":40.48,"y":-3.57,"z":582}}}