{"type":"Feature","geometry":{"type":"Point","coordinates":[51.48,-0.45,24]},"properties":{"stationId":"EGLL","rawText":"EGLL 211750Z AUTO 35007KT 310V030 9999 NCD 20/05 Q1018 NOSIG","observationTime":"2019-05-21T17:50:00Z","temp":20,"dewpoint":5,"windDirection":350,"windSpeed":12.964,"visibility":6.21,"altim":30.059055,"flightCategory":"VFR","metarType":"METAR","geometry_esri":{"x":51.48,"y":-0.45,"z":24}}}