{"type":"Feature","geometry":{"type":"Point","coordinates":[40.48,-3.57,582]},"properties":{"stationId":"LEMD","rawText":"LEMD 181830Z 03004KT 330V080 7000 RA SCT024 BKN035 10/09 Q1012 R88/29//95 TEMPO NSW","observationTime":"2019-04-18T18:30:00Z","temp":10,"dewpoint":9,"windDirection":30,"windSpeed":7.408,"visibility":4.35,"altim":29.88189,"flightCategory":"MVFR","metarType":"SPECI","geometry_esri":{"x":40.48,"y":-3.57,"z":582}}}