{"type":"Feature","geometry":{"type":"Point","coordinates":[49.02,2.52,109]},"properties":{"stationId":"LFPG","rawText":"LFPG 141530Z 05014KT 020V080 CAVOK 18/01 Q1027 NOSIG","observationTime":"2019-05-14T15:30:00Z","temp":18,"dewpoint":1,"windDirection":50,"windSpeed":25.928,"visibility":6.21,"altim":30.324802,"flightCategory":"VFR","metarType":"METAR","geometry_esri":{"x":49.02,"y":2.52,"z":109}}}