{"type":"Feature","geometry":{"type":"Point","coordinates":[40.48,-3.57,582]},"properties":{"stationId":"LEMD","rawText":"LEMD 030630Z 00000KT CAVOK 22/09 Q1016 NOSIG","observationTime":"2019-08-03T06:30:00Z","temp":22,"dewpoint":9,"windDirection":0,"windSpeed":0,"visibility":6.21,"altim":30,"flightCategory":"VFR","metarType":"METAR","geometry_esri":{"x":40.48,"y":-3.57,"z":582}}}