{"type":"Feature","geometry":{"type":"Point","coordinates":[47.78,13.02,430]},"properties":{"stationId":"LOWS","rawText":"LOWS 161950Z 20003KT 170V270 9999 VCTS FEW050 FEW050CB SCT100 BKN150 19/17 Q1018 TEMPO TS","observationTime":"2019-09-16T19:50:00Z","temp":19,"dewpoint":17,"windDirection":200,"windSpeed":5.556,"visibility":6.21,"altim":30.059055,"flightCategory":"VFR","metarType":"METAR","geometry_esri":{"x":47.78,"y":13.02,"z":430}}}