{"type":"Feature","geometry":{"type":"Point","coordinates":[48.35,11.82,447]},"properties":{"stationId":"EDDM","rawText":"EDDM 260150Z 24006KT CAVOK 12/11 Q1017 NOSIG","observationTime":"2019-05-26T01:50:00Z","temp":12,"dewpoint":11,"windDirection":240,"windSpeed":11.112,"visibility":6.21,"altim":30.029528,"flightCategory":"VFR","metarType":"METAR","geometry_esri":{"x":48.35,"y":11.82,"z":447}}}