{"type":"Feature","geometry":{"type":"Point","coordinates":[40.48,-3.57,582]},"properties":{"stationId":"LEMD","rawText":"LEMD 221530Z 25013KT 220V280 9999 FEW050 BKN070 08/02 Q1013 NOSIG","observationTime":"2019-01-22T15:30:00Z","temp":8,"dewpoint":2,"windDirection":250,"windSpeed":24.076,"visibility":6.21,"altim":29.911417,"flightCategory":"VFR","metarType":"METAR","geometry_esri":{"x":40.48,"y":-3.57,"z":582}}}