{"type":"Feature","geometry":{"type":"Point","coordinates":[48.35,11.82,447]},"properties":{"stationId":"EDDM","rawText":"EDDM 271650Z 25011KT 220V290 9999 SCT045 13/04 Q1014 NOSIG","observationTime":"2019-04-27T16:50:00Z","temp":13,"dewpoint":4,"windDirection":250,"windSpeed":20.372,"visibility":6.21,"altim":29.940945,"flightCategory":"VFR","metarType":"METAR","geometry_esri":{"x":48.35,"y":11.82,"z":447}}}