{"type":"Feature","geometry":{"type":"Point","coordinates":[48.35,11.82,447]},"properties":{"stationId":"EDDM","rawText":"EDDM 061250Z 09013KT 9999 SCT037 14/05 Q1003 NOSIG","observationTime":"2019-04-06T12:50:00Z","temp":14,"dewpoint":5,"windDirection":90,"windSpeed":24.076,"visibility":6.21,"altim":29.616142,"flightCategory":"VFR","metarType":"METAR","geometry_esri":{"x":48.35,"y":11.82,"z":447}}}