{"type":"Feature","geometry":{"type":"Point","coordinates":[49.02,2.52,109]},"properties":{"stationId":"LFPG","rawText":"LFPG 091030Z 25015KT 210V280 9999 -RA FEW020 BKN073 11/07 Q1017 NOSIG","observationTime":"2019-03-09T10:30:00Z","temp":11,"dewpoint":7,"windDirection":250,"windSpeed":27.78,"visibility":6.21,"altim":30.029528,"flightCategory":"VFR","metarType":"METAR","geometry_esri":{"x":49.02,"y":2.52,"z":109}}}