{"type":"Feature","geometry":{"type":"Point","coordinates":[49.02,2.52,109]},"properties":{"stationId":"LFPG","rawText":"LFPG 012330Z 01004KT 8000 -RA FEW020 BKN030 04/03 Q0989 NOSIG","observationTime":"2019-02-01T23:30:00Z","temp":4,"dewpoint":3,"windDirection":10,"windSpeed":7.408,"visibility":4.97,"altim":29.202755,"flightCategory":"MVFR","metarType":"METAR","geometry_esri":{"x":49.02,"y":2.52,"z":109}}}