{"type":"Feature","geometry":{"type":"Point","coordinates":[47.78,13.02,430]},"properties":{"stationId":"LOWS","rawText":"LOWS 140950Z 17006KT 9999 FEW012 BKN020 M03/M07 Q1018 NOSIG","observationTime":"2018-12-14T09:50:00Z","temp":-3,"dewpoint":-7,"windDirection":170,"windSpeed":11.112,"visibility":6.21,"altim":30.059055,"qualityControlFlag":"TRUE","skyCondition1a":"FEW","skyCondition1b":1200,"skyCondition2a":"BKN","skyCondition2b":2000,"flightCategory":"MVFR","metarType":"METAR","geometry_esri":{"x":47.78,"y":13.02,"z":430}}}