{"type":"Feature","geometry":{"type":"Point","coordinates":[48.35,11.82,447]},"properties":{"stationId":"EDDM","rawText":"EDDM 311950Z 11010KT 080V140 4500 BR OVC005 02/01 Q1021 TEMPO OVC004","observationTime":"2019-10-31T19:50:00Z","temp":2,"dewpoint":1,"windDirection":110,"windSpeed":18.52,"visibility":2.8,"altim":30.147638,"flightCategory":"IFR","metarType":"METAR","geometry_esri":{"x":48.35,"y":11.82,"z":447}}}