{"type":"Feature","geometry":{"type":"Point","coordinates":[49.02,2.52,109]},"properties":{"stationId":"LFPG","rawText":"LFPG 081130Z 21015KT 9999 SCT016 FEW020TCU BKN170 14/10 Q0998 TEMPO 21015G25KT SCT020TCU","observationTime":"2019-05-08T11:30:00Z","temp":14,"dewpoint":10,"windDirection":210,"windSpeed":27.78,"visibility":6.21,"altim":29.468504,"flightCategory":"VFR","metarType":"METAR","geometry_esri":{"x":49.02,"y":2.52,"z":109}}}