{"type":"Feature","geometry":{"type":"Point","coordinates":[49.02,2.52,109]},"properties":{"stationId":"LFPG","rawText":"LFPG 261130Z 02008KT 340V050 9999 SCT033 10/00 Q1034 NOSIG","observationTime":"2019-03-26T11:30:00Z","temp":10,"dewpoint":0,"windDirection":20,"windSpeed":14.816,"visibility":6.21,"altim":30.531496,"flightCategory":"VFR","metarType":"METAR","geometry_esri":{"x":49.02,"y":2.52,"z":109}}}