{"type":"Feature","geometry":{"type":"Point","coordinates":[40.48,-3.57,582]},"properties":{"stationId":"LEMD","rawText":"LEMD 180230Z 05007KT 350V120 9999 SCT077 07/M01 Q1022 NOSIG","observationTime":"2019-03-18T02:30:00Z","temp":7,"dewpoint":-1,"windDirection":50,"windSpeed":12.964,"visibility":6.21,"altim":30.177166,"flightCategory":"VFR","metarType":"METAR","geometry_esri":{"x":40.48,"y":-3.57,"z":582}}}