{"type":"Feature","geometry":{"type":"Point","coordinates":[49.02,2.52,109]},"properties":{"stationId":"LFPG","rawText":"LFPG 242130Z 20009KT 9999 FEW043 SCT053 BKN110 15/12 Q1008 NOSIG","observationTime":"2019-09-24T21:30:00Z","temp":15,"dewpoint":12,"windDirection":200,"windSpeed":16.668,"visibility":6.21,"altim":29.763779,"flightCategory":"VFR","metarType":"METAR","geometry_esri":{"x":49.02,"y":2.52,"z":109}}}