{"type":"Feature","geometry":{"type":"Point","coordinates":[51.48,-0.45,24]},"properties":{"stationId":"EGLL","rawText":"EGLL 182350Z AUTO 04003KT 7000 SCT009 16/15 Q1010","observationTime":"2019-06-18T23:50:00Z","temp":16,"dewpoint":15,"windDirection":40,"windSpeed":5.556,"visibility":4.35,"altim":29.822834,"flightCategory":"MVFR","metarType":"METAR","geometry_esri":{"x":51.48,"y":-0.45,"z":24}}}