{"type":"Feature","geometry":{"type":"Point","coordinates":[40.48,-3.57,582]},"properties":{"stationId":"LEMD","rawText":"LEMD 162130Z 14007KT 8000 NSC 04/03 Q1018 NOSIG","observationTime":"2019-01-16T21:30:00Z","temp":4,"dewpoint":3,"windDirection":140,"windSpeed":12.964,"visibility":4.97,"altim":30.059055,"flightCategory":"MVFR","metarType":"METAR","geometry_esri":{"x":40.48,"y":-3.57,"z":582}}}