{"type":"Feature","geometry":{"type":"Point","coordinates":[40.48,-3.57,582]},"properties":{"stationId":"LEMD","rawText":"LEMD 201730Z 22005KT 170V260 CAVOK 22/M02 Q1011 NOSIG","observationTime":"2019-05-20T17:30:00Z","temp":22,"dewpoint":-2,"windDirection":220,"windSpeed":9.26,"visibility":6.21,"altim":29.852362,"flightCategory":"VFR","metarType":"METAR","geometry_esri":{"x":40.48,"y":-3.57,"z":582}}}