{"type":"Feature","geometry":{"type":"Point","coordinates":[49.02,2.52,109]},"properties":{"stationId":"LFPG","rawText":"LFPG 220830Z 23003KT 200V290 CAVOK 17/05 Q1021 NOSIG","observationTime":"2019-05-22T08:30:00Z","temp":17,"dewpoint":5,"windDirection":230,"windSpeed":5.556,"visibility":6.21,"altim":30.147638,"flightCategory":"VFR","metarType":"METAR","geometry_esri":{"x":49.02,"y":2.52,"z":109}}}