{"type":"Feature","geometry":{"type":"Point","coordinates":[49.02,2.52,109]},"properties":{"stationId":"LFPG","rawText":"LFPG 041930Z 14008KT CAVOK 08/M03 Q1001 NOSIG","observationTime":"2019-04-04T19:30:00Z","temp":8,"dewpoint":-3,"windDirection":140,"windSpeed":14.816,"visibility":6.21,"altim":29.557087,"flightCategory":"VFR","metarType":"METAR","geometry_esri":{"x":49.02,"y":2.52,"z":109}}}