{"type":"Feature","geometry":{"type":"Point","coordinates":[48.35,11.82,447]},"properties":{"stationId":"EDDM","rawText":"EDDM 261750Z 00000KT 9999 FEW050TCU 23/19 Q1018 NOSIG","observationTime":"2019-08-26T17:50:00Z","temp":23,"dewpoint":19,"windDirection":0,"windSpeed":0,"visibility":6.21,"altim":30.059055,"flightCategory":"VFR","metarType":"METAR","geometry_esri":{"x":48.35,"y":11.82,"z":447}}}