{"type":"Feature","geometry":{"type":"Point","coordinates":[48.35,11.82,447]},"properties":{"stationId":"EDDM","rawText":"EDDM 100450Z 21008KT 9999 -SHRA SCT036TCU 09/07 Q1015 BECMG 24015G25KT","observationTime":"2019-10-10T04:50:00Z","temp":9,"dewpoint":7,"windDirection":210,"windSpeed":14.816,"visibility":6.21,"altim":29.970472,"flightCategory":"VFR","metarType":"METAR","geometry_esri":{"x":48.35,"y":11.82,"z":447}}}