{"type":"Feature","geometry":{"type":"Point","coordinates":[51.48,-0.45,24]},"properties":{"stationId":"EGLL","rawText":"EGLL 260550Z AUTO 05006KT 010V090 9999 OVC005 16/15 Q1027","observationTime":"2019-06-26T05:50:00Z","temp":16,"dewpoint":15,"windDirection":50,"windSpeed":11.112,"visibility":6.21,"altim":30.324802,"flightCategory":"IFR","metarType":"METAR","geometry_esri":{"x":51.48,"y":-0.45,"z":24}}}