{"type":"Feature","geometry":{"type":"Point","coordinates":[53.42,-6.25,85]},"properties":{"stationId":"EIDW","rawText":"EIDW 280430Z 24011KT 200V280 9999 FEW016 BKN022 BKN120 14/10 Q1008 NOSIG","observationTime":"2019-08-28T04:30:00Z","temp":14,"dewpoint":10,"windDirection":240,"windSpeed":20.372,"visibility":6.21,"altim":29.763779,"flightCategory":"MVFR","metarType":"METAR","geometry_esri":{"x":53.42,"y":-6.25,"z":85}}}