{"type":"Feature","geometry":{"type":"Point","coordinates":[40.48,-3.57,582]},"properties":{"stationId":"LEMD","rawText":"LEMD 141430Z 20006G17KT 130V250 9999 FEW055 24/07 Q1016 NOSIG","observationTime":"2019-04-14T14:30:00Z","temp":24,"dewpoint":7,"windDirection":200,"windSpeed":11.112,"visibility":6.21,"altim":30,"flightCategory":"VFR","metarType":"METAR","geometry_esri":{"x":40.48,"y":-3.57,"z":582}}}