{"type":"Feature","geometry":{"type":"Point","coordinates":[53.42,-6.25,85]},"properties":{"stationId":"EIDW","rawText":"EIDW 090630Z 30008KT 9999 FEW015 SCT040 03/03 Q1033 NOSIG","observationTime":"2019-01-09T06:30:00Z","temp":3,"dewpoint":3,"windDirection":300,"windSpeed":14.816,"visibility":6.21,"altim":30.501968,"flightCategory":"VFR","metarType":"METAR","geometry_esri":{"x":53.42,"y":-6.25,"z":85}}}