{"type":"Feature","geometry":{"type":"Point","coordinates":[51.48,-0.45,24]},"properties":{"stationId":"EGLL","rawText":"EGLL 100450Z AUTO 21005KT 150V260 9999 -RA BKN005/// BKN013/// OVC030/// //////TCU 06/06 Q0991 TEMPO RA","observationTime":"2019-02-10T04:50:00Z","temp":6,"dewpoint":6,"windDirection":210,"windSpeed":9.26,"visibility":6.21,"altim":29.26181,"flightCategory":"IFR","metarType":"METAR","geometry_esri":{"x":51.48,"y":-0.45,"z":24}}}