{"type":"Feature","geometry":{"type":"Point","coordinates":[48.35,11.82,447]},"properties":{"stationId":"EDDM","rawText":"EDDM 311950Z 15002KT CAVOK 14/11 Q1025 NOSIG","observationTime":"2019-05-31T19:50:00Z","temp":14,"dewpoint":11,"windDirection":150,"windSpeed":3.704,"visibility":6.21,"altim":30.265747,"flightCategory":"VFR","metarType":"METAR","geometry_esri":{"x":48.35,"y":11.82,"z":447}}}