{"type":"Feature","geometry":{"type":"Point","coordinates":[49.02,2.52,109]},"properties":{"stationId":"LFPG","rawText":"LFPG 180630Z 29008KT CAVOK 17/12 Q1014 NOSIG","observationTime":"2019-07-18T06:30:00Z","temp":17,"dewpoint":12,"windDirection":290,"windSpeed":14.816,"visibility":6.21,"altim":29.940945,"flightCategory":"VFR","metarType":"METAR","geometry_esri":{"x":49.02,"y":2.52,"z":109}}}