{"type":"Feature","geometry":{"type":"Point","coordinates":[40.48,-3.57,582]},"properties":{"stationId":"LEMD","rawText":"LEMD 272230Z 27003KT CAVOK 07/M00 Q1016 NOSIG","observationTime":"2019-01-27T22:30:00Z","temp":7,"dewpoint":0,"windDirection":270,"windSpeed":5.556,"visibility":6.21,"altim":30,"flightCategory":"VFR","metarType":"METAR","geometry_esri":{"x":40.48,"y":-3.57,"z":582}}}