{"type":"Feature","geometry":{"type":"Point","coordinates":[49.02,2.52,109]},"properties":{"stationId":"LFPG","rawText":"LFPG 231930Z 20012KT CAVOK 19/12 Q1015 NOSIG","observationTime":"2019-09-23T19:30:00Z","temp":19,"dewpoint":12,"windDirection":200,"windSpeed":22.224,"visibility":6.21,"altim":29.970472,"flightCategory":"VFR","metarType":"METAR","geometry_esri":{"x":49.02,"y":2.52,"z":109}}}