{"type":"Feature","geometry":{"type":"Point","coordinates":[53.42,-6.25,85]},"properties":{"stationId":"EIDW","rawText":"EIDW 081530Z 10011KT 080V150 9999 FEW018 SCT060 BKN220 19/12 Q1008 NOSIG","observationTime":"2019-08-08T15:30:00Z","temp":19,"dewpoint":12,"windDirection":100,"windSpeed":20.372,"visibility":6.21,"altim":29.763779,"flightCategory":"VFR","metarType":"METAR","geometry_esri":{"x":53.42,"y":-6.25,"z":85}}}