{"type":"Feature","geometry":{"type":"Point","coordinates":[40.48,-3.57,582]},"properties":{"stationId":"LEMD","rawText":"LEMD 130730Z 36007KT 330V050 9999 FEW040 09/04 Q1024 NOSIG","observationTime":"2019-03-13T07:30:00Z","temp":9,"dewpoint":4,"windDirection":360,"windSpeed":12.964,"visibility":6.21,"altim":30.236221,"flightCategory":"VFR","metarType":"METAR","geometry_esri":{"x":40.48,"y":-3.57,"z":582}}}