{"type":"Feature","geometry":{"type":"Point","coordinates":[40.48,-3.57,582]},"properties":{"stationId":"LEMD","rawText":"LEMD 260830Z 22010G21KT 190V270 9999 FEW070 27/14 Q1013 NOSIG","observationTime":"2019-07-26T08:30:00Z","temp":27,"dewpoint":14,"windDirection":220,"windSpeed":18.52,"visibility":6.21,"altim":29.911417,"flightCategory":"VFR","metarType":"METAR","geometry_esri":{"x":40.48,"y":-3.57,"z":582}}}