{"type":"Feature","geometry":{"type":"Point","coordinates":[48.35,11.82,447]},"properties":{"stationId":"EDDM","rawText":"EDDM 251350Z 29009KT 260V320 9999 VCSH SCT038CB 17/08 Q1010 TEMPO 28015G30KT SHRA","observationTime":"2019-09-25T13:50:00Z","temp":17,"dewpoint":8,"windDirection":290,"windSpeed":16.668,"visibility":6.21,"altim":29.822834,"flightCategory":"VFR","metarType":"METAR","geometry_esri":{"x":48.35,"y":11.82,"z":447}}}