{"type":"Feature","geometry":{"type":"Point","coordinates":[40.48,-3.57,582]},"properties":{"stationId":"LEMD","rawText":"LEMD 261030Z 15007KT 070V210 9999 FEW060 26/14 Q1017 NOSIG","observationTime":"2019-08-26T10:30:00Z","temp":26,"dewpoint":14,"windDirection":150,"windSpeed":12.964,"visibility":6.21,"altim":30.029528,"flightCategory":"VFR","metarType":"METAR","geometry_esri":{"x":40.48,"y":-3.57,"z":582}}}