{"type":"Feature","geometry":{"type":"Point","coordinates":[48.35,11.82,447]},"properties":{"stationId":"EDDM","rawText":"EDDM 021150Z 25011KT 9999 FEW030 SCT042 07/04 Q1017 NOSIG","observationTime":"2019-03-02T11:50:00Z","temp":7,"dewpoint":4,"windDirection":250,"windSpeed":20.372,"visibility":6.21,"altim":30.029528,"flightCategory":"VFR","metarType":"METAR","geometry_esri":{"x":48.35,"y":11.82,"z":447}}}