{"type":"Feature","geometry":{"type":"Point","coordinates":[53.42,-6.25,85]},"properties":{"stationId":"EIDW","rawText":"EIDW 241430Z 14009KT 080V170 9999 FEW024 SCT038 BKN049 23/13 Q1009 NOSIG","observationTime":"2019-07-24T14:30:00Z","temp":23,"dewpoint":13,"windDirection":140,"windSpeed":16.668,"visibility":6.21,"altim":29.793306,"flightCategory":"VFR","metarType":"METAR","geometry_esri":{"x":53.42,"y":-6.25,"z":85}}}