{"type":"Feature","geometry":{"type":"Point","coordinates":[48.35,11.82,447]},"properties":{"stationId":"EDDM","rawText":"EDDM 042150Z 26024G37KT 7000 RA FEW012 BKN014 04/02 Q1008 BECMG 25020G30KT NSW BKN015","observationTime":"2019-03-04T21:50:00Z","temp":4,"dewpoint":2,"windDirection":260,"windSpeed":44.448,"visibility":4.35,"altim":29.763779,"flightCategory":"MVFR","metarType":"METAR","geometry_esri":{"x":48.35,"y":11.82,"z":447}}}