{"type":"Feature","geometry":{"type":"Point","coordinates":[48.35,11.82,447]},"properties":{"stationId":"EDDM","rawText":"EDDM 161750Z 10005KT CAVOK 11/06 Q1016 NOSIG","observationTime":"2019-10-16T17:50:00Z","temp":11,"dewpoint":6,"windDirection":100,"windSpeed":9.26,"visibility":6.21,"altim":30,"flightCategory":"VFR","metarType":"METAR","geometry_esri":{"x":48.35,"y":11.82,"z":447}}}