{"type":"Feature","geometry":{"type":"Point","coordinates":[51.48,-0.45,24]},"properties":{"stationId":"EGLL","rawText":"EGLL 142050Z AUTO 15004KT 130V200 9999 NCD 06/02 Q1030 NOSIG","observationTime":"2019-02-14T20:50:00Z","temp":6,"dewpoint":2,"windDirection":150,"windSpeed":7.408,"visibility":6.21,"altim":30.413385,"flightCategory":"VFR","metarType":"METAR","geometry_esri":{"x":51.48,"y":-0.45,"z":24}}}