{"type":"Feature","geometry":{"type":"Point","coordinates":[48.35,11.82,447]},"properties":{"stationId":"EDDM","rawText":"EDDM 151150Z 04006KT 330V100 9999 FEW045 22/11 Q1016 NOSIG","observationTime":"2019-07-15T11:50:00Z","temp":22,"dewpoint":11,"windDirection":40,"windSpeed":11.112,"visibility":6.21,"altim":30,"flightCategory":"VFR","metarType":"METAR","geometry_esri":{"x":48.35,"y":11.82,"z":447}}}