{"type":"Feature","geometry":{"type":"Point","coordinates":[40.48,-3.57,582]},"properties":{"stationId":"LEMD","rawText":"LEMD 201830Z 04003KT 010V070 CAVOK 13/M05 Q1025 NOSIG","observationTime":"2019-03-20T18:30:00Z","temp":13,"dewpoint":-5,"windDirection":40,"windSpeed":5.556,"visibility":6.21,"altim":30.265747,"flightCategory":"VFR","metarType":"METAR","geometry_esri":{"x":40.48,"y":-3.57,"z":582}}}