{"type":"Feature","geometry":{"type":"Point","coordinates":[53.42,-6.25,85]},"properties":{"stationId":"EIDW","rawText":"EIDW 102030Z 35006KT 9999 FEW020 11/07 Q1021 NOSIG","observationTime":"2019-06-10T20:30:00Z","temp":11,"dewpoint":7,"windDirection":350,"windSpeed":11.112,"visibility":6.21,"altim":30.147638,"flightCategory":"VFR","metarType":"METAR","geometry_esri":{"x":53.42,"y":-6.25,"z":85}}}