{"type":"Feature","geometry":{"type":"Point","coordinates":[49.02,2.52,109]},"properties":{"stationId":"LFPG","rawText":"LFPG 260430Z 26005KT CAVOK 13/11 Q1018 NOSIG","observationTime":"2019-05-26T04:30:00Z","temp":13,"dewpoint":11,"windDirection":260,"windSpeed":9.26,"visibility":6.21,"altim":30.059055,"flightCategory":"VFR","metarType":"METAR","geometry_esri":{"x":49.02,"y":2.52,"z":109}}}