{"type":"Feature","geometry":{"type":"Point","coordinates":[40.48,-3.57,582]},"properties":{"stationId":"LEMD","rawText":"LEMD 071230Z 27010KT 230V300 9999 FEW015 SCT060 13/M01 Q1012 WS R36L WS R36R NOSIG","observationTime":"2019-04-07T12:30:00Z","temp":13,"dewpoint":-1,"windDirection":270,"windSpeed":18.52,"visibility":6.21,"altim":29.88189,"flightCategory":"VFR","metarType":"METAR","geometry_esri":{"x":40.48,"y":-3.57,"z":582}}}