{"type":"Feature","geometry":{"type":"Point","coordinates":[48.35,11.82,447]},"properties":{"stationId":"EDDM","rawText":"EDDM 280750Z 29006KT 260V330 9999 -RA SCT011 SCT026 14/12 Q1006 TEMPO BKN011","observationTime":"2019-05-28T07:50:00Z","temp":14,"dewpoint":12,"windDirection":290,"windSpeed":11.112,"visibility":6.21,"altim":29.704725,"flightCategory":"VFR","metarType":"METAR","geometry_esri":{"x":48.35,"y":11.82,"z":447}}}