{"type":"Feature","geometry":{"type":"Point","coordinates":[40.48,-3.57,582]},"properties":{"stationId":"LEMD","rawText":"LEMD 030030Z 34004KT 310V010 CAVOK M00/M02 Q1027 NOSIG","observationTime":"2019-01-03T00:30:00Z","temp":0,"dewpoint":-2,"windDirection":340,"windSpeed":7.408,"visibility":6.21,"altim":30.324802,"flightCategory":"VFR","metarType":"METAR","geometry_esri":{"x":40.48,"y":-3.57,"z":582}}}