{"type":"Feature","geometry":{"type":"Point","coordinates":[51.48,-0.45,24]},"properties":{"stationId":"EGLL","rawText":"EGLL 221650Z VRB02KT 4500 -SHRASN SCT007 BKN012 BKN020 01/00 Q0999 TEMPO BKN008","observationTime":"2019-01-22T16:50:00Z","temp":1,"dewpoint":0,"windDirection":0,"windSpeed":3.704,"visibility":2.8,"altim":29.498032,"flightCategory":"IFR","metarType":"METAR","geometry_esri":{"x":51.48,"y":-0.45,"z":24}}}