{"type":"Feature","geometry":{"type":"Point","coordinates":[40.48,-3.57,582]},"properties":{"stationId":"LEMD","rawText":"LEMD 092030Z 28007KT 230V300 CAVOK 24/02 Q1015 NOSIG","observationTime":"2019-06-09T20:30:00Z","temp":24,"dewpoint":2,"windDirection":280,"windSpeed":12.964,"visibility":6.21,"altim":29.970472,"flightCategory":"VFR","metarType":"METAR","geometry_esri":{"x":40.48,"y":-3.57,"z":582}}}