{"type":"Feature","geometry":{"type":"Point","coordinates":[53.42,-6.25,85]},"properties":{"stationId":"EIDW","rawText":"EIDW 080630Z 27010KT 9999 FEW017 SCT031 BKN250 05/03 Q1032 NOSIG","observationTime":"2019-01-08T06:30:00Z","temp":5,"dewpoint":3,"windDirection":270,"windSpeed":18.52,"visibility":6.21,"altim":30.47244,"flightCategory":"VFR","metarType":"METAR","geometry_esri":{"x":53.42,"y":-6.25,"z":85}}}