{"type":"Feature","geometry":{"type":"Point","coordinates":[48.35,11.82,447]},"properties":{"stationId":"EDDM","rawText":"EDDM 220850Z 03003KT 340V090 1200 0600N R26R/1200D R26L/P2000N BCFG SCT001 BKN002 11/11 Q1024 BECMG 4500 BR BKN005","observationTime":"2019-10-22T08:50:00Z","temp":11,"dewpoint":11,"windDirection":30,"windSpeed":5.556,"visibility":0.75,"altim":30.236221,"flightCategory":"LIFR","metarType":"METAR","geometry_esri":{"x":48.35,"y":11.82,"z":447}}}