{"type":"Feature","geometry":{"type":"Point","coordinates":[47.78,13.02,430]},"properties":{"stationId":"LOWS","rawText":"LOWS 060950Z 15006KT 100V200 9999 FEW050 SCT080 BKN160 22/15 Q1016 NOSIG","observationTime":"2019-08-06T09:50:00Z","temp":22,"dewpoint":15,"windDirection":150,"windSpeed":11.112,"visibility":6.21,"altim":30,"flightCategory":"VFR","metarType":"METAR","geometry_esri":{"x":47.78,"y":13.02,"z":430}}}