{"type":"Feature","geometry":{"type":"Point","coordinates":[48.35,11.82,447]},"properties":{"stationId":"EDDM","rawText":"EDDM 291650Z 26004KT 230V290 9999 FEW015 BKN030 01/M01 Q1030 NOSIG","observationTime":"2018-12-29T16:50:00Z","temp":1,"dewpoint":-1,"windDirection":260,"windSpeed":7.408,"visibility":6.21,"altim":30.413385,"flightCategory":"MVFR","metarType":"METAR","geometry_esri":{"x":48.35,"y":11.82,"z":447}}}