{"type":"Feature","geometry":{"type":"Point","coordinates":[49.02,2.52,109]},"properties":{"stationId":"LFPG","rawText":"LFPG 231530Z 05011KT CAVOK 15/05 Q1032 NOSIG","observationTime":"2019-02-23T15:30:00Z","temp":15,"dewpoint":5,"windDirection":50,"windSpeed":20.372,"visibility":6.21,"altim":30.47244,"flightCategory":"VFR","metarType":"METAR","geometry_esri":{"x":49.02,"y":2.52,"z":109}}}