{"type":"Feature","geometry":{"type":"Point","coordinates":[48.35,11.82,447]},"properties":{"stationId":"EDDM","rawText":"EDDM 251550Z 06002KT CAVOK 12/03 Q1035 NOSIG","observationTime":"2019-02-25T15:50:00Z","temp":12,"dewpoint":3,"windDirection":60,"windSpeed":3.704,"visibility":6.21,"altim":30.561024,"flightCategory":"VFR","metarType":"METAR","geometry_esri":{"x":48.35,"y":11.82,"z":447}}}