{"type":"Feature","geometry":{"type":"Point","coordinates":[47.78,13.02,430]},"properties":{"stationId":"LOWS","rawText":"LOWS 040650Z VRB01KT 9999 -SN FEW006 SCT040 BKN060 M01/M02 Q1030 R15/29//95 NOSIG","observationTime":"2019-02-04T06:50:00Z","temp":-1,"dewpoint":-2,"windDirection":0,"windSpeed":1.852,"visibility":6.21,"altim":30.413385,"flightCategory":"VFR","metarType":"SPECI","geometry_esri":{"x":47.78,"y":13.02,"z":430}}}