{"type":"Feature","geometry":{"type":"Point","coordinates":[49.02,2.52,109]},"properties":{"stationId":"LFPG","rawText":"LFPG 200130Z 05003KT 0500 R27L/0600D R09R/0650N R26R/0450U R08L/0500D R26L/0550N R08R/0400N R27R/0650N R09L/0600U FG BKN001 11/11 Q1006 NOSIG","observationTime":"2019-10-20T01:30:00Z","temp":11,"dewpoint":11,"windDirection":50,"windSpeed":5.556,"visibility":0.31,"altim":29.704725,"flightCategory":"LIFR","metarType":"SPECI","geometry_esri":{"x":49.02,"y":2.52,"z":109}}}