{"type":"Feature","geometry":{"type":"Point","coordinates":[48.35,11.82,447]},"properties":{"stationId":"EDDM","rawText":"EDDM 051750Z VRB02KT CAVOK 06/04 Q1000 NOSIG","observationTime":"2019-11-05T17:50:00Z","temp":6,"dewpoint":4,"windDirection":0,"windSpeed":3.704,"visibility":6.21,"altim":29.52756,"flightCategory":"VFR","metarType":"METAR","geometry_esri":{"x":48.35,"y":11.82,"z":447}}}