{"type":"Feature","geometry":{"type":"Point","coordinates":[53.42,-6.25,85]},"properties":{"stationId":"EIDW","rawText":"EIDW 230030Z 20007KT 170V250 9999 SCT025 SCT120 18/15 Q1016 NOSIG","observationTime":"2019-07-23T00:30:00Z","temp":18,"dewpoint":15,"windDirection":200,"windSpeed":12.964,"visibility":6.21,"altim":30,"flightCategory":"VFR","metarType":"METAR","geometry_esri":{"x":53.42,"y":-6.25,"z":85}}}