{"type":"Feature","geometry":{"type":"Point","coordinates":[48.35,11.82,447]},"properties":{"stationId":"EDDM","rawText":"EDDM 111850Z 28003KT 9999 FEW025 BKN037 10/06 Q1015 BECMG 23012KT","observationTime":"2019-05-11T18:50:00Z","temp":10,"dewpoint":6,"windDirection":280,"windSpeed":5.556,"visibility":6.21,"altim":29.970472,"flightCategory":"VFR","metarType":"METAR","geometry_esri":{"x":48.35,"y":11.82,"z":447}}}