{"type":"Feature","geometry":{"type":"Point","coordinates":[49.02,2.52,109]},"properties":{"stationId":"LFPG","rawText":"LFPG 231930Z 24012KT 5000 -DZ SCT005 BKN006 13/12 Q1020 TEMPO 2500 -RADZ BKN004","observationTime":"2018-12-23T19:30:00Z","temp":13,"dewpoint":12,"windDirection":240,"windSpeed":22.224,"visibility":3.11,"altim":30.11811,"flightCategory":"IFR","metarType":"SPECI","geometry_esri":{"x":49.02,"y":2.52,"z":109}}}