{"type":"Feature","geometry":{"type":"Point","coordinates":[49.02,2.52,109]},"properties":{"stationId":"LFPG","rawText":"LFPG 160830Z 18016KT 9999 FEW014 BKN040 14/11 Q1009 NOSIG","observationTime":"2019-10-16T08:30:00Z","temp":14,"dewpoint":11,"windDirection":180,"windSpeed":29.632,"visibility":6.21,"altim":29.793306,"flightCategory":"VFR","metarType":"METAR","geometry_esri":{"x":49.02,"y":2.52,"z":109}}}