{"type":"Feature","geometry":{"type":"Point","coordinates":[48.35,11.82,447]},"properties":{"stationId":"EDDM","rawText":"EDDM 232250Z 05005KT 020V100 CAVOK 07/04 Q1001 NOSIG","observationTime":"2019-11-23T22:50:00Z","temp":7,"dewpoint":4,"windDirection":50,"windSpeed":9.26,"visibility":6.21,"altim":29.557087,"flightCategory":"VFR","metarType":"METAR","geometry_esri":{"x":48.35,"y":11.82,"z":447}}}