{"type":"Feature","geometry":{"type":"Point","coordinates":[47.78,13.02,430]},"properties":{"stationId":"LOWS","rawText":"LOWS 101950Z 18004KT 140V220 8000 FEW003 BKN004 01/01 Q1016 NOSIG","observationTime":"2019-11-10T19:50:00Z","temp":1,"dewpoint":1,"windDirection":180,"windSpeed":7.408,"visibility":4.97,"altim":30,"flightCategory":"LIFR","metarType":"METAR","geometry_esri":{"x":47.78,"y":13.02,"z":430}}}