{"type":"Feature","geometry":{"type":"Point","coordinates":[49.02,2.52,109]},"properties":{"stationId":"LFPG","rawText":"LFPG 151330Z VRB01KT 1500 -SN SCT003 BKN005 01/00 Q0997 TEMPO 1200 -SN BKN003 BECMG VRB03KT","observationTime":"2019-11-15T13:30:00Z","temp":1,"dewpoint":0,"windDirection":0,"windSpeed":1.852,"visibility":0.93,"altim":29.438976,"flightCategory":"LIFR","metarType":"SPECI","geometry_esri":{"x":49.02,"y":2.52,"z":109}}}