{"type":"Feature","geometry":{"type":"Point","coordinates":[47.78,13.02,430]},"properties":{"stationId":"LOWS","rawText":"LOWS 120850Z 26007KT 230V310 9999 -RA FEW007 SCT016 BKN030 06/03 Q1024 TEMPO RA","observationTime":"2019-05-12T08:50:00Z","temp":6,"dewpoint":3,"windDirection":260,"windSpeed":12.964,"visibility":6.21,"altim":30.236221,"flightCategory":"MVFR","metarType":"METAR","geometry_esri":{"x":47.78,"y":13.02,"z":430}}}