{"type":"Feature","geometry":{"type":"Point","coordinates":[53.42,-6.25,85]},"properties":{"stationId":"EIDW","rawText":"EIDW 151530Z 28023KT 9999 FEW018 SCT040 BKN200 10/02 Q1006 NOSIG","observationTime":"2019-03-15T15:30:00Z","temp":10,"dewpoint":2,"windDirection":280,"windSpeed":42.596000000000004,"visibility":6.21,"altim":29.704725,"flightCategory":"VFR","metarType":"METAR","geometry_esri":{"x":53.42,"y":-6.25,"z":85}}}