{"type":"Feature","geometry":{"type":"Point","coordinates":[48.35,11.82,447]},"properties":{"stationId":"EDDM","rawText":"EDDM 051750Z 23004KT 190V270 0700 0400S R26R/P2000N R26L/1200D FZFG BKN001 M04/M05 Q1029 BECMG 0300","observationTime":"2019-02-05T17:50:00Z","temp":-4,"dewpoint":-5,"windDirection":230,"windSpeed":7.408,"visibility":0.43,"altim":30.383858,"flightCategory":"LIFR","metarType":"METAR","geometry_esri":{"x":48.35,"y":11.82,"z":447}}}