{"type":"Feature","geometry":{"type":"Point","coordinates":[40.48,-3.57,582]},"properties":{"stationId":"LEMD","rawText":"LEMD 091630Z 21010KT 130V280 9999 FEW070 27/M03 Q1014 NOSIG","observationTime":"2019-06-09T16:30:00Z","temp":27,"dewpoint":-3,"windDirection":210,"windSpeed":18.52,"visibility":6.21,"altim":29.940945,"flightCategory":"VFR","metarType":"METAR","geometry_esri":{"x":40.48,"y":-3.57,"z":582}}}