{"type":"Feature","geometry":{"type":"Point","coordinates":[49.02,2.52,109]},"properties":{"stationId":"LFPG","rawText":"LFPG 090630Z 19008KT 5000 -RA BKN008 SCT057 11/10 Q1011 TEMPO SHRA SCT015TCU","observationTime":"2019-10-09T06:30:00Z","temp":11,"dewpoint":10,"windDirection":190,"windSpeed":14.816,"visibility":3.11,"altim":29.852362,"flightCategory":"IFR","metarType":"SPECI","geometry_esri":{"x":49.02,"y":2.52,"z":109}}}