{"type":"Feature","geometry":{"type":"Point","coordinates":[49.02,2.52,109]},"properties":{"stationId":"LFPG","rawText":"LFPG 272230Z 00000KT CAVOK 09/04 Q1022 NOSIG","observationTime":"2019-02-27T22:30:00Z","temp":9,"dewpoint":4,"windDirection":0,"windSpeed":0,"visibility":6.21,"altim":30.177166,"flightCategory":"VFR","metarType":"METAR","geometry_esri":{"x":49.02,"y":2.52,"z":109}}}