{"type":"Feature","geometry":{"type":"Point","coordinates":[40.48,-3.57,582]},"properties":{"stationId":"LEMD","rawText":"LEMD 201930Z 05010KT 360V080 CAVOK 26/13 Q1019 NOSIG","observationTime":"2019-08-20T19:30:00Z","temp":26,"dewpoint":13,"windDirection":50,"windSpeed":18.52,"visibility":6.21,"altim":30.088583,"flightCategory":"VFR","metarType":"METAR","geometry_esri":{"x":40.48,"y":-3.57,"z":582}}}