{"type":"Feature","geometry":{"type":"Point","coordinates":[47.78,13.02,430]},"properties":{"stationId":"LOWS","rawText":"LOWS 272150Z 16003KT 130V190 9999 FEW080 BKN090 11/09 Q1020","observationTime":"2019-10-27T21:50:00Z","temp":11,"dewpoint":9,"windDirection":160,"windSpeed":5.556,"visibility":6.21,"altim":30.11811,"flightCategory":"VFR","metarType":"METAR","geometry_esri":{"x":47.78,"y":13.02,"z":430}}}