{"type":"Feature","geometry":{"type":"Point","coordinates":[49.02,2.52,109]},"properties":{"stationId":"LFPG","rawText":"LFPG 262330Z 34010KT 9999 FEW006 FEW046CB BKN079 17/16 Q1009 RETSRA TEMPO 2500 RA BKN007 BKN012","observationTime":"2019-07-26T23:30:00Z","temp":17,"dewpoint":16,"windDirection":340,"windSpeed":18.52,"visibility":6.21,"altim":29.793306,"flightCategory":"VFR","metarType":"METAR","geometry_esri":{"x":49.02,"y":2.52,"z":109}}}