{"type":"Feature","geometry":{"type":"Point","coordinates":[40.48,-3.57,582]},"properties":{"stationId":"LEMD","rawText":"LEMD 270830Z VRB03KT CAVOK 19/07 Q1016 NOSIG","observationTime":"2019-05-27T08:30:00Z","temp":19,"dewpoint":7,"windDirection":0,"windSpeed":5.556,"visibility":6.21,"altim":30,"flightCategory":"VFR","metarType":"METAR","geometry_esri":{"x":40.48,"y":-3.57,"z":582}}}