{"type":"Feature","geometry":{"type":"Point","coordinates":[49.02,2.52,109]},"properties":{"stationId":"LFPG","rawText":"LFPG 222130Z 02005KT CAVOK 17/04 Q0999 NOSIG","observationTime":"2019-04-22T21:30:00Z","temp":17,"dewpoint":4,"windDirection":20,"windSpeed":9.26,"visibility":6.21,"altim":29.498032,"flightCategory":"VFR","metarType":"METAR","geometry_esri":{"x":49.02,"y":2.52,"z":109}}}