{"type":"Feature","geometry":{"type":"Point","coordinates":[49.02,2.52,109]},"properties":{"stationId":"LFPG","rawText":"LFPG 152030Z 18010KT 6000 -RA BKN007 03/02 Q1000 NOSIG","observationTime":"2019-11-15T20:30:00Z","temp":3,"dewpoint":2,"windDirection":180,"windSpeed":18.52,"visibility":3.73,"altim":29.52756,"flightCategory":"IFR","metarType":"METAR","geometry_esri":{"x":49.02,"y":2.52,"z":109}}}