{"type":"Feature","geometry":{"type":"Point","coordinates":[49.02,2.52,109]},"properties":{"stationId":"LFPG","rawText":"LFPG 211130Z 22015KT 9999 BKN012 BKN019 14/12 Q1008 NOSIG","observationTime":"2018-12-21T11:30:00Z","temp":14,"dewpoint":12,"windDirection":220,"windSpeed":27.78,"visibility":6.21,"altim":29.763779,"flightCategory":"MVFR","metarType":"METAR","geometry_esri":{"x":49.02,"y":2.52,"z":109}}}