{"type":"Feature","geometry":{"type":"Point","coordinates":[40.48,-3.57,582]},"properties":{"stationId":"LEMD","rawText":"LEMD 150530Z 31003KT 260V340 CAVOK 02/M03 Q1028 NOSIG","observationTime":"2019-03-15T05:30:00Z","temp":2,"dewpoint":-3,"windDirection":310,"windSpeed":5.556,"visibility":6.21,"altim":30.35433,"flightCategory":"VFR","metarType":"METAR","geometry_esri":{"x":40.48,"y":-3.57,"z":582}}}