{"type":"Feature","geometry":{"type":"Point","coordinates":[48.35,11.82,447]},"properties":{"stationId":"EDDM","rawText":"EDDM 091450Z 09003KT 020V190 CAVOK 25/13 Q1019 NOSIG","observationTime":"2019-06-09T14:50:00Z","temp":25,"dewpoint":13,"windDirection":90,"windSpeed":5.556,"visibility":6.21,"altim":30.088583,"flightCategory":"VFR","metarType":"METAR","geometry_esri":{"x":48.35,"y":11.82,"z":447}}}