{"type":"Feature","geometry":{"type":"Point","coordinates":[47.78,13.02,430]},"properties":{"stationId":"LOWS","rawText":"LOWS 061650Z 21004KT 9999 FEW040 BKN060 08/06 Q1006 NOSIG","observationTime":"2019-11-06T16:50:00Z","temp":8,"dewpoint":6,"windDirection":210,"windSpeed":7.408,"visibility":6.21,"altim":29.704725,"flightCategory":"VFR","metarType":"METAR","geometry_esri":{"x":47.78,"y":13.02,"z":430}}}