{"type":"Feature","geometry":{"type":"Point","coordinates":[47.78,13.02,430]},"properties":{"stationId":"LOWS","rawText":"LOWS 140950Z 28013KT 9999 -SHRA FEW010 SCT013 BKN022 04/01 Q1007 R15/29//95 NOSIG","observationTime":"2019-01-14T09:50:00Z","temp":4,"dewpoint":1,"windDirection":280,"windSpeed":24.076,"visibility":6.21,"altim":29.734253,"flightCategory":"MVFR","metarType":"METAR","geometry_esri":{"x":47.78,"y":13.02,"z":430}}}