{"type":"Feature","geometry":{"type":"Point","coordinates":[49.02,2.52,109]},"properties":{"stationId":"LFPG","rawText":"LFPG 251330Z 28008KT 250V320 CAVOK 32/18 Q1017 NOSIG","observationTime":"2019-06-25T13:30:00Z","temp":32,"dewpoint":18,"windDirection":280,"windSpeed":14.816,"visibility":6.21,"altim":30.029528,"flightCategory":"VFR","metarType":"METAR","geometry_esri":{"x":49.02,"y":2.52,"z":109}}}