{"type":"Feature","geometry":{"type":"Point","coordinates":[53.42,-6.25,85]},"properties":{"stationId":"EIDW","rawText":"EIDW 280330Z 28009KT 9999 FEW040 11/10 Q1010 NOSIG","observationTime":"2019-07-28T03:30:00Z","temp":11,"dewpoint":10,"windDirection":280,"windSpeed":16.668,"visibility":6.21,"altim":29.822834,"flightCategory":"VFR","metarType":"METAR","geometry_esri":{"x":53.42,"y":-6.25,"z":85}}}