{"type":"Feature","geometry":{"type":"Point","coordinates":[53.42,-6.25,85]},"properties":{"stationId":"EIDW","rawText":"EIDW 221830Z 26009KT 9999 FEW017 SCT170 02/00 Q0999 NOSIG","observationTime":"2019-01-22T18:30:00Z","temp":2,"dewpoint":0,"windDirection":260,"windSpeed":16.668,"visibility":6.21,"altim":29.498032,"flightCategory":"VFR","metarType":"METAR","geometry_esri":{"x":53.42,"y":-6.25,"z":85}}}