{"type":"Feature","geometry":{"type":"Point","coordinates":[40.48,-3.57,582]},"properties":{"stationId":"LEMD","rawText":"LEMD 270430Z 22007KT 170V250 9999 SCT014 BKN018 12/10 Q1010 R88/29//95 NOSIG","observationTime":"2019-11-27T04:30:00Z","temp":12,"dewpoint":10,"windDirection":220,"windSpeed":12.964,"visibility":6.21,"altim":29.822834,"flightCategory":"MVFR","metarType":"METAR","geometry_esri":{"x":40.48,"y":-3.57,"z":582}}}