{"type":"Feature","geometry":{"type":"Point","coordinates":[40.48,-3.57,582]},"properties":{"stationId":"LEMD","rawText":"LEMD 200530Z 35006KT 8000 FEW012 03/03 Q1008 R88/29//95 NOSIG","observationTime":"2019-01-20T05:30:00Z","temp":3,"dewpoint":3,"windDirection":350,"windSpeed":11.112,"visibility":4.97,"altim":29.763779,"flightCategory":"MVFR","metarType":"SPECI","geometry_esri":{"x":40.48,"y":-3.57,"z":582}}}