{"type":"Feature","geometry":{"type":"Point","coordinates":[47.78,13.02,430]},"properties":{"stationId":"LOWS","rawText":"LOWS 220450Z 15009KT 9999 SCT050 BKN065 05/04 Q1013 NOSIG","observationTime":"2018-12-22T04:50:00Z","temp":5,"dewpoint":4,"windDirection":150,"windSpeed":16.668,"visibility":6.21,"altim":29.911417,"flightCategory":"VFR","metarType":"METAR","geometry_esri":{"x":47.78,"y":13.02,"z":430}}}