{"type":"Feature","geometry":{"type":"Point","coordinates":[49.02,2.52,109]},"properties":{"stationId":"LFPG","rawText":"LFPG 262230Z 30007KT 270V330 3000 TSRA FEW005 BKN038 SCT046CB 18/17 Q1010 NOSIG","observationTime":"2019-07-26T22:30:00Z","temp":18,"dewpoint":17,"windDirection":300,"windSpeed":12.964,"visibility":1.86,"altim":29.822834,"flightCategory":"IFR","metarType":"METAR","geometry_esri":{"x":49.02,"y":2.52,"z":109}}}