{"type":"Feature","geometry":{"type":"Point","coordinates":[51.48,-0.45,24]},"properties":{"stationId":"EGLL","rawText":"EGLL 202050Z AUTO 31004KT 9999 NCD 16/08 Q1015","observationTime":"2019-05-20T20:50:00Z","temp":16,"dewpoint":8,"windDirection":310,"windSpeed":7.408,"visibility":6.21,"altim":29.970472,"flightCategory":"VFR","metarType":"METAR","geometry_esri":{"x":51.48,"y":-0.45,"z":24}}}