{"type":"Feature","geometry":{"type":"Point","coordinates":[48.35,11.82,447]},"properties":{"stationId":"EDDM","rawText":"EDDM 261950Z 26004KT CAVOK 16/10 Q1014 NOSIG","observationTime":"2019-05-26T19:50:00Z","temp":16,"dewpoint":10,"windDirection":260,"windSpeed":7.408,"visibility":6.21,"altim":29.940945,"flightCategory":"VFR","metarType":"METAR","geometry_esri":{"x":48.35,"y":11.82,"z":447}}}