{"type":"Feature","geometry":{"type":"Point","coordinates":[48.35,11.82,447]},"properties":{"stationId":"EDDM","rawText":"EDDM 021750Z 24016KT CAVOK 21/14 Q1014 TEMPO SHRA SCT040TCU","observationTime":"2019-08-02T17:50:00Z","temp":21,"dewpoint":14,"windDirection":240,"windSpeed":29.632,"visibility":6.21,"altim":29.940945,"flightCategory":"VFR","metarType":"METAR","geometry_esri":{"x":48.35,"y":11.82,"z":447}}}