{"type":"Feature","geometry":{"type":"Point","coordinates":[40.48,-3.57,582]},"properties":{"stationId":"LEMD","rawText":"LEMD 190830Z 36005KT 330V070 CAVOK 10/M01 Q1025 NOSIG","observationTime":"2019-03-19T08:30:00Z","temp":10,"dewpoint":-1,"windDirection":360,"windSpeed":9.26,"visibility":6.21,"altim":30.265747,"flightCategory":"VFR","metarType":"METAR","geometry_esri":{"x":40.48,"y":-3.57,"z":582}}}