{"type":"Feature","geometry":{"type":"Point","coordinates":[51.48,-0.45,24]},"properties":{"stationId":"EGLL","rawText":"EGLL 241450Z AUTO 19017KT 9999 BKN026 BKN033 14/08 Q0994 TEMPO 7000 SHRA","observationTime":"2019-04-24T14:50:00Z","temp":14,"dewpoint":8,"windDirection":190,"windSpeed":31.484,"visibility":6.21,"altim":29.350393,"flightCategory":"MVFR","metarType":"METAR","geometry_esri":{"x":51.48,"y":-0.45,"z":24}}}