{"type":"Feature","geometry":{"type":"Point","coordinates":[48.35,11.82,447]},"properties":{"stationId":"EDDM","rawText":"EDDM 040750Z 10008KT 070V130 9999 FEW020 07/03 Q0994 NOSIG","observationTime":"2019-04-04T07:50:00Z","temp":7,"dewpoint":3,"windDirection":100,"windSpeed":14.816,"visibility":6.21,"altim":29.350393,"flightCategory":"VFR","metarType":"METAR","geometry_esri":{"x":48.35,"y":11.82,"z":447}}}