{"type":"Feature","geometry":{"type":"Point","coordinates":[51.48,-0.45,24]},"properties":{"stationId":"EGLL","rawText":"EGLL 281050Z AUTO 34005KT 280V030 9999 SCT034 16/07 Q1012 TEMPO SHRA","observationTime":"2019-05-28T10:50:00Z","temp":16,"dewpoint":7,"windDirection":340,"windSpeed":9.26,"visibility":6.21,"altim":29.88189,"flightCategory":"VFR","metarType":"METAR","geometry_esri":{"x":51.48,"y":-0.45,"z":24}}}