{"type":"Feature","geometry":{"type":"Point","coordinates":[48.35,11.82,447]},"properties":{"stationId":"EDDM","rawText":"EDDM 310350Z 21004KT CAVOK 11/08 Q1026 NOSIG","observationTime":"2019-05-31T03:50:00Z","temp":11,"dewpoint":8,"windDirection":210,"windSpeed":7.408,"visibility":6.21,"altim":30.295275,"flightCategory":"VFR","metarType":"METAR","geometry_esri":{"x":48.35,"y":11.82,"z":447}}}