{"type":"Feature","geometry":{"type":"Point","coordinates":[49.02,2.52,109]},"properties":{"stationId":"LFPG","rawText":"LFPG 010530Z 19012KT 9999 BKN013 17/15 Q1005 NOSIG","observationTime":"2019-10-01T05:30:00Z","temp":17,"dewpoint":15,"windDirection":190,"windSpeed":22.224,"visibility":6.21,"altim":29.675198,"flightCategory":"MVFR","metarType":"METAR","geometry_esri":{"x":49.02,"y":2.52,"z":109}}}