{"type":"Feature","geometry":{"type":"Point","coordinates":[49.02,2.52,109]},"properties":{"stationId":"LFPG","rawText":"LFPG 231330Z 35011KT 6000 BKN006 01/M00 Q0997 R26/59//50 TEMPO 3000 -SN BKN004","observationTime":"2019-01-23T13:30:00Z","temp":1,"dewpoint":0,"windDirection":350,"windSpeed":20.372,"visibility":3.73,"altim":29.438976,"flightCategory":"IFR","metarType":"METAR","geometry_esri":{"x":49.02,"y":2.52,"z":109}}}