{"type":"Feature","geometry":{"type":"Point","coordinates":[47.78,13.02,430]},"properties":{"stationId":"LOWS","rawText":"LOWS 242150Z AUTO 16006KT 130V190 9999 FEW110 SCT250 19/16 Q1020","observationTime":"2019-08-24T21:50:00Z","temp":19,"dewpoint":16,"windDirection":160,"windSpeed":11.112,"visibility":6.21,"altim":30.11811,"flightCategory":"VFR","metarType":"METAR","geometry_esri":{"x":47.78,"y":13.02,"z":430}}}