{"type":"Feature","geometry":{"type":"Point","coordinates":[51.48,-0.45,24]},"properties":{"stationId":"EGLL","rawText":"EGLL 040750Z AUTO 25012KT 9999 SCT014 17/16 Q1014","observationTime":"2019-09-04T07:50:00Z","temp":17,"dewpoint":16,"windDirection":250,"windSpeed":22.224,"visibility":6.21,"altim":29.940945,"flightCategory":"VFR","metarType":"METAR","geometry_esri":{"x":51.48,"y":-0.45,"z":24}}}