{"type":"Feature","geometry":{"type":"Point","coordinates":[49.02,2.52,109]},"properties":{"stationId":"LFPG","rawText":"LFPG 280930Z 04011KT 020V100 6000 NSC 11/03 Q1035 NOSIG","observationTime":"2019-03-28T09:30:00Z","temp":11,"dewpoint":3,"windDirection":40,"windSpeed":20.372,"visibility":3.73,"altim":30.561024,"flightCategory":"MVFR","metarType":"METAR","geometry_esri":{"x":49.02,"y":2.52,"z":109}}}