{"type":"Feature","geometry":{"type":"Point","coordinates":[51.48,-0.45,24]},"properties":{"stationId":"EGLL","rawText":"EGLL 191650Z AUTO 21009KT 9999 -RA OVC010 19/17 Q1010","observationTime":"2019-07-19T16:50:00Z","temp":19,"dewpoint":17,"windDirection":210,"windSpeed":16.668,"visibility":6.21,"altim":29.822834,"flightCategory":"MVFR","metarType":"METAR","geometry_esri":{"x":51.48,"y":-0.45,"z":24}}}