{"type":"Feature","geometry":{"type":"Point","coordinates":[40.48,-3.57,582]},"properties":{"stationId":"LEMD","rawText":"LEMD 101930Z 33002KT CAVOK 22/12 Q1020 NOSIG","observationTime":"2019-10-10T19:30:00Z","temp":22,"dewpoint":12,"windDirection":330,"windSpeed":3.704,"visibility":6.21,"altim":30.11811,"flightCategory":"VFR","metarType":"METAR","geometry_esri":{"x":40.48,"y":-3.57,"z":582}}}