{"type":"Feature","geometry":{"type":"Point","coordinates":[53.42,-6.25,85]},"properties":{"stationId":"EIDW","rawText":"EIDW 090830Z 33017KT 9999 -RADZ FEW003 SCT007 BKN022 11/10 Q1010 NOSIG","observationTime":"2019-09-09T08:30:00Z","temp":11,"dewpoint":10,"windDirection":330,"windSpeed":31.484,"visibility":6.21,"altim":29.822834,"flightCategory":"MVFR","metarType":"METAR","geometry_esri":{"x":53.42,"y":-6.25,"z":85}}}