{"type":"Feature","geometry":{"type":"Point","coordinates":[51.48,-0.45,24]},"properties":{"stationId":"EGLL","rawText":"EGLL 162150Z AUTO VRB03KT 5000 HZ NCD 11/08 Q1018 BECMG 4000 BR","observationTime":"2019-04-16T21:50:00Z","temp":11,"dewpoint":8,"windDirection":0,"windSpeed":5.556,"visibility":3.11,"altim":30.059055,"flightCategory":"MVFR","metarType":"METAR","geometry_esri":{"x":51.48,"y":-0.45,"z":24}}}