{"type":"Feature","geometry":{"type":"Point","coordinates":[48.35,11.82,447]},"properties":{"stationId":"EDDM","rawText":"EDDM 211250Z 25018KT 4000 -RADZ SCT011 BKN020 12/10 Q1009 TEMPO 5000 RADZ BKN008","observationTime":"2019-05-21T12:50:00Z","temp":12,"dewpoint":10,"windDirection":250,"windSpeed":33.336,"visibility":2.49,"altim":29.793306,"flightCategory":"IFR","metarType":"SPECI","geometry_esri":{"x":48.35,"y":11.82,"z":447}}}