{"type":"Feature","geometry":{"type":"Point","coordinates":[49.02,2.52,109]},"properties":{"stationId":"LFPG","rawText":"LFPG 081830Z 21008KT CAVOK 14/13 Q1011 NOSIG","observationTime":"2019-10-08T18:30:00Z","temp":14,"dewpoint":13,"windDirection":210,"windSpeed":14.816,"visibility":6.21,"altim":29.852362,"flightCategory":"VFR","metarType":"METAR","geometry_esri":{"x":49.02,"y":2.52,"z":109}}}