{"type":"Feature","geometry":{"type":"Point","coordinates":[53.42,-6.25,85]},"properties":{"stationId":"EIDW","rawText":"EIDW 141230Z 27021G31KT 9999 FEW023 SCT050 10/05 Q1005 NOSIG","observationTime":"2019-03-14T12:30:00Z","temp":10,"dewpoint":5,"windDirection":270,"windSpeed":38.892,"visibility":6.21,"altim":29.675198,"flightCategory":"VFR","metarType":"METAR","geometry_esri":{"x":53.42,"y":-6.25,"z":85}}}