{"type":"Feature","geometry":{"type":"Point","coordinates":[49.02,2.52,109]},"properties":{"stationId":"LFPG","rawText":"LFPG 181630Z 02013KT 360V060 CAVOK 18/04 Q1025 NOSIG","observationTime":"2019-09-18T16:30:00Z","temp":18,"dewpoint":4,"windDirection":20,"windSpeed":24.076,"visibility":6.21,"altim":30.265747,"flightCategory":"VFR","metarType":"METAR","geometry_esri":{"x":49.02,"y":2.52,"z":109}}}