{"type":"Feature","geometry":{"type":"Point","coordinates":[51.48,-0.45,24]},"properties":{"stationId":"EGLL","rawText":"EGLL 031750Z AUTO 25011KT 9999 BKN027 20/13 Q1021 NOSIG","observationTime":"2019-09-03T17:50:00Z","temp":20,"dewpoint":13,"windDirection":250,"windSpeed":20.372,"visibility":6.21,"altim":30.147638,"flightCategory":"MVFR","metarType":"METAR","geometry_esri":{"x":51.48,"y":-0.45,"z":24}}}