{"type":"Feature","geometry":{"type":"Point","coordinates":[49.02,2.52,109]},"properties":{"stationId":"LFPG","rawText":"LFPG 020830Z 34006KT 9999 BKN044 05/02 Q1040 NOSIG","observationTime":"2019-01-02T08:30:00Z","temp":5,"dewpoint":2,"windDirection":340,"windSpeed":11.112,"visibility":6.21,"altim":30.708662,"flightCategory":"VFR","metarType":"METAR","geometry_esri":{"x":49.02,"y":2.52,"z":109}}}