{"type":"Feature","geometry":{"type":"Point","coordinates":[53.42,-6.25,85]},"properties":{"stationId":"EIDW","rawText":"EIDW 072330Z 25008KT 9999 FEW030 03/01 Q1007 NOSIG","observationTime":"2019-03-07T23:30:00Z","temp":3,"dewpoint":1,"windDirection":250,"windSpeed":14.816,"visibility":6.21,"altim":29.734253,"flightCategory":"VFR","metarType":"METAR","geometry_esri":{"x":53.42,"y":-6.25,"z":85}}}