{"type":"Feature","geometry":{"type":"Point","coordinates":[51.48,-0.45,24]},"properties":{"stationId":"EGLL","rawText":"EGLL 230850Z AUTO 15005KT 8000 -RA OVC007 09/09 Q1015 TEMPO 4000 -RADZ","observationTime":"2018-12-23T08:50:00Z","temp":9,"dewpoint":9,"windDirection":150,"windSpeed":9.26,"visibility":4.97,"altim":29.970472,"flightCategory":"IFR","metarType":"SPECI","geometry_esri":{"x":51.48,"y":-0.45,"z":24}}}