{"type":"Feature","geometry":{"type":"Point","coordinates":[40.48,-3.57,582]},"properties":{"stationId":"LEMD","rawText":"LEMD 191630Z 25010KT 220V300 CAVOK 33/10 Q1014 NOSIG","observationTime":"2019-08-19T16:30:00Z","temp":33,"dewpoint":10,"windDirection":250,"windSpeed":18.52,"visibility":6.21,"altim":29.940945,"flightCategory":"VFR","metarType":"METAR","geometry_esri":{"x":40.48,"y":-3.57,"z":582}}}