{"type":"Feature","geometry":{"type":"Point","coordinates":[49.02,2.52,109]},"properties":{"stationId":"LFPG","rawText":"LFPG 162130Z 23019KT 9999 BKN026 11/05 Q1006 NOSIG","observationTime":"2019-03-16T21:30:00Z","temp":11,"dewpoint":5,"windDirection":230,"windSpeed":35.188,"visibility":6.21,"altim":29.704725,"flightCategory":"MVFR","metarType":"METAR","geometry_esri":{"x":49.02,"y":2.52,"z":109}}}