{"type":"Feature","geometry":{"type":"Point","coordinates":[49.02,2.52,109]},"properties":{"stationId":"LFPG","rawText":"LFPG 312330Z 02011KT 7000 NSC 10/06 Q1019 NOSIG","observationTime":"2019-03-31T23:30:00Z","temp":10,"dewpoint":6,"windDirection":20,"windSpeed":20.372,"visibility":4.35,"altim":30.088583,"flightCategory":"MVFR","metarType":"METAR","geometry_esri":{"x":49.02,"y":2.52,"z":109}}}