{"type":"Feature","geometry":{"type":"Point","coordinates":[47.78,13.02,430]},"properties":{"stationId":"LOWS","rawText":"LOWS 070650Z VRB01KT 0300 R15/0325N R33/0400N FZFG BKN002 BKN300 M08/M09 Q1018 TEMPO 0800 SCT003 BKN300","observationTime":"2019-02-07T06:50:00Z","temp":-8,"dewpoint":-9,"windDirection":0,"windSpeed":1.852,"visibility":0.19,"altim":30.059055,"flightCategory":"LIFR","metarType":"METAR","geometry_esri":{"x":47.78,"y":13.02,"z":430}}}