{"type":"Feature","geometry":{"type":"Point","coordinates":[53.42,-6.25,85]},"properties":{"stationId":"EIDW","rawText":"EIDW 070130Z 02004KT 350V070 9999 FEW012 BKN023 12/10 Q1017 NOSIG","observationTime":"2019-07-07T01:30:00Z","temp":12,"dewpoint":10,"windDirection":20,"windSpeed":7.408,"visibility":6.21,"altim":30.029528,"flightCategory":"MVFR","metarType":"METAR","geometry_esri":{"x":53.42,"y":-6.25,"z":85}}}