{"type":"Feature","geometry":{"type":"Point","coordinates":[49.02,2.52,109]},"properties":{"stationId":"LFPG","rawText":"LFPG 270930Z 20015KT 9999 FEW015 SCT020 17/12 Q1011 TEMPO 24015G25KT SCT020TCU","observationTime":"2019-09-27T09:30:00Z","temp":17,"dewpoint":12,"windDirection":200,"windSpeed":27.78,"visibility":6.21,"altim":29.852362,"flightCategory":"VFR","metarType":"METAR","geometry_esri":{"x":49.02,"y":2.52,"z":109}}}