{"type":"Feature","geometry":{"type":"Point","coordinates":[48.35,11.82,447]},"properties":{"stationId":"EDDM","rawText":"EDDM 282350Z 24003KT 9999 SCT027 M04/M05 Q1030 NOSIG","observationTime":"2018-12-28T23:50:00Z","temp":-4,"dewpoint":-5,"windDirection":240,"windSpeed":5.556,"visibility":6.21,"altim":30.413385,"flightCategory":"VFR","metarType":"METAR","geometry_esri":{"x":48.35,"y":11.82,"z":447}}}