{"type":"Feature","geometry":{"type":"Point","coordinates":[40.48,-3.57,582]},"properties":{"stationId":"LEMD","rawText":"LEMD 160930Z 08004KT 020V140 CAVOK 29/11 Q1016 NOSIG","observationTime":"2019-07-16T09:30:00Z","temp":29,"dewpoint":11,"windDirection":80,"windSpeed":7.408,"visibility":6.21,"altim":30,"flightCategory":"VFR","metarType":"METAR","geometry_esri":{"x":40.48,"y":-3.57,"z":582}}}