{"type":"Feature","geometry":{"type":"Point","coordinates":[40.48,-3.57,582]},"properties":{"stationId":"LEMD","rawText":"LEMD 130830Z 04008KT 340V100 CAVOK 21/09 Q1026 NOSIG","observationTime":"2019-09-13T08:30:00Z","temp":21,"dewpoint":9,"windDirection":40,"windSpeed":14.816,"visibility":6.21,"altim":30.295275,"flightCategory":"VFR","metarType":"METAR","geometry_esri":{"x":40.48,"y":-3.57,"z":582}}}