{"type":"Feature","geometry":{"type":"Point","coordinates":[40.48,-3.57,582]},"properties":{"stationId":"LEMD","rawText":"LEMD 032030Z 25006G16KT 220V320 CAVOK 29/01 Q1013 NOSIG","observationTime":"2019-06-03T20:30:00Z","temp":29,"dewpoint":1,"windDirection":250,"windSpeed":11.112,"visibility":6.21,"altim":29.911417,"flightCategory":"VFR","metarType":"METAR","geometry_esri":{"x":40.48,"y":-3.57,"z":582}}}