{"type":"Feature","geometry":{"type":"Point","coordinates":[48.35,11.82,447]},"properties":{"stationId":"EDDM","rawText":"EDDM 280750Z 34004KT 300V030 9999 -RADZ BKN007 BKN023 07/06 Q1022 NOSIG","observationTime":"2019-10-28T07:50:00Z","temp":7,"dewpoint":6,"windDirection":340,"windSpeed":7.408,"visibility":6.21,"altim":30.177166,"flightCategory":"IFR","metarType":"METAR","geometry_esri":{"x":48.35,"y":11.82,"z":447}}}