{"type":"Feature","geometry":{"type":"Point","coordinates":[47.78,13.02,430]},"properties":{"stationId":"LOWS","rawText":"LOWS 112050Z 28008KT 250V320 9999 -RASN FEW007 SCT010 BKN020 01/M01 Q1024 NOSIG","observationTime":"2019-02-11T20:50:00Z","temp":1,"dewpoint":-1,"windDirection":280,"windSpeed":14.816,"visibility":6.21,"altim":30.236221,"flightCategory":"MVFR","metarType":"METAR","geometry_esri":{"x":47.78,"y":13.02,"z":430}}}