{"type":"Feature","geometry":{"type":"Point","coordinates":[53.42,-6.25,85]},"properties":{"stationId":"EIDW","rawText":"EIDW 241130Z 14009KT 9999 FEW014 BKN050 08/06 Q1030 NOSIG","observationTime":"2018-12-24T11:30:00Z","temp":8,"dewpoint":6,"windDirection":140,"windSpeed":16.668,"visibility":6.21,"altim":30.413385,"flightCategory":"VFR","metarType":"METAR","geometry_esri":{"x":53.42,"y":-6.25,"z":85}}}