{"type":"Feature","geometry":{"type":"Point","coordinates":[48.35,11.82,447]},"properties":{"stationId":"EDDM","rawText":"EDDM 140750Z 08007KT 040V100 4500 BR BKN004 M01/M01 Q1005 NOSIG","observationTime":"2019-11-14T07:50:00Z","temp":-1,"dewpoint":-1,"windDirection":80,"windSpeed":12.964,"visibility":2.8,"altim":29.675198,"flightCategory":"LIFR","metarType":"METAR","geometry_esri":{"x":48.35,"y":11.82,"z":447}}}