{"type":"Feature","geometry":{"type":"Point","coordinates":[40.48,-3.57,582]},"properties":{"stationId":"LEMD","rawText":"LEMD 241030Z 26007KT 240V310 CAVOK 13/05 Q1020 NOSIG","observationTime":"2019-10-24T10:30:00Z","temp":13,"dewpoint":5,"windDirection":260,"windSpeed":12.964,"visibility":6.21,"altim":30.11811,"flightCategory":"VFR","metarType":"METAR","geometry_esri":{"x":40.48,"y":-3.57,"z":582}}}