{"type":"Feature","geometry":{"type":"Point","coordinates":[47.78,13.02,430]},"properties":{"stationId":"LOWS","rawText":"LOWS 221950Z 03003KT 360V060 CAVOK 14/05 Q1004 NOSIG","observationTime":"2019-04-22T19:50:00Z","temp":14,"dewpoint":5,"windDirection":30,"windSpeed":5.556,"visibility":6.21,"altim":29.64567,"flightCategory":"VFR","metarType":"METAR","geometry_esri":{"x":47.78,"y":13.02,"z":430}}}