{"type":"Feature","geometry":{"type":"Point","coordinates":[49.02,2.52,109]},"properties":{"stationId":"LFPG","rawText":"LFPG 161330Z 20014KT CAVOK 24/11 Q1015 NOSIG","observationTime":"2019-08-16T13:30:00Z","temp":24,"dewpoint":11,"windDirection":200,"windSpeed":25.928,"visibility":6.21,"altim":29.970472,"flightCategory":"VFR","metarType":"METAR","geometry_esri":{"x":49.02,"y":2.52,"z":109}}}