{"type":"Feature","geometry":{"type":"Point","coordinates":[53.42,-6.25,85]},"properties":{"stationId":"EIDW","rawText":"EIDW 040430Z 19011KT 9999 FEW028 BKN070 08/03 Q1014 NOSIG","observationTime":"2019-12-04T04:30:00Z","temp":8,"dewpoint":3,"windDirection":190,"windSpeed":20.372,"visibility":6.21,"altim":29.940945,"flightCategory":"VFR","metarType":"METAR","geometry_esri":{"x":53.42,"y":-6.25,"z":85}}}