{"type":"Feature","geometry":{"type":"Point","coordinates":[51.48,-0.45,24]},"properties":{"stationId":"EGLL","rawText":"EGLL 031250Z AUTO 25012KT 220V290 9999 BKN032 BKN042 20/12 Q1023 NOSIG","observationTime":"2019-09-03T12:50:00Z","temp":20,"dewpoint":12,"windDirection":250,"windSpeed":22.224,"visibility":6.21,"altim":30.206694,"flightCategory":"VFR","metarType":"METAR","geometry_esri":{"x":51.48,"y":-0.45,"z":24}}}