{"type":"Feature","geometry":{"type":"Point","coordinates":[40.48,-3.57,582]},"properties":{"stationId":"LEMD","rawText":"LEMD 132230Z 11004KT CAVOK 21/00 Q1010 NOSIG","observationTime":"2019-06-13T22:30:00Z","temp":21,"dewpoint":0,"windDirection":110,"windSpeed":7.408,"visibility":6.21,"altim":29.822834,"flightCategory":"VFR","metarType":"METAR","geometry_esri":{"x":40.48,"y":-3.57,"z":582}}}