{"type":"Feature","geometry":{"type":"Point","coordinates":[48.35,11.82,447]},"properties":{"stationId":"EDDM","rawText":"EDDM 051950Z VRB02KT 0300 R26R/0800N R26L/0900VP2000D FZFG OVC001 M04/M05 Q1030 NOSIG","observationTime":"2019-02-05T19:50:00Z","temp":-4,"dewpoint":-5,"windDirection":0,"windSpeed":3.704,"visibility":0.19,"altim":30.413385,"flightCategory":"LIFR","metarType":"METAR","geometry_esri":{"x":48.35,"y":11.82,"z":447}}}