{"type":"Feature","geometry":{"type":"Point","coordinates":[47.78,13.02,430]},"properties":{"stationId":"LOWS","rawText":"LOWS 030450Z 17004KT 9999 MIFG FEW006 BKN060 11/10 Q1025 TEMPO 2000 BCFG","observationTime":"2019-09-03T04:50:00Z","temp":11,"dewpoint":10,"windDirection":170,"windSpeed":7.408,"visibility":6.21,"altim":30.265747,"flightCategory":"VFR","metarType":"SPECI","geometry_esri":{"x":47.78,"y":13.02,"z":430}}}