{"type":"Feature","geometry":{"type":"Point","coordinates":[40.48,-3.57,582]},"properties":{"stationId":"LEMD","rawText":"LEMD 061330Z 24010KT CAVOK 35/01 Q1013 NOSIG","observationTime":"2019-08-06T13:30:00Z","temp":35,"dewpoint":1,"windDirection":240,"windSpeed":18.52,"visibility":6.21,"altim":29.911417,"flightCategory":"VFR","metarType":"METAR","geometry_esri":{"x":40.48,"y":-3.57,"z":582}}}