{"type":"Feature","geometry":{"type":"Point","coordinates":[47.78,13.02,430]},"properties":{"stationId":"LOWS","rawText":"LOWS 220650Z 16004KT CAVOK 13/04 Q1012 NOSIG","observationTime":"2019-04-22T06:50:00Z","temp":13,"dewpoint":4,"windDirection":160,"windSpeed":7.408,"visibility":6.21,"altim":29.88189,"flightCategory":"VFR","metarType":"METAR","geometry_esri":{"x":47.78,"y":13.02,"z":430}}}