{"type":"Feature","geometry":{"type":"Point","coordinates":[49.02,2.52,109]},"properties":{"stationId":"LFPG","rawText":"LFPG 150730Z 23010KT 210V270 CAVOK 17/11 Q1015 NOSIG","observationTime":"2019-06-15T07:30:00Z","temp":17,"dewpoint":11,"windDirection":230,"windSpeed":18.52,"visibility":6.21,"altim":29.970472,"flightCategory":"VFR","metarType":"METAR","geometry_esri":{"x":49.02,"y":2.52,"z":109}}}