{"type":"Feature","geometry":{"type":"Point","coordinates":[48.35,11.82,447]},"properties":{"stationId":"EDDM","rawText":"EDDM 081450Z 26008KT 230V300 9999 SCT042 19/10 Q1017 NOSIG","observationTime":"2019-07-08T14:50:00Z","temp":19,"dewpoint":10,"windDirection":260,"windSpeed":14.816,"visibility":6.21,"altim":30.029528,"flightCategory":"VFR","metarType":"METAR","geometry_esri":{"x":48.35,"y":11.82,"z":447}}}