{"type":"Feature","geometry":{"type":"Point","coordinates":[53.42,-6.25,85]},"properties":{"stationId":"EIDW","rawText":"EIDW 221230Z 23009KT 180V290 9999 FEW013 BKN020 18/14 Q1018 NOSIG","observationTime":"2019-08-22T12:30:00Z","temp":18,"dewpoint":14,"windDirection":230,"windSpeed":16.668,"visibility":6.21,"altim":30.059055,"flightCategory":"MVFR","metarType":"METAR","geometry_esri":{"x":53.42,"y":-6.25,"z":85}}}