{"type":"Feature","geometry":{"type":"Point","coordinates":[48.35,11.82,447]},"properties":{"stationId":"EDDM","rawText":"EDDM 090350Z 28013KT 9999 -SHSN SCT005 SCT012CB 00/M00 Q1008 RESHSN R88/290095 TEMPO 27015G25KT","observationTime":"2019-01-09T03:50:00Z","temp":0,"dewpoint":0,"windDirection":280,"windSpeed":24.076,"visibility":6.21,"altim":29.763779,"flightCategory":"VFR","metarType":"METAR","geometry_esri":{"x":48.35,"y":11.82,"z":447}}}