{"type":"Feature","geometry":{"type":"Point","coordinates":[51.48,-0.45,24]},"properties":{"stationId":"EGLL","rawText":"EGLL 140650Z AUTO 25019G29KT 9999 -RA SCT015 BKN019 OVC025 09/07 Q1003 TEMPO RA BKN014","observationTime":"2019-03-14T06:50:00Z","temp":9,"dewpoint":7,"windDirection":250,"windSpeed":35.188,"visibility":6.21,"altim":29.616142,"flightCategory":"MVFR","metarType":"METAR","geometry_esri":{"x":51.48,"y":-0.45,"z":24}}}