{"type":"Feature","geometry":{"type":"Point","coordinates":[51.48,-0.45,24]},"properties":{"stationId":"EGLL","rawText":"EGLL 160650Z AUTO 28005KT 9999 NCD 15/11 Q1021","observationTime":"2019-07-16T06:50:00Z","temp":15,"dewpoint":11,"windDirection":280,"windSpeed":9.26,"visibility":6.21,"altim":30.147638,"flightCategory":"VFR","metarType":"METAR","geometry_esri":{"x":51.48,"y":-0.45,"z":24}}}