{"type":"Feature","geometry":{"type":"Point","coordinates":[51.48,-0.45,24]},"properties":{"stationId":"EGLL","rawText":"EGLL 081650Z AUTO 21012KT 190V250 9999 -RA FEW024 BKN029 09/06 Q1010 TEMPO RA","observationTime":"2019-03-08T16:50:00Z","temp":9,"dewpoint":6,"windDirection":210,"windSpeed":22.224,"visibility":6.21,"altim":29.822834,"flightCategory":"MVFR","metarType":"SPECI","geometry_esri":{"x":51.48,"y":-0.45,"z":24}}}