{"type":"Feature","geometry":{"type":"Point","coordinates":[51.48,-0.45,24]},"properties":{"stationId":"EGLL","rawText":"EGLL 210450Z AUTO 20010KT 8000 -RA SCT004 BKN007 BKN011 11/11 Q0995 BECMG BKN012","observationTime":"2018-12-21T04:50:00Z","temp":11,"dewpoint":11,"windDirection":200,"windSpeed":18.52,"visibility":4.97,"altim":29.379921,"flightCategory":"IFR","metarType":"METAR","geometry_esri":{"x":51.48,"y":-0.45,"z":24}}}