{"type":"Feature","geometry":{"type":"Point","coordinates":[40.48,-3.57,582]},"properties":{"stationId":"LEMD","rawText":"LEMD 232130Z 15002KT CAVOK 18/10 Q1021 NOSIG","observationTime":"2019-09-23T21:30:00Z","temp":18,"dewpoint":10,"windDirection":150,"windSpeed":3.704,"visibility":6.21,"altim":30.147638,"flightCategory":"VFR","metarType":"METAR","geometry_esri":{"x":40.48,"y":-3.57,"z":582}}}