{"type":"Feature","geometry":{"type":"Point","coordinates":[48.35,11.82,447]},"properties":{"stationId":"EDDM","rawText":"EDDM 070950Z 22006KT 190V270 7000 -SHRA SCT018 SCT040TCU 18/15 Q1014 TEMPO SHRA SCT030CB","observationTime":"2019-07-07T09:50:00Z","temp":18,"dewpoint":15,"windDirection":220,"windSpeed":11.112,"visibility":4.35,"altim":29.940945,"flightCategory":"MVFR","metarType":"SPECI","geometry_esri":{"x":48.35,"y":11.82,"z":447}}}