{"type":"Feature","geometry":{"type":"Point","coordinates":[48.35,11.82,447]},"properties":{"stationId":"EDDM","rawText":"EDDM 281150Z 08007KT 040V120 9999 FEW030 11/02 Q1032 NOSIG","observationTime":"2019-03-28T11:50:00Z","temp":11,"dewpoint":2,"windDirection":80,"windSpeed":12.964,"visibility":6.21,"altim":30.47244,"flightCategory":"VFR","metarType":"METAR","geometry_esri":{"x":48.35,"y":11.82,"z":447}}}