{"type":"Feature","geometry":{"type":"Point","coordinates":[49.02,2.52,109]},"properties":{"stationId":"LFPG","rawText":"LFPG 292330Z 14007KT CAVOK 21/10 Q1010 NOSIG","observationTime":"2019-07-29T23:30:00Z","temp":21,"dewpoint":10,"windDirection":140,"windSpeed":12.964,"visibility":6.21,"altim":29.822834,"flightCategory":"VFR","metarType":"METAR","geometry_esri":{"x":49.02,"y":2.52,"z":109}}}