{"type":"Feature","geometry":{"type":"Point","coordinates":[48.35,11.82,447]},"properties":{"stationId":"EDDM","rawText":"EDDM 290750Z 04005KT 9999 FEW011 SCT026 OVC040 07/05 Q1020 NOSIG","observationTime":"2019-10-29T07:50:00Z","temp":7,"dewpoint":5,"windDirection":40,"windSpeed":9.26,"visibility":6.21,"altim":30.11811,"flightCategory":"VFR","metarType":"METAR","geometry_esri":{"x":48.35,"y":11.82,"z":447}}}