{"type":"Feature","geometry":{"type":"Point","coordinates":[53.42,-6.25,85]},"properties":{"stationId":"EIDW","rawText":"EIDW 130330Z 26018G29KT 9999 SCT014 BKN120 08/06 Q1018 NOSIG","observationTime":"2019-01-13T03:30:00Z","temp":8,"dewpoint":6,"windDirection":260,"windSpeed":33.336,"visibility":6.21,"altim":30.059055,"flightCategory":"VFR","metarType":"METAR","geometry_esri":{"x":53.42,"y":-6.25,"z":85}}}