{"type":"Feature","geometry":{"type":"Point","coordinates":[40.48,-3.57,582]},"properties":{"stationId":"LEMD","rawText":"LEMD 292030Z 13003KT 100V160 CAVOK 12/M01 Q1022 NOSIG","observationTime":"2019-03-29T20:30:00Z","temp":12,"dewpoint":-1,"windDirection":130,"windSpeed":5.556,"visibility":6.21,"altim":30.177166,"flightCategory":"VFR","metarType":"METAR","geometry_esri":{"x":40.48,"y":-3.57,"z":582}}}