{"type":"Feature","geometry":{"type":"Point","coordinates":[49.02,2.52,109]},"properties":{"stationId":"LFPG","rawText":"LFPG 301730Z 32006KT 9999 FEW033 BKN061 20/13 Q1025 NOSIG","observationTime":"2019-05-30T17:30:00Z","temp":20,"dewpoint":13,"windDirection":320,"windSpeed":11.112,"visibility":6.21,"altim":30.265747,"flightCategory":"VFR","metarType":"METAR","geometry_esri":{"x":49.02,"y":2.52,"z":109}}}