{"type":"Feature","geometry":{"type":"Point","coordinates":[51.48,-0.45,24]},"properties":{"stationId":"EGLL","rawText":"EGLL 111650Z AUTO 06005KT 010V140 9999 NCD 11/M00 Q1025 NOSIG","observationTime":"2019-04-11T16:50:00Z","temp":11,"dewpoint":0,"windDirection":60,"windSpeed":9.26,"visibility":6.21,"altim":30.265747,"flightCategory":"VFR","metarType":"METAR","geometry_esri":{"x":51.48,"y":-0.45,"z":24}}}