{"type":"Feature","geometry":{"type":"Point","coordinates":[51.48,-0.45,24]},"properties":{"stationId":"EGLL","rawText":"EGLL 060550Z 21006KT 7000 -DZ FEW004 OVC033 09/09 Q1019","observationTime":"2019-02-06T05:50:00Z","temp":9,"dewpoint":9,"windDirection":210,"windSpeed":11.112,"visibility":4.35,"altim":30.088583,"flightCategory":"MVFR","metarType":"METAR","geometry_esri":{"x":51.48,"y":-0.45,"z":24}}}