{"type":"Feature","geometry":{"type":"Point","coordinates":[48.35,11.82,447]},"properties":{"stationId":"EDDM","rawText":"EDDM 030050Z 28004KT 9999 BKN028 01/M03 Q1027 R88/290095 NOSIG","observationTime":"2019-12-03T00:50:00Z","temp":1,"dewpoint":-3,"windDirection":280,"windSpeed":7.408,"visibility":6.21,"altim":30.324802,"flightCategory":"MVFR","metarType":"METAR","geometry_esri":{"x":48.35,"y":11.82,"z":447}}}