{"type":"Feature","geometry":{"type":"Point","coordinates":[47.78,13.02,430]},"properties":{"stationId":"LOWS","rawText":"LOWS 171950Z 34009KT 9999 FEW030 BKN045 17/12 Q1020 NOSIG","observationTime":"2019-09-17T19:50:00Z","temp":17,"dewpoint":12,"windDirection":340,"windSpeed":16.668,"visibility":6.21,"altim":30.11811,"flightCategory":"VFR","metarType":"METAR","geometry_esri":{"x":47.78,"y":13.02,"z":430}}}