{"type":"Feature","geometry":{"type":"Point","coordinates":[49.02,2.52,109]},"properties":{"stationId":"LFPG","rawText":"LFPG 111830Z 18008G19KT 160V310 CAVOK 17/11 Q1012 NOSIG","observationTime":"2019-10-11T18:30:00Z","temp":17,"dewpoint":11,"windDirection":180,"windSpeed":14.816,"visibility":6.21,"altim":29.88189,"flightCategory":"VFR","metarType":"METAR","geometry_esri":{"x":49.02,"y":2.52,"z":109}}}