{"type":"Feature","geometry":{"type":"Point","coordinates":[53.42,-6.25,85]},"properties":{"stationId":"EIDW","rawText":"EIDW 200630Z 20015G25KT 170V230 9999 SCT016 BKN019 11/07 Q1007 NOSIG","observationTime":"2019-02-20T06:30:00Z","temp":11,"dewpoint":7,"windDirection":200,"windSpeed":27.78,"visibility":6.21,"altim":29.734253,"flightCategory":"MVFR","metarType":"METAR","geometry_esri":{"x":53.42,"y":-6.25,"z":85}}}