{"type":"Feature","geometry":{"type":"Point","coordinates":[48.35,11.82,447]},"properties":{"stationId":"EDDM","rawText":"EDDM 270750Z 27005KT 8000 FEW002 BKN004 04/03 Q1000 NOSIG","observationTime":"2019-11-27T07:50:00Z","temp":4,"dewpoint":3,"windDirection":270,"windSpeed":9.26,"visibility":4.97,"altim":29.52756,"flightCategory":"LIFR","metarType":"METAR","geometry_esri":{"x":48.35,"y":11.82,"z":447}}}