{"type":"Feature","geometry":{"type":"Point","coordinates":[51.48,-0.45,24]},"properties":{"stationId":"EGLL","rawText":"EGLL 211450Z AUTO 31008KT 270V340 9999 NCD 21/05 Q1018 NOSIG","observationTime":"2019-05-21T14:50:00Z","temp":21,"dewpoint":5,"windDirection":310,"windSpeed":14.816,"visibility":6.21,"altim":30.059055,"flightCategory":"VFR","metarType":"METAR","geometry_esri":{"x":51.48,"y":-0.45,"z":24}}}