{"type":"Feature","geometry":{"type":"Point","coordinates":[48.35,11.82,447]},"properties":{"stationId":"EDDM","rawText":"EDDM 101450Z 25036G46KT 9999 VCSH SCT033CB SCT040 14/06 Q1006 TEMPO SHRA","observationTime":"2019-03-10T14:50:00Z","temp":14,"dewpoint":6,"windDirection":250,"windSpeed":66.672,"visibility":6.21,"altim":29.704725,"flightCategory":"VFR","metarType":"METAR","geometry_esri":{"x":48.35,"y":11.82,"z":447}}}