{"type":"Feature","geometry":{"type":"Point","coordinates":[47.78,13.02,430]},"properties":{"stationId":"LOWS","rawText":"LOWS 070950Z 33006KT 6000 FEW004 BKN300 M05/M05 Q1018 NOSIG","observationTime":"2019-02-07T09:50:00Z","temp":-5,"dewpoint":-5,"windDirection":330,"windSpeed":11.112,"visibility":3.73,"altim":30.059055,"flightCategory":"MVFR","metarType":"METAR","geometry_esri":{"x":47.78,"y":13.02,"z":430}}}