{"type":"Feature","geometry":{"type":"Point","coordinates":[48.35,11.82,447]},"properties":{"stationId":"EDDM","rawText":"EDDM 200750Z 24001KT CAVOK 03/M00 Q1033 NOSIG","observationTime":"2019-03-20T07:50:00Z","temp":3,"dewpoint":0,"windDirection":240,"windSpeed":1.852,"visibility":6.21,"altim":30.501968,"flightCategory":"VFR","metarType":"METAR","geometry_esri":{"x":48.35,"y":11.82,"z":447}}}