{"type":"Feature","geometry":{"type":"Point","coordinates":[47.78,13.02,430]},"properties":{"stationId":"LOWS","rawText":"LOWS 111950Z 33004KT 9999 -RA FEW011 BKN050 BKN120 15/14 Q1016 TEMPO RA","observationTime":"2019-07-11T19:50:00Z","temp":15,"dewpoint":14,"windDirection":330,"windSpeed":7.408,"visibility":6.21,"altim":30,"flightCategory":"VFR","metarType":"METAR","geometry_esri":{"x":47.78,"y":13.02,"z":430}}}