{"type":"Feature","geometry":{"type":"Point","coordinates":[48.35,11.82,447]},"properties":{"stationId":"EDDM","rawText":"EDDM 130550Z 26012KT 9999 -RA FEW007 BKN011 02/01 Q1012 R88/290095 NOSIG","observationTime":"2019-01-13T05:50:00Z","temp":2,"dewpoint":1,"windDirection":260,"windSpeed":22.224,"visibility":6.21,"altim":29.88189,"flightCategory":"MVFR","metarType":"METAR","geometry_esri":{"x":48.35,"y":11.82,"z":447}}}