{"type":"Feature","geometry":{"type":"Point","coordinates":[53.42,-6.25,85]},"properties":{"stationId":"EIDW","rawText":"EIDW 010430Z 15009KT 110V170 9999 -DZ FEW013 BKN016 BKN030 13/12 Q0995 TEMPO 4000 BKN005","observationTime":"2019-11-01T04:30:00Z","temp":13,"dewpoint":12,"windDirection":150,"windSpeed":16.668,"visibility":6.21,"altim":29.379921,"flightCategory":"MVFR","metarType":"SPECI","geometry_esri":{"x":53.42,"y":-6.25,"z":85}}}