{"type":"Feature","geometry":{"type":"Point","coordinates":[40.48,-3.57,582]},"properties":{"stationId":"LEMD","rawText":"LEMD 241230Z 12006KT 060V210 CAVOK 20/M02 Q1023 NOSIG","observationTime":"2019-03-24T12:30:00Z","temp":20,"dewpoint":-2,"windDirection":120,"windSpeed":11.112,"visibility":6.21,"altim":30.206694,"flightCategory":"VFR","metarType":"METAR","geometry_esri":{"x":40.48,"y":-3.57,"z":582}}}