{"type":"Feature","geometry":{"type":"Point","coordinates":[48.35,11.82,447]},"properties":{"stationId":"EDDM","rawText":"EDDM 280950Z 26020KT CAVOK 15/01 Q1018 TEMPO 26020G30KT","observationTime":"2019-02-28T09:50:00Z","temp":15,"dewpoint":1,"windDirection":260,"windSpeed":37.04,"visibility":6.21,"altim":30.059055,"flightCategory":"VFR","metarType":"METAR","geometry_esri":{"x":48.35,"y":11.82,"z":447}}}