{"type":"Feature","geometry":{"type":"Point","coordinates":[40.48,-3.57,582]},"properties":{"stationId":"LEMD","rawText":"LEMD 050530Z 25009KT 9999 SCT045 10/03 Q1010 R88/29//95 NOSIG","observationTime":"2019-11-05T05:30:00Z","temp":10,"dewpoint":3,"windDirection":250,"windSpeed":16.668,"visibility":6.21,"altim":29.822834,"flightCategory":"VFR","metarType":"METAR","geometry_esri":{"x":40.48,"y":-3.57,"z":582}}}