{"type":"Feature","geometry":{"type":"Point","coordinates":[47.78,13.02,430]},"properties":{"stationId":"LOWS","rawText":"LOWS 080750Z 26009KT 220V310 9999 FEW050 BKN070 07/M02 Q1015 NOSIG","observationTime":"2018-12-08T07:50:00Z","temp":7,"dewpoint":-2,"windDirection":260,"windSpeed":16.668,"visibility":6.21,"altim":29.970472,"qualityControlFlag":"TRUE","skyCondition1a":"FEW","skyCondition1b":5000,"skyCondition2a":"BKN","skyCondition2b":7000,"flightCategory":"VFR","metarType":"METAR","geometry_esri":{"x":47.78,"y":13.02,"z":430}}}