{"type":"Feature","geometry":{"type":"Point","coordinates":[47.78,13.02,430]},"properties":{"stationId":"LOWS","rawText":"LOWS 130450Z VRB01KT 8000 FEW006 SCT009 BKN019 M01/M02 Q1016 R15/29//95 TEMPO SCT008 BKN012","observationTime":"2018-12-13T04:50:00Z","temp":-1,"dewpoint":-2,"windDirection":0,"windSpeed":1.852,"visibility":4.97,"altim":30,"flightCategory":"MVFR","metarType":"METAR","geometry_esri":{"x":47.78,"y":13.02,"z":430}}}