{"type":"Feature","geometry":{"type":"Point","coordinates":[47.78,13.02,430]},"properties":{"stationId":"LOWS","rawText":"LOWS 112150Z 23006KT 190V290 9999 FEW017 SCT028 BKN050 01/M02 Q1021 NOSIG","observationTime":"2018-12-11T21:50:00Z","temp":1,"dewpoint":-2,"windDirection":230,"windSpeed":11.112,"visibility":6.21,"altim":30.147638,"qualityControlFlag":"TRUE","skyCondition1a":"FEW","skyCondition1b":1700,"skyCondition2a":"SCT","skyCondition2b":2800,"flightCategory":"VFR","metarType":"METAR","geometry_esri":{"x":47.78,"y":13.02,"z":430}}}