{"type":"Feature","geometry":{"type":"Point","coordinates":[47.78,13.02,430]},"properties":{"stationId":"LOWS","rawText":"LOWS 071950Z 28004KT 9999 -RA FEW050 BKN090 08/06 Q1008 NOSIG","observationTime":"2018-12-07T19:50:00Z","temp":8,"dewpoint":6,"windDirection":280,"windSpeed":7.408,"visibility":6.21,"altim":29.763779,"qualityControlFlag":"TRUE","skyCondition1a":"FEW","skyCondition1b":5000,"skyCondition2a":"BKN","skyCondition2b":9000,"flightCategory":"VFR","metarType":"METAR","geometry_esri":{"x":47.78,"y":13.02,"z":430}}}