{"type":"Feature","geometry":{"type":"Point","coordinates":[47.78,13.02,430]},"properties":{"stationId":"LOWS","rawText":"LOWS 081750Z 25006KT 200V310 9999 FEW060 BKN080 09/M03 Q1012 NOSIG","observationTime":"2018-12-08T17:50:00Z","temp":9,"dewpoint":-3,"windDirection":250,"windSpeed":11.112,"visibility":6.21,"altim":29.88189,"qualityControlFlag":"TRUE","skyCondition1a":"FEW","skyCondition1b":6000,"skyCondition2a":"BKN","skyCondition2b":8000,"flightCategory":"VFR","metarType":"METAR","geometry_esri":{"x":47.78,"y":13.02,"z":430}}}