{"type":"Feature","geometry":{"type":"Point","coordinates":[47.78,13.02,430]},"properties":{"stationId":"LOWS","rawText":"LOWS 111450Z 25006KT 210V310 9999 VCSH FEW020 BKN060 01/M01 Q1021 NOSIG","observationTime":"2018-12-11T14:50:00Z","temp":1,"dewpoint":-1,"windDirection":250,"windSpeed":11.112,"visibility":6.21,"altim":30.147638,"qualityControlFlag":"TRUE","skyCondition1a":"FEW","skyCondition1b":2000,"skyCondition2a":"BKN","skyCondition2b":6000,"flightCategory":"VFR","metarType":"METAR","geometry_esri":{"x":47.78,"y":13.02,"z":430}}}