{"type":"Feature","geometry":{"type":"Point","coordinates":[47.78,13.02,430]},"properties":{"stationId":"LOWS","rawText":"LOWS 132120Z 04002KT 9999 FEW009 BKN018 M03/M05 Q1015 NOSIG","observationTime":"2018-12-13T21:20:00Z","temp":-3,"dewpoint":-5,"windDirection":40,"windSpeed":3.704,"visibility":6.21,"altim":29.970472,"flightCategory":"MVFR","metarType":"METAR","geometry_esri":{"x":47.78,"y":13.02,"z":430}}}