{"type":"Feature","geometry":{"type":"Point","coordinates":[47.78,13.02,430]},"properties":{"stationId":"LOWS","rawText":"LOWS 072050Z 35003KT 310V020 9999 FEW036 SCT040 BKN090 08/06 Q1009 NOSIG","observationTime":"2018-12-07T20:50:00Z","temp":8,"dewpoint":6,"windDirection":350,"windSpeed":5.556,"visibility":6.21,"altim":29.793306,"qualityControlFlag":"TRUE","skyCondition1a":"FEW","skyCondition1b":3600,"skyCondition2a":"SCT","skyCondition2b":4000,"flightCategory":"VFR","metarType":"METAR","geometry_esri":{"x":47.78,"y":13.02,"z":430}}}