{"type":"Feature","geometry":{"type":"Point","coordinates":[47.78,13.02,430]},"properties":{"stationId":"LOWS","rawText":"LOWS 121420Z 17005KT 150V210 8000 -SN FEW010 SCT022 BKN028 M00/M01 Q1021 NOSIG","observationTime":"2018-12-12T14:20:00Z","temp":0,"dewpoint":-1,"windDirection":170,"windSpeed":9.26,"visibility":4.97,"altim":30.147638,"qualityControlFlag":"TRUE","skyCondition1a":"FEW","skyCondition1b":1000,"skyCondition2a":"SCT","skyCondition2b":2200,"flightCategory":"MVFR","metarType":"METAR","geometry_esri":{"x":47.78,"y":13.02,"z":430}}}