{"type":"Feature","geometry":{"type":"Point","coordinates":[47.78,13.02,430]},"properties":{"stationId":"LOWS","rawText":"LOWS 131650Z 34004KT 9999 FEW012 BKN017 M02/M04 Q1014 R15/29//95 NOSIG","observationTime":"2018-12-13T16:50:00Z","temp":-2,"dewpoint":-4,"windDirection":340,"windSpeed":7.408,"visibility":6.21,"altim":29.940945,"flightCategory":"MVFR","metarType":"METAR","geometry_esri":{"x":47.78,"y":13.02,"z":430}}}