{"type":"Feature","geometry":{"type":"Point","coordinates":[47.78,13.02,430]},"properties":{"stationId":"LOWS","rawText":"LOWS 101450Z 27010G21KT 230V300 9999 VCSH FEW008 SCT017 BKN032 03/M00 Q1019 NOSIG","observationTime":"2018-12-10T14:50:00Z","temp":3,"dewpoint":0,"windDirection":270,"windSpeed":18.52,"visibility":6.21,"altim":30.088583,"qualityControlFlag":"TRUE","skyCondition1a":"FEW","skyCondition1b":800,"skyCondition2a":"SCT","skyCondition2b":1700,"flightCategory":"VFR","metarType":"METAR","geometry_esri":{"x":47.78,"y":13.02,"z":430}}}