{"type":"Feature","geometry":{"type":"Point","coordinates":[47.78,13.02,430]},"properties":{"stationId":"LOWS","rawText":"LOWS 111250Z 28013KT 250V310 9999 FEW025 SCT040 BKN060 03/M03 Q1020 NOSIG","observationTime":"2018-12-11T12:50:00Z","temp":3,"dewpoint":-3,"windDirection":280,"windSpeed":24.076,"visibility":6.21,"altim":30.11811,"qualityControlFlag":"TRUE","skyCondition1a":"FEW","skyCondition1b":2500,"skyCondition2a":"SCT","skyCondition2b":4000,"flightCategory":"VFR","metarType":"METAR","geometry_esri":{"x":47.78,"y":13.02,"z":430}}}