{"type":"Feature","geometry":{"type":"Point","coordinates":[47.78,13.02,430]},"properties":{"stationId":"LOWS","rawText":"LOWS 141250Z 25003KT 190V300 9999 FEW014 BKN019 M02/M06 Q1018 NOSIG","observationTime":"2018-12-14T12:50:00Z","temp":-2,"dewpoint":-6,"windDirection":250,"windSpeed":5.556,"visibility":6.21,"altim":30.059055,"flightCategory":"MVFR","metarType":"METAR","geometry_esri":{"x":47.78,"y":13.02,"z":430}}}