{"type":"Feature","geometry":{"type":"Point","coordinates":[48.35,11.82,447]},"properties":{"stationId":"EDDM","rawText":"EDDM 170450Z VRB01KT 4500 BR FEW004 OVC005 M02/M02 Q1017 R88/290095 NOSIG","observationTime":"2018-12-17T04:50:00Z","temp":-2,"dewpoint":-2,"windDirection":0,"windSpeed":1.852,"visibility":2.8,"altim":30.029528,"qualityControlFlag":"TRUE","skyCondition1a":"FEW","skyCondition1b":400,"skyCondition2a":"OVC","skyCondition2b":500,"flightCategory":"IFR","metarType":"METAR","geometry_esri":{"x":48.35,"y":11.82,"z":447}}}