{"type":"Feature","geometry":{"type":"Point","coordinates":[47.48,8.53,432]},"properties":{"stationId":"LSZH","rawText":"LSZH 191350Z VRB03KT 3500 BR FEW003 BKN110 02/01 Q1016 NOSIG","observationTime":"2018-12-19T13:50:00Z","temp":2,"dewpoint":1,"windDirection":0,"windSpeed":5.556,"visibility":2.17,"altim":30,"qualityControlFlag":"TRUE","skyCondition1a":"FEW","skyCondition1b":300,"skyCondition2a":"BKN","skyCondition2b":11000,"flightCategory":"IFR","metarType":"METAR","geometry_esri":{"x":47.48,"y":8.53,"z":432}}}