{"type":"Feature","geometry":{"type":"Point","coordinates":[47.78,13.02,430]},"properties":{"stationId":"LOWS","rawText":"LOWS 191450Z 14007KT 9999 FEW060 SCT130 BKN140 03/M03 Q1017 NOSIG","observationTime":"2018-12-19T14:50:00Z","temp":3,"dewpoint":-3,"windDirection":140,"windSpeed":12.964,"visibility":6.21,"altim":30.029528,"qualityControlFlag":"TRUE","skyCondition1a":"FEW","skyCondition1b":6000,"skyCondition2a":"SCT","skyCondition2b":13000,"flightCategory":"VFR","metarType":"METAR","geometry_esri":{"x":47.78,"y":13.02,"z":430}}}