{"type":"Feature","geometry":{"type":"Point","coordinates":[48.12,16.57,190]},"properties":{"stationId":"LOWW","rawText":"LOWW 191250Z 14015KT 9999 FEW015 SCT260 BKN300 01/M02 Q1022 R88/19//95 NOSIG","observationTime":"2018-12-19T12:50:00Z","temp":1,"dewpoint":-2,"windDirection":140,"windSpeed":27.78,"visibility":6.21,"altim":30.177166,"qualityControlFlag":"TRUE","skyCondition1a":"FEW","skyCondition1b":1500,"skyCondition2a":"SCT","skyCondition2b":26000,"flightCategory":"VFR","metarType":"METAR","geometry_esri":{"x":48.12,"y":16.57,"z":190}}}