{"type":"Feature","geometry":{"type":"Point","coordinates":[47.48,8.53,432]},"properties":{"stationId":"LSZH","rawText":"LSZH 140650Z VRB02KT 9999 FEW019 BKN085 M02/M06 Q1015 NOSIG","observationTime":"2018-12-14T06:50:00Z","temp":-2,"dewpoint":-6,"windDirection":0,"windSpeed":3.704,"visibility":6.21,"altim":29.970472,"qualityControlFlag":"TRUE","skyCondition1a":"FEW","skyCondition1b":1900,"skyCondition2a":"BKN","skyCondition2b":8500,"flightCategory":"VFR","metarType":"METAR","geometry_esri":{"x":47.48,"y":8.53,"z":432}}}