{"type":"Feature","geometry":{"type":"Point","coordinates":[47.48,8.53,432]},"properties":{"stationId":"LSZH","rawText":"LSZH 161450Z 15003KT 7000 FEW010 BKN035 BKN230 02/01 Q1014 R88/29//// NOSIG","observationTime":"2018-12-16T14:50:00Z","temp":2,"dewpoint":1,"windDirection":150,"windSpeed":5.556,"visibility":4.35,"altim":29.940945,"qualityControlFlag":"TRUE","skyCondition1a":"FEW","skyCondition1b":1000,"skyCondition2a":"BKN","skyCondition2b":3500,"flightCategory":"MVFR","metarType":"METAR","geometry_esri":{"x":47.48,"y":8.53,"z":432}}}