{"type":"Feature","geometry":{"type":"Point","coordinates":[47.48,8.53,432]},"properties":{"stationId":"LSZH","rawText":"LSZH 130850Z 14003KT 9999 FEW016 SCT032 M02/M06 Q1013 NOSIG","observationTime":"2018-12-13T08:50:00Z","temp":-2,"dewpoint":-6,"windDirection":140,"windSpeed":5.556,"visibility":6.21,"altim":29.911417,"qualityControlFlag":"TRUE","skyCondition1a":"FEW","skyCondition1b":1600,"skyCondition2a":"SCT","skyCondition2b":3200,"flightCategory":"VFR","metarType":"METAR","geometry_esri":{"x":47.48,"y":8.53,"z":432}}}