{"type":"Feature","geometry":{"type":"Point","coordinates":[47.48,8.53,432]},"properties":{"stationId":"LSZH","rawText":"LSZH 132050Z 04008KT 9999 -SN FEW020 BKN070 M00/M03 Q1013 R88/19//// NOSIG","observationTime":"2018-12-13T20:50:00Z","temp":0,"dewpoint":-3,"windDirection":40,"windSpeed":14.816,"visibility":6.21,"altim":29.911417,"qualityControlFlag":"TRUE","skyCondition1a":"FEW","skyCondition1b":2000,"skyCondition2a":"BKN","skyCondition2b":7000,"flightCategory":"VFR","metarType":"METAR","geometry_esri":{"x":47.48,"y":8.53,"z":432}}}