{"type":"Feature","geometry":{"type":"Point","coordinates":[47.48,8.53,432]},"properties":{"stationId":"LSZH","rawText":"LSZH 191850Z 15003KT 8000 -RA FEW005 SCT022 BKN035 03/02 Q1017 NOSIG","observationTime":"2018-12-19T18:50:00Z","temp":3,"dewpoint":2,"windDirection":150,"windSpeed":5.556,"visibility":4.97,"altim":30.029528,"qualityControlFlag":"TRUE","skyCondition1a":"FEW","skyCondition1b":500,"skyCondition2a":"SCT","skyCondition2b":2200,"flightCategory":"MVFR","metarType":"METAR","geometry_esri":{"x":47.48,"y":8.53,"z":432}}}