{"type":"Feature","geometry":{"type":"Point","coordinates":[48.35,11.82,447]},"properties":{"stationId":"EDDM","rawText":"EDDM 170750Z 12002KT 4000 1500NE BCFG BR FEW001 OVC004 M01/M01 Q1020 R88/290095 NOSIG","observationTime":"2018-12-17T07:50:00Z","temp":-1,"dewpoint":-1,"windDirection":120,"windSpeed":3.704,"visibility":2.49,"altim":30.11811,"qualityControlFlag":"TRUE","skyCondition1a":"FEW","skyCondition1b":100,"skyCondition2a":"OVC","skyCondition2b":400,"flightCategory":"LIFR","metarType":"METAR","geometry_esri":{"x":48.35,"y":11.82,"z":447}}}