{"type":"Feature","geometry":{"type":"Point","coordinates":[48.35,11.82,447]},"properties":{"stationId":"EDDM","rawText":"EDDM 151350Z 11007KT 9999 SCT021 BKN031 M02/M06 Q1023 NOSIG","observationTime":"2018-12-15T13:50:00Z","temp":-2,"dewpoint":-6,"windDirection":110,"windSpeed":12.964,"visibility":6.21,"altim":30.206694,"qualityControlFlag":"TRUE","skyCondition1a":"SCT","skyCondition1b":2100,"skyCondition2a":"BKN","skyCondition2b":3100,"flightCategory":"VFR","metarType":"METAR","geometry_esri":{"x":48.35,"y":11.82,"z":447}}}