{"type":"Feature","geometry":{"type":"Point","coordinates":[47.48,8.53,432]},"properties":{"stationId":"LSZH","rawText":"LSZH 141750Z 01004KT 330V040 9999 BKN028 SCT080 M01/M06 Q1020 NOSIG","observationTime":"2018-12-14T17:50:00Z","temp":-1,"dewpoint":-6,"windDirection":10,"windSpeed":7.408,"visibility":6.21,"altim":30.11811,"qualityControlFlag":"TRUE","skyCondition1a":"BKN","skyCondition1b":2800,"skyCondition2a":"SCT","skyCondition2b":8000,"flightCategory":"MVFR","metarType":"METAR","geometry_esri":{"x":47.48,"y":8.53,"z":432}}}