{"type":"Feature","geometry":{"type":"Point","coordinates":[48.12,16.57,190]},"properties":{"stationId":"LOWW","rawText":"LOWW 191150Z 14021KT 9000 SCT015 BKN300 01/M02 Q1022 R88/19//95 NOSIG","observationTime":"2018-12-19T11:50:00Z","temp":1,"dewpoint":-2,"windDirection":140,"windSpeed":38.892,"visibility":5.59,"altim":30.177166,"qualityControlFlag":"TRUE","skyCondition1a":"SCT","skyCondition1b":1500,"skyCondition2a":"BKN","skyCondition2b":30000,"flightCategory":"VFR","metarType":"METAR","geometry_esri":{"x":48.12,"y":16.57,"z":190}}}