{"type":"Feature","geometry":{"type":"Point","coordinates":[47.48,8.53,432]},"properties":{"stationId":"LSZH","rawText":"LSZH 130650Z 12003KT 9999 FEW015 BKN033 M04/M07 Q1014 NOSIG","observationTime":"2018-12-13T06:50:00Z","temp":-4,"dewpoint":-7,"windDirection":120,"windSpeed":5.556,"visibility":6.21,"altim":29.940945,"qualityControlFlag":"TRUE","skyCondition1a":"FEW","skyCondition1b":1500,"skyCondition2a":"BKN","skyCondition2b":3300,"flightCategory":"VFR","metarType":"METAR","geometry_esri":{"x":47.48,"y":8.53,"z":432}}}