{"type":"Feature","geometry":{"type":"Point","coordinates":[47.78,13.02,430]},"properties":{"stationId":"LOWS","rawText":"LOWS 171450Z 13003KT 090V170 9999 FEW038 BKN050 02/M03 Q1024 R15/19//95 NOSIG","observationTime":"2018-12-17T14:50:00Z","temp":2,"dewpoint":-3,"windDirection":130,"windSpeed":5.556,"visibility":6.21,"altim":30.236221,"qualityControlFlag":"TRUE","skyCondition1a":"FEW","skyCondition1b":3800,"skyCondition2a":"BKN","skyCondition2b":5000,"flightCategory":"VFR","metarType":"METAR","geometry_esri":{"x":47.78,"y":13.02,"z":430}}}