{"type":"Feature","geometry":{"type":"Point","coordinates":[47.48,8.53,432]},"properties":{"stationId":"LSZH","rawText":"LSZH 141050Z 03006KT 350V080 9999 FEW022 BKN080 M01/M06 Q1017 NOSIG","observationTime":"2018-12-14T10:50:00Z","temp":-1,"dewpoint":-6,"windDirection":30,"windSpeed":11.112,"visibility":6.21,"altim":30.029528,"qualityControlFlag":"TRUE","skyCondition1a":"FEW","skyCondition1b":2200,"skyCondition2a":"BKN","skyCondition2b":8000,"flightCategory":"VFR","metarType":"METAR","geometry_esri":{"x":47.48,"y":8.53,"z":432}}}