{"type":"Feature","geometry":{"type":"Point","coordinates":[47.78,13.02,430]},"properties":{"stationId":"LOWS","rawText":"LOWS 121750Z 15003KT 9000 -SN FEW013 SCT019 BKN022 M01/M01 Q1020 NOSIG","observationTime":"2018-12-12T17:50:00Z","temp":-1,"dewpoint":-1,"windDirection":150,"windSpeed":5.556,"visibility":5.59,"altim":30.11811,"qualityControlFlag":"TRUE","skyCondition1a":"FEW","skyCondition1b":1300,"skyCondition2a":"SCT","skyCondition2b":1900,"flightCategory":"MVFR","metarType":"METAR","geometry_esri":{"x":47.78,"y":13.02,"z":430}}}