{"type":"Feature","geometry":{"type":"Point","coordinates":[47.78,13.02,430]},"properties":{"stationId":"LOWS","rawText":"LOWS 131450Z 33004KT 300V010 9999 FEW009 BKN016 M01/M03 Q1014 R15/29//95 NOSIG","observationTime":"2018-12-13T14:50:00Z","temp":-1,"dewpoint":-3,"windDirection":330,"windSpeed":7.408,"visibility":6.21,"altim":29.940945,"qualityControlFlag":"TRUE","skyCondition1a":"FEW","skyCondition1b":900,"skyCondition2a":"BKN","skyCondition2b":1600,"flightCategory":"MVFR","metarType":"METAR","geometry_esri":{"x":47.78,"y":13.02,"z":430}}}