{"type":"Feature","geometry":{"type":"Point","coordinates":[48.22,14.18,313]},"properties":{"stationId":"LOWL","rawText":"LOWL 010020Z 12004KT 9999 FEW035 SCT069 M01/M03 Q1025 NOSIG","observationTime":"2020-04-01T00:20:00Z","temp":-1,"dewpoint":-3,"windDirection":120,"windSpeed":7.408,"visibility":6.21,"altim":30.265747,"qualityControlFlag":"TRUE","skyCondition1a":"FEW","skyCondition1b":3500,"skyCondition2a":"SCT","skyCondition2b":6900,"flightCategory":"VFR","metarType":"METAR","geometry_esri":{"x":48.22,"y":14.18,"z":313}}}