{"type":"Feature","geometry":{"type":"Point","coordinates":[48.22,14.18,313]},"properties":{"stationId":"LOWL","rawText":"LOWL 151150Z 28007KT 9999 FEW013 BKN050 M01/M04 Q1024 R08/19//95 NOSIG","observationTime":"2018-12-15T11:50:00Z","temp":-1,"dewpoint":-4,"windDirection":280,"windSpeed":12.964,"visibility":6.21,"altim":30.236221,"qualityControlFlag":"TRUE","skyCondition1a":"FEW","skyCondition1b":1300,"skyCondition2a":"BKN","skyCondition2b":5000,"flightCategory":"VFR","metarType":"SPECI","geometry_esri":{"x":48.22,"y":14.18,"z":313}}}