{"type":"Feature","geometry":{"type":"Point","coordinates":[48.22,14.18,313]},"properties":{"stationId":"LOWL","rawText":"LOWL 292350Z 07006KT 9999 -SHRA FEW020 SCT038 BKN068 07/05 Q1025 NOSIG","observationTime":"2019-10-29T23:50:00Z","temp":7,"dewpoint":5,"windDirection":70,"windSpeed":11.112,"visibility":6.21,"altim":30.265747,"qualityControlFlag":"TRUE","skyCondition1a":"FEW","skyCondition1b":2000,"skyCondition2a":"SCT","skyCondition2b":3800,"flightCategory":"VFR","metarType":"METAR","geometry_esri":{"x":48.22,"y":14.18,"z":313}}}